{
  "osm3s": {
    "timestamp_osm_date": "2021-08-31T23:59:59Z",
    "timestamp_osm_base": "2021-09-01T05:50:08Z",
    "copyright": "The data included in this document is from www.openstreetmap.org. The data is made available under ODbL."
  },
  "elements": [
    {
      "type": "node",
      "id": 1356458976,
      "lat": 69.2967089,
      "lon": 21.5033438,
      "timestamp": "2018-06-29T09:27:30Z",
      "version": 7,
      "changeset": 60272651,
      "user": "JyriK",
      "uid": 22190,
      "tags": {
        "capacity": "4",
        "designation": "DNT (locked)",
        "dnt:classification": "ubetjent",
        "dnt:iid": "1299",
        "name": "Somashytta",
        "network": "Den Norske Turistforening",
        "service": "no",
        "source": "Den Norske Turistforening",
        "source:date": "2010-05-28 11:39:50",
        "tourism": "wilderness_hut",
        "website": "http://ut.no/hytte/somashytta"
      }
    },
    {
      "type": "node",
      "id": 2312954099,
      "lat": 69.2553176,
      "lon": 21.281243,
      "timestamp": "2020-11-05T10:16:16Z",
      "version": 3,
      "changeset": 93595236,
      "user": "|Yucca|",
      "uid": 3391786,
      "tags": {
        "natural": "spring",
        "source": "MML Maastokartta"
      }
    },
    {
      "type": "node",
      "id": 2312954123,
      "lat": 69.2397737,
      "lon": 21.2850196,
      "timestamp": "2019-07-30T17:09:19Z",
      "version": 2,
      "changeset": 72822257,
      "user": "tesp",
      "uid": 5441080,
      "tags": {
        "natural": "spring",
        "source": "MML Maastokartta"
      }
    },
    {
      "type": "node",
      "id": 2312963528,
      "lat": 69.235514,
      "lon": 21.2891824,
      "timestamp": "2019-07-30T17:09:19Z",
      "version": 2,
      "changeset": 72822257,
      "user": "tesp",
      "uid": 5441080,
      "tags": {
        "natural": "spring",
        "source": "MML Maastokartta"
      }
    },
    {
      "type": "node",
      "id": 4624482831,
      "lat": 69.3080614,
      "lon": 21.263321,
      "timestamp": "2021-01-21T17:00:02Z",
      "version": 6,
      "changeset": 97918828,
      "user": "frspp",
      "uid": 76015,
      "tags": {
        "alt_name": "Haltia;Haltitunturi;Halti fell",
        "ele": "1328",
        "name": "Halti",
        "name:fi": "Halti",
        "name:se": "Háldičokkha",
        "name:sv": "Halde fjäll",
        "natural": "peak",
        "old_name": "Haltiotunturi",
        "wikidata": "Q216035",
        "wikipedia": "fi:Halti"
      }
    },
    {
      "type": "node",
      "id": 4624482832,
      "lat": 69.2877811,
      "lon": 21.338448,
      "timestamp": "2019-08-05T11:51:04Z",
      "version": 3,
      "changeset": 73019354,
      "user": "tesp",
      "uid": 5441080,
      "tags": {
        "ele": "1317",
        "man_made": "cairn",
        "name": "Ritničohkka",
        "name:fi": "Ridnitšohkka",
        "natural": "peak",
        "wikidata": "Q952552",
        "wikipedia": "fi:Ridnitšohkka"
      }
    },
    {
      "type": "node",
      "id": 5705598990,
      "lat": 69.2863292,
      "lon": 21.2680672,
      "timestamp": "2019-03-18T01:16:19Z",
      "version": 2,
      "changeset": 68243653,
      "user": "b-jazz-bot",
      "uid": 9451067,
      "tags": {
        "addr:city": "Enontekiö",
        "capacity": "8",
        "fee": "no",
        "fireplace": "stove",
        "gas": "yes",
        "name": "Halti autiotupa",
        "operator": "Metsähallitus",
        "pets": "allowed",
        "tourism": "wilderness_hut",
        "website": "https://www.luontoon.fi/haltiautiotupavaraustuvanyhteydessa"
      }
    },
    {
      "type": "node",
      "id": 5715666846,
      "lat": 69.269709,
      "lon": 21.5105855,
      "timestamp": "2018-06-24T16:30:58Z",
      "version": 1,
      "changeset": 60124826,
      "user": "JyriK",
      "uid": 22190,
      "tags": {
        "natural": "spring"
      }
    },
    {
      "type": "node",
      "id": 5715666847,
      "lat": 69.2688223,
      "lon": 21.509957,
      "timestamp": "2018-06-24T16:30:58Z",
      "version": 1,
      "changeset": 60124826,
      "user": "JyriK",
      "uid": 22190,
      "tags": {
        "natural": "spring"
      }
    },
    {
      "type": "node",
      "id": 5717117664,
      "lat": 69.2168839,
      "lon": 21.1023324,
      "timestamp": "2018-06-25T08:55:42Z",
      "version": 1,
      "changeset": 60141715,
      "user": "JyriK",
      "uid": 22190,
      "tags": {
        "natural": "spring"
      }
    },
    {
      "type": "node",
      "id": 6855453487,
      "lat": 69.2311873,
      "lon": 21.2893058,
      "timestamp": "2019-10-06T14:30:41Z",
      "version": 1,
      "changeset": 75342362,
      "user": "JyriK",
      "uid": 22190,
      "tags": {
        "access": "yes",
        "addr:city": "Enontekiö",
        "building": "cabin",
        "building:levels": "1",
        "capacity": "10",
        "ele": "745",
        "fee": "yes",
        "fireplace": "stove",
        "gas": "yes",
        "mattress": "yes",
        "name": "Pihtsusjärvi varaustupa",
        "name:en": "Pihtsusjärvi wilderness hut",
        "operator": "Metsähallitus",
        "phone": "0205 64 7950",
        "reservation": "required",
        "shower": "no",
        "toilets": "yes",
        "tourism": "wilderness_hut",
        "website": "https://www.luontoon.fi/pihtsusjarvivaraustupa"
      }
    },
    {
      "type": "node",
      "id": 8077090544,
      "lat": 69.1907368,
      "lon": 21.2694794,
      "timestamp": "2020-11-03T08:19:18Z",
      "version": 1,
      "changeset": 93465589,
      "user": "|Yucca|",
      "uid": 3391786,
      "tags": {
        "natural": "spring"
      }
    },
    {
      "type": "node",
      "id": 8077090603,
      "lat": 69.1935963,
      "lon": 21.2618426,
      "timestamp": "2020-11-03T08:19:18Z",
      "version": 1,
      "changeset": 93465589,
      "user": "|Yucca|",
      "uid": 3391786,
      "tags": {
        "natural": "spring"
      }
    },
    {
      "type": "node",
      "id": 8077090610,
      "lat": 69.1936376,
      "lon": 21.263057,
      "timestamp": "2020-11-03T08:19:18Z",
      "version": 1,
      "changeset": 93465589,
      "user": "|Yucca|",
      "uid": 3391786,
      "tags": {
        "natural": "spring"
      }
    },
    {
      "type": "node",
      "id": 8106224262,
      "lat": 69.2013836,
      "lon": 21.4478651,
      "timestamp": "2020-11-11T07:43:46Z",
      "version": 1,
      "changeset": 93906805,
      "user": "|Yucca|",
      "uid": 3391786,
      "tags": {
        "natural": "spring"
      }
    },
    {
      "type": "node",
      "id": 8107286041,
      "lat": 69.2043327,
      "lon": 21.4374611,
      "timestamp": "2020-11-11T08:47:42Z",
      "version": 1,
      "changeset": 93910919,
      "user": "|Yucca|",
      "uid": 3391786,
      "tags": {
        "natural": "spring"
      }
    },
    {
      "type": "node",
      "id": 8107286395,
      "lat": 69.1998985,
      "lon": 21.4477291,
      "timestamp": "2020-11-11T08:47:42Z",
      "version": 1,
      "changeset": 93910919,
      "user": "|Yucca|",
      "uid": 3391786,
      "tags": {
        "natural": "spring"
      }
    },
    {
      "type": "node",
      "id": 8107286399,
      "lat": 69.1993758,
      "lon": 21.4458351,
      "timestamp": "2020-11-11T08:47:42Z",
      "version": 1,
      "changeset": 93910919,
      "user": "|Yucca|",
      "uid": 3391786,
      "tags": {
        "natural": "spring"
      }
    },
    {
      "type": "node",
      "id": 8107286548,
      "lat": 69.1994634,
      "lon": 21.4488443,
      "timestamp": "2020-11-11T08:47:42Z",
      "version": 1,
      "changeset": 93910919,
      "user": "|Yucca|",
      "uid": 3391786,
      "tags": {
        "natural": "spring"
      }
    },
    {
      "type": "node",
      "id": 8137075604,
      "lat": 69.2095271,
      "lon": 21.5597968,
      "timestamp": "2020-11-18T11:08:39Z",
      "version": 1,
      "changeset": 94355742,
      "user": "|Yucca|",
      "uid": 3391786,
      "tags": {
        "natural": "spring"
      }
    },
    {
      "type": "node",
      "id": 8137075897,
      "lat": 69.209581,
      "lon": 21.56016,
      "timestamp": "2020-11-18T11:08:39Z",
      "version": 1,
      "changeset": 94355742,
      "user": "|Yucca|",
      "uid": 3391786,
      "tags": {
        "natural": "spring"
      }
    },
    {
      "type": "node",
      "id": 9034154373,
      "lat": 69.1673746,
      "lon": 21.711958,
      "timestamp": "2021-08-25T07:47:56Z",
      "version": 1,
      "changeset": 110212378,
      "user": "|Yucca|",
      "uid": 3391786,
      "tags": {
        "natural": "spring"
      }
    },
    {
      "type": "way",
      "id": 321501894,
      "timestamp": "2019-04-25T18:42:48Z",
      "version": 6,
      "changeset": 69577133,
      "user": "pangoSE",
      "uid": 987207,
      "center": {
        "lat": 69.2311517,
        "lon": 21.2893565
      },
      "nodes": [],
      "tags": {
        "access": "yes",
        "addr:city": "Enontekiö",
        "building": "cabin",
        "building:levels": "1",
        "capacity": "10",
        "ele": "745",
        "fireplace": "stove",
        "gas": "yes",
        "mattress": "no",
        "name": "Pihtsusjärvi autiotupa",
        "name:en": "Pihtsusjärvi wilderness hut",
        "name:sv": "Pihtsusjärvi ödestuga",
        "operator": "Metsähallitus",
        "phone": "0205 64 7950",
        "reservation": "no",
        "shower": "no",
        "toilets": "yes",
        "tourism": "wilderness_hut",
        "website": "https://www.luontoon.fi/pihtsusjarviautiotupa"
      }
    },
    {
      "type": "way",
      "id": 342684402,
      "timestamp": "2019-04-25T17:07:58Z",
      "version": 5,
      "changeset": 69573969,
      "user": "pangoSE",
      "uid": 987207,
      "center": {
        "lat": 69.2698925,
        "lon": 21.49669
      },
      "nodes": [],
      "tags": {
        "addr:city": "Enontekiö",
        "building": "cabin",
        "building:levels": "1",
        "capacity": "6",
        "fee": "no",
        "fireplace": "stove",
        "gas": "yes",
        "name": "Kopmajoki autiotupa",
        "name:en": "Kopmajoki wilderness hut",
        "name:sv": "Kopmajoki ödestuga",
        "operator": "Metsähallitus",
        "pets": "allowed",
        "phone": "0205 64 7950",
        "reservation": "no",
        "tourism": "wilderness_hut",
        "website": "https://www.luontoon.fi/kopmajokiautiotupa",
        "website:sv": "https://www.utinaturen.fi/kopmajokiodestuga"
      }
    },
    {
      "type": "way",
      "id": 352341374,
      "timestamp": "2019-03-25T22:43:16Z",
      "version": 5,
      "changeset": 68526014,
      "user": "b-jazz-bot",
      "uid": 9451067,
      "center": {
        "lat": 69.2846509,
        "lon": 21.2658379
      },
      "nodes": [],
      "tags": {
        "access": "yes",
        "addr:city": "Enontekiö",
        "building": "cabin",
        "building:levels": "1",
        "capacity": "4",
        "fee": "no",
        "fireplace": "stove",
        "gas": "yes",
        "mattress": "no",
        "name": "Halti, vanha autiotupa",
        "operator": "Metsähallitus",
        "pets": "allowed",
        "reservation": "no",
        "shower": "no",
        "tourism": "wilderness_hut",
        "website": "https://www.luontoon.fi/haltivanhaautiotupa"
      }
    },
    {
      "type": "way",
      "id": 352341376,
      "timestamp": "2019-03-18T01:16:17Z",
      "version": 5,
      "changeset": 68243653,
      "user": "b-jazz-bot",
      "uid": 9451067,
      "center": {
        "lat": 69.2863163,
        "lon": 21.2681983
      },
      "nodes": [],
      "tags": {
        "access": "yes",
        "addr:city": "Enontekiö",
        "building": "cabin",
        "building:levels": "1",
        "capacity": "12",
        "fireplace": "stove",
        "gas": "yes",
        "mattress": "yes",
        "name": "Halti varaustupa",
        "operator": "Metsähallitus",
        "pets": "no",
        "reservation": "required",
        "shower": "no",
        "toilets": "yes",
        "tourism": "wilderness_hut",
        "website": "https://www.luontoon.fi/haltivaraustupa"
      }
    },
    {
      "type": "way",
      "id": 467847165,
      "timestamp": "2018-06-28T13:06:27Z",
      "version": 2,
      "changeset": 60248829,
      "user": "JyriK",
      "uid": 22190,
      "center": {
        "lat": 69.2026472,
        "lon": 21.1892883
      },
      "nodes": [],
      "tags": {
        "access": "yes",
        "addr:city": "Enontekiö",
        "building": "hut",
        "capacity": "2",
        "description": "No woodshed, so no firewood. Private but open for all.",
        "fee": "no",
        "mattress": "no",
        "name": "Urtashotelli",
        "name:fi": "Urtashotelli",
        "reservation": "no",
        "shower": "no",
        "toilets": "yes",
        "tourism": "wilderness_hut",
        "website": "http://www.patikka.net/Tupaluettelot/kasivarsi/tuvat/urtashotelli.htm"
      }
    },
    {
      "type": "way",
      "id": 552619943,
      "timestamp": "2021-05-29T20:32:09Z",
      "version": 4,
      "changeset": 105547519,
      "user": "NKA",
      "uid": 3497659,
      "center": {
        "lat": 69.2967025,
        "lon": 21.5033497
      },
      "nodes": [],
      "tags": {
        "building": "cabin",
        "building:levels": "1",
        "fee": "no",
        "name": "Somashytta",
        "ref:bygningsnr": "192180155",
        "tourism": "wilderness_hut"
      }
    },
    {
      "type": "way",
      "id": 659142663,
      "timestamp": "2021-05-29T20:32:09Z",
      "version": 2,
      "changeset": 105547519,
      "user": "NKA",
      "uid": 3497659,
      "center": {
        "lat": 69.403056,
        "lon": 21.715994
      },
      "nodes": [],
      "tags": {
        "building": "cabin",
        "name": "Sieimahytta",
        "ref:bygningsnr": "192221803",
        "tourism": "alpine_hut"
      }
    },
    {
      "type": "way",
      "id": 877454520,
      "timestamp": "2021-05-29T20:32:09Z",
      "version": 3,
      "changeset": 105547519,
      "user": "NKA",
      "uid": 3497659,
      "center": {
        "lat": 69.1814585,
        "lon": 21.7850087
      },
      "nodes": [],
      "tags": {
        "building": "cabin",
        "fee": "no",
        "name": "Sidusgophihytta",
        "ref:bygningsnr": "192180147",
        "tourism": "wilderness_hut"
      }
    }
  ]
}