{
  "osm3s": {
    "timestamp_osm_date": "2021-07-26T23:59:59Z",
    "timestamp_osm_base": "2021-07-27T05:11:40Z",
    "copyright": "The data included in this document is from www.openstreetmap.org. The data is made available under ODbL."
  },
  "elements": [
    {
      "type": "node",
      "id": 2312976413,
      "lat": 69.0168818,
      "lon": 21.7297542,
      "timestamp": "2018-06-26T06:31:32Z",
      "version": 3,
      "changeset": 60169663,
      "user": "JyriK",
      "uid": 22190,
      "tags": {
        "addr:city": "Enontekiö",
        "addr:country": "FI",
        "ele": "545",
        "name": "Raittijärvi",
        "place": "hamlet",
        "population": "<50",
        "source": "MML",
        "wikidata": "Q12266432",
        "wikipedia": "fi:Raittijärvi"
      }
    },
    {
      "type": "node",
      "id": 3581077481,
      "lat": 69.1463945,
      "lon": 21.5851306,
      "timestamp": "2019-03-25T22:43:27Z",
      "version": 4,
      "changeset": 68526016,
      "user": "b-jazz-bot",
      "uid": 9451067,
      "tags": {
        "addr:city": "Enontekiö",
        "capacity": "4",
        "ele": "590",
        "fee": "yes",
        "fixme": "Location",
        "name": "Porojärvi vuokratupa",
        "operator": "Metsähallitus",
        "phone": "0205 64 7950",
        "reservation": "required",
        "tourism": "wilderness_hut",
        "website": "https://www.luontoon.fi/porojarvivuokratupa"
      }
    },
    {
      "type": "node",
      "id": 5704017007,
      "lat": 69.0270277,
      "lon": 21.228389,
      "timestamp": "2019-03-18T01:16:20Z",
      "version": 2,
      "changeset": 68243653,
      "user": "b-jazz-bot",
      "uid": 9451067,
      "tags": {
        "addr:city": "Enontekiö",
        "capacity": "10",
        "fee": "yes",
        "fireplace": "stove",
        "gas": "yes",
        "name": "Termisjärvi varaustupa",
        "operator": "Metsähallitus",
        "reservation": "required",
        "tourism": "wilderness_hut",
        "website": "https://www.luontoon.fi/termisjarvivaraustupa"
      }
    },
    {
      "type": "node",
      "id": 5715214682,
      "lat": 69.146505,
      "lon": 21.5862899,
      "timestamp": "2019-03-25T22:43:27Z",
      "version": 3,
      "changeset": 68526016,
      "user": "b-jazz-bot",
      "uid": 9451067,
      "tags": {
        "addr:city": "Enontekiö",
        "alt_name": "Kekkosen kämppä",
        "fee": "yes",
        "fixme": "Location",
        "historic": "building",
        "name": "UKK-kämppä",
        "operator": "Metsähallitus",
        "reservation": "required",
        "tourism": "wilderness_hut",
        "website": "https://www.luontoon.fi/porojarvivuokratupa"
      }
    },
    {
      "type": "node",
      "id": 5716728209,
      "lat": 69.1493528,
      "lon": 21.3874961,
      "timestamp": "2021-01-21T17:00:02Z",
      "version": 3,
      "changeset": 97918828,
      "user": "frspp",
      "uid": 76015,
      "tags": {
        "ele": "830",
        "name": "Saivaara",
        "natural": "peak",
        "wikidata": "Q11891949",
        "wikipedia": "fi:Saivaara"
      }
    },
    {
      "type": "node",
      "id": 6853841189,
      "lat": 69.1018587,
      "lon": 21.2192928,
      "timestamp": "2019-10-05T16:31:11Z",
      "version": 1,
      "changeset": 75322982,
      "user": "JyriK",
      "uid": 22190,
      "tags": {
        "addr:city": "Enontekiö",
        "building": "cabin",
        "building:levels": "1",
        "capacity": "10",
        "charge": "12€/night/person",
        "ele": "850",
        "fee": "yes",
        "fireplace": "stove",
        "gas": "yes",
        "name": "Kuonjarjoki varaustupa",
        "name:en": "Kuonjarjoki wilderness hut",
        "name:sv": "Kuonjarjoki ödestuga",
        "operator": "Metsähallitus",
        "payment:credit_cards": "yes",
        "pets": "no",
        "reservation": "required",
        "tourism": "wilderness_hut",
        "website": "https://www.luontoon.fi/kuonjarjokivaraustupa"
      }
    },
    {
      "type": "node",
      "id": 7542300683,
      "lat": 69.0715892,
      "lon": 21.7695162,
      "timestamp": "2020-05-20T20:16:06Z",
      "version": 1,
      "changeset": 85516911,
      "user": "JyriK",
      "uid": 22190,
      "tags": {
        "natural": "spring"
      }
    },
    {
      "type": "node",
      "id": 7542300684,
      "lat": 69.0705755,
      "lon": 21.7676167,
      "timestamp": "2020-05-20T20:16:06Z",
      "version": 1,
      "changeset": 85516911,
      "user": "JyriK",
      "uid": 22190,
      "tags": {
        "natural": "spring"
      }
    },
    {
      "type": "node",
      "id": 7991987356,
      "lat": 68.9896701,
      "lon": 21.1793419,
      "timestamp": "2020-10-09T11:38:16Z",
      "version": 1,
      "changeset": 92234415,
      "user": "|Yucca|",
      "uid": 3391786,
      "tags": {
        "natural": "spring"
      }
    },
    {
      "type": "node",
      "id": 7992015247,
      "lat": 68.979132,
      "lon": 21.2160562,
      "timestamp": "2020-10-09T11:46:57Z",
      "version": 1,
      "changeset": 92234922,
      "user": "|Yucca|",
      "uid": 3391786,
      "tags": {
        "natural": "spring"
      }
    },
    {
      "type": "node",
      "id": 7999864486,
      "lat": 68.9595125,
      "lon": 21.1262761,
      "timestamp": "2020-10-12T11:18:40Z",
      "version": 1,
      "changeset": 92349929,
      "user": "|Yucca|",
      "uid": 3391786,
      "tags": {
        "natural": "spring"
      }
    },
    {
      "type": "node",
      "id": 8000198402,
      "lat": 68.9256348,
      "lon": 21.1743613,
      "timestamp": "2020-10-12T13:04:28Z",
      "version": 1,
      "changeset": 92357157,
      "user": "|Yucca|",
      "uid": 3391786,
      "tags": {
        "natural": "spring"
      }
    },
    {
      "type": "node",
      "id": 8005633383,
      "lat": 69.017753,
      "lon": 21.1660727,
      "timestamp": "2020-10-14T06:38:05Z",
      "version": 1,
      "changeset": 92452610,
      "user": "|Yucca|",
      "uid": 3391786,
      "tags": {
        "natural": "spring"
      }
    },
    {
      "type": "node",
      "id": 8087265322,
      "lat": 69.1466893,
      "lon": 21.345975,
      "timestamp": "2020-11-06T07:43:57Z",
      "version": 1,
      "changeset": 93646782,
      "user": "|Yucca|",
      "uid": 3391786,
      "tags": {
        "natural": "spring"
      }
    },
    {
      "type": "node",
      "id": 8087265425,
      "lat": 69.1462163,
      "lon": 21.3451639,
      "timestamp": "2020-11-06T07:43:57Z",
      "version": 1,
      "changeset": 93646782,
      "user": "|Yucca|",
      "uid": 3391786,
      "tags": {
        "natural": "spring"
      }
    },
    {
      "type": "node",
      "id": 8087265426,
      "lat": 69.1471902,
      "lon": 21.3484798,
      "timestamp": "2020-11-06T07:43:57Z",
      "version": 1,
      "changeset": 93646782,
      "user": "|Yucca|",
      "uid": 3391786,
      "tags": {
        "natural": "spring"
      }
    },
    {
      "type": "node",
      "id": 8087265589,
      "lat": 69.153673,
      "lon": 21.3306402,
      "timestamp": "2020-11-06T07:43:57Z",
      "version": 1,
      "changeset": 93646782,
      "user": "|Yucca|",
      "uid": 3391786,
      "tags": {
        "natural": "spring"
      }
    },
    {
      "type": "node",
      "id": 8087265692,
      "lat": 69.1603489,
      "lon": 21.2821597,
      "timestamp": "2020-11-06T07:43:57Z",
      "version": 1,
      "changeset": 93646782,
      "user": "|Yucca|",
      "uid": 3391786,
      "tags": {
        "natural": "spring"
      }
    },
    {
      "type": "way",
      "id": 355321728,
      "timestamp": "2019-10-05T15:44:32Z",
      "version": 7,
      "changeset": 75321889,
      "user": "JyriK",
      "uid": 22190,
      "center": {
        "lat": 69.1018774,
        "lon": 21.2191412
      },
      "nodes": [],
      "tags": {
        "addr:city": "Enontekiö",
        "building": "cabin",
        "building:levels": "1",
        "capacity": "10",
        "ele": "850",
        "fee": "no",
        "fireplace": "stove",
        "gas": "yes",
        "name": "Kuonjarjoki autiotupa",
        "name:en": "Kuonjarjoki wilderness hut",
        "name:sv": "Kuonjarjoki ödestuga",
        "operator": "Metsähallitus",
        "pets": "no",
        "reservation": "no",
        "tourism": "wilderness_hut",
        "website": "https://www.luontoon.fi/kuonjarjokivaraustupa"
      }
    },
    {
      "type": "way",
      "id": 355321731,
      "timestamp": "2019-03-25T22:43:37Z",
      "version": 3,
      "changeset": 68526020,
      "user": "b-jazz-bot",
      "uid": 9451067,
      "center": {
        "lat": 69.1561623,
        "lon": 21.7579463
      },
      "nodes": [],
      "tags": {
        "addr:city": "Enontekiö",
        "building": "cabin",
        "building:levels": "1",
        "capacity": "4",
        "ele": "640",
        "fee": "no",
        "fireplace": "stove",
        "fixme": "Fix elevation",
        "name": "Taapmajärvi autiotupa",
        "operator": "Metsähallitus",
        "pets": "allowed",
        "phone": "0205 64 7950",
        "reservation": "no",
        "tourism": "wilderness_hut",
        "website": "https://www.luontoon.fi/taapmajarviautiotupa"
      }
    },
    {
      "type": "way",
      "id": 355321732,
      "timestamp": "2019-03-18T01:16:15Z",
      "version": 5,
      "changeset": 68243653,
      "user": "b-jazz-bot",
      "uid": 9451067,
      "center": {
        "lat": 69.0270283,
        "lon": 21.2282097
      },
      "nodes": [],
      "tags": {
        "addr:city": "Enontekiö",
        "building": "cabin",
        "building:levels": "1",
        "capacity": "8",
        "fee": "no",
        "fireplace": "stove",
        "name": "Termisjärvi autiotupa",
        "operator": "Metsähallitus",
        "pets": "allowed",
        "phone": "0205 64 7950",
        "reservation": "no",
        "snowmobile": "yes",
        "tourism": "wilderness_hut",
        "website": "https://www.luontoon.fi/termisjarviautiotupa"
      }
    },
    {
      "type": "way",
      "id": 599760544,
      "timestamp": "2019-10-05T17:02:26Z",
      "version": 5,
      "changeset": 75323631,
      "user": "JyriK",
      "uid": 22190,
      "center": {
        "lat": 69.1614427,
        "lon": 21.3427892
      },
      "nodes": [],
      "tags": {
        "access": "no",
        "addr:city": "Enontekiö",
        "building": "cabin",
        "building:levels": "1",
        "designation": "Varaustupa",
        "fee": "yes",
        "height": "4",
        "internet_access": "no",
        "name": "Meekonjärvi vuokratupa",
        "operator": "Metsähallitus",
        "reservation": "required",
        "source": "GPS",
        "tourism": "alpine_hut",
        "website": "https://www.luontoon.fi/meekonjarvivuokratupa"
      }
    },
    {
      "type": "way",
      "id": 599760548,
      "timestamp": "2019-10-05T17:02:26Z",
      "version": 4,
      "changeset": 75323631,
      "user": "JyriK",
      "uid": 22190,
      "center": {
        "lat": 69.1620148,
        "lon": 21.3424876
      },
      "nodes": [],
      "tags": {
        "addr:city": "Enontekiö",
        "building": "cabin",
        "building:levels": "1",
        "capacity": "8",
        "description": "Reservation: Kilpisjärvi Nature Center , tel. +46 206 39 7990 or Fell Lapplands Naturcenter , Peuratie 15, Enontekiö, tfn +358 206 39 7950.",
        "description:2019": "Closed for renovations 6-17 may 2019.",
        "fee": "yes",
        "fireplace": "stove",
        "gas": "yes",
        "height": "4",
        "name": "Meekonjärvi varaustupa",
        "operator": "Metsähallitus",
        "reservation": "required",
        "tourism": "wilderness_hut",
        "website": "https://www.luontoon.fi/meekonjarvivaraustupa"
      }
    },
    {
      "type": "way",
      "id": 599760551,
      "timestamp": "2019-10-05T16:55:05Z",
      "version": 3,
      "changeset": 75323479,
      "user": "JyriK",
      "uid": 22190,
      "center": {
        "lat": 69.159935,
        "lon": 21.3502217
      },
      "nodes": [],
      "tags": {
        "addr:city": "Enontekiö",
        "building": "cabin",
        "building:levels": "1",
        "capacity": "6",
        "fee": "no",
        "fireplace": "stove",
        "gas": "yes",
        "name": "Meekonjärvi autiotupa",
        "operator": "Metsähallitus",
        "pets": "allowed",
        "phone": "0205 64 7950",
        "reservation": "no",
        "tourism": "wilderness_hut",
        "website": "https://www.luontoon.fi/meekonjarviautiotupa"
      }
    },
    {
      "type": "way",
      "id": 599924332,
      "timestamp": "2019-03-25T22:43:33Z",
      "version": 2,
      "changeset": 68526020,
      "user": "b-jazz-bot",
      "uid": 9451067,
      "center": {
        "lat": 69.1549786,
        "lon": 21.4820443
      },
      "nodes": [],
      "tags": {
        "addr:city": "Enontekiö",
        "building": "cabin",
        "building:levels": "1",
        "capacity": "4",
        "ele": "590",
        "fireplace": "yes",
        "historic": "building",
        "name": "Jogasjärvi autiotupa",
        "operator": "Metsähallitus",
        "pets": "allowed",
        "phone": "0205 64 7950",
        "reservation": "no",
        "tourism": "wilderness_hut",
        "website": "https://www.luontoon.fi/jogasjarviautiotupa"
      }
    },
    {
      "type": "way",
      "id": 599924334,
      "timestamp": "2018-06-20T17:44:20Z",
      "version": 1,
      "changeset": 60017851,
      "user": "JyriK",
      "uid": 22190,
      "center": {
        "lat": 69.1546113,
        "lon": 21.4826714
      },
      "nodes": [],
      "tags": {
        "addr:city": "Enontekiö",
        "building": "cabin",
        "building:levels": "1",
        "capacity": "4",
        "fee": "yes",
        "fireplace": "stove",
        "gas": "yes",
        "name": "Jogasjärvi varaustupa",
        "operator": "Metsähallitus",
        "reservation": "required",
        "tourism": "wilderness_hut",
        "url": "http://www.luontoon.fi/jogasjarvivuokratupa"
      }
    },
    {
      "type": "way",
      "id": 601304930,
      "timestamp": "2019-03-25T22:43:24Z",
      "version": 2,
      "changeset": 68526016,
      "user": "b-jazz-bot",
      "uid": 9451067,
      "center": {
        "lat": 69.1489384,
        "lon": 21.5618125
      },
      "nodes": [],
      "tags": {
        "addr:city": "Enontekiö",
        "building": "cabin",
        "building:levels": "1",
        "capacity": "6",
        "fireplace": "stove",
        "name": "Porojärvi autiotupa",
        "operator": "Metsähallitus",
        "pets": "allowed",
        "phone": "0205 64 7950",
        "reservation": "no",
        "tourism": "wilderness_hut",
        "website": "https://www.luontoon.fi/porojarviautiotupa"
      }
    },
    {
      "type": "way",
      "id": 604028343,
      "timestamp": "2019-03-25T22:43:19Z",
      "version": 3,
      "changeset": 68526014,
      "user": "b-jazz-bot",
      "uid": 9451067,
      "center": {
        "lat": 68.9648114,
        "lon": 21.0983614
      },
      "nodes": [],
      "tags": {
        "addr:city": "Enontekiö",
        "building": "cabin",
        "building:levels": "1",
        "capacity": "6",
        "fireplace": "stove",
        "name": "Ailakkajärvi autiotupa",
        "operator": "Metsähallitus",
        "pets": "allowed",
        "reservation": "no",
        "tourism": "wilderness_hut",
        "website": "https://www.luontoon.fi/ailakkajarviautiotupa"
      }
    }
  ]
}