{
  "osm3s": {
    "timestamp_osm_date": "2021-12-12T23:59:59Z",
    "timestamp_osm_base": "2021-12-13T06:21:56Z",
    "copyright": "The data included in this document is from www.openstreetmap.org. The data is made available under ODbL."
  },
  "elements": [
    {
      "type": "node",
      "id": 368687217,
      "lat": 37.755802,
      "lon": 128.921388,
      "timestamp": "2019-01-06T16:17:47Z",
      "version": 4,
      "changeset": 66073605,
      "user": "LuxuryCoop",
      "uid": 7245212,
      "tags": {
        "name": "이안마트",
        "name:en": "Ian Mart",
        "name:ko": "이안마트",
        "name:ko-Latn": "Ianmateu",
        "ncat": "마트",
        "shop": "supermarket",
        "source": "http://kr.open.gugi.yahoo.com"
      }
    },
    {
      "type": "node",
      "id": 368687224,
      "lat": 37.758982,
      "lon": 128.892247,
      "timestamp": "2019-01-06T16:17:47Z",
      "version": 4,
      "changeset": 66073605,
      "user": "LuxuryCoop",
      "uid": 7245212,
      "tags": {
        "name": "한우마트",
        "name:en": "Hanu Mart",
        "name:ko": "한우마트",
        "name:ko-Latn": "Hanumateu",
        "ncat": "마트",
        "shop": "supermarket",
        "source": "http://kr.open.gugi.yahoo.com"
      }
    },
    {
      "type": "node",
      "id": 368687229,
      "lat": 37.8812974,
      "lon": 128.8264996,
      "timestamp": "2018-08-11T06:17:16Z",
      "version": 5,
      "changeset": 61558410,
      "user": "Artemis64",
      "uid": 6651133,
      "tags": {
        "name": "주문진 식자재 마트",
        "name:en": "Jumunjin Sikjajae Mart",
        "name:ko": "주문진 식자재 마트",
        "name:ko-Latn": "Jumunjin Sikjajae Mart",
        "ncat": "마트",
        "opening_hours": "Mo-Su 08:20-21:00",
        "shop": "supermarket"
      }
    },
    {
      "type": "node",
      "id": 368687239,
      "lat": 37.738229,
      "lon": 128.860748,
      "timestamp": "2019-01-06T16:17:47Z",
      "version": 4,
      "changeset": 66073605,
      "user": "LuxuryCoop",
      "uid": 7245212,
      "tags": {
        "name": "제이마트",
        "name:en": "Jei Mart",
        "name:ko": "제이마트",
        "name:ko-Latn": "Jeimateu",
        "ncat": "마트",
        "shop": "supermarket",
        "source": "http://kr.open.gugi.yahoo.com"
      }
    },
    {
      "type": "node",
      "id": 368687242,
      "lat": 37.784341,
      "lon": 128.915453,
      "timestamp": "2019-01-06T16:17:47Z",
      "version": 4,
      "changeset": 66073605,
      "user": "LuxuryCoop",
      "uid": 7245212,
      "tags": {
        "name": "월드마트",
        "name:en": "World Mart",
        "name:ko": "월드마트",
        "name:ko-Latn": "Woldeumateu",
        "ncat": "마트",
        "shop": "supermarket",
        "source": "http://kr.open.gugi.yahoo.com"
      }
    },
    {
      "type": "node",
      "id": 368687250,
      "lat": 37.774884,
      "lon": 128.939948,
      "timestamp": "2019-01-06T16:17:48Z",
      "version": 4,
      "changeset": 66073605,
      "user": "LuxuryCoop",
      "uid": 7245212,
      "tags": {
        "name": "신도할인마트",
        "name:en": "Sindo Retail Shop",
        "name:ko": "신도할인마트",
        "name:ko-Latn": "Sindohalinmateu",
        "ncat": "마트",
        "shop": "supermarket",
        "source": "http://kr.open.gugi.yahoo.com"
      }
    },
    {
      "type": "node",
      "id": 368687253,
      "lat": 37.767832,
      "lon": 128.909755,
      "timestamp": "2017-08-28T06:15:04Z",
      "version": 3,
      "changeset": 51498357,
      "user": "revi^",
      "uid": 2006414,
      "tags": {
        "name": "(주)합동마트",
        "name:en": "Hapdong Mart",
        "shop": "supermarket",
        "source": "http://kr.open.gugi.yahoo.com"
      }
    },
    {
      "type": "node",
      "id": 368687259,
      "lat": 37.761528,
      "lon": 128.906931,
      "timestamp": "2017-08-28T06:15:04Z",
      "version": 3,
      "changeset": 51498357,
      "user": "revi^",
      "uid": 2006414,
      "tags": {
        "name": "(주)합동마트",
        "name:en": "Hapdong Mart",
        "shop": "supermarket",
        "source": "http://kr.open.gugi.yahoo.com"
      }
    },
    {
      "type": "node",
      "id": 368687263,
      "lat": 37.744867,
      "lon": 128.881932,
      "timestamp": "2019-01-06T16:17:48Z",
      "version": 4,
      "changeset": 66073605,
      "user": "LuxuryCoop",
      "uid": 7245212,
      "tags": {
        "name": "우성마트",
        "name:en": "Useong Mart",
        "name:ko": "우성마트",
        "name:ko-Latn": "Useongmateu",
        "ncat": "마트",
        "shop": "supermarket",
        "source": "http://kr.open.gugi.yahoo.com"
      }
    },
    {
      "type": "node",
      "id": 368687283,
      "lat": 37.757213,
      "lon": 128.893769,
      "timestamp": "2019-01-06T16:17:48Z",
      "version": 4,
      "changeset": 66073605,
      "user": "LuxuryCoop",
      "uid": 7245212,
      "tags": {
        "name": "동명마트",
        "name:en": "Dongmyeong Mart",
        "name:ko": "동명마트",
        "name:ko-Latn": "Dongmyeongmateu",
        "ncat": "마트",
        "shop": "supermarket",
        "source": "http://kr.open.gugi.yahoo.com"
      }
    },
    {
      "type": "node",
      "id": 368687288,
      "lat": 37.736235,
      "lon": 128.877075,
      "timestamp": "2019-01-06T16:17:48Z",
      "version": 4,
      "changeset": 66073605,
      "user": "LuxuryCoop",
      "uid": 7245212,
      "tags": {
        "name": "도깨비마트",
        "name:en": "Doggaebi Mart",
        "name:ko": "도깨비마트",
        "name:ko-Latn": "Doggaebimateu",
        "ncat": "마트",
        "shop": "supermarket",
        "source": "http://kr.open.gugi.yahoo.com"
      }
    },
    {
      "type": "node",
      "id": 368687296,
      "lat": 37.870947,
      "lon": 128.839239,
      "timestamp": "2019-01-06T16:17:48Z",
      "version": 4,
      "changeset": 66073605,
      "user": "LuxuryCoop",
      "uid": 7245212,
      "tags": {
        "name": "오렌지마트",
        "name:en": "Orenji Mart",
        "name:ko": "오렌지마트",
        "name:ko-Latn": "Orenjimateu",
        "ncat": "마트",
        "shop": "supermarket",
        "source": "http://kr.open.gugi.yahoo.com"
      }
    },
    {
      "type": "node",
      "id": 368687303,
      "lat": 37.748406,
      "lon": 128.856655,
      "timestamp": "2019-01-06T16:17:48Z",
      "version": 4,
      "changeset": 66073605,
      "user": "LuxuryCoop",
      "uid": 7245212,
      "tags": {
        "name": "짱25시마트",
        "name:en": "Jjang 25 Si Mart",
        "name:ko": "짱25시마트",
        "name:ko-Latn": "Jjang 25 Simateu",
        "ncat": "마트",
        "shop": "supermarket",
        "source": "http://kr.open.gugi.yahoo.com"
      }
    },
    {
      "type": "node",
      "id": 368687310,
      "lat": 37.746596,
      "lon": 128.888035,
      "timestamp": "2019-01-06T16:17:48Z",
      "version": 4,
      "changeset": 66073605,
      "user": "LuxuryCoop",
      "uid": 7245212,
      "tags": {
        "name": "한아름마트",
        "name:en": "Hanareum Mart",
        "name:ko": "한아름마트",
        "name:ko-Latn": "Hanareummateu",
        "ncat": "마트",
        "shop": "supermarket",
        "source": "http://kr.open.gugi.yahoo.com"
      }
    },
    {
      "type": "node",
      "id": 368687317,
      "lat": 37.767832,
      "lon": 128.909755,
      "timestamp": "2019-01-06T16:17:48Z",
      "version": 4,
      "changeset": 66073605,
      "user": "LuxuryCoop",
      "uid": 7245212,
      "tags": {
        "name": "굿모닝마트",
        "name:en": "Good Morning Mart",
        "name:ko": "굿모닝마트",
        "name:ko-Latn": "Gutmoningmateu",
        "ncat": "마트",
        "shop": "supermarket",
        "source": "http://kr.open.gugi.yahoo.com"
      }
    },
    {
      "type": "node",
      "id": 368687338,
      "lat": 37.753473,
      "lon": 128.896141,
      "timestamp": "2017-08-28T06:15:04Z",
      "version": 3,
      "changeset": 51498357,
      "user": "revi^",
      "uid": 2006414,
      "tags": {
        "name": "대학로마트",
        "name:en": "University Ro Mart",
        "shop": "supermarket",
        "source": "http://kr.open.gugi.yahoo.com"
      }
    },
    {
      "type": "node",
      "id": 368687340,
      "lat": 37.804237,
      "lon": 128.904966,
      "timestamp": "2019-01-06T16:17:48Z",
      "version": 4,
      "changeset": 66073605,
      "user": "LuxuryCoop",
      "uid": 7245212,
      "tags": {
        "name": "오렌지마트",
        "name:en": "Orenji Mart",
        "name:ko": "오렌지마트",
        "name:ko-Latn": "Orenjimateu",
        "ncat": "마트",
        "shop": "supermarket",
        "source": "http://kr.open.gugi.yahoo.com"
      }
    },
    {
      "type": "node",
      "id": 368687351,
      "lat": 37.759831,
      "lon": 128.888352,
      "timestamp": "2019-01-06T16:17:48Z",
      "version": 4,
      "changeset": 66073605,
      "user": "LuxuryCoop",
      "uid": 7245212,
      "tags": {
        "name": "갈매기마트",
        "name:en": "Galmaegi Mart",
        "name:ko": "갈매기마트",
        "name:ko-Latn": "Galmaegimateu",
        "ncat": "마트",
        "shop": "supermarket",
        "source": "http://kr.open.gugi.yahoo.com"
      }
    },
    {
      "type": "node",
      "id": 368687366,
      "lat": 37.804478,
      "lon": 128.902936,
      "timestamp": "2019-01-06T16:17:49Z",
      "version": 4,
      "changeset": 66073605,
      "user": "LuxuryCoop",
      "uid": 7245212,
      "tags": {
        "name": "그린피스마트",
        "name:en": "Green Piseu Mart",
        "name:ko": "그린피스마트",
        "name:ko-Latn": "Geurinpiseumateu",
        "ncat": "마트",
        "shop": "supermarket",
        "source": "http://kr.open.gugi.yahoo.com"
      }
    },
    {
      "type": "node",
      "id": 368687381,
      "lat": 37.776392,
      "lon": 128.872884,
      "timestamp": "2019-08-02T01:32:18Z",
      "version": 6,
      "changeset": 72919071,
      "user": "대왕판다",
      "uid": 8651497,
      "tags": {
        "brand": "7 ELEVEN",
        "brand:wikidata": "Q259340",
        "name": "세븐일레븐",
        "name:en": "seven eleven",
        "name:ja": "セブン-イレブン",
        "name:ko": "세븐일레븐",
        "name:ko-Latn": "seven eleven",
        "ncat": "마트",
        "operator": "코리아세븐",
        "operator:en": "KOREA SEVEN",
        "payment:american_express": "yes",
        "payment:cash": "yes",
        "payment:coins": "yes",
        "payment:credit_cards": "yes",
        "payment:debit_cards": "yes",
        "payment:diners_club": "yes",
        "payment:discover_card": "yes",
        "payment:jcb": "yes",
        "payment:mastercard": "yes",
        "payment:notes": "yes",
        "payment:unionpay": "yes",
        "payment:visa": "yes",
        "shop": "convenience",
        "smoking": "no",
        "source": "http://kr.open.gugi.yahoo.com"
      }
    },
    {
      "type": "node",
      "id": 368687393,
      "lat": 37.752265,
      "lon": 128.897398,
      "timestamp": "2017-08-28T06:15:05Z",
      "version": 3,
      "changeset": 51498357,
      "user": "revi^",
      "uid": 2006414,
      "tags": {
        "name": "성남디씨마트",
        "name:en": "Seongnamdissi Mart",
        "ncat": "마트",
        "shop": "supermarket",
        "source": "http://kr.open.gugi.yahoo.com"
      }
    },
    {
      "type": "node",
      "id": 368687397,
      "lat": 37.882282,
      "lon": 128.831705,
      "timestamp": "2019-01-06T16:17:49Z",
      "version": 4,
      "changeset": 66073605,
      "user": "LuxuryCoop",
      "uid": 7245212,
      "tags": {
        "name": "주공디씨마트",
        "name:en": "Jugongdissi Mart",
        "name:ko": "주공디씨마트",
        "name:ko-Latn": "Jugongdissimateu",
        "ncat": "마트",
        "shop": "supermarket",
        "source": "http://kr.open.gugi.yahoo.com"
      }
    },
    {
      "type": "node",
      "id": 368687407,
      "lat": 37.765055,
      "lon": 128.889925,
      "timestamp": "2019-01-06T16:17:49Z",
      "version": 4,
      "changeset": 66073605,
      "user": "LuxuryCoop",
      "uid": 7245212,
      "tags": {
        "name": "한길디씨마트",
        "name:en": "Hangildissi Mart",
        "name:ko": "한길디씨마트",
        "name:ko-Latn": "Hangildissimateu",
        "ncat": "마트",
        "shop": "supermarket",
        "source": "http://kr.open.gugi.yahoo.com"
      }
    },
    {
      "type": "node",
      "id": 368687419,
      "lat": 37.7718181,
      "lon": 128.9153178,
      "timestamp": "2017-08-28T06:15:05Z",
      "version": 4,
      "changeset": 51498357,
      "user": "revi^",
      "uid": 2006414,
      "tags": {
        "name": "일송천냥마트",
        "name:en": "Ilsongcheonnyang Mart",
        "shop": "supermarket",
        "source": "http://kr.open.gugi.yahoo.com"
      }
    },
    {
      "type": "node",
      "id": 368687424,
      "lat": 37.784277,
      "lon": 128.916769,
      "timestamp": "2019-01-06T16:17:49Z",
      "version": 4,
      "changeset": 66073605,
      "user": "LuxuryCoop",
      "uid": 7245212,
      "tags": {
        "name": "초당동쿨마트",
        "name:en": "Chodangdongkul Mart",
        "name:ko": "초당동쿨마트",
        "name:ko-Latn": "Chodangdongkulmateu",
        "ncat": "마트",
        "shop": "supermarket",
        "source": "http://kr.open.gugi.yahoo.com"
      }
    },
    {
      "type": "node",
      "id": 368687438,
      "lat": 37.77511,
      "lon": 128.937624,
      "timestamp": "2019-01-06T16:17:49Z",
      "version": 4,
      "changeset": 66073605,
      "user": "LuxuryCoop",
      "uid": 7245212,
      "tags": {
        "name": "뉴코리아마트",
        "name:en": "New Korea Mart",
        "name:ko": "뉴코리아마트",
        "name:ko-Latn": "Nyukoriamateu",
        "ncat": "마트",
        "shop": "supermarket",
        "source": "http://kr.open.gugi.yahoo.com"
      }
    },
    {
      "type": "node",
      "id": 368687451,
      "lat": 37.7766548,
      "lon": 128.874522,
      "timestamp": "2019-08-02T01:32:18Z",
      "version": 6,
      "changeset": 72919071,
      "user": "대왕판다",
      "uid": 8651497,
      "tags": {
        "brand": "GS25",
        "brand:wikidata": "Q624041",
        "name": "GS25 강릉지변점",
        "name:en": "GS25 Gangneung jibyeon jeom",
        "name:ko": "GS25 강릉지변점",
        "name:ko-Latn": "jiaesisipo",
        "ncat": "마트",
        "opening_hours": "24/7",
        "operator": "GS리테일",
        "operator:en": "GS Retail",
        "payment:american_express": "yes",
        "payment:cash": "yes",
        "payment:coins": "yes",
        "payment:diners_club": "yes",
        "payment:discover_card": "yes",
        "payment:jcb": "yes",
        "payment:mastercard": "yes",
        "payment:notes": "yes",
        "payment:unionpay": "yes",
        "payment:visa": "yes",
        "shop": "convenience",
        "source": "http://kr.open.gugi.yahoo.com",
        "website": "http://gs25.gsretail.com/gscvs/ko/main"
      }
    },
    {
      "type": "node",
      "id": 368687455,
      "lat": 37.753476,
      "lon": 128.907615,
      "timestamp": "2019-01-06T16:17:49Z",
      "version": 4,
      "changeset": 66073605,
      "user": "LuxuryCoop",
      "uid": 7245212,
      "tags": {
        "name": "입암할인마트",
        "name:en": "Ipam Retail Shop",
        "name:ko": "입암할인마트",
        "name:ko-Latn": "Ipamhalinmateu",
        "ncat": "마트",
        "shop": "supermarket",
        "source": "http://kr.open.gugi.yahoo.com"
      }
    },
    {
      "type": "node",
      "id": 368687459,
      "lat": 37.7626585,
      "lon": 128.874741,
      "timestamp": "2018-08-11T06:17:18Z",
      "version": 4,
      "changeset": 61558410,
      "user": "Artemis64",
      "uid": 6651133,
      "tags": {
        "name": "식자재 마트",
        "name:ko": "식자재 마트",
        "name:ko-Latn": "Sicjajaemart",
        "ncat": "마트",
        "shop": "supermarket",
        "source": "http://kr.open.gugi.yahoo.com"
      }
    },
    {
      "type": "node",
      "id": 368687480,
      "lat": 37.7457269,
      "lon": 128.9009146,
      "timestamp": "2019-01-06T16:17:49Z",
      "version": 5,
      "changeset": 66073605,
      "user": "LuxuryCoop",
      "uid": 7245212,
      "tags": {
        "name": "남산현대마트",
        "name:en": "Namsanhyeondae Mart",
        "name:ko": "남산현대마트",
        "name:ko-Latn": "Namsanhyeondaemateu",
        "ncat": "마트",
        "shop": "supermarket",
        "source": "http://kr.open.gugi.yahoo.com"
      }
    },
    {
      "type": "node",
      "id": 368687485,
      "lat": 37.752939,
      "lon": 128.898859,
      "timestamp": "2019-01-06T16:17:49Z",
      "version": 4,
      "changeset": 66073605,
      "user": "LuxuryCoop",
      "uid": 7245212,
      "tags": {
        "name": "일영디씨마트",
        "name:en": "Ilyeongdissi Mart",
        "name:ko": "일영디씨마트",
        "name:ko-Latn": "Ilyeongdissimateu",
        "ncat": "마트",
        "shop": "supermarket",
        "source": "http://kr.open.gugi.yahoo.com"
      }
    },
    {
      "type": "node",
      "id": 368687489,
      "lat": 37.752362,
      "lon": 128.883462,
      "timestamp": "2019-01-06T16:17:50Z",
      "version": 4,
      "changeset": 66073605,
      "user": "LuxuryCoop",
      "uid": 7245212,
      "tags": {
        "name": "홍제디씨마트",
        "name:en": "Hongjedissi Mart",
        "name:ko": "홍제디씨마트",
        "name:ko-Latn": "Hongjedissimateu",
        "ncat": "마트",
        "shop": "supermarket",
        "source": "http://kr.open.gugi.yahoo.com"
      }
    },
    {
      "type": "node",
      "id": 368687496,
      "lat": 37.775476,
      "lon": 128.912891,
      "timestamp": "2019-01-06T16:17:50Z",
      "version": 4,
      "changeset": 66073605,
      "user": "LuxuryCoop",
      "uid": 7245212,
      "tags": {
        "name": "한아름D/C마트",
        "name:en": "Hanareum D/C Mart",
        "name:ko": "한아름D/C마트",
        "name:ko-Latn": "Hanareum D/C Mateu",
        "ncat": "마트",
        "shop": "supermarket",
        "source": "http://kr.open.gugi.yahoo.com"
      }
    },
    {
      "type": "node",
      "id": 368687513,
      "lat": 37.751711,
      "lon": 128.886121,
      "timestamp": "2019-01-06T16:17:50Z",
      "version": 4,
      "changeset": 66073605,
      "user": "LuxuryCoop",
      "uid": 7245212,
      "tags": {
        "name": "오렌지디씨마트",
        "name:en": "Orenjidissi Mart",
        "name:ko": "오렌지디씨마트",
        "name:ko-Latn": "Orenjidissimateu",
        "ncat": "마트",
        "shop": "supermarket",
        "source": "http://kr.open.gugi.yahoo.com"
      }
    },
    {
      "type": "node",
      "id": 368687521,
      "lat": 37.753047,
      "lon": 128.895376,
      "timestamp": "2019-01-06T16:17:50Z",
      "version": 4,
      "changeset": 66073605,
      "user": "LuxuryCoop",
      "uid": 7245212,
      "tags": {
        "name": "빅마트",
        "name:en": "Bik Mart",
        "name:ko": "빅마트",
        "name:ko-Latn": "Bingmateu",
        "ncat": "마트",
        "shop": "supermarket",
        "source": "http://kr.open.gugi.yahoo.com"
      }
    },
    {
      "type": "node",
      "id": 368687526,
      "lat": 37.742347,
      "lon": 128.879099,
      "timestamp": "2019-01-06T16:17:50Z",
      "version": 4,
      "changeset": 66073605,
      "user": "LuxuryCoop",
      "uid": 7245212,
      "tags": {
        "name": "회산주공할인마트",
        "name:en": "Hoesanjugong Retail Shop",
        "name:ko": "회산주공할인마트",
        "name:ko-Latn": "Hoesanjugonghalinmateu",
        "ncat": "마트",
        "shop": "supermarket",
        "source": "http://kr.open.gugi.yahoo.com"
      }
    },
    {
      "type": "node",
      "id": 368687534,
      "lat": 37.800056,
      "lon": 128.91316,
      "timestamp": "2019-01-06T16:17:50Z",
      "version": 4,
      "changeset": 66073605,
      "user": "LuxuryCoop",
      "uid": 7245212,
      "tags": {
        "name": "대형종합할인마트",
        "name:en": "Daehyeongjonghap Retail Shop",
        "name:ko": "대형종합할인마트",
        "name:ko-Latn": "Daehyeongjonghaphalinmateu",
        "ncat": "마트",
        "shop": "supermarket",
        "source": "http://kr.open.gugi.yahoo.com"
      }
    },
    {
      "type": "node",
      "id": 368687549,
      "lat": 37.837227,
      "lon": 128.877635,
      "timestamp": "2019-01-06T16:17:50Z",
      "version": 4,
      "changeset": 66073605,
      "user": "LuxuryCoop",
      "uid": 7245212,
      "tags": {
        "name": "항구회마트",
        "name:en": "Hangguhoe Mart",
        "name:ko": "항구회마트",
        "name:ko-Latn": "Hangguhoemateu",
        "ncat": "마트",
        "shop": "supermarket",
        "source": "http://kr.open.gugi.yahoo.com"
      }
    },
    {
      "type": "node",
      "id": 368687566,
      "lat": 37.759869,
      "lon": 128.89413,
      "timestamp": "2019-01-06T16:17:50Z",
      "version": 4,
      "changeset": 66073605,
      "user": "LuxuryCoop",
      "uid": 7245212,
      "tags": {
        "name": "굿모닝디스카운트마트",
        "name:en": "Good Morning Diseukaunteu Mart",
        "name:ko": "굿모닝디스카운트마트",
        "name:ko-Latn": "Gutmoningdiseukaunteumateu",
        "ncat": "마트",
        "shop": "supermarket",
        "source": "http://kr.open.gugi.yahoo.com"
      }
    },
    {
      "type": "node",
      "id": 368687573,
      "lat": 37.757532,
      "lon": 128.924758,
      "timestamp": "2019-01-06T16:17:51Z",
      "version": 4,
      "changeset": 66073605,
      "user": "LuxuryCoop",
      "uid": 7245212,
      "tags": {
        "name": "강원양돈농협하나로마트",
        "name:en": "Gangwonyangdon National Agricultural Cooperative Federation Hanaro Mart",
        "name:ko": "강원양돈농협하나로마트",
        "name:ko-Latn": "Gangwonyangdonnonghyeophanaromateu",
        "ncat": "마트",
        "shop": "supermarket",
        "source": "http://kr.open.gugi.yahoo.com"
      }
    },
    {
      "type": "node",
      "id": 368687589,
      "lat": 37.751095,
      "lon": 128.912444,
      "timestamp": "2019-01-06T16:17:51Z",
      "version": 4,
      "changeset": 66073605,
      "user": "LuxuryCoop",
      "uid": 7245212,
      "tags": {
        "name": "타이어마트",
        "name:en": "Taieo Mart",
        "name:ko": "타이어마트",
        "name:ko-Latn": "Taieomateu",
        "ncat": "마트",
        "shop": "supermarket",
        "source": "http://kr.open.gugi.yahoo.com"
      }
    },
    {
      "type": "node",
      "id": 368687604,
      "lat": 37.766692,
      "lon": 128.89629,
      "timestamp": "2019-01-06T16:17:51Z",
      "version": 4,
      "changeset": 66073605,
      "user": "LuxuryCoop",
      "uid": 7245212,
      "tags": {
        "name": "삼원현수막마트",
        "name:en": "Samwonhyeonsumak Mart",
        "name:ko": "삼원현수막마트",
        "name:ko-Latn": "Samwonhyeonsumangmateu",
        "ncat": "마트",
        "shop": "supermarket",
        "source": "http://kr.open.gugi.yahoo.com"
      }
    },
    {
      "type": "node",
      "id": 368687613,
      "lat": 37.768849,
      "lon": 128.916828,
      "timestamp": "2017-08-28T06:15:05Z",
      "version": 3,
      "changeset": 51498357,
      "user": "revi^",
      "uid": 2006414,
      "tags": {
        "name": "명소낚시할인마트",
        "name:en": "Myeongso Fishing Retail Shop",
        "shop": "supermarket",
        "source": "http://kr.open.gugi.yahoo.com"
      }
    },
    {
      "type": "node",
      "id": 368687621,
      "lat": 37.899797,
      "lon": 128.823044,
      "timestamp": "2019-01-06T16:17:51Z",
      "version": 4,
      "changeset": 66073605,
      "user": "LuxuryCoop",
      "uid": 7245212,
      "tags": {
        "name": "명도낚시할인마트",
        "name:en": "Myeongdo Fishing Retail Shop",
        "name:ko": "명도낚시할인마트",
        "name:ko-Latn": "Myeongdonaggsihalinmateu",
        "ncat": "마트",
        "shop": "supermarket",
        "source": "http://kr.open.gugi.yahoo.com"
      }
    },
    {
      "type": "node",
      "id": 368687628,
      "lat": 37.7633764,
      "lon": 128.9008223,
      "timestamp": "2021-01-20T11:37:26Z",
      "version": 6,
      "changeset": 97834141,
      "user": "hsseoul",
      "uid": 6058094,
      "tags": {
        "name": "타이어할인마트 (Taieo Retail Shop)",
        "name:en": "Taieo Retail Shop",
        "name:ja": "タイヤ割引マート",
        "name:ko": "타이어할인마트",
        "name:ko-Latn": "Taieohalinmateu",
        "shop": "supermarket",
        "source": "http://kr.open.gugi.yahoo.com"
      }
    },
    {
      "type": "node",
      "id": 368687649,
      "lat": 37.763993,
      "lon": 128.901615,
      "timestamp": "2018-08-11T06:17:20Z",
      "version": 5,
      "changeset": 61558410,
      "user": "Artemis64",
      "uid": 6651133,
      "tags": {
        "name": "비데마트 (Bide Mart)",
        "name:en": "Bide Mart",
        "name:ja": "ビデマート",
        "name:ko": "비데마트",
        "name:ko-Latn": "Bidemateu",
        "shop": "supermarket",
        "source": "http://kr.open.gugi.yahoo.com"
      }
    },
    {
      "type": "node",
      "id": 368687657,
      "lat": 37.725017,
      "lon": 128.910138,
      "timestamp": "2019-01-06T16:17:51Z",
      "version": 4,
      "changeset": 66073605,
      "user": "LuxuryCoop",
      "uid": 7245212,
      "tags": {
        "name": "강릉요식업마트",
        "name:en": "Gangneungyosikeop Mart",
        "name:ko": "강릉요식업마트",
        "name:ko-Latn": "Gangneungyosikeommateu",
        "ncat": "마트",
        "shop": "supermarket",
        "source": "http://kr.open.gugi.yahoo.com"
      }
    },
    {
      "type": "node",
      "id": 368687666,
      "lat": 37.753358,
      "lon": 128.899454,
      "timestamp": "2017-08-28T06:15:06Z",
      "version": 3,
      "changeset": 51498357,
      "user": "revi^",
      "uid": 2006414,
      "tags": {
        "name": "영동그릇마트",
        "name:en": "Yeongdonggeureut Mart",
        "ncat": "마트",
        "shop": "supermarket",
        "source": "http://kr.open.gugi.yahoo.com"
      }
    },
    {
      "type": "node",
      "id": 368687670,
      "lat": 37.767832,
      "lon": 128.909755,
      "timestamp": "2019-01-06T16:17:51Z",
      "version": 4,
      "changeset": 66073605,
      "user": "LuxuryCoop",
      "uid": 7245212,
      "tags": {
        "name": "강원현문주방마트",
        "name:en": "Gangwonhyeonmunjubang Mart",
        "name:ko": "강원현문주방마트",
        "name:ko-Latn": "Gangwonhyeonmunjubangmateu",
        "ncat": "마트",
        "shop": "supermarket",
        "source": "http://kr.open.gugi.yahoo.com"
      }
    },
    {
      "type": "node",
      "id": 368687681,
      "lat": 37.76482,
      "lon": 128.907709,
      "timestamp": "2019-10-24T01:38:28Z",
      "version": 4,
      "changeset": 76128795,
      "user": "boji5571",
      "uid": 7920839,
      "tags": {
        "name": "대성종합가전마트",
        "name:en": "Daeguan Compassion Mart",
        "shop": "supermarket",
        "source": "http://kr.open.gugi.yahoo.com"
      }
    },
    {
      "type": "node",
      "id": 368687683,
      "lat": 37.753517,
      "lon": 128.897549,
      "timestamp": "2019-01-06T16:17:51Z",
      "version": 4,
      "changeset": 66073605,
      "user": "LuxuryCoop",
      "uid": 7245212,
      "tags": {
        "name": "땡마트",
        "name:en": "Ddaeng Mart",
        "name:ko": "땡마트",
        "name:ko-Latn": "Ddaengmateu",
        "ncat": "마트",
        "shop": "supermarket",
        "source": "http://kr.open.gugi.yahoo.com"
      }
    },
    {
      "type": "node",
      "id": 368687695,
      "lat": 37.758194,
      "lon": 128.886778,
      "timestamp": "2019-01-06T16:17:51Z",
      "version": 4,
      "changeset": 66073605,
      "user": "LuxuryCoop",
      "uid": 7245212,
      "tags": {
        "name": "과일마트",
        "name:en": "Gwail Mart",
        "name:ko": "과일마트",
        "name:ko-Latn": "Gwailmateu",
        "ncat": "마트",
        "shop": "supermarket",
        "source": "http://kr.open.gugi.yahoo.com"
      }
    },
    {
      "type": "node",
      "id": 368687696,
      "lat": 37.76883,
      "lon": 128.893568,
      "timestamp": "2019-01-06T16:17:52Z",
      "version": 4,
      "changeset": 66073605,
      "user": "LuxuryCoop",
      "uid": 7245212,
      "tags": {
        "name": "매화청과마트",
        "name:en": "Maehwacheonggwa Mart",
        "name:ko": "매화청과마트",
        "name:ko-Latn": "Maehwacheonggwamateu",
        "ncat": "마트",
        "shop": "supermarket",
        "source": "http://kr.open.gugi.yahoo.com"
      }
    },
    {
      "type": "node",
      "id": 368687710,
      "lat": 37.780828,
      "lon": 128.917635,
      "timestamp": "2019-01-06T16:17:52Z",
      "version": 4,
      "changeset": 66073605,
      "user": "LuxuryCoop",
      "uid": 7245212,
      "tags": {
        "name": "강릉꽃마트",
        "name:en": "Gangneungggoch Mart",
        "name:ko": "강릉꽃마트",
        "name:ko-Latn": "Gangneungggochmateu",
        "ncat": "마트",
        "shop": "supermarket",
        "source": "http://kr.open.gugi.yahoo.com"
      }
    },
    {
      "type": "node",
      "id": 368687723,
      "lat": 37.752939,
      "lon": 128.898859,
      "timestamp": "2017-08-28T06:15:06Z",
      "version": 3,
      "changeset": 51498357,
      "user": "revi^",
      "uid": 2006414,
      "tags": {
        "name": "강릉이불마트",
        "name:en": "Gangneungibul Mart",
        "ncat": "마트",
        "shop": "supermarket",
        "source": "http://kr.open.gugi.yahoo.com"
      }
    },
    {
      "type": "node",
      "id": 368687727,
      "lat": 37.787543,
      "lon": 128.909259,
      "timestamp": "2019-01-06T16:17:52Z",
      "version": 4,
      "changeset": 66073605,
      "user": "LuxuryCoop",
      "uid": 7245212,
      "tags": {
        "name": "정수기종합마트",
        "name:en": "Jeongsugijonghap Mart",
        "name:ko": "정수기종합마트",
        "name:ko-Latn": "Jeongsugijonghammateu",
        "ncat": "마트",
        "shop": "supermarket",
        "source": "http://kr.open.gugi.yahoo.com"
      }
    },
    {
      "type": "node",
      "id": 368687737,
      "lat": 37.756301,
      "lon": 128.895267,
      "timestamp": "2017-08-28T06:15:07Z",
      "version": 3,
      "changeset": 51498357,
      "user": "revi^",
      "uid": 2006414,
      "tags": {
        "name": "정수기종합마트",
        "name:en": "Jeongsugijonghap Mart",
        "shop": "supermarket",
        "source": "http://kr.open.gugi.yahoo.com"
      }
    },
    {
      "type": "node",
      "id": 368687739,
      "lat": 37.753726,
      "lon": 128.897245,
      "timestamp": "2019-01-06T16:17:52Z",
      "version": 4,
      "changeset": 66073605,
      "user": "LuxuryCoop",
      "uid": 7245212,
      "tags": {
        "name": "언더패션마트",
        "name:en": "Eondeopaesyeon Mart",
        "name:ko": "언더패션마트",
        "name:ko-Latn": "Eondeopaesyeonmateu",
        "ncat": "마트",
        "shop": "supermarket",
        "source": "http://kr.open.gugi.yahoo.com"
      }
    },
    {
      "type": "node",
      "id": 368687750,
      "lat": 37.754444,
      "lon": 128.897628,
      "timestamp": "2017-08-28T06:15:07Z",
      "version": 3,
      "changeset": 51498357,
      "user": "revi^",
      "uid": 2006414,
      "tags": {
        "name": "종합속옷마트",
        "name:en": "Jonghapsokos Mart",
        "shop": "supermarket",
        "source": "http://kr.open.gugi.yahoo.com"
      }
    },
    {
      "type": "node",
      "id": 368687751,
      "lat": 37.772128,
      "lon": 128.91235,
      "timestamp": "2017-08-28T06:15:08Z",
      "version": 3,
      "changeset": 51498357,
      "user": "revi^",
      "uid": 2006414,
      "tags": {
        "name": "이코노슈즈마트",
        "name:en": "Ikonosyujeu Mart",
        "shop": "supermarket",
        "source": "http://kr.open.gugi.yahoo.com"
      }
    },
    {
      "type": "node",
      "id": 368699054,
      "lat": 37.942993,
      "lon": 128.785317,
      "timestamp": "2019-01-06T16:19:05Z",
      "version": 4,
      "changeset": 66073605,
      "user": "LuxuryCoop",
      "uid": 7245212,
      "tags": {
        "name": "어촌회마트",
        "name:en": "Eochonhoe Mart",
        "name:ko": "어촌회마트",
        "name:ko-Latn": "Eochonhoemateu",
        "ncat": "마트",
        "shop": "supermarket",
        "source": "http://kr.open.gugi.yahoo.com"
      }
    },
    {
      "type": "node",
      "id": 368699082,
      "lat": 38.01921,
      "lon": 128.724499,
      "timestamp": "2019-01-06T16:19:06Z",
      "version": 4,
      "changeset": 66073605,
      "user": "LuxuryCoop",
      "uid": 7245212,
      "tags": {
        "name": "114마트",
        "name:en": "114 Mart",
        "name:ko": "114마트",
        "name:ko-Latn": "114 Mateu",
        "ncat": "마트",
        "shop": "supermarket",
        "source": "http://kr.open.gugi.yahoo.com"
      }
    },
    {
      "type": "node",
      "id": 368871355,
      "lat": 37.8415911,
      "lon": 128.7867747,
      "timestamp": "2019-01-06T16:54:23Z",
      "version": 5,
      "changeset": 66074445,
      "user": "LuxuryCoop",
      "uid": 7245212,
      "tags": {
        "name": "소금강학생야영장",
        "name:en": "Sogeumgang Student Camping Site",
        "name:ko": "소금강학생야영장",
        "name:ko-Latn": "Sogeumganghaksaengyayeongjang",
        "ncat": "야영장",
        "source": "http://kr.open.gugi.yahoo.com",
        "tourism": "camp_site"
      }
    },
    {
      "type": "node",
      "id": 368874712,
      "lat": 37.843586,
      "lon": 128.839712,
      "timestamp": "2021-05-01T05:22:51Z",
      "version": 7,
      "changeset": 103942200,
      "user": "pizzaiolo",
      "uid": 1772368,
      "tags": {
        "leisure": "sauna",
        "name": "구라미온천",
        "name:en": "Gurami Hot Spring",
        "name:ko": "구라미온천",
        "name:ko-Latn": "Guramioncheon",
        "natural": "spring",
        "ncat": "온천",
        "source": "http://kr.open.gugi.yahoo.com",
        "wikidata": "Q27304308"
      }
    },
    {
      "type": "node",
      "id": 368874714,
      "lat": 37.849205,
      "lon": 128.808093,
      "timestamp": "2019-01-16T22:01:05Z",
      "version": 6,
      "changeset": 66376963,
      "user": "datacleanup",
      "uid": 9362643,
      "tags": {
        "leisure": "sauna",
        "name": "소금강온천",
        "name:en": "Sogeumgang Hot Spring",
        "name:ko": "소금강온천",
        "name:ko-Latn": "Sogeumgangoncheon",
        "natural": "spring",
        "ncat": "온천",
        "source": "http://kr.open.gugi.yahoo.com"
      }
    },
    {
      "type": "node",
      "id": 368940068,
      "lat": 37.757808,
      "lon": 128.847514,
      "timestamp": "2019-01-06T17:05:10Z",
      "version": 5,
      "changeset": 66074445,
      "user": "LuxuryCoop",
      "uid": 7245212,
      "tags": {
        "name": "강릉축협",
        "name:en": "Gangneung National Livestock Cooperative Federation",
        "name:ko": "강릉축협",
        "name:ko-Latn": "Gangneungchukhyeop",
        "ncat": "축협",
        "shop": "supermarket",
        "source": "http://kr.open.gugi.yahoo.com"
      }
    },
    {
      "type": "node",
      "id": 368940072,
      "lat": 37.766325,
      "lon": 128.905309,
      "timestamp": "2019-08-01T06:05:08Z",
      "version": 5,
      "changeset": 72881884,
      "user": "Ryang_alt",
      "uid": 5951022,
      "tags": {
        "name": "강릉축협",
        "name:en": "Gangneung National Livestock Cooperative Federation",
        "name:ja": "江陵畜協",
        "shop": "supermarket",
        "source": "http://kr.open.gugi.yahoo.com"
      }
    },
    {
      "type": "node",
      "id": 368940078,
      "lat": 37.758391,
      "lon": 128.892864,
      "timestamp": "2019-01-06T17:05:10Z",
      "version": 5,
      "changeset": 66074445,
      "user": "LuxuryCoop",
      "uid": 7245212,
      "tags": {
        "name": "강릉축협",
        "name:en": "Gangneung National Livestock Cooperative Federation",
        "name:ko": "강릉축협",
        "name:ko-Latn": "Gangneungchukhyeop",
        "ncat": "축협",
        "shop": "supermarket",
        "source": "http://kr.open.gugi.yahoo.com"
      }
    },
    {
      "type": "node",
      "id": 368940079,
      "lat": 37.759232,
      "lon": 128.90083,
      "timestamp": "2017-08-28T06:15:38Z",
      "version": 4,
      "changeset": 51498357,
      "user": "revi^",
      "uid": 2006414,
      "tags": {
        "name": "강릉축협",
        "name:en": "Gangneung National Livestock Cooperative Federation",
        "shop": "supermarket",
        "source": "http://kr.open.gugi.yahoo.com"
      }
    },
    {
      "type": "node",
      "id": 368940087,
      "lat": 37.753202,
      "lon": 128.898669,
      "timestamp": "2017-08-28T06:15:38Z",
      "version": 4,
      "changeset": 51498357,
      "user": "revi^",
      "uid": 2006414,
      "tags": {
        "name": "강릉축협",
        "name:en": "Gangneung National Livestock Cooperative Federation",
        "ncat": "축협",
        "shop": "supermarket",
        "source": "http://kr.open.gugi.yahoo.com"
      }
    },
    {
      "type": "node",
      "id": 368949306,
      "lat": 37.774395,
      "lon": 128.91281,
      "timestamp": "2019-01-06T17:07:44Z",
      "version": 4,
      "changeset": 66074904,
      "user": "LuxuryCoop",
      "uid": 7245212,
      "tags": {
        "name": "25시편의점",
        "name:en": "25 Si Convenience Store",
        "name:ko": "25시편의점",
        "name:ko-Latn": "25 Sipyeonuijeom",
        "ncat": "편의점",
        "shop": "convenience",
        "source": "http://kr.open.gugi.yahoo.com"
      }
    },
    {
      "type": "node",
      "id": 368949315,
      "lat": 37.746759,
      "lon": 128.903323,
      "timestamp": "2019-01-06T17:07:44Z",
      "version": 4,
      "changeset": 66074904,
      "user": "LuxuryCoop",
      "uid": 7245212,
      "tags": {
        "name": "서화편의점",
        "name:en": "Seohwa Convenience Store",
        "name:ko": "서화편의점",
        "name:ko-Latn": "Seohwapyeonuijeom",
        "ncat": "편의점",
        "shop": "convenience",
        "source": "http://kr.open.gugi.yahoo.com"
      }
    },
    {
      "type": "node",
      "id": 368949316,
      "lat": 37.7546149,
      "lon": 128.8801551,
      "timestamp": "2019-01-06T17:07:44Z",
      "version": 6,
      "changeset": 66074904,
      "user": "LuxuryCoop",
      "uid": 7245212,
      "tags": {
        "name": "고속편의점",
        "name:en": "Gosok Convenience Store",
        "name:ja": "高速便宜店",
        "name:ko": "고속편의점",
        "name:ko-Latn": "Gosokpyeonuijeom",
        "ncat": "편의점",
        "shop": "convenience",
        "source": "http://kr.open.gugi.yahoo.com",
        "source:addr": "survey"
      }
    },
    {
      "type": "node",
      "id": 368949323,
      "lat": 37.770719,
      "lon": 128.907009,
      "timestamp": "2019-01-06T17:07:44Z",
      "version": 4,
      "changeset": 66074904,
      "user": "LuxuryCoop",
      "uid": 7245212,
      "tags": {
        "name": "서울편의점",
        "name:en": "Seoul Convenience Store",
        "name:ko": "서울편의점",
        "name:ko-Latn": "Seoulpyeonuijeom",
        "ncat": "편의점",
        "shop": "convenience",
        "source": "http://kr.open.gugi.yahoo.com"
      }
    },
    {
      "type": "node",
      "id": 368949325,
      "lat": 37.752088,
      "lon": 128.896976,
      "timestamp": "2017-08-28T06:15:38Z",
      "version": 3,
      "changeset": 51498357,
      "user": "revi^",
      "uid": 2006414,
      "tags": {
        "name": "그린편의점",
        "name:en": "Green Convenience Store",
        "ncat": "편의점",
        "shop": "convenience",
        "source": "http://kr.open.gugi.yahoo.com"
      }
    },
    {
      "type": "node",
      "id": 368949329,
      "lat": 37.764465,
      "lon": 128.908147,
      "timestamp": "2017-08-28T06:15:38Z",
      "version": 3,
      "changeset": 51498357,
      "user": "revi^",
      "uid": 2006414,
      "tags": {
        "name": "대왕편의점",
        "name:en": "Daewang Convenience Store",
        "shop": "convenience",
        "source": "http://kr.open.gugi.yahoo.com"
      }
    },
    {
      "type": "node",
      "id": 368949331,
      "lat": 37.867805,
      "lon": 128.84758,
      "timestamp": "2019-01-06T17:07:44Z",
      "version": 4,
      "changeset": 66074904,
      "user": "LuxuryCoop",
      "uid": 7245212,
      "tags": {
        "name": "현대편의점",
        "name:en": "Hyeondae Convenience Store",
        "name:ko": "현대편의점",
        "name:ko-Latn": "Hyeondaepyeonuijeom",
        "ncat": "편의점",
        "shop": "convenience",
        "source": "http://kr.open.gugi.yahoo.com"
      }
    },
    {
      "type": "node",
      "id": 368949336,
      "lat": 37.76929,
      "lon": 128.893449,
      "timestamp": "2019-01-06T17:07:44Z",
      "version": 4,
      "changeset": 66074904,
      "user": "LuxuryCoop",
      "uid": 7245212,
      "tags": {
        "name": "도성편의점",
        "name:en": "Doseong Convenience Store",
        "name:ko": "도성편의점",
        "name:ko-Latn": "Doseongpyeonuijeom",
        "ncat": "편의점",
        "shop": "convenience",
        "source": "http://kr.open.gugi.yahoo.com"
      }
    },
    {
      "type": "node",
      "id": 368949338,
      "lat": 37.889763,
      "lon": 128.828878,
      "timestamp": "2019-01-06T17:07:45Z",
      "version": 4,
      "changeset": 66074904,
      "user": "LuxuryCoop",
      "uid": 7245212,
      "tags": {
        "name": "항운편의점",
        "name:en": "Hangun Convenience Store",
        "name:ko": "항운편의점",
        "name:ko-Latn": "Hangunpyeonuijeom",
        "ncat": "편의점",
        "shop": "convenience",
        "source": "http://kr.open.gugi.yahoo.com"
      }
    },
    {
      "type": "node",
      "id": 415151945,
      "lat": 38.05567,
      "lon": 128.67573,
      "timestamp": "2018-08-11T06:19:09Z",
      "version": 4,
      "changeset": 61558410,
      "user": "Artemis64",
      "uid": 6651133,
      "tags": {
        "name": "동호리",
        "name:en": "Dongho-ri",
        "name:ko": "동호리",
        "name:ko-Latn": "Dongho-ri",
        "ncat": "교차로및지명",
        "place": "village",
        "source": "mp2osm"
      }
    },
    {
      "type": "node",
      "id": 415151946,
      "lat": 38.0078,
      "lon": 128.70007,
      "timestamp": "2019-07-31T07:38:09Z",
      "version": 5,
      "changeset": 72842067,
      "user": "鎭韓金",
      "uid": 10031194,
      "tags": {
        "name": "상광정리",
        "name:en": "Sanggwangjeong-ri",
        "name:ja": "上光丁里",
        "name:ko": "상광정리",
        "name:ko-Latn": "Sanggwangjeong-ri",
        "ncat": "교차로및지명",
        "place": "village",
        "source": "mp2osm"
      }
    },
    {
      "type": "node",
      "id": 415151947,
      "lat": 38.00836,
      "lon": 128.72601,
      "timestamp": "2019-07-31T07:34:59Z",
      "version": 5,
      "changeset": 72841946,
      "user": "鎭韓金",
      "uid": 10031194,
      "tags": {
        "name": "기사문리",
        "name:en": "Gisamun-ri",
        "name:ja": "基士門里",
        "name:ko": "기사문리",
        "name:ko-Latn": "Gisamun-ri",
        "ncat": "교차로및지명",
        "place": "village",
        "source": "mp2osm"
      }
    },
    {
      "type": "node",
      "id": 415151948,
      "lat": 38.01576,
      "lon": 128.72242,
      "timestamp": "2019-07-31T07:40:45Z",
      "version": 5,
      "changeset": 72842165,
      "user": "鎭韓金",
      "uid": 10031194,
      "tags": {
        "name": "하광정리",
        "name:en": "Hagwangjeong-ri",
        "name:ja": "下光丁里",
        "name:ko": "하광정리",
        "name:ko-Latn": "Hagwangjeong-ri",
        "ncat": "교차로및지명",
        "place": "village",
        "source": "mp2osm"
      }
    },
    {
      "type": "node",
      "id": 415151949,
      "lat": 38.01598,
      "lon": 128.67979,
      "timestamp": "2019-07-31T07:36:26Z",
      "version": 5,
      "changeset": 72842007,
      "user": "鎭韓金",
      "uid": 10031194,
      "tags": {
        "name": "말곡리",
        "name:en": "Malgok-ri",
        "name:ja": "末谷里",
        "name:ko": "말곡리",
        "name:ko-Latn": "Malgok-ri",
        "ncat": "교차로및지명",
        "place": "village",
        "source": "mp2osm"
      }
    },
    {
      "type": "node",
      "id": 415151950,
      "lat": 38.02862,
      "lon": 128.70672,
      "timestamp": "2019-07-31T07:40:20Z",
      "version": 5,
      "changeset": 72842154,
      "user": "鎭韓金",
      "uid": 10031194,
      "tags": {
        "name": "중광정리",
        "name:en": "Junggwangjeong-ri",
        "name:ja": "中光丁里",
        "name:ko": "중광정리",
        "name:ko-Latn": "Junggwangjeong-ri",
        "ncat": "교차로및지명",
        "place": "village",
        "source": "mp2osm"
      }
    },
    {
      "type": "node",
      "id": 415151951,
      "lat": 38.03675,
      "lon": 128.69247,
      "timestamp": "2018-08-11T06:19:10Z",
      "version": 4,
      "changeset": 61558410,
      "user": "Artemis64",
      "uid": 6651133,
      "tags": {
        "name": "여운포리",
        "name:en": "Yeounpo-ri",
        "name:ko": "여운포리",
        "name:ko-Latn": "Yeounpo-ri",
        "ncat": "교차로및지명",
        "place": "village",
        "source": "mp2osm"
      }
    },
    {
      "type": "node",
      "id": 415151952,
      "lat": 38.04203,
      "lon": 128.6893,
      "timestamp": "2018-08-11T06:19:12Z",
      "version": 4,
      "changeset": 61558410,
      "user": "Artemis64",
      "uid": 6651133,
      "tags": {
        "name": "상운리",
        "name:en": "Sang-un-ri",
        "name:ko": "상운리",
        "name:ko-Latn": "Sang-un-ri",
        "ncat": "교차로및지명",
        "place": "village",
        "source": "mp2osm"
      }
    },
    {
      "type": "node",
      "id": 415152250,
      "lat": 37.774277,
      "lon": 128.76762,
      "timestamp": "2018-08-11T06:19:12Z",
      "version": 4,
      "changeset": 61558410,
      "user": "Artemis64",
      "uid": 6651133,
      "tags": {
        "name": "사기막리",
        "name:en": "Sagimak-ri",
        "name:ko": "사기막리",
        "name:ko-Latn": "Sagimak-ri",
        "ncat": "교차로및지명",
        "place": "village",
        "source": "mp2osm"
      }
    },
    {
      "type": "node",
      "id": 415152251,
      "lat": 37.81634,
      "lon": 128.7631,
      "timestamp": "2018-08-11T06:19:13Z",
      "version": 4,
      "changeset": 61558410,
      "user": "Artemis64",
      "uid": 6651133,
      "tags": {
        "name": "신왕리",
        "name:en": "Sinwang-ri",
        "name:ko": "신왕리",
        "name:ko-Latn": "Sinwang-ri",
        "ncat": "교차로및지명",
        "place": "village",
        "source": "mp2osm"
      }
    },
    {
      "type": "node",
      "id": 415152252,
      "lat": 37.83843,
      "lon": 128.75964,
      "timestamp": "2018-08-11T06:19:13Z",
      "version": 4,
      "changeset": 61558410,
      "user": "Artemis64",
      "uid": 6651133,
      "tags": {
        "name": "유등리",
        "name:en": "Yudeung-ri",
        "name:ko": "유등리",
        "name:ko-Latn": "Yudeung-ri",
        "ncat": "교차로및지명",
        "place": "village",
        "source": "mp2osm"
      }
    },
    {
      "type": "node",
      "id": 415152253,
      "lat": 37.80831,
      "lon": 128.81628,
      "timestamp": "2018-08-11T06:19:13Z",
      "version": 4,
      "changeset": 61558410,
      "user": "Artemis64",
      "uid": 6651133,
      "tags": {
        "name": "노동리",
        "name:en": "Nodong-ri",
        "name:ko": "노동리",
        "name:ko-Latn": "Nodong-ri",
        "ncat": "교차로및지명",
        "place": "village",
        "source": "mp2osm"
      }
    },
    {
      "type": "node",
      "id": 415152254,
      "lat": 37.83217,
      "lon": 128.82272,
      "timestamp": "2018-08-11T06:19:13Z",
      "version": 4,
      "changeset": 61558410,
      "user": "Artemis64",
      "uid": 6651133,
      "tags": {
        "name": "석교리",
        "name:en": "Seokgyo-ri",
        "name:ko": "석교리",
        "name:ko-Latn": "Seokgyo-ri",
        "ncat": "교차로및지명",
        "place": "village",
        "source": "mp2osm"
      }
    },
    {
      "type": "node",
      "id": 415152255,
      "lat": 37.77775,
      "lon": 128.83128,
      "timestamp": "2018-08-11T06:19:13Z",
      "version": 6,
      "changeset": 61558410,
      "user": "Artemis64",
      "uid": 6651133,
      "tags": {
        "name": "송암리",
        "name:en": "Song-am-ri",
        "name:ko": "송암리",
        "name:ko-Latn": "Song-am-ri",
        "ncat": "교차로및지명",
        "place": "village",
        "source": "mp2osm"
      }
    },
    {
      "type": "node",
      "id": 415152256,
      "lat": 37.75943,
      "lon": 128.83604,
      "timestamp": "2018-08-11T06:19:13Z",
      "version": 5,
      "changeset": 61558410,
      "user": "Artemis64",
      "uid": 6651133,
      "tags": {
        "name": "위촌리",
        "name:en": "Wichon-ri",
        "name:ko": "위촌리",
        "name:ko-Latn": "Wichon-ri",
        "ncat": "교차로및지명",
        "place": "village",
        "source": "mp2osm"
      }
    },
    {
      "type": "node",
      "id": 415152257,
      "lat": 37.7919,
      "lon": 128.85411,
      "timestamp": "2018-08-11T06:19:13Z",
      "version": 5,
      "changeset": 61558410,
      "user": "Artemis64",
      "uid": 6651133,
      "tags": {
        "name": "대전동",
        "name:en": "Daejeon-dong",
        "name:ko": "대전동",
        "name:ko-Latn": "Daejeon-dong",
        "ncat": "교차로및지명",
        "place": "village",
        "source": "mp2osm"
      }
    },
    {
      "type": "node",
      "id": 415152258,
      "lat": 37.76941,
      "lon": 128.86398,
      "timestamp": "2018-08-11T06:19:14Z",
      "version": 6,
      "changeset": 61558410,
      "user": "Artemis64",
      "uid": 6651133,
      "tags": {
        "name": "유천동",
        "name:en": "Yucheondong",
        "name:ko": "유천동",
        "name:ko-Latn": "Yucheon-dong",
        "ncat": "교차로및지명",
        "place": "village",
        "source": "mp2osm"
      }
    },
    {
      "type": "node",
      "id": 415152259,
      "lat": 37.77576,
      "lon": 128.87199,
      "timestamp": "2018-08-11T06:19:14Z",
      "version": 6,
      "changeset": 61558410,
      "user": "Artemis64",
      "uid": 6651133,
      "tags": {
        "name": "지변동",
        "name:en": "Jibyeondong",
        "name:ko": "지변동",
        "name:ko-Latn": "Jibyeon-dong",
        "ncat": "교차로및지명",
        "place": "village",
        "source": "mp2osm"
      }
    },
    {
      "type": "node",
      "id": 415152260,
      "lat": 37.79046,
      "lon": 128.86459,
      "timestamp": "2018-08-11T06:19:14Z",
      "version": 5,
      "changeset": 61558410,
      "user": "Artemis64",
      "uid": 6651133,
      "tags": {
        "name": "죽헌동",
        "name:en": "Jukheon-dong",
        "name:ko": "죽헌동",
        "name:ko-Latn": "Jukheon-dong",
        "ncat": "교차로및지명",
        "place": "village",
        "source": "mp2osm"
      }
    },
    {
      "type": "node",
      "id": 415152261,
      "lat": 37.78981,
      "lon": 128.87634,
      "timestamp": "2018-08-11T06:19:14Z",
      "version": 5,
      "changeset": 61558410,
      "user": "Artemis64",
      "uid": 6651133,
      "tags": {
        "name": "난곡동",
        "name:en": "Nangok-dong",
        "name:ko": "난곡동",
        "name:ko-Latn": "Nangok-dong",
        "ncat": "교차로및지명",
        "place": "village",
        "source": "mp2osm"
      }
    },
    {
      "type": "node",
      "id": 415152262,
      "lat": 37.76473,
      "lon": 128.89012,
      "timestamp": "2018-08-11T06:19:14Z",
      "version": 6,
      "changeset": 61558410,
      "user": "Artemis64",
      "uid": 6651133,
      "tags": {
        "name": "교동",
        "name:en": "Gyo-dong",
        "name:ko": "교동",
        "name:ko-Latn": "Gyo-dong",
        "ncat": "교차로및지명",
        "place": "village",
        "source": "mp2osm"
      }
    },
    {
      "type": "node",
      "id": 415152263,
      "lat": 37.79284,
      "lon": 128.91253,
      "timestamp": "2018-08-11T06:19:14Z",
      "version": 5,
      "changeset": 61558410,
      "user": "Artemis64",
      "uid": 6651133,
      "tags": {
        "name": "초당동",
        "name:en": "Chodang-dong",
        "name:ko": "초당동",
        "name:ko-Latn": "Chodang-dong",
        "ncat": "교차로및지명",
        "place": "village",
        "source": "mp2osm"
      }
    },
    {
      "type": "node",
      "id": 415152323,
      "lat": 37.7915662,
      "lon": 128.9190019,
      "timestamp": "2018-08-11T06:19:14Z",
      "version": 6,
      "changeset": 61558410,
      "user": "Artemis64",
      "uid": 6651133,
      "tags": {
        "name": "강문동",
        "name:en": "Gangmun-dong",
        "name:ko": "강문동",
        "name:ko-Latn": "Gangmun-dong",
        "ncat": "교차로및지명",
        "place": "village",
        "source": "mp2osm"
      }
    },
    {
      "type": "node",
      "id": 415152324,
      "lat": 37.81932,
      "lon": 128.86154,
      "timestamp": "2018-08-11T06:19:14Z",
      "version": 4,
      "changeset": 61558410,
      "user": "Artemis64",
      "uid": 6651133,
      "tags": {
        "name": "방동리",
        "name:en": "Bangdong-ri",
        "name:ko": "방동리",
        "name:ko-Latn": "Bangdong-ri",
        "ncat": "교차로및지명",
        "place": "village",
        "source": "mp2osm"
      }
    },
    {
      "type": "node",
      "id": 415152325,
      "lat": 37.82434,
      "lon": 128.85179,
      "timestamp": "2018-08-11T06:19:15Z",
      "version": 4,
      "changeset": 61558410,
      "user": "Artemis64",
      "uid": 6651133,
      "tags": {
        "name": "미노리",
        "name:en": "Mino-ri",
        "name:ko": "미노리",
        "name:ko-Latn": "Mino-ri",
        "ncat": "교차로및지명",
        "place": "village",
        "source": "mp2osm"
      }
    },
    {
      "type": "node",
      "id": 415152326,
      "lat": 37.80365,
      "lon": 128.84068,
      "timestamp": "2018-08-11T06:19:15Z",
      "version": 4,
      "changeset": 61558410,
      "user": "Artemis64",
      "uid": 6651133,
      "tags": {
        "name": "덕실리",
        "name:en": "Deoksil-ri",
        "name:ko": "덕실리",
        "name:ko-Latn": "Deoksil-ri",
        "ncat": "교차로및지명",
        "place": "village",
        "source": "mp2osm"
      }
    },
    {
      "type": "node",
      "id": 415152327,
      "lat": 37.817427,
      "lon": 128.8395415,
      "timestamp": "2018-12-24T14:07:19Z",
      "version": 5,
      "changeset": 65740337,
      "user": "LuxuryCoop",
      "uid": 7245212,
      "tags": {
        "name": "사천면",
        "name:en": "Sacheon-myeon",
        "name:ko": "사천면",
        "name:ko-Latn": "Sacheon-myeon",
        "ncat": "교차로및지명",
        "place": "town",
        "source": "mp2osm",
        "wikidata": "Q16163911"
      }
    },
    {
      "type": "node",
      "id": 415152328,
      "lat": 37.83706,
      "lon": 128.84973,
      "timestamp": "2018-08-11T06:19:15Z",
      "version": 4,
      "changeset": 61558410,
      "user": "Artemis64",
      "uid": 6651133,
      "tags": {
        "name": "판교리",
        "name:en": "Pangyo-ri",
        "name:ko": "판교리",
        "name:ko-Latn": "Pangyo-ri",
        "ncat": "교차로및지명",
        "place": "village",
        "source": "mp2osm"
      }
    },
    {
      "type": "node",
      "id": 415152329,
      "lat": 37.84159,
      "lon": 128.86784,
      "timestamp": "2018-08-11T06:19:15Z",
      "version": 4,
      "changeset": 61558410,
      "user": "Artemis64",
      "uid": 6651133,
      "tags": {
        "name": "사천진리",
        "name:en": "Sacheonjin-ri",
        "name:ko": "사천진리",
        "name:ko-Latn": "Sacheonjin-ri",
        "ncat": "교차로및지명",
        "place": "village",
        "source": "mp2osm"
      }
    },
    {
      "type": "node",
      "id": 415152330,
      "lat": 37.8661712,
      "lon": 128.8430011,
      "timestamp": "2018-08-11T06:19:15Z",
      "version": 4,
      "changeset": 61558410,
      "user": "Artemis64",
      "uid": 6651133,
      "tags": {
        "name": "영진리",
        "name:en": "Yeongjin-ri",
        "name:ko": "영진리",
        "name:ko-Latn": "Yeongjin-ri",
        "ncat": "교차로및지명",
        "place": "village",
        "source": "mp2osm"
      }
    },
    {
      "type": "node",
      "id": 415152331,
      "lat": 37.8522027,
      "lon": 128.8400364,
      "timestamp": "2018-08-11T06:19:15Z",
      "version": 4,
      "changeset": 61558410,
      "user": "Artemis64",
      "uid": 6651133,
      "tags": {
        "name": "동덕리",
        "name:en": "Dongdeok-ri",
        "name:ko": "동덕리",
        "name:ko-Latn": "Dongdeok-ri",
        "ncat": "교차로및지명",
        "place": "village",
        "source": "mp2osm"
      }
    },
    {
      "type": "node",
      "id": 415152332,
      "lat": 37.75379,
      "lon": 128.89653,
      "timestamp": "2018-08-11T06:19:15Z",
      "version": 6,
      "changeset": 61558410,
      "user": "Artemis64",
      "uid": 6651133,
      "tags": {
        "name": "금학동",
        "name:en": "Geumhak-dong",
        "name:ko": "금학동",
        "name:ko-Latn": "Geumhak-dong",
        "ncat": "교차로및지명",
        "place": "village",
        "source": "mp2osm"
      }
    },
    {
      "type": "node",
      "id": 415152333,
      "lat": 37.75288,
      "lon": 128.89862,
      "timestamp": "2018-08-11T06:19:16Z",
      "version": 6,
      "changeset": 61558410,
      "user": "Artemis64",
      "uid": 6651133,
      "tags": {
        "name": "성남동",
        "name:en": "Seongnam-dong",
        "name:ko": "성남동",
        "name:ko-Latn": "Seongnam-dong",
        "ncat": "교차로및지명",
        "place": "village",
        "source": "mp2osm"
      }
    },
    {
      "type": "node",
      "id": 415152334,
      "lat": 37.75507,
      "lon": 128.89277,
      "timestamp": "2018-08-11T06:19:16Z",
      "version": 6,
      "changeset": 61558410,
      "user": "Artemis64",
      "uid": 6651133,
      "tags": {
        "name": "임당동",
        "name:en": "Imdang-dong",
        "name:ko": "임당동",
        "name:ko-Latn": "Imdang-dong",
        "ncat": "교차로및지명",
        "place": "village",
        "source": "mp2osm"
      }
    },
    {
      "type": "node",
      "id": 415152335,
      "lat": 37.75404,
      "lon": 128.89065,
      "timestamp": "2018-08-11T06:19:16Z",
      "version": 6,
      "changeset": 61558410,
      "user": "Artemis64",
      "uid": 6651133,
      "tags": {
        "name": "용강동",
        "name:en": "Yonggang-dong",
        "name:ko": "용강동",
        "name:ko-Latn": "Yonggang-dong",
        "ncat": "교차로및지명",
        "place": "village",
        "source": "mp2osm"
      }
    },
    {
      "type": "node",
      "id": 415152336,
      "lat": 37.75984,
      "lon": 128.90379,
      "timestamp": "2018-08-11T06:19:16Z",
      "version": 6,
      "changeset": 61558410,
      "user": "Artemis64",
      "uid": 6651133,
      "tags": {
        "name": "옥천동",
        "name:en": "Okcheon-dong",
        "name:ko": "옥천동",
        "name:ko-Latn": "Okcheon-dong",
        "ncat": "교차로및지명",
        "place": "village",
        "source": "mp2osm"
      }
    },
    {
      "type": "node",
      "id": 415152337,
      "lat": 37.7541723,
      "lon": 128.9213379,
      "timestamp": "2018-08-11T06:19:16Z",
      "version": 7,
      "changeset": 61558410,
      "user": "Artemis64",
      "uid": 6651133,
      "tags": {
        "name": "입암동",
        "name:en": "Ibam-dong",
        "name:ko": "입암동",
        "name:ko-Latn": "Ibam-dong",
        "ncat": "교차로및지명",
        "place": "village",
        "source": "mp2osm"
      }
    },
    {
      "type": "node",
      "id": 415152338,
      "lat": 37.7719,
      "lon": 128.90878,
      "timestamp": "2018-08-11T06:19:16Z",
      "version": 6,
      "changeset": 61558410,
      "user": "Artemis64",
      "uid": 6651133,
      "tags": {
        "name": "포남동",
        "name:en": "Ponam-dong",
        "name:ko": "포남동",
        "name:ko-Latn": "Ponam-dong",
        "ncat": "교차로및지명",
        "place": "village",
        "source": "mp2osm"
      }
    },
    {
      "type": "node",
      "id": 415152339,
      "lat": 37.79001,
      "lon": 128.88627,
      "timestamp": "2018-08-11T06:19:16Z",
      "version": 5,
      "changeset": 61558410,
      "user": "Artemis64",
      "uid": 6651133,
      "tags": {
        "name": "운정동",
        "name:en": "Unjeong-dong",
        "name:ko": "운정동",
        "name:ko-Latn": "Unjeong-dong",
        "ncat": "교차로및지명",
        "place": "village",
        "source": "mp2osm"
      }
    },
    {
      "type": "node",
      "id": 415152340,
      "lat": 37.81597,
      "lon": 128.87727,
      "timestamp": "2018-08-11T06:19:16Z",
      "version": 4,
      "changeset": 61558410,
      "user": "Artemis64",
      "uid": 6651133,
      "tags": {
        "name": "산대월리",
        "name:en": "Sandaewol-ri",
        "name:ko": "산대월리",
        "name:ko-Latn": "Sandaewol-ri",
        "ncat": "교차로및지명",
        "place": "village",
        "source": "mp2osm"
      }
    },
    {
      "type": "node",
      "id": 415152341,
      "lat": 37.80453,
      "lon": 128.88806,
      "timestamp": "2018-08-11T06:19:17Z",
      "version": 5,
      "changeset": 61558410,
      "user": "Artemis64",
      "uid": 6651133,
      "tags": {
        "name": "저동",
        "name:en": "Jeo-dong",
        "name:ko": "저동",
        "name:ko-Latn": "Jeo-dong",
        "ncat": "교차로및지명",
        "place": "village",
        "source": "mp2osm"
      }
    },
    {
      "type": "node",
      "id": 415152343,
      "lat": 37.92042,
      "lon": 128.79635,
      "timestamp": "2018-08-11T06:19:17Z",
      "version": 4,
      "changeset": 61558410,
      "user": "Artemis64",
      "uid": 6651133,
      "tags": {
        "name": "지경리",
        "name:en": "Jigyeong-ri",
        "name:ko": "지경리",
        "name:ko-Latn": "Jigyeong-ri",
        "ncat": "교차로및지명",
        "place": "village",
        "source": "mp2osm"
      }
    },
    {
      "type": "node",
      "id": 415152344,
      "lat": 37.8940702,
      "lon": 128.826413,
      "timestamp": "2019-07-31T07:43:37Z",
      "version": 7,
      "changeset": 72842270,
      "user": "鎭韓金",
      "uid": 10031194,
      "tags": {
        "name": "주문리",
        "name:en": "Jumun-ri",
        "name:ja": "注文里",
        "name:ko": "주문리",
        "name:ko-Latn": "Jumun-ri",
        "name:ru": "Чумунджин",
        "ncat": "교차로및지명",
        "place": "village",
        "source": "mp2osm"
      }
    },
    {
      "type": "node",
      "id": 415152345,
      "lat": 37.90378,
      "lon": 128.78274,
      "timestamp": "2019-07-31T07:43:58Z",
      "version": 5,
      "changeset": 72842279,
      "user": "鎭韓金",
      "uid": 10031194,
      "tags": {
        "name": "향호리",
        "name:en": "Hyangho-ri",
        "name:ja": "香湖里",
        "name:ko": "향호리",
        "name:ko-Latn": "Hyangho-ri",
        "ncat": "교차로및지명",
        "place": "village",
        "source": "mp2osm"
      }
    },
    {
      "type": "node",
      "id": 415152346,
      "lat": 37.88833,
      "lon": 128.78163,
      "timestamp": "2020-04-28T04:15:47Z",
      "version": 8,
      "changeset": 84232402,
      "user": "This Is A Display Name Desu",
      "uid": 196051,
      "tags": {
        "name": "주문진읍",
        "name:de": "Jumunjin-eup",
        "name:en": "Jumunjin-eup",
        "name:ja": "注文津邑",
        "name:ko": "주문진읍",
        "name:ko-Hani": "注文津邑",
        "name:ko-Latn": "Jumunjin-eup",
        "name:zh": "注文津邑",
        "ncat": "교차로및지명",
        "place": "town",
        "source": "mp2osm",
        "wikidata": "Q11271869"
      }
    },
    {
      "type": "node",
      "id": 415152347,
      "lat": 37.92068,
      "lon": 128.77868,
      "timestamp": "2018-08-11T06:19:17Z",
      "version": 4,
      "changeset": 61558410,
      "user": "Artemis64",
      "uid": 6651133,
      "tags": {
        "name": "임호정리",
        "name:en": "Imhojeong-ri",
        "name:ko": "임호정리",
        "name:ko-Latn": "Imhojeong-ri",
        "ncat": "교차로및지명",
        "place": "village",
        "source": "mp2osm"
      }
    },
    {
      "type": "node",
      "id": 415152348,
      "lat": 37.92174,
      "lon": 128.7579,
      "timestamp": "2018-08-11T06:19:17Z",
      "version": 4,
      "changeset": 61558410,
      "user": "Artemis64",
      "uid": 6651133,
      "tags": {
        "name": "입암리",
        "name:en": "Ibam-ri",
        "name:ko": "입암리",
        "name:ko-Latn": "Ibam-ri",
        "ncat": "교차로및지명",
        "place": "village",
        "source": "mp2osm"
      }
    },
    {
      "type": "node",
      "id": 415152349,
      "lat": 37.92135,
      "lon": 128.78666,
      "timestamp": "2018-08-11T06:19:17Z",
      "version": 4,
      "changeset": 61558410,
      "user": "Artemis64",
      "uid": 6651133,
      "tags": {
        "name": "지리",
        "name:en": "Ji-ri",
        "name:ko": "지리",
        "name:ko-Latn": "Ji-ri",
        "ncat": "교차로및지명",
        "place": "village",
        "source": "mp2osm"
      }
    },
    {
      "type": "node",
      "id": 415152350,
      "lat": 37.94427,
      "lon": 128.75584,
      "timestamp": "2018-08-11T06:19:18Z",
      "version": 4,
      "changeset": 61558410,
      "user": "Artemis64",
      "uid": 6651133,
      "tags": {
        "name": "전포매리",
        "name:en": "Jeonpomae-ri",
        "name:ko": "전포매리",
        "name:ko-Latn": "Jeonpomae-ri",
        "ncat": "교차로및지명",
        "place": "village",
        "source": "mp2osm"
      }
    },
    {
      "type": "node",
      "id": 415152351,
      "lat": 37.93032,
      "lon": 128.7877,
      "timestamp": "2018-08-11T06:19:18Z",
      "version": 4,
      "changeset": 61558410,
      "user": "Artemis64",
      "uid": 6651133,
      "tags": {
        "name": "원포리",
        "name:en": "Wonpo-ri",
        "name:ko": "원포리",
        "name:ko-Latn": "Wonpo-ri",
        "ncat": "교차로및지명",
        "place": "village",
        "source": "mp2osm"
      }
    },
    {
      "type": "node",
      "id": 415152352,
      "lat": 37.94002,
      "lon": 128.77755,
      "timestamp": "2018-08-11T06:19:18Z",
      "version": 4,
      "changeset": 61558410,
      "user": "Artemis64",
      "uid": 6651133,
      "tags": {
        "name": "남애리",
        "name:en": "Namae-ri",
        "name:ko": "남애리",
        "name:ko-Latn": "Namae-ri",
        "ncat": "교차로및지명",
        "place": "village",
        "source": "mp2osm"
      }
    },
    {
      "type": "node",
      "id": 415152353,
      "lat": 37.94807,
      "lon": 128.75259,
      "timestamp": "2018-12-24T14:07:19Z",
      "version": 5,
      "changeset": 65740337,
      "user": "LuxuryCoop",
      "uid": 7245212,
      "tags": {
        "name": "현남면",
        "name:en": "Hyeonnam-myeon",
        "name:ko": "현남면",
        "name:ko-Latn": "Hyeonnam-myeon",
        "ncat": "교차로및지명",
        "place": "town",
        "source": "mp2osm",
        "wikidata": "Q12624995"
      }
    },
    {
      "type": "node",
      "id": 415152354,
      "lat": 37.77913,
      "lon": 128.93353,
      "timestamp": "2018-08-11T06:19:18Z",
      "version": 6,
      "changeset": 61558410,
      "user": "Artemis64",
      "uid": 6651133,
      "tags": {
        "name": "송정동",
        "name:en": "Songjeongdong",
        "name:ko": "송정동",
        "name:ko-Latn": "Songjeong-dong",
        "ncat": "교차로및지명",
        "place": "village",
        "source": "mp2osm"
      }
    },
    {
      "type": "node",
      "id": 415152355,
      "lat": 37.77614,
      "lon": 128.93031,
      "timestamp": "2018-08-11T06:19:18Z",
      "version": 6,
      "changeset": 61558410,
      "user": "Artemis64",
      "uid": 6651133,
      "tags": {
        "name": "견소동",
        "name:en": "Gyeonso-dong",
        "name:ko": "견소동",
        "name:ko-Latn": "Gyeonso-dong",
        "ncat": "교차로및지명",
        "place": "village",
        "source": "mp2osm"
      }
    },
    {
      "type": "node",
      "id": 415152356,
      "lat": 37.75866,
      "lon": 128.94252,
      "timestamp": "2018-08-11T06:19:18Z",
      "version": 7,
      "changeset": 61558410,
      "user": "Artemis64",
      "uid": 6651133,
      "tags": {
        "name": "두산동",
        "name:en": "Dusan-dong",
        "name:ko": "두산동",
        "name:ko-Latn": "Dusan-dong",
        "ncat": "교차로및지명",
        "place": "village",
        "source": "mp2osm"
      }
    },
    {
      "type": "node",
      "id": 415152357,
      "lat": 37.75634,
      "lon": 128.932,
      "timestamp": "2018-08-11T06:19:18Z",
      "version": 7,
      "changeset": 61558410,
      "user": "Artemis64",
      "uid": 6651133,
      "tags": {
        "name": "학동",
        "name:en": "Hak-dong",
        "name:ko": "학동",
        "name:ko-Latn": "Hak-dong",
        "ncat": "교차로및지명",
        "place": "village",
        "source": "mp2osm"
      }
    },
    {
      "type": "node",
      "id": 415152358,
      "lat": 37.7631,
      "lon": 128.9416,
      "timestamp": "2018-08-11T06:19:19Z",
      "version": 7,
      "changeset": 61558410,
      "user": "Artemis64",
      "uid": 6651133,
      "tags": {
        "name": "병산동",
        "name:en": "Byeongsan-dong",
        "name:ko": "병산동",
        "name:ko-Latn": "Byeongsan-dong",
        "ncat": "교차로및지명",
        "place": "village",
        "source": "mp2osm"
      }
    },
    {
      "type": "node",
      "id": 415152359,
      "lat": 37.7631,
      "lon": 128.95059,
      "timestamp": "2018-08-11T06:19:19Z",
      "version": 7,
      "changeset": 61558410,
      "user": "Artemis64",
      "uid": 6651133,
      "tags": {
        "name": "남항진동",
        "name:en": "Namhangjin-dong",
        "name:ko": "남항진동",
        "name:ko-Latn": "Namhangjin-dong",
        "ncat": "교차로및지명",
        "place": "village",
        "source": "mp2osm"
      }
    },
    {
      "type": "node",
      "id": 415152360,
      "lat": 37.97832,
      "lon": 128.75775,
      "timestamp": "2018-08-11T06:19:19Z",
      "version": 4,
      "changeset": 61558410,
      "user": "Artemis64",
      "uid": 6651133,
      "tags": {
        "name": "시변리",
        "name:en": "Sibyeon-ri",
        "name:ko": "시변리",
        "name:ko-Latn": "Sibyeon-ri",
        "ncat": "교차로및지명",
        "place": "village",
        "source": "mp2osm"
      }
    },
    {
      "type": "node",
      "id": 415152361,
      "lat": 37.98096,
      "lon": 128.75396,
      "timestamp": "2018-08-11T06:19:19Z",
      "version": 4,
      "changeset": 61558410,
      "user": "Artemis64",
      "uid": 6651133,
      "tags": {
        "name": "동산리",
        "name:en": "Dongsan-ri",
        "name:ko": "동산리",
        "name:ko-Latn": "Dongsan-ri",
        "ncat": "교차로및지명",
        "place": "village",
        "source": "mp2osm"
      }
    },
    {
      "type": "node",
      "id": 415152362,
      "lat": 37.95845,
      "lon": 128.76315,
      "timestamp": "2018-08-11T06:19:19Z",
      "version": 4,
      "changeset": 61558410,
      "user": "Artemis64",
      "uid": 6651133,
      "tags": {
        "name": "광진리",
        "name:en": "Gwangjin-ri",
        "name:ko": "광진리",
        "name:ko-Latn": "Gwangjin-ri",
        "ncat": "교차로및지명",
        "place": "village",
        "source": "mp2osm"
      }
    },
    {
      "type": "node",
      "id": 415152363,
      "lat": 37.97126,
      "lon": 128.75184,
      "timestamp": "2018-08-11T06:19:19Z",
      "version": 4,
      "changeset": 61558410,
      "user": "Artemis64",
      "uid": 6651133,
      "tags": {
        "name": "창리",
        "name:en": "Chang-ri",
        "name:ko": "창리",
        "name:ko-Latn": "Chang-ri",
        "ncat": "교차로및지명",
        "place": "village",
        "source": "mp2osm"
      }
    },
    {
      "type": "node",
      "id": 415152364,
      "lat": 37.84532,
      "lon": 128.78051,
      "timestamp": "2018-12-24T14:07:19Z",
      "version": 5,
      "changeset": 65740337,
      "user": "LuxuryCoop",
      "uid": 7245212,
      "tags": {
        "name": "연곡면",
        "name:en": "Yeongok-myeon",
        "name:ko": "연곡면",
        "name:ko-Latn": "Yeongok-myeon",
        "ncat": "교차로및지명",
        "place": "town",
        "source": "mp2osm",
        "wikidata": "Q12607043"
      }
    },
    {
      "type": "node",
      "id": 415152365,
      "lat": 37.85342,
      "lon": 128.81163,
      "timestamp": "2018-08-11T06:19:19Z",
      "version": 4,
      "changeset": 61558410,
      "user": "Artemis64",
      "uid": 6651133,
      "tags": {
        "name": "송림리",
        "name:en": "Songnim-ri",
        "name:ko": "송림리",
        "name:ko-Latn": "Songnim-ri",
        "ncat": "교차로및지명",
        "place": "village",
        "source": "mp2osm"
      }
    },
    {
      "type": "node",
      "id": 415152366,
      "lat": 37.85567,
      "lon": 128.79278,
      "timestamp": "2018-08-11T06:19:20Z",
      "version": 4,
      "changeset": 61558410,
      "user": "Artemis64",
      "uid": 6651133,
      "tags": {
        "name": "행정리",
        "name:en": "Haengjeong-ri",
        "name:ko": "행정리",
        "name:ko-Latn": "Haengjeong-ri",
        "ncat": "교차로및지명",
        "place": "village",
        "source": "mp2osm"
      }
    },
    {
      "type": "node",
      "id": 415152367,
      "lat": 37.86309,
      "lon": 128.82656,
      "timestamp": "2018-08-11T06:19:20Z",
      "version": 4,
      "changeset": 61558410,
      "user": "Artemis64",
      "uid": 6651133,
      "tags": {
        "name": "방내리",
        "name:en": "Bangnae-ri",
        "name:ko": "방내리",
        "name:ko-Latn": "Bangnae-ri",
        "ncat": "교차로및지명",
        "place": "village",
        "source": "mp2osm"
      }
    },
    {
      "type": "node",
      "id": 415152368,
      "lat": 37.87633,
      "lon": 128.77549,
      "timestamp": "2019-07-31T07:43:24Z",
      "version": 5,
      "changeset": 72842263,
      "user": "鎭韓金",
      "uid": 10031194,
      "tags": {
        "name": "장덕리",
        "name:en": "Jangdeok-ri",
        "name:ja": "長德里",
        "name:ko": "장덕리",
        "name:ko-Latn": "Jangdeok-ri",
        "ncat": "교차로및지명",
        "place": "village",
        "source": "mp2osm"
      }
    },
    {
      "type": "node",
      "id": 415152369,
      "lat": 37.87614,
      "lon": 128.81793,
      "timestamp": "2019-07-31T07:42:18Z",
      "version": 5,
      "changeset": 72842226,
      "user": "鎭韓金",
      "uid": 10031194,
      "tags": {
        "name": "교항리",
        "name:en": "Gyohang-ri",
        "name:ja": "橋項里",
        "name:ko": "교항리",
        "name:ko-Latn": "Gyohang-ri",
        "ncat": "교차로및지명",
        "place": "village",
        "source": "mp2osm"
      }
    },
    {
      "type": "node",
      "id": 415152379,
      "lat": 37.98355,
      "lon": 128.67256,
      "timestamp": "2018-12-24T14:07:20Z",
      "version": 5,
      "changeset": 65740337,
      "user": "LuxuryCoop",
      "uid": 7245212,
      "tags": {
        "name": "현북면",
        "name:en": "Hyeonbuk-myeon",
        "name:ko": "현북면",
        "name:ko-Latn": "Hyeonbuk-myeon",
        "ncat": "교차로및지명",
        "place": "town",
        "source": "mp2osm",
        "wikidata": "Q12625052"
      }
    },
    {
      "type": "node",
      "id": 415152382,
      "lat": 37.94118,
      "lon": 128.71159,
      "timestamp": "2018-08-11T06:19:20Z",
      "version": 4,
      "changeset": 61558410,
      "user": "Artemis64",
      "uid": 6651133,
      "tags": {
        "name": "상월천리",
        "name:en": "Sangwolcheon-ri",
        "name:ko": "상월천리",
        "name:ko-Latn": "Sangwolcheon-ri",
        "ncat": "교차로및지명",
        "place": "village",
        "source": "mp2osm"
      }
    },
    {
      "type": "node",
      "id": 415152383,
      "lat": 37.9174,
      "lon": 128.71789,
      "timestamp": "2018-08-11T06:19:20Z",
      "version": 4,
      "changeset": 61558410,
      "user": "Artemis64",
      "uid": 6651133,
      "tags": {
        "name": "하월천리",
        "name:en": "Hawolcheon-ri",
        "name:ko": "하월천리",
        "name:ko-Latn": "Hawolcheon-ri",
        "ncat": "교차로및지명",
        "place": "village",
        "source": "mp2osm"
      }
    },
    {
      "type": "node",
      "id": 415152384,
      "lat": 37.95407,
      "lon": 128.73675,
      "timestamp": "2018-08-11T06:19:20Z",
      "version": 4,
      "changeset": 61558410,
      "user": "Artemis64",
      "uid": 6651133,
      "tags": {
        "name": "후포매리",
        "name:en": "Hupomae-ri",
        "name:ko": "후포매리",
        "name:ko-Latn": "Hupomae-ri",
        "ncat": "교차로및지명",
        "place": "village",
        "source": "mp2osm"
      }
    },
    {
      "type": "node",
      "id": 415152385,
      "lat": 37.95909,
      "lon": 128.74545,
      "timestamp": "2018-08-11T06:19:21Z",
      "version": 4,
      "changeset": 61558410,
      "user": "Artemis64",
      "uid": 6651133,
      "tags": {
        "name": "인구리",
        "name:en": "In-gu-ri",
        "name:ko": "인구리",
        "name:ko-Latn": "In-gu-ri",
        "ncat": "교차로및지명",
        "place": "village",
        "source": "mp2osm"
      }
    },
    {
      "type": "node",
      "id": 415152386,
      "lat": 37.9839,
      "lon": 128.73434,
      "timestamp": "2018-08-11T06:19:21Z",
      "version": 4,
      "changeset": 61558410,
      "user": "Artemis64",
      "uid": 6651133,
      "tags": {
        "name": "북분리",
        "name:en": "Bukbun-ri",
        "name:ko": "북분리",
        "name:ko-Latn": "Bukbun-ri",
        "ncat": "교차로및지명",
        "place": "village",
        "source": "mp2osm"
      }
    },
    {
      "type": "node",
      "id": 415152387,
      "lat": 37.96512,
      "lon": 128.71818,
      "timestamp": "2018-08-11T06:19:21Z",
      "version": 4,
      "changeset": 61558410,
      "user": "Artemis64",
      "uid": 6651133,
      "tags": {
        "name": "정자리",
        "name:en": "Jeongja-ri",
        "name:ko": "정자리",
        "name:ko-Latn": "Jeongja-ri",
        "ncat": "교차로및지명",
        "place": "village",
        "source": "mp2osm"
      }
    },
    {
      "type": "node",
      "id": 415152388,
      "lat": 37.97383,
      "lon": 128.7476,
      "timestamp": "2018-08-11T06:19:21Z",
      "version": 4,
      "changeset": 61558410,
      "user": "Artemis64",
      "uid": 6651133,
      "tags": {
        "name": "두리",
        "name:en": "Du-ri",
        "name:ko": "두리",
        "name:ko-Latn": "Du-ri",
        "ncat": "교차로및지명",
        "place": "village",
        "source": "mp2osm"
      }
    },
    {
      "type": "node",
      "id": 415152389,
      "lat": 37.97362,
      "lon": 128.73985,
      "timestamp": "2018-08-11T06:19:21Z",
      "version": 4,
      "changeset": 61558410,
      "user": "Artemis64",
      "uid": 6651133,
      "tags": {
        "name": "죽리",
        "name:en": "Juk-ri",
        "name:ko": "죽리",
        "name:ko-Latn": "Juk-ri",
        "ncat": "교차로및지명",
        "place": "village",
        "source": "mp2osm"
      }
    },
    {
      "type": "node",
      "id": 415152390,
      "lat": 37.93708,
      "lon": 128.74673,
      "timestamp": "2018-08-11T06:19:21Z",
      "version": 4,
      "changeset": 61558410,
      "user": "Artemis64",
      "uid": 6651133,
      "tags": {
        "name": "견불리",
        "name:en": "Gyeonbul-ri",
        "name:ko": "견불리",
        "name:ko-Latn": "Gyeonbul-ri",
        "ncat": "교차로및지명",
        "place": "village",
        "source": "mp2osm"
      }
    },
    {
      "type": "node",
      "id": 415152391,
      "lat": 37.99195,
      "lon": 128.7248285,
      "timestamp": "2019-07-31T07:39:21Z",
      "version": 5,
      "changeset": 72842107,
      "user": "鎭韓金",
      "uid": 10031194,
      "tags": {
        "name": "잔교리",
        "name:en": "Jangyo-ri",
        "name:ja": "棧橋里",
        "name:ko": "잔교리",
        "name:ko-Latn": "Jangyo-ri",
        "ncat": "교차로및지명",
        "place": "village",
        "source": "mp2osm"
      }
    },
    {
      "type": "node",
      "id": 415152392,
      "lat": 37.97473,
      "lon": 128.69215,
      "timestamp": "2019-07-31T07:35:38Z",
      "version": 5,
      "changeset": 72841972,
      "user": "鎭韓金",
      "uid": 10031194,
      "tags": {
        "name": "대치리",
        "name:en": "Daechi-ri",
        "name:ja": "大峙里",
        "name:ko": "대치리",
        "name:ko-Latn": "Daechi-ri",
        "ncat": "교차로및지명",
        "place": "village",
        "source": "mp2osm"
      }
    },
    {
      "type": "node",
      "id": 415152393,
      "lat": 37.98609,
      "lon": 128.67677,
      "timestamp": "2019-07-31T07:37:15Z",
      "version": 5,
      "changeset": 72842032,
      "user": "鎭韓金",
      "uid": 10031194,
      "tags": {
        "name": "명지리",
        "name:en": "Myeongji-ri",
        "name:ja": "明池里",
        "name:ko": "명지리",
        "name:ko-Latn": "Myeongji-ri",
        "ncat": "교차로및지명",
        "place": "village",
        "source": "mp2osm"
      }
    },
    {
      "type": "node",
      "id": 415152394,
      "lat": 37.91616,
      "lon": 128.73864,
      "timestamp": "2018-08-11T06:19:22Z",
      "version": 4,
      "changeset": 61558410,
      "user": "Artemis64",
      "uid": 6651133,
      "tags": {
        "name": "주리",
        "name:en": "Ju-ri",
        "name:ko": "주리",
        "name:ko-Latn": "Ju-ri",
        "ncat": "교차로및지명",
        "place": "village",
        "source": "mp2osm"
      }
    },
    {
      "type": "node",
      "id": 415152395,
      "lat": 37.88772,
      "lon": 128.71513,
      "timestamp": "2019-07-31T07:43:08Z",
      "version": 5,
      "changeset": 72842254,
      "user": "鎭韓金",
      "uid": 10031194,
      "tags": {
        "name": "삼교리",
        "name:en": "Samgyo-ri",
        "name:ja": "三橋里",
        "name:ko": "삼교리",
        "name:ko-Latn": "Samgyo-ri",
        "ncat": "교차로및지명",
        "place": "village",
        "source": "mp2osm"
      }
    },
    {
      "type": "node",
      "id": 415152396,
      "lat": 37.83292,
      "lon": 128.73146,
      "timestamp": "2018-08-11T06:19:22Z",
      "version": 4,
      "changeset": 61558410,
      "user": "Artemis64",
      "uid": 6651133,
      "tags": {
        "name": "퇴곡리",
        "name:en": "Toegok-ri",
        "name:ko": "퇴곡리",
        "name:ko-Latn": "Toegok-ri",
        "ncat": "교차로및지명",
        "place": "village",
        "source": "mp2osm"
      }
    },
    {
      "type": "node",
      "id": 415153011,
      "lat": 37.72261,
      "lon": 128.82643,
      "timestamp": "2018-08-11T06:19:22Z",
      "version": 7,
      "changeset": 61558410,
      "user": "Artemis64",
      "uid": 6651133,
      "tags": {
        "name": "구산리",
        "name:en": "Gusan-ri",
        "name:ko": "구산리",
        "name:ko-Latn": "Gusan-ri",
        "ncat": "교차로및지명",
        "place": "village",
        "source": "mp2osm"
      }
    },
    {
      "type": "node",
      "id": 415153013,
      "lat": 37.73291,
      "lon": 128.81971,
      "timestamp": "2018-08-11T06:19:22Z",
      "version": 6,
      "changeset": 61558410,
      "user": "Artemis64",
      "uid": 6651133,
      "tags": {
        "name": "성산면",
        "name:en": "Seongsan-myeon",
        "name:ko": "성산면",
        "name:ko-Latn": "Seongsan-myeon",
        "ncat": "교차로및지명",
        "place": "town",
        "source": "mp2osm"
      }
    },
    {
      "type": "node",
      "id": 415153014,
      "lat": 37.73913,
      "lon": 128.82437,
      "timestamp": "2018-08-11T06:19:22Z",
      "version": 5,
      "changeset": 61558410,
      "user": "Artemis64",
      "uid": 6651133,
      "tags": {
        "name": "관음리",
        "name:en": "Gwaneum-ri",
        "name:ko": "관음리",
        "name:ko-Latn": "Gwaneum-ri",
        "ncat": "교차로및지명",
        "place": "village",
        "source": "mp2osm"
      }
    },
    {
      "type": "node",
      "id": 415153015,
      "lat": 37.74887,
      "lon": 128.78042,
      "timestamp": "2018-08-11T06:19:23Z",
      "version": 4,
      "changeset": 61558410,
      "user": "Artemis64",
      "uid": 6651133,
      "tags": {
        "name": "보광리",
        "name:en": "Bogwang-ri",
        "name:ko": "보광리",
        "name:ko-Latn": "Bogwang-ri",
        "ncat": "교차로및지명",
        "place": "village",
        "source": "mp2osm"
      }
    },
    {
      "type": "node",
      "id": 415153016,
      "lat": 37.7499,
      "lon": 128.89059,
      "timestamp": "2018-08-11T06:19:23Z",
      "version": 6,
      "changeset": 61558410,
      "user": "Artemis64",
      "uid": 6651133,
      "tags": {
        "name": "남문동",
        "name:en": "Nammun-dong",
        "name:ko": "남문동",
        "name:ko-Latn": "Nammun-dong",
        "ncat": "교차로및지명",
        "place": "village",
        "source": "mp2osm"
      }
    },
    {
      "type": "node",
      "id": 415153017,
      "lat": 37.7248704,
      "lon": 128.8952119,
      "timestamp": "2018-08-11T06:19:23Z",
      "version": 7,
      "changeset": 61558410,
      "user": "Artemis64",
      "uid": 6651133,
      "tags": {
        "name": "장현동",
        "name:en": "Janghyeon-dong",
        "name:ko": "장현동",
        "name:ko-Latn": "Janghyeon-dong",
        "ncat": "교차로및지명",
        "place": "village",
        "source": "mp2osm"
      }
    },
    {
      "type": "node",
      "id": 415153018,
      "lat": 37.73055,
      "lon": 128.91116,
      "timestamp": "2018-08-11T06:19:23Z",
      "version": 7,
      "changeset": 61558410,
      "user": "Artemis64",
      "uid": 6651133,
      "tags": {
        "name": "박월동",
        "name:en": "Bagwol-dong",
        "name:ko": "박월동",
        "name:ko-Latn": "Bagwol-dong",
        "ncat": "교차로및지명",
        "place": "village",
        "source": "mp2osm"
      }
    },
    {
      "type": "node",
      "id": 415153019,
      "lat": 37.7193738,
      "lon": 128.9053925,
      "timestamp": "2018-08-11T06:19:23Z",
      "version": 8,
      "changeset": 61558410,
      "user": "Artemis64",
      "uid": 6651133,
      "tags": {
        "name": "담산동",
        "name:en": "Damsan-dong",
        "name:ko": "담산동",
        "name:ko-Latn": "Damsan-dong",
        "ncat": "교차로및지명",
        "place": "village",
        "source": "mp2osm"
      }
    },
    {
      "type": "node",
      "id": 415153020,
      "lat": 37.74274,
      "lon": 128.91168,
      "timestamp": "2018-08-11T06:19:23Z",
      "version": 7,
      "changeset": 61558410,
      "user": "Artemis64",
      "uid": 6651133,
      "tags": {
        "name": "노암동",
        "name:en": "Noam-dong",
        "name:ko": "노암동",
        "name:ko-Latn": "Noam-dong",
        "ncat": "교차로및지명",
        "place": "village",
        "source": "mp2osm"
      }
    },
    {
      "type": "node",
      "id": 415153021,
      "lat": 37.7369,
      "lon": 128.91389,
      "timestamp": "2018-08-11T06:19:24Z",
      "version": 7,
      "changeset": 61558410,
      "user": "Artemis64",
      "uid": 6651133,
      "tags": {
        "name": "유산동",
        "name:en": "Yusan-dong",
        "name:ko": "유산동",
        "name:ko-Latn": "Yusan-dong",
        "ncat": "교차로및지명",
        "place": "village",
        "source": "mp2osm"
      }
    },
    {
      "type": "node",
      "id": 415153022,
      "lat": 37.7384314,
      "lon": 128.8757664,
      "timestamp": "2018-08-11T06:19:24Z",
      "version": 7,
      "changeset": 61558410,
      "user": "Artemis64",
      "uid": 6651133,
      "tags": {
        "name": "내곡동",
        "name:en": "Naegok-dong",
        "name:ko": "내곡동",
        "name:ko-Latn": "Naegok-dong",
        "ncat": "교차로및지명",
        "place": "village",
        "source": "mp2osm"
      }
    },
    {
      "type": "node",
      "id": 415153023,
      "lat": 37.72201,
      "lon": 128.87791,
      "timestamp": "2018-08-11T06:19:24Z",
      "version": 6,
      "changeset": 61558410,
      "user": "Artemis64",
      "uid": 6651133,
      "tags": {
        "name": "여찬리",
        "name:en": "Yeochan-ri",
        "name:ko": "여찬리",
        "name:ko-Latn": "Yeochan-ri",
        "ncat": "교차로및지명",
        "place": "village",
        "source": "mp2osm"
      }
    },
    {
      "type": "node",
      "id": 415153024,
      "lat": 37.7525313,
      "lon": 128.8759523,
      "timestamp": "2021-11-08T14:37:16Z",
      "version": 25,
      "changeset": 113525349,
      "user": "Cubbe",
      "uid": 10604125,
      "tags": {
        "alt_name:vi": "Giang Lăng",
        "int_name": "Gangneung",
        "name": "강릉시",
        "name:de": "Gangneung",
        "name:el": "Γκάνγκνουνγκ",
        "name:en": "Gangneung",
        "name:es": "Gangneung",
        "name:et": "Gangneung",
        "name:fr": "Gangneung",
        "name:ja": "江陵市",
        "name:ja-Hira": "かんぬんし",
        "name:ko": "강릉시",
        "name:ko-Hani": "江陵市",
        "name:ko-Latn": "Gangneung-si",
        "name:ru": "Каннын",
        "name:uk": "Каннин",
        "name:vi": "Gangneung",
        "name:zh": "江陵市",
        "place": "city",
        "population": "213952",
        "population:date": "2017",
        "source:population": "https://ko.wikipedia.org/wiki/%EA%B0%95%EB%A6%89%EC%8B%9C",
        "wikidata": "Q42056",
        "wikipedia": "en:Gangneung"
      }
    },
    {
      "type": "node",
      "id": 415153025,
      "lat": 37.75076,
      "lon": 128.89137,
      "timestamp": "2018-08-11T06:19:24Z",
      "version": 6,
      "changeset": 61558410,
      "user": "Artemis64",
      "uid": 6651133,
      "tags": {
        "name": "명주동",
        "name:en": "Myeongju-dong",
        "name:ko": "명주동",
        "name:ko-Latn": "Myeongju-dong",
        "ncat": "교차로및지명",
        "place": "village",
        "source": "mp2osm"
      }
    },
    {
      "type": "node",
      "id": 415153026,
      "lat": 37.75224,
      "lon": 128.89361,
      "timestamp": "2018-08-11T06:19:24Z",
      "version": 5,
      "changeset": 61558410,
      "user": "Artemis64",
      "uid": 6651133,
      "tags": {
        "name": "성내동",
        "name:en": "Seongnae-dong",
        "name:ko": "성내동",
        "name:ko-Latn": "Seongnae-dong",
        "ncat": "교차로및지명",
        "place": "village",
        "source": "mp2osm"
      }
    },
    {
      "type": "node",
      "id": 415153027,
      "lat": 37.7514196,
      "lon": 128.8941316,
      "timestamp": "2018-08-11T06:19:25Z",
      "version": 6,
      "changeset": 61558410,
      "user": "Artemis64",
      "uid": 6651133,
      "tags": {
        "name": "운산동",
        "name:en": "Unsan-dong",
        "name:ko": "운산동",
        "name:ko-Latn": "Unsan-dong",
        "ncat": "교차로및지명",
        "place": "village",
        "source": "mp2osm"
      }
    },
    {
      "type": "node",
      "id": 415153028,
      "lat": 37.73789,
      "lon": 128.84332,
      "timestamp": "2018-08-11T06:19:25Z",
      "version": 7,
      "changeset": 61558410,
      "user": "Artemis64",
      "uid": 6651133,
      "tags": {
        "name": "금산리",
        "name:en": "Geumsan-ri",
        "name:ko": "금산리",
        "name:ko-Latn": "Geumsan-ri",
        "ncat": "교차로및지명",
        "place": "village",
        "source": "mp2osm"
      }
    },
    {
      "type": "node",
      "id": 415153029,
      "lat": 37.75166,
      "lon": 128.87068,
      "timestamp": "2018-08-11T06:19:25Z",
      "version": 5,
      "changeset": 61558410,
      "user": "Artemis64",
      "uid": 6651133,
      "tags": {
        "name": "홍제동",
        "name:en": "Hongje-dong",
        "name:ko": "홍제동",
        "name:ko-Latn": "Hongje-dong",
        "ncat": "교차로및지명",
        "place": "village",
        "source": "mp2osm"
      }
    },
    {
      "type": "node",
      "id": 415153030,
      "lat": 37.73909,
      "lon": 128.86613,
      "timestamp": "2018-08-11T06:19:25Z",
      "version": 7,
      "changeset": 61558410,
      "user": "Artemis64",
      "uid": 6651133,
      "tags": {
        "name": "회산동",
        "name:en": "Hoesan-dong",
        "name:ko": "회산동",
        "name:ko-Latn": "Hoesan-dong",
        "ncat": "교차로및지명",
        "place": "village",
        "source": "mp2osm"
      }
    },
    {
      "type": "node",
      "id": 415153041,
      "lat": 37.73445,
      "lon": 128.9358,
      "timestamp": "2018-08-11T06:19:25Z",
      "version": 7,
      "changeset": 61558410,
      "user": "Artemis64",
      "uid": 6651133,
      "tags": {
        "name": "월호평동",
        "name:en": "Wolhopyeong-dong",
        "name:ko": "월호평동",
        "name:ko-Latn": "Wolhopyeong-dong",
        "ncat": "교차로및지명",
        "place": "village",
        "source": "mp2osm"
      }
    },
    {
      "type": "node",
      "id": 415153042,
      "lat": 37.74426,
      "lon": 128.92398,
      "timestamp": "2018-08-11T06:19:25Z",
      "version": 5,
      "changeset": 61558410,
      "user": "Artemis64",
      "uid": 6651133,
      "tags": {
        "name": "청량동",
        "name:en": "Cheongnyang-dong",
        "name:ko": "청량동",
        "name:ko-Latn": "Cheongnyang-dong",
        "ncat": "교차로및지명",
        "place": "village",
        "source": "mp2osm"
      }
    },
    {
      "type": "node",
      "id": 415153043,
      "lat": 37.73138,
      "lon": 128.9237,
      "timestamp": "2018-08-11T06:19:25Z",
      "version": 7,
      "changeset": 61558410,
      "user": "Artemis64",
      "uid": 6651133,
      "tags": {
        "name": "신석동",
        "name:en": "Sinseok-dong",
        "name:ko": "신석동",
        "name:ko-Latn": "Sinseok-dong",
        "ncat": "교차로및지명",
        "place": "village",
        "source": "mp2osm"
      }
    },
    {
      "type": "node",
      "id": 415153044,
      "lat": 37.7251,
      "lon": 128.94975,
      "timestamp": "2018-08-11T06:19:26Z",
      "version": 6,
      "changeset": 61558410,
      "user": "Artemis64",
      "uid": 6651133,
      "tags": {
        "name": "상시동리",
        "name:en": "Sangsidong-ri",
        "name:ko": "상시동리",
        "name:ko-Latn": "Sangsidong-ri",
        "ncat": "교차로및지명",
        "place": "village",
        "source": "mp2osm"
      }
    },
    {
      "type": "node",
      "id": 415153045,
      "lat": 37.74166,
      "lon": 128.9627,
      "timestamp": "2018-08-11T06:19:26Z",
      "version": 6,
      "changeset": 61558410,
      "user": "Artemis64",
      "uid": 6651133,
      "tags": {
        "name": "하시동리",
        "name:en": "Hasidong-ri",
        "name:ko": "하시동리",
        "name:ko-Latn": "Hasidong-ri",
        "ncat": "교차로및지명",
        "place": "village",
        "source": "mp2osm"
      }
    },
    {
      "type": "node",
      "id": 415153046,
      "lat": 37.73411,
      "lon": 128.97262,
      "timestamp": "2018-08-11T06:19:26Z",
      "version": 4,
      "changeset": 61558410,
      "user": "Artemis64",
      "uid": 6651133,
      "tags": {
        "name": "안인리",
        "name:en": "Anin-ri",
        "name:ko": "안인리",
        "name:ko-Latn": "Anin-ri",
        "ncat": "교차로및지명",
        "place": "village",
        "source": "mp2osm"
      }
    },
    {
      "type": "node",
      "id": 415153047,
      "lat": 37.72771,
      "lon": 128.9889,
      "timestamp": "2018-08-11T06:19:26Z",
      "version": 6,
      "changeset": 61558410,
      "user": "Artemis64",
      "uid": 6651133,
      "tags": {
        "name": "안인진리",
        "name:en": "Aninjin-ri",
        "name:ko": "안인진리",
        "name:ko-Latn": "Aninjin-ri",
        "ncat": "교차로및지명",
        "place": "village",
        "source": "mp2osm"
      }
    },
    {
      "type": "node",
      "id": 1878883655,
      "lat": 37.7413286,
      "lon": 128.7396008,
      "timestamp": "2021-05-01T05:23:05Z",
      "version": 5,
      "changeset": 103942200,
      "user": "pizzaiolo",
      "uid": 1772368,
      "tags": {
        "ele": "1131",
        "name": "곤신봉",
        "name:en": "gonsinbong",
        "name:ko": "곤신봉",
        "name:ko-Latn": "gonsinbong",
        "natural": "peak",
        "source": "gps",
        "wikidata": "Q27311676"
      }
    },
    {
      "type": "node",
      "id": 1878883659,
      "lat": 37.765044,
      "lon": 128.7114946,
      "timestamp": "2021-05-01T05:22:50Z",
      "version": 4,
      "changeset": 103942200,
      "user": "pizzaiolo",
      "uid": 1772368,
      "tags": {
        "ele": "1173.4",
        "name": "매봉",
        "name:en": "maebong",
        "name:ko": "매봉",
        "name:ko-Latn": "maebong",
        "natural": "peak",
        "wikidata": "Q27304269"
      }
    },
    {
      "type": "node",
      "id": 1878883660,
      "lat": 37.953015,
      "lon": 128.693521,
      "timestamp": "2021-05-01T05:20:06Z",
      "version": 5,
      "changeset": 103942200,
      "user": "pizzaiolo",
      "uid": 1772368,
      "tags": {
        "ele": "628.1",
        "name": "만월산",
        "name:en": "manwolsan",
        "name:ko": "만월산",
        "name:ko-Latn": "manwolsan",
        "natural": "peak",
        "source": "gps",
        "wikidata": "Q27278602"
      }
    },
    {
      "type": "node",
      "id": 1878890653,
      "lat": 37.764778,
      "lon": 128.67192,
      "timestamp": "2021-05-01T05:23:08Z",
      "version": 4,
      "changeset": 103942200,
      "user": "pizzaiolo",
      "uid": 1772368,
      "tags": {
        "ele": "1338",
        "name": "소황병산",
        "name:en": "sohwangbyeongsan",
        "name:ko": "소황병산",
        "name:ko-Latn": "sohwangbyeongsan",
        "natural": "peak",
        "source": "gps",
        "wikidata": "Q27312988"
      }
    },
    {
      "type": "node",
      "id": 2154239231,
      "lat": 37.7557897,
      "lon": 128.898771,
      "timestamp": "2017-09-05T12:49:16Z",
      "version": 4,
      "changeset": 51749652,
      "user": "Ryang_alt",
      "uid": 5951022,
      "tags": {
        "name": "홈플러스 강릉점(1~4층)",
        "name:en": "Home Plus",
        "name:ja": "ホームプラス江陵店",
        "shop": "supermarket"
      }
    },
    {
      "type": "node",
      "id": 3866628954,
      "lat": 37.7715088,
      "lon": 128.8766445,
      "timestamp": "2019-08-02T01:32:18Z",
      "version": 4,
      "changeset": 72919071,
      "user": "대왕판다",
      "uid": 8651497,
      "tags": {
        "brand": "CU",
        "brand:wikidata": "Q12580836",
        "name": "CU 강릉교동택지점",
        "name:en": "CU",
        "operator": "BGF리테일",
        "operator:en": "BGF Retail",
        "payment:american_express": "yes",
        "payment:cash": "yes",
        "payment:coins": "yes",
        "payment:credit_cards": "yes",
        "payment:debit_cards": "yes",
        "payment:diners_club": "yes",
        "payment:discover_card": "yes",
        "payment:jcb": "yes",
        "payment:mastercard": "yes",
        "payment:notes": "yes",
        "payment:unionpay": "yes",
        "payment:visa": "yes",
        "shop": "convenience",
        "smoking": "no",
        "website": "http://cu.bgfretail.com/index.do"
      }
    },
    {
      "type": "node",
      "id": 3872572226,
      "lat": 37.7714427,
      "lon": 128.8774966,
      "timestamp": "2015-12-02T10:14:09Z",
      "version": 1,
      "changeset": 35702752,
      "user": "박제헌",
      "uid": 2261573,
      "tags": {
        "name": "GS25 강릉사랑점",
        "name:en": "GS25 Gangneungsarang",
        "shop": "convenience",
        "website": "http://www.gs25.com"
      }
    },
    {
      "type": "node",
      "id": 3879063904,
      "lat": 37.7713448,
      "lon": 128.8787471,
      "timestamp": "2019-08-02T01:32:18Z",
      "version": 3,
      "changeset": 72919071,
      "user": "대왕판다",
      "uid": 8651497,
      "tags": {
        "brand": "MINISTOP",
        "brand:wikidata": "Q1038929",
        "name": "미니스톱 강릉택지점",
        "name:en": "Mini Stop",
        "name:ja": "ミニストップ",
        "operator": "미니스톱",
        "operator:en": "MINISTOP",
        "payment:american_express": "yes",
        "payment:cash": "yes",
        "payment:coins": "yes",
        "payment:diners_club": "yes",
        "payment:discover_card": "yes",
        "payment:jcb": "yes",
        "payment:mastercard": "yes",
        "payment:notes": "yes",
        "payment:visa": "yes",
        "shop": "convenience"
      }
    },
    {
      "type": "node",
      "id": 3912463071,
      "lat": 37.7704712,
      "lon": 128.8786466,
      "timestamp": "2015-12-27T11:16:03Z",
      "version": 1,
      "changeset": 36192331,
      "user": "박제헌",
      "uid": 2261573,
      "tags": {
        "name": "UDC마트",
        "name:en": "U Discount Mart",
        "phone": "+82 33 643 2977",
        "shop": "convenience"
      }
    },
    {
      "type": "node",
      "id": 3922907568,
      "lat": 37.7703501,
      "lon": 128.8772351,
      "timestamp": "2017-07-31T03:06:11Z",
      "version": 2,
      "changeset": 50706505,
      "user": "박제헌",
      "uid": 2261573,
      "tags": {
        "name": "위드미 강릉교동점",
        "name:en": "Withme",
        "phone": "+82 33 641 2528",
        "shop": "convenience"
      }
    },
    {
      "type": "node",
      "id": 3947348121,
      "lat": 37.7693803,
      "lon": 128.8788906,
      "timestamp": "2019-08-02T01:32:18Z",
      "version": 3,
      "changeset": 72919071,
      "user": "대왕판다",
      "uid": 8651497,
      "tags": {
        "brand": "CU",
        "brand:wikidata": "Q12580836",
        "name": "CU 장미사거리점",
        "name:en": "CU",
        "operator": "BGF리테일",
        "operator:en": "BGF Retail",
        "payment:american_express": "yes",
        "payment:cash": "yes",
        "payment:coins": "yes",
        "payment:credit_cards": "yes",
        "payment:debit_cards": "yes",
        "payment:diners_club": "yes",
        "payment:discover_card": "yes",
        "payment:jcb": "yes",
        "payment:mastercard": "yes",
        "payment:notes": "yes",
        "payment:unionpay": "yes",
        "payment:visa": "yes",
        "shop": "convenience",
        "smoking": "no",
        "website": "http://cu.bgfretail.com/index.do"
      }
    },
    {
      "type": "node",
      "id": 3953412073,
      "lat": 37.769152,
      "lon": 128.877172,
      "timestamp": "2019-08-02T01:32:18Z",
      "version": 3,
      "changeset": 72919071,
      "user": "대왕판다",
      "uid": 8651497,
      "tags": {
        "brand": "GS25",
        "brand:wikidata": "Q624041",
        "name": "GS25",
        "name:en": "GS25",
        "name:ko": "GS25",
        "operator": "GS리테일",
        "operator:en": "GS Retail",
        "payment:american_express": "yes",
        "payment:cash": "yes",
        "payment:coins": "yes",
        "payment:diners_club": "yes",
        "payment:discover_card": "yes",
        "payment:jcb": "yes",
        "payment:mastercard": "yes",
        "payment:notes": "yes",
        "payment:unionpay": "yes",
        "payment:visa": "yes",
        "shop": "convenience",
        "website": "http://gs25.gsretail.com/gscvs/ko/main"
      }
    },
    {
      "type": "node",
      "id": 4218736393,
      "lat": 37.9142494,
      "lon": 128.7859918,
      "timestamp": "2021-05-01T05:22:48Z",
      "version": 2,
      "changeset": 103942200,
      "user": "pizzaiolo",
      "uid": 1772368,
      "tags": {
        "ele": "84",
        "name": "발우봉",
        "natural": "peak",
        "wikidata": "Q27304035"
      }
    },
    {
      "type": "node",
      "id": 4641219319,
      "lat": 37.7628572,
      "lon": 128.8772485,
      "timestamp": "2017-01-29T03:34:20Z",
      "version": 1,
      "changeset": 45610072,
      "user": "minjae42",
      "uid": 5217426,
      "tags": {
        "name": "하나로마트",
        "shop": "supermarket"
      }
    },
    {
      "type": "node",
      "id": 4642593432,
      "lat": 37.719211,
      "lon": 128.8323064,
      "timestamp": "2021-12-03T05:27:50Z",
      "version": 2,
      "changeset": 114507269,
      "user": "HubMiner",
      "uid": 238419,
      "tags": {
        "addr:city": "강릉시 성산면 구산강변길",
        "addr:street": "경강로",
        "name": "성산 하나로마트",
        "opening_hours": "07:00-19:00",
        "operator": "하나로마트",
        "shop": "supermarket"
      }
    },
    {
      "type": "node",
      "id": 4642733013,
      "lat": 37.7270539,
      "lon": 128.9535866,
      "timestamp": "2017-02-03T08:43:00Z",
      "version": 2,
      "changeset": 45771634,
      "user": "ShovelAngel",
      "uid": 5221591,
      "tags": {
        "name": "강동 하나로마트",
        "shop": "supermarket"
      }
    },
    {
      "type": "node",
      "id": 4689129214,
      "lat": 37.7527843,
      "lon": 128.9038256,
      "timestamp": "2017-02-16T17:02:22Z",
      "version": 1,
      "changeset": 46142431,
      "user": "ShovelAngel",
      "uid": 5221591,
      "tags": {
        "name": "미니스톰",
        "shop": "convenience"
      }
    },
    {
      "type": "node",
      "id": 4980909098,
      "lat": 37.8563947,
      "lon": 128.8547354,
      "timestamp": "2017-07-19T22:37:43Z",
      "version": 1,
      "changeset": 50418851,
      "user": "alberttls",
      "uid": 6301841,
      "tags": {
        "name:en": "Sangyang Campground",
        "tourism": "camp_site"
      }
    },
    {
      "type": "node",
      "id": 5002597423,
      "lat": 37.7704706,
      "lon": 128.8783968,
      "timestamp": "2019-08-02T01:32:24Z",
      "version": 3,
      "changeset": 72919071,
      "user": "대왕판다",
      "uid": 8651497,
      "tags": {
        "brand": "7 ELEVEN",
        "brand:wikidata": "Q259340",
        "name": "세븐일레븐 강릉하슬라점",
        "name:en": "7-Eleven",
        "name:ja": "セブン-イレブン",
        "operator": "코리아세븐",
        "operator:en": "KOREA SEVEN",
        "payment:american_express": "yes",
        "payment:cash": "yes",
        "payment:coins": "yes",
        "payment:credit_cards": "yes",
        "payment:debit_cards": "yes",
        "payment:diners_club": "yes",
        "payment:discover_card": "yes",
        "payment:jcb": "yes",
        "payment:mastercard": "yes",
        "payment:notes": "yes",
        "payment:unionpay": "yes",
        "payment:visa": "yes",
        "shop": "convenience",
        "smoking": "no"
      }
    },
    {
      "type": "node",
      "id": 5189608530,
      "lat": 37.8066405,
      "lon": 128.8882536,
      "timestamp": "2018-08-11T06:19:34Z",
      "version": 4,
      "changeset": 61558410,
      "user": "Artemis64",
      "uid": 6651133,
      "tags": {
        "name": "안현동",
        "name:en": "Anhyeon-dong",
        "name:ko": "안현동",
        "name:ko-Latn": "Anhyeon-dong",
        "ncat": "교차로및지명",
        "place": "village",
        "source": "mp2osm"
      }
    },
    {
      "type": "node",
      "id": 5729849087,
      "lat": 37.8806485,
      "lon": 128.8264488,
      "timestamp": "2019-08-02T01:32:24Z",
      "version": 3,
      "changeset": 72919071,
      "user": "대왕판다",
      "uid": 8651497,
      "tags": {
        "brand": "CU",
        "brand:wikidata": "Q12580836",
        "name": "CU",
        "name:en": "CU",
        "operator": "BGF리테일",
        "operator:en": "BGF Retail",
        "payment:american_express": "yes",
        "payment:cash": "yes",
        "payment:coins": "yes",
        "payment:credit_cards": "yes",
        "payment:debit_cards": "yes",
        "payment:diners_club": "yes",
        "payment:discover_card": "yes",
        "payment:jcb": "yes",
        "payment:mastercard": "yes",
        "payment:notes": "yes",
        "payment:unionpay": "yes",
        "payment:visa": "yes",
        "shop": "convenience",
        "smoking": "no",
        "website": "http://cu.bgfretail.com/index.do"
      }
    },
    {
      "type": "node",
      "id": 5776412247,
      "lat": 37.8853189,
      "lon": 128.8253706,
      "timestamp": "2019-08-02T01:32:24Z",
      "version": 3,
      "changeset": 72919071,
      "user": "대왕판다",
      "uid": 8651497,
      "tags": {
        "brand": "CU",
        "brand:wikidata": "Q12580836",
        "name": "CU",
        "name:en": "CU",
        "operator": "BGF리테일",
        "operator:en": "BGF Retail",
        "payment:american_express": "yes",
        "payment:cash": "yes",
        "payment:coins": "yes",
        "payment:credit_cards": "yes",
        "payment:debit_cards": "yes",
        "payment:diners_club": "yes",
        "payment:discover_card": "yes",
        "payment:jcb": "yes",
        "payment:mastercard": "yes",
        "payment:notes": "yes",
        "payment:unionpay": "yes",
        "payment:visa": "yes",
        "shop": "convenience",
        "smoking": "no",
        "website": "http://cu.bgfretail.com/index.do"
      }
    },
    {
      "type": "node",
      "id": 5776412491,
      "lat": 37.8838837,
      "lon": 128.8245771,
      "timestamp": "2019-08-02T01:32:24Z",
      "version": 3,
      "changeset": 72919071,
      "user": "대왕판다",
      "uid": 8651497,
      "tags": {
        "brand": "GS25",
        "brand:wikidata": "Q624041",
        "name": "GS25",
        "name:en": "GS25",
        "name:ko": "GS25",
        "operator": "GS리테일",
        "operator:en": "GS Retail",
        "payment:american_express": "yes",
        "payment:cash": "yes",
        "payment:coins": "yes",
        "payment:diners_club": "yes",
        "payment:discover_card": "yes",
        "payment:jcb": "yes",
        "payment:mastercard": "yes",
        "payment:notes": "yes",
        "payment:unionpay": "yes",
        "payment:visa": "yes",
        "shop": "convenience",
        "website": "http://gs25.gsretail.com/gscvs/ko/main"
      }
    },
    {
      "type": "node",
      "id": 5776412492,
      "lat": 37.8844013,
      "lon": 128.8252624,
      "timestamp": "2019-08-02T01:32:24Z",
      "version": 3,
      "changeset": 72919071,
      "user": "대왕판다",
      "uid": 8651497,
      "tags": {
        "brand": "7 ELEVEN",
        "brand:wikidata": "Q259340",
        "name": "세븐일레븐",
        "name:en": "Seven Eleven",
        "name:ja": "セブン-イレブン",
        "operator": "코리아세븐",
        "operator:en": "KOREA SEVEN",
        "payment:american_express": "yes",
        "payment:cash": "yes",
        "payment:coins": "yes",
        "payment:credit_cards": "yes",
        "payment:debit_cards": "yes",
        "payment:diners_club": "yes",
        "payment:discover_card": "yes",
        "payment:jcb": "yes",
        "payment:mastercard": "yes",
        "payment:notes": "yes",
        "payment:unionpay": "yes",
        "payment:visa": "yes",
        "shop": "convenience",
        "smoking": "no"
      }
    },
    {
      "type": "node",
      "id": 6405937981,
      "lat": 37.8875401,
      "lon": 128.8259712,
      "timestamp": "2019-08-02T01:32:24Z",
      "version": 2,
      "changeset": 72919071,
      "user": "대왕판다",
      "uid": 8651497,
      "tags": {
        "brand": "하나로마트",
        "brand:en": "Hanaro Mart",
        "brand:wikidata": "Q12590611",
        "name": "하나로마트",
        "shop": "supermarket"
      }
    },
    {
      "type": "node",
      "id": 6417656654,
      "lat": 37.8856941,
      "lon": 128.824614,
      "timestamp": "2019-04-20T11:13:52Z",
      "version": 1,
      "changeset": 69400302,
      "user": "kangdbang",
      "uid": 8093616,
      "tags": {
        "addr:city": "Gangnueng",
        "addr:housenumber": "374",
        "addr:street": "연주로",
        "name": "다이소",
        "name:en": "Daiso",
        "name:ko": "다이소",
        "shop": "supermarket"
      }
    },
    {
      "type": "node",
      "id": 6435425885,
      "lat": 37.7788936,
      "lon": 128.8801981,
      "timestamp": "2021-01-20T11:37:26Z",
      "version": 2,
      "changeset": 97834141,
      "user": "hsseoul",
      "uid": 6058094,
      "tags": {
        "name": "오죽헌편의점",
        "name:en": "Convienent store",
        "shop": "convenience"
      }
    },
    {
      "type": "node",
      "id": 6502872885,
      "lat": 37.8882442,
      "lon": 128.8263521,
      "timestamp": "2019-08-31T05:33:56Z",
      "version": 2,
      "changeset": 73942808,
      "user": "kangdbang",
      "uid": 8093616,
      "tags": {
        "name": "원마트",
        "name:en": "One Mart",
        "shop": "supermarket"
      }
    },
    {
      "type": "node",
      "id": 6784600150,
      "lat": 38.0769096,
      "lon": 128.6748133,
      "timestamp": "2019-09-10T08:07:26Z",
      "version": 1,
      "changeset": 74295034,
      "user": "Reboli_NL",
      "uid": 93547,
      "tags": {
        "name": "GS25",
        "shop": "convenience"
      }
    },
    {
      "type": "node",
      "id": 6784733057,
      "lat": 38.019093,
      "lon": 128.7244083,
      "timestamp": "2021-05-01T09:36:38Z",
      "version": 2,
      "changeset": 103948760,
      "user": "A s u R a",
      "uid": 6106804,
      "tags": {
        "name": "GS25",
        "shop": "convenience"
      }
    },
    {
      "type": "node",
      "id": 6784947460,
      "lat": 37.9858309,
      "lon": 128.7510376,
      "timestamp": "2019-09-10T10:59:34Z",
      "version": 1,
      "changeset": 74303257,
      "user": "Reboli_NL",
      "uid": 93547,
      "tags": {
        "tourism": "camp_site"
      }
    },
    {
      "type": "node",
      "id": 6786758931,
      "lat": 37.9051498,
      "lon": 128.8290669,
      "timestamp": "2021-07-05T09:03:47Z",
      "version": 2,
      "changeset": 107427756,
      "user": "Graveleast",
      "uid": 8150144,
      "tags": {
        "name": "7-Eleven",
        "name:ja": "セブン-イレブン",
        "name:ko": "세븐일레븐",
        "shop": "convenience"
      }
    },
    {
      "type": "node",
      "id": 6786872564,
      "lat": 37.8083232,
      "lon": 128.9025358,
      "timestamp": "2019-09-11T01:13:03Z",
      "version": 1,
      "changeset": 74332625,
      "user": "Reboli_NL",
      "uid": 93547,
      "tags": {
        "name": "CU",
        "shop": "convenience"
      }
    },
    {
      "type": "node",
      "id": 7557537354,
      "lat": 37.8973249,
      "lon": 128.8344332,
      "timestamp": "2020-05-26T00:12:36Z",
      "version": 1,
      "changeset": 85735543,
      "user": "javahunter777",
      "uid": 11101713,
      "tags": {
        "name": "슈퍼",
        "shop": "supermarket"
      }
    },
    {
      "type": "node",
      "id": 7557537357,
      "lat": 37.8950362,
      "lon": 128.8316952,
      "timestamp": "2020-05-26T00:12:57Z",
      "version": 1,
      "changeset": 85735543,
      "user": "javahunter777",
      "uid": 11101713,
      "tags": {
        "name": "박가네건어물",
        "shop": "supermarket"
      }
    },
    {
      "type": "node",
      "id": 7557542885,
      "lat": 37.8859977,
      "lon": 128.8293542,
      "timestamp": "2020-05-26T00:13:22Z",
      "version": 1,
      "changeset": 85735543,
      "user": "javahunter777",
      "uid": 11101713,
      "tags": {
        "name": "월드컵건어물",
        "shop": "supermarket"
      }
    },
    {
      "type": "node",
      "id": 7558361299,
      "lat": 37.8947251,
      "lon": 128.8333791,
      "timestamp": "2020-05-26T07:46:04Z",
      "version": 1,
      "changeset": 85751742,
      "user": "javahunter777",
      "uid": 11101713,
      "tags": {
        "name": "해동건어물직매장",
        "shop": "supermarket"
      }
    },
    {
      "type": "node",
      "id": 7558361996,
      "lat": 37.8945734,
      "lon": 128.8335081,
      "timestamp": "2021-04-30T06:08:09Z",
      "version": 2,
      "changeset": 103884974,
      "user": "A s u R a",
      "uid": 6106804,
      "tags": {
        "name": "해녀종합건어물직판장",
        "shop": "supermarket"
      }
    },
    {
      "type": "node",
      "id": 8341776691,
      "lat": 37.7698863,
      "lon": 128.9076151,
      "timestamp": "2021-01-20T11:37:26Z",
      "version": 1,
      "changeset": 97834141,
      "user": "hsseoul",
      "uid": 6058094,
      "tags": {
        "name": "현대중고마트",
        "shop": "supermarket"
      }
    },
    {
      "type": "node",
      "id": 8341776781,
      "lat": 37.7691176,
      "lon": 128.9021751,
      "timestamp": "2021-01-20T11:37:26Z",
      "version": 1,
      "changeset": 97834141,
      "user": "hsseoul",
      "uid": 6058094,
      "tags": {
        "name": "에누리마트",
        "shop": "convenience"
      }
    },
    {
      "type": "node",
      "id": 8341776786,
      "lat": 37.7678487,
      "lon": 128.8999922,
      "timestamp": "2021-01-20T11:37:26Z",
      "version": 1,
      "changeset": 97834141,
      "user": "hsseoul",
      "uid": 6058094,
      "tags": {
        "name": "한신마트",
        "shop": "supermarket"
      }
    },
    {
      "type": "node",
      "id": 8341776804,
      "lat": 37.7630208,
      "lon": 128.8999826,
      "timestamp": "2021-01-20T11:37:26Z",
      "version": 1,
      "changeset": 97834141,
      "user": "hsseoul",
      "uid": 6058094,
      "tags": {
        "brand": "GS25",
        "brand:wikidata": "Q624041",
        "brand:wikipedia": "ko:GS25",
        "name": "GS25",
        "shop": "convenience"
      }
    },
    {
      "type": "node",
      "id": 8341776829,
      "lat": 37.7635505,
      "lon": 128.9001039,
      "timestamp": "2021-01-20T11:37:26Z",
      "version": 1,
      "changeset": 97834141,
      "user": "hsseoul",
      "uid": 6058094,
      "tags": {
        "brand": "CU",
        "brand:wikidata": "Q12580836",
        "brand:wikipedia": "ko:CU (편의점)",
        "name": "CU",
        "shop": "convenience"
      }
    },
    {
      "type": "node",
      "id": 8682031566,
      "lat": 37.9721488,
      "lon": 128.7607288,
      "timestamp": "2021-04-30T05:38:42Z",
      "version": 1,
      "changeset": 103883085,
      "user": "A s u R a",
      "uid": 6106804,
      "tags": {
        "addr:city": "강원도 양양군 현남면",
        "addr:housenumber": "43",
        "addr:postcode": "25053",
        "addr:street": "새나루길",
        "brand": "CU",
        "brand:wikidata": "Q12580836",
        "brand:wikipedia": "ko:CU (편의점)",
        "name": "CU 죽도해수욕장점",
        "name:ko": "CU 죽도해수욕장점",
        "shop": "convenience"
      }
    },
    {
      "type": "node",
      "id": 9106601973,
      "lat": 37.9537508,
      "lon": 128.7706749,
      "timestamp": "2021-09-20T04:17:05Z",
      "version": 1,
      "changeset": 111430003,
      "user": "Koreamap",
      "uid": 13410724,
      "tags": {
        "name": "Hyeonnam超市",
        "shop": "supermarket"
      }
    },
    {
      "type": "node",
      "id": 9289100126,
      "lat": 37.7574414,
      "lon": 128.8067004,
      "timestamp": "2021-12-04T19:21:23Z",
      "version": 2,
      "changeset": 114564120,
      "user": "izolight_import",
      "uid": 14516658,
      "tags": {
        "amenity": "shelter",
        "source": "공공데이터포털",
        "source:date": "2021-08-09"
      }
    },
    {
      "type": "node",
      "id": 9289100131,
      "lat": 37.7597192,
      "lon": 128.8050989,
      "timestamp": "2021-12-04T19:21:23Z",
      "version": 2,
      "changeset": 114564120,
      "user": "izolight_import",
      "uid": 14516658,
      "tags": {
        "amenity": "shelter",
        "source": "공공데이터포털",
        "source:date": "2021-08-09"
      }
    },
    {
      "type": "node",
      "id": 9289121320,
      "lat": 37.7229778,
      "lon": 128.8541961,
      "timestamp": "2021-12-04T19:21:23Z",
      "version": 2,
      "changeset": 114564120,
      "user": "izolight_import",
      "uid": 14516658,
      "tags": {
        "amenity": "shelter",
        "source": "공공데이터포털",
        "source:date": "2021-08-09"
      }
    },
    {
      "type": "way",
      "id": 319665372,
      "timestamp": "2014-12-31T06:13:35Z",
      "version": 1,
      "changeset": 27815904,
      "user": "박제헌",
      "uid": 2261573,
      "center": {
        "lat": 37.7710843,
        "lon": 128.8683769
      },
      "nodes": [],
      "tags": {
        "amenity": "shelter"
      }
    },
    {
      "type": "way",
      "id": 469938939,
      "timestamp": "2019-06-20T00:34:48Z",
      "version": 3,
      "changeset": 71420021,
      "user": "대왕판다",
      "uid": 8651497,
      "center": {
        "lat": 37.7506173,
        "lon": 128.8839914
      },
      "nodes": [],
      "tags": {
        "brand": "7 ELEVEN",
        "brand:wikidata": "Q259340",
        "building": "commercial",
        "name": "세븐일레븐",
        "name:en": "7-Eleven",
        "name:ja": "セブン-イレブン",
        "operator": "코리아세븐",
        "operator:en": "KOREA SEVEN",
        "payment:american_express": "yes",
        "payment:cash": "yes",
        "payment:coins": "yes",
        "payment:credit_cards": "yes",
        "payment:debit_cards": "yes",
        "payment:diners_club": "yes",
        "payment:discover_card": "yes",
        "payment:jcb": "yes",
        "payment:mastercard": "yes",
        "payment:notes": "yes",
        "payment:unionpay": "yes",
        "payment:visa": "yes",
        "shop": "convenience",
        "smoking": "no"
      }
    },
    {
      "type": "way",
      "id": 471667158,
      "timestamp": "2017-02-03T02:24:09Z",
      "version": 1,
      "changeset": 45765178,
      "user": "skidayo",
      "uid": 5247682,
      "center": {
        "lat": 37.7796484,
        "lon": 128.9160507
      },
      "nodes": [],
      "tags": {
        "building": "yes",
        "name": "농협",
        "shop": "supermarket"
      }
    },
    {
      "type": "way",
      "id": 471669722,
      "timestamp": "2017-02-03T02:43:33Z",
      "version": 1,
      "changeset": 45765446,
      "user": "skidayo",
      "uid": 5247682,
      "center": {
        "lat": 37.7778428,
        "lon": 128.9141934
      },
      "nodes": [],
      "tags": {
        "building": "yes",
        "name": "미니스탑",
        "shop": "supermarket"
      }
    },
    {
      "type": "way",
      "id": 471669726,
      "timestamp": "2019-06-20T00:34:48Z",
      "version": 3,
      "changeset": 71420021,
      "user": "대왕판다",
      "uid": 8651497,
      "center": {
        "lat": 37.7802447,
        "lon": 128.9171795
      },
      "nodes": [],
      "tags": {
        "brand": "7 ELEVEN",
        "brand:wikidata": "Q259340",
        "building": "yes",
        "name": "세븐일레븐",
        "name:en": "7-Eleven",
        "name:ja": "セブン-イレブン",
        "operator": "코리아세븐",
        "operator:en": "KOREA SEVEN",
        "payment:american_express": "yes",
        "payment:cash": "yes",
        "payment:coins": "yes",
        "payment:credit_cards": "yes",
        "payment:debit_cards": "yes",
        "payment:diners_club": "yes",
        "payment:discover_card": "yes",
        "payment:jcb": "yes",
        "payment:mastercard": "yes",
        "payment:notes": "yes",
        "payment:unionpay": "yes",
        "payment:visa": "yes",
        "shop": "convenience",
        "smoking": "no"
      }
    },
    {
      "type": "way",
      "id": 472260812,
      "timestamp": "2017-02-05T05:16:45Z",
      "version": 1,
      "changeset": 45821082,
      "user": "skidayo",
      "uid": 5247682,
      "center": {
        "lat": 37.7843124,
        "lon": 128.9154413
      },
      "nodes": [],
      "tags": {
        "building": "yes",
        "name": "월드마트",
        "shop": "supermarket"
      }
    },
    {
      "type": "way",
      "id": 472264691,
      "timestamp": "2017-02-05T06:18:18Z",
      "version": 1,
      "changeset": 45821653,
      "user": "skidayo",
      "uid": 5247682,
      "center": {
        "lat": 37.7537803,
        "lon": 128.8843567
      },
      "nodes": [],
      "tags": {
        "building": "yes",
        "name": "푸르지오마트",
        "shop": "supermarket"
      }
    },
    {
      "type": "way",
      "id": 472264692,
      "timestamp": "2017-02-05T06:18:18Z",
      "version": 1,
      "changeset": 45821653,
      "user": "skidayo",
      "uid": 5247682,
      "center": {
        "lat": 37.7540592,
        "lon": 128.884092
      },
      "nodes": [],
      "tags": {
        "building": "yes",
        "name": "홈마트",
        "shop": "supermarket"
      }
    },
    {
      "type": "way",
      "id": 473497353,
      "timestamp": "2019-06-20T00:34:48Z",
      "version": 3,
      "changeset": 71420021,
      "user": "대왕판다",
      "uid": 8651497,
      "center": {
        "lat": 37.7851282,
        "lon": 128.9140107
      },
      "nodes": [],
      "tags": {
        "brand": "7 ELEVEN",
        "brand:wikidata": "Q259340",
        "building": "yes",
        "name": "세븐일레븐",
        "name:en": "7-Eleven",
        "name:ja": "セブン-イレブン",
        "operator": "코리아세븐",
        "operator:en": "KOREA SEVEN",
        "payment:american_express": "yes",
        "payment:cash": "yes",
        "payment:coins": "yes",
        "payment:credit_cards": "yes",
        "payment:debit_cards": "yes",
        "payment:diners_club": "yes",
        "payment:discover_card": "yes",
        "payment:jcb": "yes",
        "payment:mastercard": "yes",
        "payment:notes": "yes",
        "payment:unionpay": "yes",
        "payment:visa": "yes",
        "shop": "convenience",
        "smoking": "no"
      }
    }
  ]
}