{
  "osm3s": {
    "timestamp_osm_date": "2022-08-13T23:59:59Z",
    "timestamp_osm_base": "2022-08-14T07:37:07Z",
    "copyright": "The data included in this document is from www.openstreetmap.org. The data is made available under ODbL."
  },
  "elements": [
    {
      "type": "node",
      "id": 368690575,
      "lat": 37.1566377,
      "lon": 128.9870535,
      "timestamp": "2019-03-20T08:23:41Z",
      "version": 5,
      "changeset": 68323694,
      "user": "갱이나그네",
      "uid": 5500779,
      "tags": {
        "name": "원마트",
        "name:en": "Won Mart",
        "name:ko": "원마트",
        "name:ko-Latn": "Wonmateu",
        "ncat": "마트",
        "shop": "supermarket",
        "source": "http://kr.open.gugi.yahoo.com"
      }
    },
    {
      "type": "node",
      "id": 368690580,
      "lat": 37.1597803,
      "lon": 128.9778213,
      "timestamp": "2019-01-06T16:18:21Z",
      "version": 5,
      "changeset": 66073605,
      "user": "LuxuryCoop",
      "uid": 7245212,
      "tags": {
        "name": "예채마트",
        "name:en": "Yechae Mart",
        "name:ko": "예채마트",
        "name:ko-Latn": "Yechaemateu",
        "ncat": "마트",
        "shop": "supermarket",
        "source": "http://kr.open.gugi.yahoo.com"
      }
    },
    {
      "type": "node",
      "id": 368699600,
      "lat": 36.787813,
      "lon": 128.894365,
      "timestamp": "2019-01-01T15:13:06Z",
      "version": 3,
      "changeset": 65934646,
      "user": "LuxuryCoop",
      "uid": 7245212,
      "tags": {
        "name": "대진마트",
        "name:en": "Daejin Mart",
        "name:ko": "대진마트",
        "name:ko-Latn": "Daejinmateu",
        "ncat": "마트",
        "shop": "supermarket",
        "source": "http://kr.open.gugi.yahoo.com"
      }
    },
    {
      "type": "node",
      "id": 368699603,
      "lat": 36.890233,
      "lon": 128.736839,
      "timestamp": "2019-01-06T16:19:16Z",
      "version": 3,
      "changeset": 66073605,
      "user": "LuxuryCoop",
      "uid": 7245212,
      "tags": {
        "name": "신시장마트",
        "name:en": "Sin Market Mart",
        "name:ko": "신시장마트",
        "name:ko-Latn": "Sinsijangmateu",
        "ncat": "마트",
        "shop": "supermarket",
        "source": "http://kr.open.gugi.yahoo.com"
      }
    },
    {
      "type": "node",
      "id": 368699616,
      "lat": 36.662049,
      "lon": 129.113365,
      "timestamp": "2019-01-01T15:13:06Z",
      "version": 3,
      "changeset": 65934646,
      "user": "LuxuryCoop",
      "uid": 7245212,
      "tags": {
        "name": "영양홈마트",
        "name:en": "Yeongyanghom Mart",
        "name:ko": "영양홈마트",
        "name:ko-Latn": "Yeongyanghommateu",
        "ncat": "마트",
        "shop": "supermarket",
        "source": "http://kr.open.gugi.yahoo.com"
      }
    },
    {
      "type": "node",
      "id": 368868416,
      "lat": 37.1006251,
      "lon": 129.0100681,
      "timestamp": "2019-01-06T16:53:28Z",
      "version": 5,
      "changeset": 66074445,
      "user": "LuxuryCoop",
      "uid": 7245212,
      "tags": {
        "landuse": "retail",
        "name": "장성중앙시장",
        "name:en": "Jangseongjungang Market",
        "name:ko": "장성중앙시장",
        "name:ko-Latn": "Jangseongjungangsijang",
        "ncat": "시장",
        "shop": "supermarket"
      }
    },
    {
      "type": "node",
      "id": 368871131,
      "lat": 36.700092,
      "lon": 128.808921,
      "timestamp": "2019-01-01T15:15:31Z",
      "version": 3,
      "changeset": 65934646,
      "user": "LuxuryCoop",
      "uid": 7245212,
      "tags": {
        "name": "학생야영장",
        "name:en": "Student Camping Site",
        "name:ko": "학생야영장",
        "name:ko-Latn": "Haksaengyayeongjang",
        "ncat": "야영장",
        "source": "http://kr.open.gugi.yahoo.com",
        "tourism": "camp_site"
      }
    },
    {
      "type": "node",
      "id": 368871191,
      "lat": 36.957735,
      "lon": 128.993806,
      "timestamp": "2019-01-06T16:54:21Z",
      "version": 3,
      "changeset": 66074445,
      "user": "LuxuryCoop",
      "uid": 7245212,
      "tags": {
        "name": "봉화학생야영장",
        "name:en": "Bonghwa Student Camping Site",
        "name:ko": "봉화학생야영장",
        "name:ko-Latn": "Bonghwahaksaengyayeongjang",
        "ncat": "야영장",
        "source": "http://kr.open.gugi.yahoo.com",
        "tourism": "camp_site"
      }
    },
    {
      "type": "node",
      "id": 368871215,
      "lat": 36.990435,
      "lon": 129.019925,
      "timestamp": "2019-01-06T16:54:21Z",
      "version": 3,
      "changeset": 66074445,
      "user": "LuxuryCoop",
      "uid": 7245212,
      "tags": {
        "name": "봉화학생야영장",
        "name:en": "Bonghwa Student Camping Site",
        "name:ko": "봉화학생야영장",
        "name:ko-Latn": "Bonghwahaksaengyayeongjang",
        "ncat": "야영장",
        "source": "http://kr.open.gugi.yahoo.com",
        "tourism": "camp_site"
      }
    },
    {
      "type": "node",
      "id": 368874962,
      "lat": 37.078478,
      "lon": 129.281183,
      "timestamp": "2019-01-16T08:14:00Z",
      "version": 9,
      "changeset": 66354662,
      "user": "teukkam",
      "uid": 1109623,
      "tags": {
        "leisure": "sauna",
        "name": "덕구온천",
        "name:en": "Deokgu Hot Spring",
        "name:ko": "덕구온천",
        "natural": "spring",
        "ncat": "온천",
        "source": "http://kr.open.gugi.yahoo.com"
      }
    },
    {
      "type": "node",
      "id": 368874968,
      "lat": 36.722895,
      "lon": 129.338622,
      "timestamp": "2019-01-01T15:15:35Z",
      "version": 5,
      "changeset": 65934646,
      "user": "LuxuryCoop",
      "uid": 7245212,
      "tags": {
        "leisure": "sauna",
        "name": "한화리조트 백암온천",
        "name:en": "Hanhwarijoteu Baekam Hot Spring",
        "name:ko": "한화리조트 백암온천",
        "name:ko-Latn": "Hanhwarijoteu Baekamoncheon",
        "natural": "spring",
        "ncat": "온천",
        "source": "http://kr.open.gugi.yahoo.com"
      }
    },
    {
      "type": "node",
      "id": 368940356,
      "lat": 37.159536,
      "lon": 128.988158,
      "timestamp": "2019-01-06T17:05:16Z",
      "version": 5,
      "changeset": 66074445,
      "user": "LuxuryCoop",
      "uid": 7245212,
      "tags": {
        "name": "동해삼척태백축협",
        "name:en": "Donghaesamcheoktaebaek National Livestock Cooperative Federation",
        "name:ko": "동해삼척태백축협",
        "name:ko-Latn": "Donghaesamcheoktaebaekchukhyeop",
        "ncat": "축협",
        "shop": "supermarket",
        "source": "http://kr.open.gugi.yahoo.com"
      }
    },
    {
      "type": "node",
      "id": 368940367,
      "lat": 37.128735,
      "lon": 129.003975,
      "timestamp": "2019-01-06T17:05:16Z",
      "version": 5,
      "changeset": 66074445,
      "user": "LuxuryCoop",
      "uid": 7245212,
      "tags": {
        "name": "태백축협",
        "name:en": "Taebaek National Livestock Cooperative Federation",
        "name:ko": "태백축협",
        "name:ko-Latn": "Taebaekchukhyeop",
        "ncat": "축협",
        "shop": "supermarket",
        "source": "http://kr.open.gugi.yahoo.com"
      }
    },
    {
      "type": "node",
      "id": 368941798,
      "lat": 36.8910354,
      "lon": 128.7398929,
      "timestamp": "2019-01-06T17:05:34Z",
      "version": 5,
      "changeset": 66074445,
      "user": "LuxuryCoop",
      "uid": 7245212,
      "tags": {
        "name": "안동봉화축협",
        "name:en": "Andongbonghwa National Livestock Cooperative Federation",
        "name:ko": "안동봉화축협",
        "name:ko-Latn": "Andongbonghwachukhyeop",
        "ncat": "축협",
        "shop": "supermarket",
        "source": "http://kr.open.gugi.yahoo.com"
      }
    },
    {
      "type": "node",
      "id": 368941810,
      "lat": 36.662739,
      "lon": 129.113856,
      "timestamp": "2019-01-01T15:16:43Z",
      "version": 4,
      "changeset": 65934646,
      "user": "LuxuryCoop",
      "uid": 7245212,
      "tags": {
        "name": "청송영양축협",
        "name:en": "Cheongsongyeongyang National Livestock Cooperative Federation",
        "name:ko": "청송영양축협",
        "name:ko-Latn": "Cheongsongyeongyangchukhyeop",
        "ncat": "축협",
        "shop": "supermarket",
        "source": "http://kr.open.gugi.yahoo.com"
      }
    },
    {
      "type": "node",
      "id": 368941852,
      "lat": 36.904438,
      "lon": 128.760824,
      "timestamp": "2019-01-06T17:05:34Z",
      "version": 5,
      "changeset": 66074445,
      "user": "LuxuryCoop",
      "uid": 7245212,
      "tags": {
        "name": "안동봉화축협 사료창고",
        "name:en": "Andongbonghwa National Livestock Cooperative Federation",
        "name:ko": "안동봉화축협 사료창고",
        "name:ko-Latn": "Andongbonghwachukhyeop",
        "ncat": "축협",
        "shop": "supermarket",
        "source": "http://kr.open.gugi.yahoo.com"
      }
    },
    {
      "type": "node",
      "id": 368949589,
      "lat": 37.138843,
      "lon": 129.033703,
      "timestamp": "2019-01-06T17:07:49Z",
      "version": 4,
      "changeset": 66074904,
      "user": "LuxuryCoop",
      "uid": 7245212,
      "tags": {
        "name": "청산편의점",
        "name:en": "Cheongsan Convenience Store",
        "name:ko": "청산편의점",
        "name:ko-Latn": "Cheongsanpyeonuijeom",
        "ncat": "편의점",
        "shop": "convenience",
        "source": "http://kr.open.gugi.yahoo.com"
      }
    },
    {
      "type": "node",
      "id": 368950364,
      "lat": 37.125316,
      "lon": 128.8241613,
      "timestamp": "2019-04-17T12:33:27Z",
      "version": 5,
      "changeset": 69307489,
      "user": "갱이나그네",
      "uid": 5500779,
      "tags": {
        "name": "그린편의점",
        "name:en": "Green Convenience Store",
        "name:ko": "그린편의점",
        "name:ko-Latn": "Geurinpyeonuijeom",
        "ncat": "편의점",
        "shop": "convenience",
        "source": "http://kr.open.gugi.yahoo.com"
      }
    },
    {
      "type": "node",
      "id": 368950368,
      "lat": 37.144536,
      "lon": 128.680786,
      "timestamp": "2018-08-12T04:29:32Z",
      "version": 4,
      "changeset": 61579197,
      "user": "Ian Wagner",
      "uid": 8637794,
      "tags": {
        "name": "서울편의점",
        "name:en": "Seoul Convenience Store",
        "name:ko": "서울편의점",
        "name:ko-Latn": "Seoulpyeonuijeom",
        "ncat": "편의점",
        "shop": "convenience",
        "source": "http://kr.open.gugi.yahoo.com"
      }
    },
    {
      "type": "node",
      "id": 368950388,
      "lat": 36.924759,
      "lon": 128.825807,
      "timestamp": "2019-01-06T17:07:59Z",
      "version": 3,
      "changeset": 66074904,
      "user": "LuxuryCoop",
      "uid": 7245212,
      "tags": {
        "name": "하나로광장24시편의점",
        "name:en": "Hanaro Plaza 24 Si Convenience Store",
        "name:ko": "하나로광장24시편의점",
        "name:ko-Latn": "Hanarogwangjang 24 Sipyeonuijeom",
        "ncat": "편의점",
        "shop": "convenience",
        "source": "http://kr.open.gugi.yahoo.com"
      }
    },
    {
      "type": "node",
      "id": 368950391,
      "lat": 36.667729,
      "lon": 129.115058,
      "timestamp": "2019-01-01T15:16:49Z",
      "version": 3,
      "changeset": 65934646,
      "user": "LuxuryCoop",
      "uid": 7245212,
      "tags": {
        "name": "고향편의점",
        "name:en": "Gohyang Convenience Store",
        "name:ko": "고향편의점",
        "name:ko-Latn": "Gohyangpyeonuijeom",
        "ncat": "편의점",
        "shop": "convenience",
        "source": "http://kr.open.gugi.yahoo.com"
      }
    },
    {
      "type": "node",
      "id": 414668757,
      "lat": 37.0400453,
      "lon": 129.3230241,
      "timestamp": "2020-04-02T10:59:39Z",
      "version": 7,
      "changeset": 82973803,
      "user": "Min_T",
      "uid": 8386494,
      "tags": {
        "name": "하당리",
        "name:en": "Hadangni",
        "name:ko": "하당리",
        "name:ko-Latn": "Hadangni",
        "ncat": "mp_poi",
        "place": "village",
        "source": "mp2osm"
      }
    },
    {
      "type": "node",
      "id": 415155397,
      "lat": 37.02163,
      "lon": 129.26994,
      "timestamp": "2018-08-12T04:29:52Z",
      "version": 5,
      "changeset": 61579197,
      "user": "Ian Wagner",
      "uid": 8637794,
      "tags": {
        "name": "두천리",
        "name:en": "Ducheon-ri",
        "name:ko": "두천리",
        "name:ko-Latn": "Ducheon-ri",
        "ncat": "교차로및지명",
        "place": "village",
        "source": "mp2osm"
      }
    },
    {
      "type": "node",
      "id": 415155398,
      "lat": 37.07819,
      "lon": 129.28024,
      "timestamp": "2018-08-12T04:29:52Z",
      "version": 7,
      "changeset": 61579197,
      "user": "Ian Wagner",
      "uid": 8637794,
      "tags": {
        "name": "덕구리",
        "name:en": "Deokgu-ri",
        "name:ko": "덕구리",
        "name:ko-Latn": "Deokgu-ri",
        "ncat": "교차로및지명",
        "place": "village",
        "source": "mp2osm"
      }
    },
    {
      "type": "node",
      "id": 415155399,
      "lat": 37.05875,
      "lon": 129.27612,
      "timestamp": "2018-08-12T04:29:52Z",
      "version": 5,
      "changeset": 61579197,
      "user": "Ian Wagner",
      "uid": 8637794,
      "tags": {
        "name": "상당리",
        "name:en": "Sangdang-ri",
        "name:ko": "상당리",
        "name:ko-Latn": "Sangdang-ri",
        "ncat": "교차로및지명",
        "place": "village",
        "source": "mp2osm"
      }
    },
    {
      "type": "node",
      "id": 415155400,
      "lat": 37.07961,
      "lon": 129.33135,
      "timestamp": "2022-04-25T11:33:11Z",
      "version": 9,
      "changeset": 120161960,
      "user": "Lepuse",
      "uid": 9560399,
      "tags": {
        "name": "북면",
        "name:en": "Buk-myeon",
        "name:ko": "북면",
        "name:ko-Hani": "北面",
        "name:ko-Latn": "Buk-myeon",
        "name:zh": "北面",
        "name:zh-Hans": "北面",
        "name:zh-Hant": "北面",
        "ncat": "교차로및지명",
        "place": "town",
        "source": "mp2osm"
      }
    },
    {
      "type": "node",
      "id": 415155401,
      "lat": 37.04772,
      "lon": 129.31889,
      "timestamp": "2018-08-12T04:29:53Z",
      "version": 5,
      "changeset": 61579197,
      "user": "Ian Wagner",
      "uid": 8637794,
      "tags": {
        "name": "하당리",
        "name:en": "Hadang-ri",
        "name:ko": "하당리",
        "name:ko-Latn": "Hadang-ri",
        "ncat": "교차로및지명",
        "place": "village",
        "source": "mp2osm"
      }
    },
    {
      "type": "node",
      "id": 415155402,
      "lat": 37.0563,
      "lon": 129.33374,
      "timestamp": "2018-08-12T04:29:53Z",
      "version": 5,
      "changeset": 61579197,
      "user": "Ian Wagner",
      "uid": 8637794,
      "tags": {
        "name": "사계리",
        "name:en": "Sagye-ri",
        "name:ko": "사계리",
        "name:ko-Latn": "Sagye-ri",
        "ncat": "교차로및지명",
        "place": "village",
        "source": "mp2osm"
      }
    },
    {
      "type": "node",
      "id": 415155403,
      "lat": 37.02633,
      "lon": 129.32882,
      "timestamp": "2018-08-12T04:29:53Z",
      "version": 5,
      "changeset": 61579197,
      "user": "Ian Wagner",
      "uid": 8637794,
      "tags": {
        "name": "정림리",
        "name:en": "Jeongnim-ri",
        "name:ko": "정림리",
        "name:ko-Latn": "Jeongnim-ri",
        "ncat": "교차로및지명",
        "place": "village",
        "source": "mp2osm"
      }
    },
    {
      "type": "node",
      "id": 415155404,
      "lat": 37.00496,
      "lon": 129.34251,
      "timestamp": "2018-08-12T04:29:53Z",
      "version": 5,
      "changeset": 61579197,
      "user": "Ian Wagner",
      "uid": 8637794,
      "tags": {
        "name": "신림리",
        "name:en": "Sillim-ri",
        "name:ko": "신림리",
        "name:ko-Latn": "Sillim-ri",
        "ncat": "교차로및지명",
        "place": "village",
        "source": "mp2osm"
      }
    },
    {
      "type": "node",
      "id": 415155415,
      "lat": 37.0854,
      "lon": 129.36572,
      "timestamp": "2018-08-12T04:29:53Z",
      "version": 5,
      "changeset": 61579197,
      "user": "Ian Wagner",
      "uid": 8637794,
      "tags": {
        "name": "신화리",
        "name:en": "Sinhwa-ri",
        "name:ko": "신화리",
        "name:ko-Latn": "Sinhwa-ri",
        "ncat": "교차로및지명",
        "place": "village",
        "source": "mp2osm"
      }
    },
    {
      "type": "node",
      "id": 415155416,
      "lat": 37.06396,
      "lon": 129.35145,
      "timestamp": "2018-08-12T04:29:53Z",
      "version": 5,
      "changeset": 61579197,
      "user": "Ian Wagner",
      "uid": 8637794,
      "tags": {
        "name": "소곡리",
        "name:en": "Sogok-ri",
        "name:ko": "소곡리",
        "name:ko-Latn": "Sogok-ri",
        "ncat": "교차로및지명",
        "place": "village",
        "source": "mp2osm"
      }
    },
    {
      "type": "node",
      "id": 415155417,
      "lat": 37.02015,
      "lon": 129.36099,
      "timestamp": "2018-08-12T04:29:53Z",
      "version": 5,
      "changeset": 61579197,
      "user": "Ian Wagner",
      "uid": 8637794,
      "tags": {
        "name": "호월리",
        "name:en": "Howol-ri",
        "name:ko": "호월리",
        "name:ko-Latn": "Howol-ri",
        "ncat": "교차로및지명",
        "place": "village",
        "source": "mp2osm"
      }
    },
    {
      "type": "node",
      "id": 415155418,
      "lat": 37.00609,
      "lon": 129.37109,
      "timestamp": "2022-04-25T11:33:11Z",
      "version": 12,
      "changeset": 120161960,
      "user": "Lepuse",
      "uid": 9560399,
      "tags": {
        "capital": "6",
        "name": "울진읍",
        "name:en": "Uljin-eup",
        "name:ko": "울진읍",
        "name:ko-Hani": "蔚珍邑",
        "name:ko-Latn": "Uljin-eup",
        "name:ru": "Ульджин",
        "name:zh": "蔚珍邑",
        "name:zh-Hans": "蔚珍邑",
        "name:zh-Hant": "蔚珍邑",
        "ncat": "교차로및지명",
        "place": "town",
        "source": "mp2osm",
        "wikidata": "Q12609184"
      }
    },
    {
      "type": "node",
      "id": 415155419,
      "lat": 37.10544,
      "lon": 129.34478,
      "timestamp": "2018-08-12T04:29:54Z",
      "version": 6,
      "changeset": 61579197,
      "user": "Ian Wagner",
      "uid": 8637794,
      "tags": {
        "name": "부구리",
        "name:en": "Bugu-ri",
        "name:ko": "부구리",
        "name:ko-Latn": "Bugu-ri",
        "name:ru": "Пугури",
        "ncat": "교차로및지명",
        "place": "village",
        "source": "mp2osm"
      }
    },
    {
      "type": "node",
      "id": 415155420,
      "lat": 37.12894,
      "lon": 129.36244,
      "timestamp": "2018-08-12T04:29:54Z",
      "version": 5,
      "changeset": 61579197,
      "user": "Ian Wagner",
      "uid": 8637794,
      "tags": {
        "name": "나곡리",
        "name:en": "Nagok-ri",
        "name:ko": "나곡리",
        "name:ko-Latn": "Nagok-ri",
        "ncat": "교차로및지명",
        "place": "village",
        "source": "mp2osm"
      }
    },
    {
      "type": "node",
      "id": 415155421,
      "lat": 37.16012,
      "lon": 129.34129,
      "timestamp": "2021-11-17T09:10:33Z",
      "version": 6,
      "changeset": 113887350,
      "user": "likeopenmap",
      "uid": 13410724,
      "tags": {
        "name": "월천리",
        "name:en": "Wolcheon-ri",
        "name:ko": "월천리",
        "name:ko-Latn": "Wolcheon-ri",
        "name:zh": "月川里",
        "ncat": "교차로및지명",
        "place": "village",
        "source": "mp2osm"
      }
    },
    {
      "type": "node",
      "id": 415155425,
      "lat": 37.13117,
      "lon": 129.32211,
      "timestamp": "2018-08-12T04:29:54Z",
      "version": 5,
      "changeset": 61579197,
      "user": "Ian Wagner",
      "uid": 8637794,
      "tags": {
        "name": "검성리",
        "name:en": "Geomseong-ri",
        "name:ko": "검성리",
        "name:ko-Latn": "Geomseong-ri",
        "ncat": "교차로및지명",
        "place": "village",
        "source": "mp2osm"
      }
    },
    {
      "type": "node",
      "id": 415155426,
      "lat": 37.098,
      "lon": 129.31163,
      "timestamp": "2018-08-12T04:29:54Z",
      "version": 5,
      "changeset": 61579197,
      "user": "Ian Wagner",
      "uid": 8637794,
      "tags": {
        "name": "주인리",
        "name:en": "Ju-in-ri",
        "name:ko": "주인리",
        "name:ko-Latn": "Ju-in-ri",
        "ncat": "교차로및지명",
        "place": "village",
        "source": "mp2osm"
      }
    },
    {
      "type": "node",
      "id": 415155427,
      "lat": 37.10933,
      "lon": 129.24856,
      "timestamp": "2018-08-12T04:29:57Z",
      "version": 5,
      "changeset": 61579197,
      "user": "Ian Wagner",
      "uid": 8637794,
      "tags": {
        "name": "사곡리",
        "name:en": "Sagok-ri",
        "name:ko": "사곡리",
        "name:ko-Latn": "Sagok-ri",
        "ncat": "교차로및지명",
        "place": "village",
        "source": "mp2osm"
      }
    },
    {
      "type": "node",
      "id": 415155428,
      "lat": 37.1569,
      "lon": 129.24946,
      "timestamp": "2018-08-12T04:29:58Z",
      "version": 5,
      "changeset": 61579197,
      "user": "Ian Wagner",
      "uid": 8637794,
      "tags": {
        "name": "기곡리",
        "name:en": "Gigok-ri",
        "name:ko": "기곡리",
        "name:ko-Latn": "Gigok-ri",
        "ncat": "교차로및지명",
        "place": "village",
        "source": "mp2osm"
      }
    },
    {
      "type": "node",
      "id": 415155429,
      "lat": 37.15069,
      "lon": 129.2897,
      "timestamp": "2018-08-12T04:29:58Z",
      "version": 5,
      "changeset": 61579197,
      "user": "Ian Wagner",
      "uid": 8637794,
      "tags": {
        "name": "산양리",
        "name:en": "Sanyang-ri",
        "name:ko": "산양리",
        "name:ko-Latn": "Sanyang-ri",
        "ncat": "교차로및지명",
        "place": "village",
        "source": "mp2osm"
      }
    },
    {
      "type": "node",
      "id": 415155433,
      "lat": 37.08926,
      "lon": 129.04388,
      "timestamp": "2019-09-08T02:43:45Z",
      "version": 7,
      "changeset": 74217758,
      "user": "Jisho",
      "uid": 4829972,
      "tags": {
        "name": "동점동",
        "name:en": "Dongjeom-dong",
        "name:ja": "銅店洞",
        "name:ko": "동점동",
        "name:ko-Latn": "Dongjeom-dong",
        "place": "village",
        "source": "mp2osm"
      }
    },
    {
      "type": "node",
      "id": 415155434,
      "lat": 37.01438,
      "lon": 129.07208,
      "timestamp": "2018-08-12T04:29:58Z",
      "version": 5,
      "changeset": 61579197,
      "user": "Ian Wagner",
      "uid": 8637794,
      "tags": {
        "name": "승부리",
        "name:en": "Seungbu-ri",
        "name:ko": "승부리",
        "name:ko-Latn": "Seungbu-ri",
        "ncat": "교차로및지명",
        "place": "village",
        "source": "mp2osm"
      }
    },
    {
      "type": "node",
      "id": 415155435,
      "lat": 37.04191,
      "lon": 129.05038,
      "timestamp": "2022-04-25T11:33:11Z",
      "version": 8,
      "changeset": 120161960,
      "user": "Lepuse",
      "uid": 9560399,
      "tags": {
        "name": "석포면",
        "name:en": "Seokpo-myeon",
        "name:ko": "석포면",
        "name:ko-Hani": "石浦面",
        "name:ko-Latn": "Seokpo-myeon",
        "name:zh": "石浦面",
        "name:zh-Hans": "石浦面",
        "name:zh-Hant": "石浦面",
        "ncat": "교차로및지명",
        "place": "town",
        "source": "mp2osm",
        "wikidata": "Q7451542"
      }
    },
    {
      "type": "node",
      "id": 415155436,
      "lat": 37.08905,
      "lon": 129.1634,
      "timestamp": "2018-08-12T04:29:58Z",
      "version": 5,
      "changeset": 61579197,
      "user": "Ian Wagner",
      "uid": 8637794,
      "tags": {
        "name": "풍곡리",
        "name:en": "Punggok-ri",
        "name:ko": "풍곡리",
        "name:ko-Latn": "Punggok-ri",
        "ncat": "교차로및지명",
        "place": "village",
        "source": "mp2osm"
      }
    },
    {
      "type": "node",
      "id": 415155437,
      "lat": 37.05414,
      "lon": 129.10002,
      "timestamp": "2018-08-12T04:29:58Z",
      "version": 5,
      "changeset": 61579197,
      "user": "Ian Wagner",
      "uid": 8637794,
      "tags": {
        "name": "석포리",
        "name:en": "Seokpo-ri",
        "name:ko": "석포리",
        "name:ko-Latn": "Seokpo-ri",
        "ncat": "교차로및지명",
        "place": "village",
        "source": "mp2osm"
      }
    },
    {
      "type": "node",
      "id": 415155438,
      "lat": 37.15465,
      "lon": 129.12686,
      "timestamp": "2018-08-12T04:29:58Z",
      "version": 5,
      "changeset": 61579197,
      "user": "Ian Wagner",
      "uid": 8637794,
      "tags": {
        "name": "동활리",
        "name:en": "Donghwal-ri",
        "name:ko": "동활리",
        "name:ko-Latn": "Donghwal-ri",
        "ncat": "교차로및지명",
        "place": "village",
        "source": "mp2osm"
      }
    },
    {
      "type": "node",
      "id": 415155444,
      "lat": 37.1193795,
      "lon": 129.0421079,
      "timestamp": "2019-09-08T02:43:45Z",
      "version": 8,
      "changeset": 74217758,
      "user": "Jisho",
      "uid": 4829972,
      "tags": {
        "name": "철암동",
        "name:en": "Cheoram-dong",
        "name:ja": "鉄岩洞",
        "name:ko": "철암동",
        "name:ko-Latn": "Cheoram-dong",
        "place": "village",
        "source": "mp2osm"
      }
    },
    {
      "type": "node",
      "id": 415155459,
      "lat": 37.13643,
      "lon": 129.1894,
      "timestamp": "2018-08-12T04:29:59Z",
      "version": 5,
      "changeset": 61579197,
      "user": "Ian Wagner",
      "uid": 8637794,
      "tags": {
        "name": "오저리",
        "name:en": "Ojeo-ri",
        "name:ko": "오저리",
        "name:ko-Latn": "Ojeo-ri",
        "ncat": "교차로및지명",
        "place": "village",
        "source": "mp2osm"
      }
    },
    {
      "type": "node",
      "id": 415155460,
      "lat": 37.14297,
      "lon": 129.17488,
      "timestamp": "2022-04-25T11:33:11Z",
      "version": 8,
      "changeset": 120161960,
      "user": "Lepuse",
      "uid": 9560399,
      "tags": {
        "name": "가곡면",
        "name:en": "Gagok-myeon",
        "name:ja": "柯谷面",
        "name:ko": "가곡면",
        "name:ko-Hani": "柯谷面",
        "name:ko-Latn": "Gagok-myeon",
        "name:zh": "柯谷面",
        "name:zh-Hans": "柯谷面",
        "name:zh-Hant": "柯谷面",
        "ncat": "교차로및지명",
        "place": "town",
        "source": "mp2osm"
      }
    },
    {
      "type": "node",
      "id": 415155461,
      "lat": 37.15673,
      "lon": 129.21975,
      "timestamp": "2018-08-12T04:29:59Z",
      "version": 5,
      "changeset": 61579197,
      "user": "Ian Wagner",
      "uid": 8637794,
      "tags": {
        "name": "탕곡리",
        "name:en": "Tanggok-ri",
        "name:ko": "탕곡리",
        "name:ko-Latn": "Tanggok-ri",
        "ncat": "교차로및지명",
        "place": "village",
        "source": "mp2osm"
      }
    },
    {
      "type": "node",
      "id": 415155462,
      "lat": 37.05628,
      "lon": 128.79466,
      "timestamp": "2018-08-12T04:29:59Z",
      "version": 4,
      "changeset": 61579197,
      "user": "Ian Wagner",
      "uid": 8637794,
      "tags": {
        "name": "우구치리",
        "name:en": "Uguchi-ri",
        "name:ko": "우구치리",
        "name:ko-Latn": "Uguchi-ri",
        "ncat": "교차로및지명",
        "place": "village",
        "source": "mp2osm"
      }
    },
    {
      "type": "node",
      "id": 415155463,
      "lat": 37.02056,
      "lon": 128.81422,
      "timestamp": "2018-08-12T04:29:59Z",
      "version": 5,
      "changeset": 61579197,
      "user": "Ian Wagner",
      "uid": 8637794,
      "tags": {
        "name": "서벽리",
        "name:en": "Seobyeok-ri",
        "name:ko": "서벽리",
        "name:ko-Latn": "Seobyeok-ri",
        "ncat": "교차로및지명",
        "place": "village",
        "source": "mp2osm"
      }
    },
    {
      "type": "node",
      "id": 415155464,
      "lat": 37.01549,
      "lon": 128.87205,
      "timestamp": "2018-08-12T04:29:59Z",
      "version": 5,
      "changeset": 61579197,
      "user": "Ian Wagner",
      "uid": 8637794,
      "tags": {
        "name": "애당리",
        "name:en": "Aedang-ri",
        "name:ko": "애당리",
        "name:ko-Latn": "Aedang-ri",
        "ncat": "교차로및지명",
        "place": "village",
        "source": "mp2osm"
      }
    },
    {
      "type": "node",
      "id": 415155465,
      "lat": 37.1064774,
      "lon": 128.8446806,
      "timestamp": "2018-08-12T04:30:00Z",
      "version": 4,
      "changeset": 61579197,
      "user": "Ian Wagner",
      "uid": 8637794,
      "tags": {
        "name": "천평리",
        "name:en": "Cheonpyeong-ri",
        "name:ko": "천평리",
        "name:ko-Latn": "Cheonpyeong-ri",
        "ncat": "교차로및지명",
        "place": "village",
        "source": "mp2osm"
      }
    },
    {
      "type": "node",
      "id": 415155466,
      "lat": 37.13293,
      "lon": 128.90808,
      "timestamp": "2019-09-08T02:43:45Z",
      "version": 6,
      "changeset": 74217758,
      "user": "Jisho",
      "uid": 4829972,
      "tags": {
        "name": "혈동",
        "name:en": "Hyeol-dong",
        "name:ko": "혈동",
        "name:ko-Latn": "Hyeol-dong",
        "place": "village",
        "source": "mp2osm"
      }
    },
    {
      "type": "node",
      "id": 415155467,
      "lat": 37.1451165,
      "lon": 128.8384816,
      "timestamp": "2018-08-12T04:30:00Z",
      "version": 4,
      "changeset": 61579197,
      "user": "Ian Wagner",
      "uid": 8637794,
      "tags": {
        "name": "구래리",
        "name:en": "Gurae-ri",
        "name:ko": "구래리",
        "name:ko-Latn": "Gurae-ri",
        "ncat": "교차로및지명",
        "place": "village",
        "source": "mp2osm"
      }
    },
    {
      "type": "node",
      "id": 415155468,
      "lat": 37.1135669,
      "lon": 128.8116432,
      "timestamp": "2022-04-25T11:33:11Z",
      "version": 8,
      "changeset": 120161960,
      "user": "Lepuse",
      "uid": 9560399,
      "tags": {
        "name": "상동읍",
        "name:en": "Sangdong-eup",
        "name:ja": "上東邑",
        "name:ko": "상동읍",
        "name:ko-Hani": "上東邑",
        "name:ko-Latn": "Sangdong-eup",
        "name:zh": "上東邑",
        "name:zh-Hans": "上东邑",
        "name:zh-Hant": "上東邑",
        "ncat": "교차로및지명",
        "place": "town",
        "source": "mp2osm",
        "wikidata": "Q16167097"
      }
    },
    {
      "type": "node",
      "id": 415155469,
      "lat": 37.1032753,
      "lon": 128.7968636,
      "timestamp": "2018-08-12T04:30:00Z",
      "version": 4,
      "changeset": 61579197,
      "user": "Ian Wagner",
      "uid": 8637794,
      "tags": {
        "name": "덕구리",
        "name:en": "Deokgu-ri",
        "name:ko": "덕구리",
        "name:ko-Latn": "Deokgu-ri",
        "ncat": "교차로및지명",
        "place": "village",
        "source": "mp2osm"
      }
    },
    {
      "type": "node",
      "id": 415155481,
      "lat": 37.09864,
      "lon": 128.98979,
      "timestamp": "2019-09-08T02:43:45Z",
      "version": 6,
      "changeset": 74217758,
      "user": "Jisho",
      "uid": 4829972,
      "tags": {
        "name": "장성동",
        "name:en": "Jangseong-dong",
        "name:ko": "장성동",
        "name:ko-Latn": "Jangseong-dong",
        "place": "village",
        "source": "mp2osm"
      }
    },
    {
      "type": "node",
      "id": 415155482,
      "lat": 37.12471,
      "lon": 128.9906,
      "timestamp": "2019-09-08T02:43:45Z",
      "version": 5,
      "changeset": 74217758,
      "user": "Jisho",
      "uid": 4829972,
      "tags": {
        "name": "문곡동",
        "name:en": "Mungok-dong",
        "name:ko": "문곡동",
        "name:ko-Latn": "Mungok-dong",
        "place": "village",
        "source": "mp2osm"
      }
    },
    {
      "type": "node",
      "id": 415155483,
      "lat": 37.00513,
      "lon": 128.97052,
      "timestamp": "2018-08-12T04:30:00Z",
      "version": 5,
      "changeset": 61579197,
      "user": "Ian Wagner",
      "uid": 8637794,
      "tags": {
        "name": "고선리",
        "name:en": "Goseon-ri",
        "name:ko": "고선리",
        "name:ko-Latn": "Goseon-ri",
        "ncat": "교차로및지명",
        "place": "village",
        "source": "mp2osm"
      }
    },
    {
      "type": "node",
      "id": 415155484,
      "lat": 37.09257,
      "lon": 128.96438,
      "timestamp": "2019-09-08T02:43:45Z",
      "version": 6,
      "changeset": 74217758,
      "user": "Jisho",
      "uid": 4829972,
      "tags": {
        "name": "금천동",
        "name:en": "Geumcheon-dong",
        "name:ko": "금천동",
        "name:ko-Latn": "Geumcheon-dong",
        "place": "village",
        "source": "mp2osm"
      }
    },
    {
      "type": "node",
      "id": 415155485,
      "lat": 37.05718,
      "lon": 128.97908,
      "timestamp": "2018-08-12T04:30:01Z",
      "version": 5,
      "changeset": 61579197,
      "user": "Ian Wagner",
      "uid": 8637794,
      "tags": {
        "name": "대현리",
        "name:en": "Daehyeon-ri",
        "name:ko": "대현리",
        "name:ko-Latn": "Daehyeon-ri",
        "ncat": "교차로및지명",
        "place": "village",
        "source": "mp2osm"
      }
    },
    {
      "type": "node",
      "id": 415155486,
      "lat": 37.11209,
      "lon": 128.92677,
      "timestamp": "2019-09-08T02:43:45Z",
      "version": 6,
      "changeset": 74217758,
      "user": "Jisho",
      "uid": 4829972,
      "tags": {
        "name": "소도동",
        "name:en": "Sodo-dong",
        "name:ko": "소도동",
        "name:ko-Latn": "Sodo-dong",
        "place": "village",
        "source": "mp2osm"
      }
    },
    {
      "type": "node",
      "id": 415155519,
      "lat": 37.1516166,
      "lon": 128.7015299,
      "timestamp": "2018-08-12T04:30:01Z",
      "version": 4,
      "changeset": 61579197,
      "user": "Ian Wagner",
      "uid": 8637794,
      "tags": {
        "name": "녹전리",
        "name:en": "Nokjeon-ri",
        "name:ko": "녹전리",
        "name:ko-Latn": "Nokjeon-ri",
        "ncat": "교차로및지명",
        "place": "village",
        "source": "mp2osm"
      }
    },
    {
      "type": "node",
      "id": 415155520,
      "lat": 37.11748,
      "lon": 128.7465,
      "timestamp": "2018-08-12T04:30:01Z",
      "version": 4,
      "changeset": 61579197,
      "user": "Ian Wagner",
      "uid": 8637794,
      "tags": {
        "name": "내덕리",
        "name:en": "Naedeok-ri",
        "name:ko": "내덕리",
        "name:ko-Latn": "Naedeok-ri",
        "ncat": "교차로및지명",
        "place": "village",
        "source": "mp2osm"
      }
    },
    {
      "type": "node",
      "id": 415155521,
      "lat": 37.01783,
      "lon": 128.73608,
      "timestamp": "2018-08-12T04:30:01Z",
      "version": 4,
      "changeset": 61579197,
      "user": "Ian Wagner",
      "uid": 8637794,
      "tags": {
        "name": "오전리",
        "name:en": "Ojeon-ri",
        "name:ko": "오전리",
        "name:ko-Latn": "Ojeon-ri",
        "ncat": "교차로및지명",
        "place": "village",
        "source": "mp2osm"
      }
    },
    {
      "type": "node",
      "id": 415155522,
      "lat": 37.00333,
      "lon": 128.68295,
      "timestamp": "2018-08-12T04:30:01Z",
      "version": 4,
      "changeset": 61579197,
      "user": "Ian Wagner",
      "uid": 8637794,
      "tags": {
        "name": "북지리",
        "name:en": "Bukji-ri",
        "name:ko": "북지리",
        "name:ko-Latn": "Bukji-ri",
        "ncat": "교차로및지명",
        "place": "village",
        "source": "mp2osm"
      }
    },
    {
      "type": "node",
      "id": 415155523,
      "lat": 37.0855477,
      "lon": 128.7086498,
      "timestamp": "2018-08-12T04:30:01Z",
      "version": 4,
      "changeset": 61579197,
      "user": "Ian Wagner",
      "uid": 8637794,
      "tags": {
        "name": "내리",
        "name:en": "Nae-ri",
        "name:ko": "내리",
        "name:ko-Latn": "Nae-ri",
        "ncat": "교차로및지명",
        "place": "village",
        "source": "mp2osm"
      }
    },
    {
      "type": "node",
      "id": 415156504,
      "lat": 36.82403,
      "lon": 129.24887,
      "timestamp": "2018-08-12T04:30:02Z",
      "version": 4,
      "changeset": 61579197,
      "user": "Ian Wagner",
      "uid": 8637794,
      "tags": {
        "name": "수하리",
        "name:en": "Suha-ri",
        "name:ko": "수하리",
        "name:ko-Latn": "Suha-ri",
        "ncat": "교차로및지명",
        "place": "village",
        "source": "mp2osm"
      }
    },
    {
      "type": "node",
      "id": 415156505,
      "lat": 36.77602,
      "lon": 129.28749,
      "timestamp": "2018-08-12T04:30:02Z",
      "version": 4,
      "changeset": 61579197,
      "user": "Ian Wagner",
      "uid": 8637794,
      "tags": {
        "name": "본신리",
        "name:en": "Bonsin-ri",
        "name:ko": "본신리",
        "name:ko-Latn": "Bonsin-ri",
        "ncat": "교차로및지명",
        "place": "village",
        "source": "mp2osm"
      }
    },
    {
      "type": "node",
      "id": 415156506,
      "lat": 36.82199,
      "lon": 129.32635,
      "timestamp": "2018-08-12T04:30:02Z",
      "version": 4,
      "changeset": 61579197,
      "user": "Ian Wagner",
      "uid": 8637794,
      "tags": {
        "name": "길곡리",
        "name:en": "Gilgok-ri",
        "name:ko": "길곡리",
        "name:ko-Latn": "Gilgok-ri",
        "ncat": "교차로및지명",
        "place": "village",
        "source": "mp2osm"
      }
    },
    {
      "type": "node",
      "id": 415156507,
      "lat": 36.76465,
      "lon": 129.33232,
      "timestamp": "2018-08-12T04:30:02Z",
      "version": 4,
      "changeset": 61579197,
      "user": "Ian Wagner",
      "uid": 8637794,
      "tags": {
        "name": "외선미리",
        "name:en": "Oeseonmi-ri",
        "name:ko": "외선미리",
        "name:ko-Latn": "Oeseonmi-ri",
        "ncat": "교차로및지명",
        "place": "village",
        "source": "mp2osm"
      }
    },
    {
      "type": "node",
      "id": 415156508,
      "lat": 36.79366,
      "lon": 129.36184,
      "timestamp": "2018-08-12T04:30:02Z",
      "version": 4,
      "changeset": 61579197,
      "user": "Ian Wagner",
      "uid": 8637794,
      "tags": {
        "name": "이평리",
        "name:en": "Ipyeong-ri",
        "name:ko": "이평리",
        "name:ko-Latn": "Ipyeong-ri",
        "ncat": "교차로및지명",
        "place": "village",
        "source": "mp2osm"
      }
    },
    {
      "type": "node",
      "id": 415156512,
      "lat": 36.88331,
      "lon": 129.37193,
      "timestamp": "2022-04-25T11:33:11Z",
      "version": 11,
      "changeset": 120161960,
      "user": "Lepuse",
      "uid": 9560399,
      "tags": {
        "name": "매화면",
        "name:en": "Maehwa-myeon",
        "name:ko": "매화면",
        "name:ko-Hani": "梅花面",
        "name:ko-Latn": "Maehwa-myeon",
        "name:zh": "梅花面",
        "name:zh-Hans": "梅花面",
        "name:zh-Hant": "梅花面",
        "ncat": "교차로및지명",
        "place": "town",
        "source": "mp2osm",
        "wikidata": "Q16165608"
      }
    },
    {
      "type": "node",
      "id": 415156513,
      "lat": 36.86112,
      "lon": 129.33859,
      "timestamp": "2018-08-12T04:30:02Z",
      "version": 4,
      "changeset": 61579197,
      "user": "Ian Wagner",
      "uid": 8637794,
      "tags": {
        "name": "갈면리",
        "name:en": "Galmyeon-ri",
        "name:ko": "갈면리",
        "name:ko-Latn": "Galmyeon-ri",
        "ncat": "교차로및지명",
        "place": "village",
        "source": "mp2osm"
      }
    },
    {
      "type": "node",
      "id": 415156520,
      "lat": 36.92528,
      "lon": 129.35116,
      "timestamp": "2018-08-12T04:30:02Z",
      "version": 4,
      "changeset": 61579197,
      "user": "Ian Wagner",
      "uid": 8637794,
      "tags": {
        "name": "구산리",
        "name:en": "Gusan-ri",
        "name:ko": "구산리",
        "name:ko-Latn": "Gusan-ri",
        "ncat": "교차로및지명",
        "place": "village",
        "source": "mp2osm"
      }
    },
    {
      "type": "node",
      "id": 415156522,
      "lat": 36.89981,
      "lon": 129.3536,
      "timestamp": "2018-08-12T04:30:03Z",
      "version": 4,
      "changeset": 61579197,
      "user": "Ian Wagner",
      "uid": 8637794,
      "tags": {
        "name": "기양리",
        "name:en": "Giyang-ri",
        "name:ko": "기양리",
        "name:ko-Latn": "Giyang-ri",
        "ncat": "교차로및지명",
        "place": "village",
        "source": "mp2osm"
      }
    },
    {
      "type": "node",
      "id": 415156523,
      "lat": 36.87756,
      "lon": 129.25747,
      "timestamp": "2018-08-12T04:30:03Z",
      "version": 4,
      "changeset": 61579197,
      "user": "Ian Wagner",
      "uid": 8637794,
      "tags": {
        "name": "왕피리",
        "name:en": "Wangpi-ri",
        "name:ko": "왕피리",
        "name:ko-Latn": "Wangpi-ri",
        "ncat": "교차로및지명",
        "place": "village",
        "source": "mp2osm"
      }
    },
    {
      "type": "node",
      "id": 415156524,
      "lat": 36.94445,
      "lon": 129.28631,
      "timestamp": "2018-08-12T04:30:03Z",
      "version": 4,
      "changeset": 61579197,
      "user": "Ian Wagner",
      "uid": 8637794,
      "tags": {
        "name": "하원리",
        "name:en": "Hawon-ri",
        "name:ko": "하원리",
        "name:ko-Latn": "Hawon-ri",
        "ncat": "교차로및지명",
        "place": "village",
        "source": "mp2osm"
      }
    },
    {
      "type": "node",
      "id": 415156525,
      "lat": 36.9452,
      "lon": 129.33949,
      "timestamp": "2018-08-12T04:30:03Z",
      "version": 4,
      "changeset": 61579197,
      "user": "Ian Wagner",
      "uid": 8637794,
      "tags": {
        "name": "수곡리",
        "name:en": "Sugok-ri",
        "name:ko": "수곡리",
        "name:ko-Latn": "Sugok-ri",
        "ncat": "교차로및지명",
        "place": "village",
        "source": "mp2osm"
      }
    },
    {
      "type": "node",
      "id": 415156528,
      "lat": 36.97867,
      "lon": 129.31585,
      "timestamp": "2018-08-12T04:30:03Z",
      "version": 4,
      "changeset": 61579197,
      "user": "Ian Wagner",
      "uid": 8637794,
      "tags": {
        "name": "대흥리",
        "name:en": "Daeheung-ri",
        "name:ko": "대흥리",
        "name:ko-Latn": "Daeheung-ri",
        "ncat": "교차로및지명",
        "place": "village",
        "source": "mp2osm"
      }
    },
    {
      "type": "node",
      "id": 415156536,
      "lat": 36.9714486,
      "lon": 129.3574643,
      "timestamp": "2019-10-26T19:34:31Z",
      "version": 5,
      "changeset": 76251279,
      "user": "maphunter36",
      "uid": 2924920,
      "tags": {
        "name": "행곡리",
        "name:en": "Haenggok-ri",
        "name:ko": "행곡리",
        "name:ko-Latn": "Haenggok-ri",
        "ncat": "교차로및지명",
        "place": "village",
        "source": "mp2osm"
      }
    },
    {
      "type": "node",
      "id": 415156544,
      "lat": 36.77738,
      "lon": 129.02058,
      "timestamp": "2018-08-12T04:30:03Z",
      "version": 3,
      "changeset": 61579197,
      "user": "Ian Wagner",
      "uid": 8637794,
      "tags": {
        "name": "행화리",
        "name:en": "Haenghwa-ri",
        "name:ko": "행화리",
        "name:ko-Latn": "Haenghwa-ri",
        "ncat": "교차로및지명",
        "place": "village",
        "source": "mp2osm"
      }
    },
    {
      "type": "node",
      "id": 415156545,
      "lat": 36.80647,
      "lon": 129.02371,
      "timestamp": "2018-08-12T04:30:03Z",
      "version": 3,
      "changeset": 61579197,
      "user": "Ian Wagner",
      "uid": 8637794,
      "tags": {
        "name": "동면리",
        "name:en": "Dongmyeon-ri",
        "name:ko": "동면리",
        "name:ko-Latn": "Dongmyeon-ri",
        "ncat": "교차로및지명",
        "place": "village",
        "source": "mp2osm"
      }
    },
    {
      "type": "node",
      "id": 415156546,
      "lat": 36.78064,
      "lon": 129.06929,
      "timestamp": "2018-08-12T04:30:04Z",
      "version": 3,
      "changeset": 61579197,
      "user": "Ian Wagner",
      "uid": 8637794,
      "tags": {
        "name": "당리",
        "name:en": "Dang-ri",
        "name:ko": "당리",
        "name:ko-Latn": "Dang-ri",
        "ncat": "교차로및지명",
        "place": "village",
        "source": "mp2osm"
      }
    },
    {
      "type": "node",
      "id": 415156547,
      "lat": 36.77025,
      "lon": 129.08624,
      "timestamp": "2018-08-12T04:30:04Z",
      "version": 3,
      "changeset": 61579197,
      "user": "Ian Wagner",
      "uid": 8637794,
      "tags": {
        "name": "도곡리",
        "name:en": "Dogok-ri",
        "name:ko": "도곡리",
        "name:ko-Latn": "Dogok-ri",
        "ncat": "교차로및지명",
        "place": "village",
        "source": "mp2osm"
      }
    },
    {
      "type": "node",
      "id": 415156548,
      "lat": 36.76617,
      "lon": 129.12532,
      "timestamp": "2018-08-12T04:30:04Z",
      "version": 4,
      "changeset": 61579197,
      "user": "Ian Wagner",
      "uid": 8637794,
      "tags": {
        "name": "오리리",
        "name:en": "Ori-ri",
        "name:ko": "오리리",
        "name:ko-Latn": "Ori-ri",
        "ncat": "교차로및지명",
        "place": "village",
        "source": "mp2osm"
      }
    },
    {
      "type": "node",
      "id": 415156549,
      "lat": 36.76697,
      "lon": 129.15652,
      "timestamp": "2018-08-12T04:30:04Z",
      "version": 4,
      "changeset": 61579197,
      "user": "Ian Wagner",
      "uid": 8637794,
      "tags": {
        "name": "문암리",
        "name:en": "Munam-ri",
        "name:ko": "문암리",
        "name:ko-Latn": "Munam-ri",
        "ncat": "교차로및지명",
        "place": "village",
        "source": "mp2osm"
      }
    },
    {
      "type": "node",
      "id": 415156550,
      "lat": 36.81057,
      "lon": 129.1275,
      "timestamp": "2018-08-12T04:30:04Z",
      "version": 4,
      "changeset": 61579197,
      "user": "Ian Wagner",
      "uid": 8637794,
      "tags": {
        "name": "용화리",
        "name:en": "Yonghwa-ri",
        "name:ko": "용화리",
        "name:ko-Latn": "Yonghwa-ri",
        "ncat": "교차로및지명",
        "place": "village",
        "source": "mp2osm"
      }
    },
    {
      "type": "node",
      "id": 415156551,
      "lat": 36.87756,
      "lon": 129.12437,
      "timestamp": "2018-08-12T04:30:04Z",
      "version": 4,
      "changeset": 61579197,
      "user": "Ian Wagner",
      "uid": 8637794,
      "tags": {
        "name": "남회룡리",
        "name:en": "Namhoeryong-ri",
        "name:ko": "남회룡리",
        "name:ko-Latn": "Namhoeryong-ri",
        "ncat": "교차로및지명",
        "place": "village",
        "source": "mp2osm"
      }
    },
    {
      "type": "node",
      "id": 415156552,
      "lat": 36.84628,
      "lon": 129.16705,
      "timestamp": "2018-08-12T04:30:04Z",
      "version": 4,
      "changeset": 61579197,
      "user": "Ian Wagner",
      "uid": 8637794,
      "tags": {
        "name": "신암리",
        "name:en": "Sinam-ri",
        "name:ko": "신암리",
        "name:ko-Latn": "Sinam-ri",
        "ncat": "교차로및지명",
        "place": "village",
        "source": "mp2osm"
      }
    },
    {
      "type": "node",
      "id": 415156554,
      "lat": 36.88479,
      "lon": 129.05691,
      "timestamp": "2018-08-12T04:30:04Z",
      "version": 4,
      "changeset": 61579197,
      "user": "Ian Wagner",
      "uid": 8637794,
      "tags": {
        "name": "두음리",
        "name:en": "Dueum-ri",
        "name:ko": "두음리",
        "name:ko-Latn": "Dueum-ri",
        "ncat": "교차로및지명",
        "place": "village",
        "source": "mp2osm"
      }
    },
    {
      "type": "node",
      "id": 415156555,
      "lat": 36.86555,
      "lon": 129.05258,
      "timestamp": "2018-08-12T04:30:05Z",
      "version": 4,
      "changeset": 61579197,
      "user": "Ian Wagner",
      "uid": 8637794,
      "tags": {
        "name": "서천리",
        "name:en": "Seocheon-ri",
        "name:ko": "서천리",
        "name:ko-Latn": "Seocheon-ri",
        "ncat": "교차로및지명",
        "place": "village",
        "source": "mp2osm"
      }
    },
    {
      "type": "node",
      "id": 415156556,
      "lat": 36.84851,
      "lon": 129.03204,
      "timestamp": "2018-08-12T04:30:05Z",
      "version": 3,
      "changeset": 61579197,
      "user": "Ian Wagner",
      "uid": 8637794,
      "tags": {
        "name": "갈산리",
        "name:en": "Galsan-ri",
        "name:ko": "갈산리",
        "name:ko-Latn": "Galsan-ri",
        "ncat": "교차로및지명",
        "place": "village",
        "source": "mp2osm"
      }
    },
    {
      "type": "node",
      "id": 415156557,
      "lat": 36.89651,
      "lon": 129.01048,
      "timestamp": "2018-08-12T04:30:05Z",
      "version": 3,
      "changeset": 61579197,
      "user": "Ian Wagner",
      "uid": 8637794,
      "tags": {
        "name": "임기리",
        "name:en": "Imgi-ri",
        "name:ko": "임기리",
        "name:ko-Latn": "Imgi-ri",
        "ncat": "교차로및지명",
        "place": "village",
        "source": "mp2osm"
      }
    },
    {
      "type": "node",
      "id": 415156558,
      "lat": 36.91711,
      "lon": 129.03944,
      "timestamp": "2022-04-25T11:33:11Z",
      "version": 7,
      "changeset": 120161960,
      "user": "Lepuse",
      "uid": 9560399,
      "tags": {
        "name": "소천면",
        "name:en": "Socheon-myeon",
        "name:ko": "소천면",
        "name:ko-Hani": "小川面",
        "name:ko-Latn": "Socheon-myeon",
        "name:zh": "小川面",
        "name:zh-Hans": "小川面",
        "name:zh-Hant": "小川面",
        "ncat": "교차로및지명",
        "place": "town",
        "source": "mp2osm",
        "wikidata": "Q7550386"
      }
    },
    {
      "type": "node",
      "id": 415156559,
      "lat": 36.99245,
      "lon": 129.12486,
      "timestamp": "2018-08-12T04:30:05Z",
      "version": 4,
      "changeset": 61579197,
      "user": "Ian Wagner",
      "uid": 8637794,
      "tags": {
        "name": "전곡리",
        "name:en": "Jeon-gok-ri",
        "name:ko": "전곡리",
        "name:ko-Latn": "Jeon-gok-ri",
        "ncat": "교차로및지명",
        "place": "village",
        "source": "mp2osm"
      }
    },
    {
      "type": "node",
      "id": 415156560,
      "lat": 36.94153,
      "lon": 129.0865,
      "timestamp": "2018-08-12T04:30:05Z",
      "version": 4,
      "changeset": 61579197,
      "user": "Ian Wagner",
      "uid": 8637794,
      "tags": {
        "name": "분천리",
        "name:en": "Buncheon-ri",
        "name:ko": "분천리",
        "name:ko-Latn": "Buncheon-ri",
        "ncat": "교차로및지명",
        "place": "village",
        "source": "mp2osm"
      }
    },
    {
      "type": "node",
      "id": 415156561,
      "lat": 36.94149,
      "lon": 129.21069,
      "timestamp": "2022-04-25T11:33:11Z",
      "version": 10,
      "changeset": 120161960,
      "user": "Lepuse",
      "uid": 9560399,
      "tags": {
        "name": "금강송면",
        "name:en": "Geumgangsong-myeon",
        "name:ko": "금강송면",
        "name:ko-Hani": "金剛松面",
        "name:ko-Latn": "Geumgangsong-myeon",
        "name:zh": "金剛松面",
        "name:zh-Hans": "金刚松面",
        "name:zh-Hant": "金剛松面",
        "ncat": "교차로및지명",
        "place": "town",
        "source": "mp2osm",
        "wikidata": "Q16169867"
      }
    },
    {
      "type": "node",
      "id": 415156562,
      "lat": 36.92685,
      "lon": 129.19816,
      "timestamp": "2018-08-12T04:30:05Z",
      "version": 4,
      "changeset": 61579197,
      "user": "Ian Wagner",
      "uid": 8637794,
      "tags": {
        "name": "쌍전리",
        "name:en": "Ssangjeon-ri",
        "name:ko": "쌍전리",
        "name:ko-Latn": "Ssangjeon-ri",
        "ncat": "교차로및지명",
        "place": "village",
        "source": "mp2osm"
      }
    },
    {
      "type": "node",
      "id": 415156563,
      "lat": 36.93846,
      "lon": 129.24586,
      "timestamp": "2018-08-12T04:30:05Z",
      "version": 4,
      "changeset": 61579197,
      "user": "Ian Wagner",
      "uid": 8637794,
      "tags": {
        "name": "삼근리",
        "name:en": "Samgeun-ri",
        "name:ko": "삼근리",
        "name:ko-Latn": "Samgeun-ri",
        "ncat": "교차로및지명",
        "place": "village",
        "source": "mp2osm"
      }
    },
    {
      "type": "node",
      "id": 415156564,
      "lat": 36.99455,
      "lon": 129.20709,
      "timestamp": "2018-08-12T04:30:06Z",
      "version": 4,
      "changeset": 61579197,
      "user": "Ian Wagner",
      "uid": 8637794,
      "tags": {
        "name": "소광리",
        "name:en": "Sogwang-ri",
        "name:ko": "소광리",
        "name:ko-Latn": "Sogwang-ri",
        "ncat": "교차로및지명",
        "place": "village",
        "source": "mp2osm"
      }
    },
    {
      "type": "node",
      "id": 415156565,
      "lat": 36.79536,
      "lon": 129.18254,
      "timestamp": "2018-08-12T04:30:06Z",
      "version": 4,
      "changeset": 61579197,
      "user": "Ian Wagner",
      "uid": 8637794,
      "tags": {
        "name": "계리",
        "name:en": "Gye-ri",
        "name:ko": "계리",
        "name:ko-Latn": "Gye-ri",
        "ncat": "교차로및지명",
        "place": "village",
        "source": "mp2osm"
      }
    },
    {
      "type": "node",
      "id": 415156566,
      "lat": 36.77141,
      "lon": 129.21902,
      "timestamp": "2022-04-25T11:33:11Z",
      "version": 7,
      "changeset": 120161960,
      "user": "Lepuse",
      "uid": 9560399,
      "tags": {
        "name": "수비면",
        "name:en": "Subi-myeon",
        "name:ko": "수비면",
        "name:ko-Hani": "首比面",
        "name:ko-Latn": "Subi-myeon",
        "name:zh": "首比面",
        "name:zh-Hans": "首比面",
        "name:zh-Hant": "首比面",
        "ncat": "교차로및지명",
        "place": "town",
        "source": "mp2osm",
        "wikidata": "Q7631304"
      }
    },
    {
      "type": "node",
      "id": 415156567,
      "lat": 36.78647,
      "lon": 129.20291,
      "timestamp": "2018-08-12T04:30:06Z",
      "version": 4,
      "changeset": 61579197,
      "user": "Ian Wagner",
      "uid": 8637794,
      "tags": {
        "name": "발리리",
        "name:en": "Balli-ri",
        "name:ko": "발리리",
        "name:ko-Latn": "Balli-ri",
        "ncat": "교차로및지명",
        "place": "village",
        "source": "mp2osm"
      }
    },
    {
      "type": "node",
      "id": 415156568,
      "lat": 36.75667,
      "lon": 129.23518,
      "timestamp": "2018-08-12T04:30:06Z",
      "version": 4,
      "changeset": 61579197,
      "user": "Ian Wagner",
      "uid": 8637794,
      "tags": {
        "name": "신원리",
        "name:en": "Sinwon-ri",
        "name:ko": "신원리",
        "name:ko-Latn": "Sinwon-ri",
        "ncat": "교차로및지명",
        "place": "village",
        "source": "mp2osm"
      }
    },
    {
      "type": "node",
      "id": 415156569,
      "lat": 36.76924,
      "lon": 128.75296,
      "timestamp": "2018-08-12T04:30:06Z",
      "version": 3,
      "changeset": 61579197,
      "user": "Ian Wagner",
      "uid": 8637794,
      "tags": {
        "name": "사천리",
        "name:en": "Sacheon-ri",
        "name:ko": "사천리",
        "name:ko-Latn": "Sacheon-ri",
        "ncat": "교차로및지명",
        "place": "village",
        "source": "mp2osm"
      }
    },
    {
      "type": "node",
      "id": 415156570,
      "lat": 36.78416,
      "lon": 128.78338,
      "timestamp": "2018-08-12T04:30:06Z",
      "version": 3,
      "changeset": 61579197,
      "user": "Ian Wagner",
      "uid": 8637794,
      "tags": {
        "name": "갈현리",
        "name:en": "Galhyeon-ri",
        "name:ko": "갈현리",
        "name:ko-Latn": "Galhyeon-ri",
        "ncat": "교차로및지명",
        "place": "village",
        "source": "mp2osm"
      }
    },
    {
      "type": "node",
      "id": 415156571,
      "lat": 36.79658,
      "lon": 128.75712,
      "timestamp": "2018-08-12T04:30:06Z",
      "version": 3,
      "changeset": 61579197,
      "user": "Ian Wagner",
      "uid": 8637794,
      "tags": {
        "name": "원천리",
        "name:en": "Woncheon-ri",
        "name:ko": "원천리",
        "name:ko-Latn": "Woncheon-ri",
        "ncat": "교차로및지명",
        "place": "village",
        "source": "mp2osm"
      }
    },
    {
      "type": "node",
      "id": 415156572,
      "lat": 36.8163,
      "lon": 128.78024,
      "timestamp": "2018-08-12T04:30:07Z",
      "version": 3,
      "changeset": 61579197,
      "user": "Ian Wagner",
      "uid": 8637794,
      "tags": {
        "name": "토일리",
        "name:en": "Toil-ri",
        "name:ko": "토일리",
        "name:ko-Latn": "Toil-ri",
        "ncat": "교차로및지명",
        "place": "village",
        "source": "mp2osm"
      }
    },
    {
      "type": "node",
      "id": 415156573,
      "lat": 36.83409,
      "lon": 128.77272,
      "timestamp": "2022-04-25T11:33:11Z",
      "version": 6,
      "changeset": 120161960,
      "user": "Lepuse",
      "uid": 9560399,
      "tags": {
        "name": "상운면",
        "name:en": "Sangun-myeon",
        "name:ko": "상운면",
        "name:ko-Hani": "祥雲面",
        "name:ko-Latn": "Sangun-myeon",
        "name:zh": "祥雲面",
        "name:zh-Hans": "祥云面",
        "name:zh-Hant": "祥雲面",
        "ncat": "교차로및지명",
        "place": "town",
        "source": "mp2osm",
        "wikidata": "Q7418176"
      }
    },
    {
      "type": "node",
      "id": 415156574,
      "lat": 36.80229,
      "lon": 128.79278,
      "timestamp": "2018-08-12T04:30:07Z",
      "version": 3,
      "changeset": 61579197,
      "user": "Ian Wagner",
      "uid": 8637794,
      "tags": {
        "name": "매정리",
        "name:en": "Maejeong-ri",
        "name:ko": "매정리",
        "name:ko-Latn": "Maejeong-ri",
        "ncat": "교차로및지명",
        "place": "village",
        "source": "mp2osm"
      }
    },
    {
      "type": "node",
      "id": 415156575,
      "lat": 36.81396,
      "lon": 128.82246,
      "timestamp": "2018-08-12T04:30:07Z",
      "version": 3,
      "changeset": 61579197,
      "user": "Ian Wagner",
      "uid": 8637794,
      "tags": {
        "name": "신라리",
        "name:en": "Silla-ri",
        "name:ko": "신라리",
        "name:ko-Latn": "Silla-ri",
        "ncat": "교차로및지명",
        "place": "village",
        "source": "mp2osm"
      }
    },
    {
      "type": "node",
      "id": 415156576,
      "lat": 36.7724,
      "lon": 128.80604,
      "timestamp": "2018-08-12T04:30:07Z",
      "version": 3,
      "changeset": 61579197,
      "user": "Ian Wagner",
      "uid": 8637794,
      "tags": {
        "name": "운곡리",
        "name:en": "Ungok-ri",
        "name:ko": "운곡리",
        "name:ko-Latn": "Ungok-ri",
        "ncat": "교차로및지명",
        "place": "village",
        "source": "mp2osm"
      }
    },
    {
      "type": "node",
      "id": 415156577,
      "lat": 36.7536,
      "lon": 128.83055,
      "timestamp": "2018-08-12T04:30:07Z",
      "version": 3,
      "changeset": 61579197,
      "user": "Ian Wagner",
      "uid": 8637794,
      "tags": {
        "name": "온혜리",
        "name:en": "Onhye-ri",
        "name:ko": "온혜리",
        "name:ko-Latn": "Onhye-ri",
        "ncat": "교차로및지명",
        "place": "village",
        "source": "mp2osm"
      }
    },
    {
      "type": "node",
      "id": 415156578,
      "lat": 36.78823,
      "lon": 128.84811,
      "timestamp": "2018-08-12T04:30:07Z",
      "version": 3,
      "changeset": 61579197,
      "user": "Ian Wagner",
      "uid": 8637794,
      "tags": {
        "name": "태자리",
        "name:en": "Taeja-ri",
        "name:ko": "태자리",
        "name:ko-Latn": "Taeja-ri",
        "ncat": "교차로및지명",
        "place": "village",
        "source": "mp2osm"
      }
    },
    {
      "type": "node",
      "id": 415156579,
      "lat": 36.83918,
      "lon": 128.91537,
      "timestamp": "2018-08-12T04:30:07Z",
      "version": 3,
      "changeset": 61579197,
      "user": "Ian Wagner",
      "uid": 8637794,
      "tags": {
        "name": "고계리",
        "name:en": "Gogye-ri",
        "name:ko": "고계리",
        "name:ko-Latn": "Gogye-ri",
        "ncat": "교차로및지명",
        "place": "village",
        "source": "mp2osm"
      }
    },
    {
      "type": "node",
      "id": 415156580,
      "lat": 36.80632,
      "lon": 128.86361,
      "timestamp": "2018-08-12T04:30:08Z",
      "version": 3,
      "changeset": 61579197,
      "user": "Ian Wagner",
      "uid": 8637794,
      "tags": {
        "name": "관창리",
        "name:en": "Gwanchang-ri",
        "name:ko": "관창리",
        "name:ko-Latn": "Gwanchang-ri",
        "ncat": "교차로및지명",
        "place": "village",
        "source": "mp2osm"
      }
    },
    {
      "type": "node",
      "id": 415156581,
      "lat": 36.85507,
      "lon": 128.84077,
      "timestamp": "2018-08-12T04:30:08Z",
      "version": 3,
      "changeset": 61579197,
      "user": "Ian Wagner",
      "uid": 8637794,
      "tags": {
        "name": "고감리",
        "name:en": "Gogam-ri",
        "name:ko": "고감리",
        "name:ko-Latn": "Gogam-ri",
        "ncat": "교차로및지명",
        "place": "village",
        "source": "mp2osm"
      }
    },
    {
      "type": "node",
      "id": 415156582,
      "lat": 36.87859,
      "lon": 128.84802,
      "timestamp": "2018-08-12T04:30:08Z",
      "version": 3,
      "changeset": 61579197,
      "user": "Ian Wagner",
      "uid": 8637794,
      "tags": {
        "name": "양곡리",
        "name:en": "Yanggok-ri",
        "name:ko": "양곡리",
        "name:ko-Latn": "Yanggok-ri",
        "ncat": "교차로및지명",
        "place": "village",
        "source": "mp2osm"
      }
    },
    {
      "type": "node",
      "id": 415156583,
      "lat": 36.76257,
      "lon": 128.88923,
      "timestamp": "2018-08-12T04:30:08Z",
      "version": 3,
      "changeset": 61579197,
      "user": "Ian Wagner",
      "uid": 8637794,
      "tags": {
        "name": "가송리",
        "name:en": "Gasong-ri",
        "name:ko": "가송리",
        "name:ko-Latn": "Gasong-ri",
        "ncat": "교차로및지명",
        "place": "village",
        "source": "mp2osm"
      }
    },
    {
      "type": "node",
      "id": 415156584,
      "lat": 36.79547,
      "lon": 128.91336,
      "timestamp": "2018-08-12T04:30:08Z",
      "version": 3,
      "changeset": 61579197,
      "user": "Ian Wagner",
      "uid": 8637794,
      "tags": {
        "name": "북곡리",
        "name:en": "Bukgok-ri",
        "name:ko": "북곡리",
        "name:ko-Latn": "Bukgok-ri",
        "ncat": "교차로및지명",
        "place": "village",
        "source": "mp2osm"
      }
    },
    {
      "type": "node",
      "id": 415156585,
      "lat": 36.87321,
      "lon": 128.886,
      "timestamp": "2018-08-12T04:30:08Z",
      "version": 3,
      "changeset": 61579197,
      "user": "Ian Wagner",
      "uid": 8637794,
      "tags": {
        "name": "도천리",
        "name:en": "Docheon-ri",
        "name:ko": "도천리",
        "name:ko-Latn": "Docheon-ri",
        "ncat": "교차로및지명",
        "place": "village",
        "source": "mp2osm"
      }
    },
    {
      "type": "node",
      "id": 415156617,
      "lat": 36.84413,
      "lon": 128.87364,
      "timestamp": "2018-08-12T04:30:08Z",
      "version": 3,
      "changeset": 61579197,
      "user": "Ian Wagner",
      "uid": 8637794,
      "tags": {
        "name": "풍호리",
        "name:en": "Pungho-ri",
        "name:ko": "풍호리",
        "name:ko-Latn": "Pungho-ri",
        "ncat": "교차로및지명",
        "place": "village",
        "source": "mp2osm"
      }
    },
    {
      "type": "node",
      "id": 415156618,
      "lat": 36.84587,
      "lon": 128.88475,
      "timestamp": "2022-04-25T11:33:11Z",
      "version": 6,
      "changeset": 120161960,
      "user": "Lepuse",
      "uid": 9560399,
      "tags": {
        "name": "명호면",
        "name:en": "Myeongho-myeon",
        "name:ko": "명호면",
        "name:ko-Hani": "明湖面",
        "name:ko-Latn": "Myeongho-myeon",
        "name:zh": "明湖面",
        "name:zh-Hans": "明湖面",
        "name:zh-Hant": "明湖面",
        "ncat": "교차로및지명",
        "place": "town",
        "source": "mp2osm",
        "wikidata": "Q6947373"
      }
    },
    {
      "type": "node",
      "id": 415156619,
      "lat": 36.90237,
      "lon": 128.89926,
      "timestamp": "2018-08-12T04:30:09Z",
      "version": 3,
      "changeset": 61579197,
      "user": "Ian Wagner",
      "uid": 8637794,
      "tags": {
        "name": "척곡리",
        "name:en": "Cheokgok-ri",
        "name:ko": "척곡리",
        "name:ko-Latn": "Cheokgok-ri",
        "ncat": "교차로및지명",
        "place": "village",
        "source": "mp2osm"
      }
    },
    {
      "type": "node",
      "id": 415156620,
      "lat": 36.91267,
      "lon": 128.90887,
      "timestamp": "2022-04-25T11:33:11Z",
      "version": 6,
      "changeset": 120161960,
      "user": "Lepuse",
      "uid": 9560399,
      "tags": {
        "name": "법전면",
        "name:en": "Beopjeon-myeon",
        "name:ko": "법전면",
        "name:ko-Hani": "法田面",
        "name:ko-Latn": "Beopjeon-myeon",
        "name:zh": "法田面",
        "name:zh-Hans": "法田面",
        "name:zh-Hant": "法田面",
        "ncat": "교차로및지명",
        "place": "town",
        "source": "mp2osm",
        "wikidata": "Q4890859"
      }
    },
    {
      "type": "node",
      "id": 415156621,
      "lat": 36.92856,
      "lon": 128.89317,
      "timestamp": "2018-08-12T04:30:09Z",
      "version": 4,
      "changeset": 61579197,
      "user": "Ian Wagner",
      "uid": 8637794,
      "tags": {
        "name": "소지리",
        "name:en": "Soji-ri",
        "name:ko": "소지리",
        "name:ko-Latn": "Soji-ri",
        "ncat": "교차로및지명",
        "place": "village",
        "source": "mp2osm"
      }
    },
    {
      "type": "node",
      "id": 415156622,
      "lat": 36.92337,
      "lon": 128.8663,
      "timestamp": "2018-08-12T04:30:09Z",
      "version": 3,
      "changeset": 61579197,
      "user": "Ian Wagner",
      "uid": 8637794,
      "tags": {
        "name": "법전리",
        "name:en": "Beopjeon-ri",
        "name:ko": "법전리",
        "name:ko-Latn": "Beopjeon-ri",
        "ncat": "교차로및지명",
        "place": "village",
        "source": "mp2osm"
      }
    },
    {
      "type": "node",
      "id": 415156623,
      "lat": 36.90505,
      "lon": 128.84654,
      "timestamp": "2018-08-12T04:30:09Z",
      "version": 3,
      "changeset": 61579197,
      "user": "Ian Wagner",
      "uid": 8637794,
      "tags": {
        "name": "풍정리",
        "name:en": "Pungjeong-ri",
        "name:ko": "풍정리",
        "name:ko-Latn": "Pungjeong-ri",
        "ncat": "교차로및지명",
        "place": "village",
        "source": "mp2osm"
      }
    },
    {
      "type": "node",
      "id": 415156625,
      "lat": 36.92108,
      "lon": 128.80264,
      "timestamp": "2018-08-12T04:30:10Z",
      "version": 3,
      "changeset": 61579197,
      "user": "Ian Wagner",
      "uid": 8637794,
      "tags": {
        "name": "동양리",
        "name:en": "Dongyang-ri",
        "name:ko": "동양리",
        "name:ko-Latn": "Dongyang-ri",
        "ncat": "교차로및지명",
        "place": "village",
        "source": "mp2osm"
      }
    },
    {
      "type": "node",
      "id": 415156626,
      "lat": 36.91558,
      "lon": 128.80888,
      "timestamp": "2018-08-12T04:30:10Z",
      "version": 3,
      "changeset": 61579197,
      "user": "Ian Wagner",
      "uid": 8637794,
      "tags": {
        "name": "창평리",
        "name:en": "Changpyeong-ri",
        "name:ko": "창평리",
        "name:ko-Latn": "Changpyeong-ri",
        "ncat": "교차로및지명",
        "place": "village",
        "source": "mp2osm"
      }
    },
    {
      "type": "node",
      "id": 415156627,
      "lat": 36.88956,
      "lon": 128.79776,
      "timestamp": "2018-08-12T04:30:10Z",
      "version": 3,
      "changeset": 61579197,
      "user": "Ian Wagner",
      "uid": 8637794,
      "tags": {
        "name": "외삼리",
        "name:en": "Oesam-ri",
        "name:ko": "외삼리",
        "name:ko-Latn": "Oesam-ri",
        "ncat": "교차로및지명",
        "place": "village",
        "source": "mp2osm"
      }
    },
    {
      "type": "node",
      "id": 415156628,
      "lat": 36.9076,
      "lon": 128.80851,
      "timestamp": "2022-04-25T11:33:11Z",
      "version": 6,
      "changeset": 120161960,
      "user": "Lepuse",
      "uid": 9560399,
      "tags": {
        "name": "봉성면",
        "name:en": "Bongseong-myeon",
        "name:ko": "봉성면",
        "name:ko-Hani": "鳳城面",
        "name:ko-Latn": "Bongseong-myeon",
        "name:zh": "鳳城面",
        "name:zh-Hans": "凤城面",
        "name:zh-Hant": "鳳城面",
        "ncat": "교차로및지명",
        "place": "town",
        "source": "mp2osm",
        "wikidata": "Q4941928"
      }
    },
    {
      "type": "node",
      "id": 415156629,
      "lat": 36.88917,
      "lon": 128.82066,
      "timestamp": "2018-08-12T04:30:10Z",
      "version": 3,
      "changeset": 61579197,
      "user": "Ian Wagner",
      "uid": 8637794,
      "tags": {
        "name": "봉성리",
        "name:en": "Bongseong-ri",
        "name:ko": "봉성리",
        "name:ko-Latn": "Bongseong-ri",
        "ncat": "교차로및지명",
        "place": "village",
        "source": "mp2osm"
      }
    },
    {
      "type": "node",
      "id": 415156630,
      "lat": 36.84368,
      "lon": 128.80502,
      "timestamp": "2018-08-12T04:30:10Z",
      "version": 3,
      "changeset": 61579197,
      "user": "Ian Wagner",
      "uid": 8637794,
      "tags": {
        "name": "문촌리",
        "name:en": "Munchon-ri",
        "name:ko": "문촌리",
        "name:ko-Latn": "Munchon-ri",
        "ncat": "교차로및지명",
        "place": "village",
        "source": "mp2osm"
      }
    },
    {
      "type": "node",
      "id": 415156631,
      "lat": 36.87323,
      "lon": 128.77398,
      "timestamp": "2018-08-12T04:30:10Z",
      "version": 3,
      "changeset": 61579197,
      "user": "Ian Wagner",
      "uid": 8637794,
      "tags": {
        "name": "하눌리",
        "name:en": "Hanul-ri",
        "name:ko": "하눌리",
        "name:ko-Latn": "Hanul-ri",
        "ncat": "교차로및지명",
        "place": "village",
        "source": "mp2osm"
      }
    },
    {
      "type": "node",
      "id": 415156632,
      "lat": 36.86102,
      "lon": 128.80618,
      "timestamp": "2018-08-12T04:30:11Z",
      "version": 3,
      "changeset": 61579197,
      "user": "Ian Wagner",
      "uid": 8637794,
      "tags": {
        "name": "봉양리",
        "name:en": "Bongyang-ri",
        "name:ko": "봉양리",
        "name:ko-Latn": "Bongyang-ri",
        "ncat": "교차로및지명",
        "place": "village",
        "source": "mp2osm"
      }
    },
    {
      "type": "node",
      "id": 415156633,
      "lat": 36.84743,
      "lon": 128.7736,
      "timestamp": "2018-08-12T04:30:11Z",
      "version": 3,
      "changeset": 61579197,
      "user": "Ian Wagner",
      "uid": 8637794,
      "tags": {
        "name": "운계리",
        "name:en": "Ungye-ri",
        "name:ko": "운계리",
        "name:ko-Latn": "Ungye-ri",
        "ncat": "교차로및지명",
        "place": "village",
        "source": "mp2osm"
      }
    },
    {
      "type": "node",
      "id": 415156634,
      "lat": 36.88087,
      "lon": 128.75491,
      "timestamp": "2018-08-12T04:30:11Z",
      "version": 3,
      "changeset": 61579197,
      "user": "Ian Wagner",
      "uid": 8637794,
      "tags": {
        "name": "거촌리",
        "name:en": "Geochon-ri",
        "name:ko": "거촌리",
        "name:ko-Latn": "Geochon-ri",
        "ncat": "교차로및지명",
        "place": "village",
        "source": "mp2osm"
      }
    },
    {
      "type": "node",
      "id": 415156635,
      "lat": 36.84432,
      "lon": 128.75201,
      "timestamp": "2018-08-12T04:30:11Z",
      "version": 3,
      "changeset": 61579197,
      "user": "Ian Wagner",
      "uid": 8637794,
      "tags": {
        "name": "가곡리",
        "name:en": "Gagok-ri",
        "name:ko": "가곡리",
        "name:ko-Latn": "Gagok-ri",
        "ncat": "교차로및지명",
        "place": "village",
        "source": "mp2osm"
      }
    },
    {
      "type": "node",
      "id": 415156636,
      "lat": 36.90908,
      "lon": 128.75642,
      "timestamp": "2018-08-12T04:30:11Z",
      "version": 3,
      "changeset": 61579197,
      "user": "Ian Wagner",
      "uid": 8637794,
      "tags": {
        "name": "유곡리",
        "name:en": "Yugok-ri",
        "name:ko": "유곡리",
        "name:ko-Latn": "Yugok-ri",
        "ncat": "교차로및지명",
        "place": "village",
        "source": "mp2osm"
      }
    },
    {
      "type": "node",
      "id": 415156637,
      "lat": 36.96985,
      "lon": 128.77551,
      "timestamp": "2018-08-12T04:30:11Z",
      "version": 3,
      "changeset": 61579197,
      "user": "Ian Wagner",
      "uid": 8637794,
      "tags": {
        "name": "개단리",
        "name:en": "Gaedan-ri",
        "name:ko": "개단리",
        "name:ko-Latn": "Gaedan-ri",
        "ncat": "교차로및지명",
        "place": "village",
        "source": "mp2osm"
      }
    },
    {
      "type": "node",
      "id": 415156638,
      "lat": 36.9368,
      "lon": 128.79193,
      "timestamp": "2018-08-12T04:30:11Z",
      "version": 3,
      "changeset": 61579197,
      "user": "Ian Wagner",
      "uid": 8637794,
      "tags": {
        "name": "금봉리",
        "name:en": "Geumbong-ri",
        "name:ko": "금봉리",
        "name:ko-Latn": "Geumbong-ri",
        "ncat": "교차로및지명",
        "place": "village",
        "source": "mp2osm"
      }
    },
    {
      "type": "node",
      "id": 415156639,
      "lat": 36.94005,
      "lon": 128.83128,
      "timestamp": "2018-08-12T04:30:11Z",
      "version": 3,
      "changeset": 61579197,
      "user": "Ian Wagner",
      "uid": 8637794,
      "tags": {
        "name": "우곡리",
        "name:en": "Ugok-ri",
        "name:ko": "우곡리",
        "name:ko-Latn": "Ugok-ri",
        "ncat": "교차로및지명",
        "place": "village",
        "source": "mp2osm"
      }
    },
    {
      "type": "node",
      "id": 415156640,
      "lat": 36.9799,
      "lon": 128.91586,
      "timestamp": "2018-08-12T04:30:12Z",
      "version": 3,
      "changeset": 61579197,
      "user": "Ian Wagner",
      "uid": 8637794,
      "tags": {
        "name": "석현리",
        "name:en": "Seokhyeon-ri",
        "name:ko": "석현리",
        "name:ko-Latn": "Seokhyeon-ri",
        "ncat": "교차로및지명",
        "place": "village",
        "source": "mp2osm"
      }
    },
    {
      "type": "node",
      "id": 415156641,
      "lat": 36.98307,
      "lon": 128.87495,
      "timestamp": "2022-04-25T11:33:11Z",
      "version": 6,
      "changeset": 120161960,
      "user": "Lepuse",
      "uid": 9560399,
      "tags": {
        "name": "춘양면",
        "name:en": "Chunyang-myeon",
        "name:ko": "춘양면",
        "name:ko-Hani": "春陽面",
        "name:ko-Latn": "Chunyang-myeon",
        "name:zh": "春陽面",
        "name:zh-Hans": "春阳面",
        "name:zh-Hant": "春陽面",
        "ncat": "교차로및지명",
        "place": "town",
        "source": "mp2osm"
      }
    },
    {
      "type": "node",
      "id": 415156642,
      "lat": 36.98094,
      "lon": 128.85699,
      "timestamp": "2018-08-12T04:30:12Z",
      "version": 4,
      "changeset": 61579197,
      "user": "Ian Wagner",
      "uid": 8637794,
      "tags": {
        "name": "도심리",
        "name:en": "Dosim-ri",
        "name:ko": "도심리",
        "name:ko-Latn": "Dosim-ri",
        "ncat": "교차로및지명",
        "place": "village",
        "source": "mp2osm"
      }
    },
    {
      "type": "node",
      "id": 415156643,
      "lat": 36.9520875,
      "lon": 128.8645921,
      "timestamp": "2018-12-02T19:03:57Z",
      "version": 5,
      "changeset": 65103017,
      "user": "maphunter36",
      "uid": 2924920,
      "tags": {
        "name": "학산리",
        "name:en": "Haksan-ri",
        "name:ko": "학산리",
        "name:ko-Latn": "Haksan-ri",
        "ncat": "교차로및지명",
        "place": "village",
        "source": "mp2osm"
      }
    },
    {
      "type": "node",
      "id": 415156644,
      "lat": 36.95773,
      "lon": 128.89436,
      "timestamp": "2018-08-12T04:30:12Z",
      "version": 4,
      "changeset": 61579197,
      "user": "Ian Wagner",
      "uid": 8637794,
      "tags": {
        "name": "서동리",
        "name:en": "Seodong-ri",
        "name:ko": "서동리",
        "name:ko-Latn": "Seodong-ri",
        "ncat": "교차로및지명",
        "place": "village",
        "source": "mp2osm"
      }
    },
    {
      "type": "node",
      "id": 415156645,
      "lat": 36.94168,
      "lon": 128.91314,
      "timestamp": "2018-08-12T04:30:12Z",
      "version": 4,
      "changeset": 61579197,
      "user": "Ian Wagner",
      "uid": 8637794,
      "tags": {
        "name": "의양리",
        "name:en": "Uiyang-ri",
        "name:ko": "의양리",
        "name:ko-Latn": "Uiyang-ri",
        "ncat": "교차로및지명",
        "place": "village",
        "source": "mp2osm"
      }
    },
    {
      "type": "node",
      "id": 415156646,
      "lat": 36.94442,
      "lon": 128.9378,
      "timestamp": "2018-08-12T04:30:12Z",
      "version": 4,
      "changeset": 61579197,
      "user": "Ian Wagner",
      "uid": 8637794,
      "tags": {
        "name": "소로리",
        "name:en": "Soro-ri",
        "name:ko": "소로리",
        "name:ko-Latn": "Soro-ri",
        "ncat": "교차로및지명",
        "place": "village",
        "source": "mp2osm"
      }
    },
    {
      "type": "node",
      "id": 415156647,
      "lat": 36.94876,
      "lon": 128.97505,
      "timestamp": "2018-08-12T04:30:12Z",
      "version": 4,
      "changeset": 61579197,
      "user": "Ian Wagner",
      "uid": 8637794,
      "tags": {
        "name": "현동리",
        "name:en": "Hyeondong-ri",
        "name:ko": "현동리",
        "name:ko-Latn": "Hyeondong-ri",
        "ncat": "교차로및지명",
        "place": "village",
        "source": "mp2osm"
      }
    },
    {
      "type": "node",
      "id": 415156648,
      "lat": 36.92623,
      "lon": 128.95874,
      "timestamp": "2018-08-12T04:30:12Z",
      "version": 4,
      "changeset": 61579197,
      "user": "Ian Wagner",
      "uid": 8637794,
      "tags": {
        "name": "어지리",
        "name:en": "Eoji-ri",
        "name:ko": "어지리",
        "name:ko-Latn": "Eoji-ri",
        "ncat": "교차로및지명",
        "place": "village",
        "source": "mp2osm"
      }
    },
    {
      "type": "node",
      "id": 415156649,
      "lat": 36.89923,
      "lon": 128.96702,
      "timestamp": "2018-08-12T04:30:13Z",
      "version": 3,
      "changeset": 61579197,
      "user": "Ian Wagner",
      "uid": 8637794,
      "tags": {
        "name": "눌산리",
        "name:en": "Nulsan-ri",
        "name:ko": "눌산리",
        "name:ko-Latn": "Nulsan-ri",
        "ncat": "교차로및지명",
        "place": "village",
        "source": "mp2osm"
      }
    },
    {
      "type": "node",
      "id": 415156650,
      "lat": 36.9038,
      "lon": 128.93095,
      "timestamp": "2018-08-12T04:30:13Z",
      "version": 3,
      "changeset": 61579197,
      "user": "Ian Wagner",
      "uid": 8637794,
      "tags": {
        "name": "소천리",
        "name:en": "Socheon-ri",
        "name:ko": "소천리",
        "name:ko-Latn": "Socheon-ri",
        "ncat": "교차로및지명",
        "place": "village",
        "source": "mp2osm"
      }
    },
    {
      "type": "node",
      "id": 415156651,
      "lat": 36.87507,
      "lon": 128.93728,
      "timestamp": "2018-08-12T04:30:13Z",
      "version": 3,
      "changeset": 61579197,
      "user": "Ian Wagner",
      "uid": 8637794,
      "tags": {
        "name": "삼동리",
        "name:en": "Samdong-ri",
        "name:ko": "삼동리",
        "name:ko-Latn": "Samdong-ri",
        "ncat": "교차로및지명",
        "place": "village",
        "source": "mp2osm"
      }
    },
    {
      "type": "node",
      "id": 415156652,
      "lat": 36.84516,
      "lon": 128.94241,
      "timestamp": "2018-08-12T04:30:13Z",
      "version": 3,
      "changeset": 61579197,
      "user": "Ian Wagner",
      "uid": 8637794,
      "tags": {
        "name": "상리",
        "name:en": "Sang-ri",
        "name:ko": "상리",
        "name:ko-Latn": "Sang-ri",
        "ncat": "교차로및지명",
        "place": "village",
        "source": "mp2osm"
      }
    },
    {
      "type": "node",
      "id": 415156653,
      "lat": 36.81658,
      "lon": 128.9835,
      "timestamp": "2022-04-25T11:33:11Z",
      "version": 6,
      "changeset": 120161960,
      "user": "Lepuse",
      "uid": 9560399,
      "tags": {
        "name": "재산면",
        "name:en": "Jaesan-myeon",
        "name:ko": "재산면",
        "name:ko-Hani": "才山面",
        "name:ko-Latn": "Jaesan-myeon",
        "name:zh": "才山面",
        "name:zh-Hans": "才山面",
        "name:zh-Hant": "才山面",
        "ncat": "교차로및지명",
        "place": "town",
        "source": "mp2osm",
        "wikidata": "Q6121729"
      }
    },
    {
      "type": "node",
      "id": 415156654,
      "lat": 36.80585,
      "lon": 128.96032,
      "timestamp": "2018-08-12T04:30:13Z",
      "version": 3,
      "changeset": 61579197,
      "user": "Ian Wagner",
      "uid": 8637794,
      "tags": {
        "name": "현동리",
        "name:en": "Hyeondong-ri",
        "name:ko": "현동리",
        "name:ko-Latn": "Hyeondong-ri",
        "ncat": "교차로및지명",
        "place": "village",
        "source": "mp2osm"
      }
    },
    {
      "type": "node",
      "id": 415156655,
      "lat": 36.77697,
      "lon": 128.95898,
      "timestamp": "2018-08-12T04:30:13Z",
      "version": 4,
      "changeset": 61579197,
      "user": "Ian Wagner",
      "uid": 8637794,
      "tags": {
        "name": "남면리",
        "name:en": "Nammyeon-ri",
        "name:ko": "남면리",
        "name:ko-Latn": "Nammyeon-ri",
        "ncat": "교차로및지명",
        "place": "village",
        "source": "mp2osm"
      }
    },
    {
      "type": "node",
      "id": 415156697,
      "lat": 36.88797,
      "lon": 128.6734,
      "timestamp": "2018-08-12T04:30:13Z",
      "version": 3,
      "changeset": 61579197,
      "user": "Ian Wagner",
      "uid": 8637794,
      "tags": {
        "name": "도촌리",
        "name:en": "Dochon-ri",
        "name:ko": "도촌리",
        "name:ko-Latn": "Dochon-ri",
        "ncat": "교차로및지명",
        "place": "village",
        "source": "mp2osm"
      }
    },
    {
      "type": "node",
      "id": 415156743,
      "lat": 36.93783,
      "lon": 128.68751,
      "timestamp": "2018-08-12T04:30:14Z",
      "version": 3,
      "changeset": 61579197,
      "user": "Ian Wagner",
      "uid": 8637794,
      "tags": {
        "name": "수식리",
        "name:en": "Susik-ri",
        "name:ko": "수식리",
        "name:ko-Latn": "Susik-ri",
        "ncat": "교차로및지명",
        "place": "village",
        "source": "mp2osm"
      }
    },
    {
      "type": "node",
      "id": 415156744,
      "lat": 36.96685,
      "lon": 128.67767,
      "timestamp": "2018-08-12T04:30:14Z",
      "version": 3,
      "changeset": 61579197,
      "user": "Ian Wagner",
      "uid": 8637794,
      "tags": {
        "name": "용암리",
        "name:en": "Yongam-ri",
        "name:ko": "용암리",
        "name:ko-Latn": "Yongam-ri",
        "ncat": "교차로및지명",
        "place": "village",
        "source": "mp2osm"
      }
    },
    {
      "type": "node",
      "id": 415156745,
      "lat": 36.96161,
      "lon": 128.70747,
      "timestamp": "2018-08-12T04:30:14Z",
      "version": 3,
      "changeset": 61579197,
      "user": "Ian Wagner",
      "uid": 8637794,
      "tags": {
        "name": "두문리",
        "name:en": "Dumun-ri",
        "name:ko": "두문리",
        "name:ko-Latn": "Dumun-ri",
        "ncat": "교차로및지명",
        "place": "village",
        "source": "mp2osm"
      }
    },
    {
      "type": "node",
      "id": 415156746,
      "lat": 36.94859,
      "lon": 128.72938,
      "timestamp": "2018-08-12T04:30:14Z",
      "version": 3,
      "changeset": 61579197,
      "user": "Ian Wagner",
      "uid": 8637794,
      "tags": {
        "name": "가평리",
        "name:en": "Gapyeong-ri",
        "name:ko": "가평리",
        "name:ko-Latn": "Gapyeong-ri",
        "ncat": "교차로및지명",
        "place": "village",
        "source": "mp2osm"
      }
    },
    {
      "type": "node",
      "id": 415156747,
      "lat": 36.96638,
      "lon": 128.72813,
      "timestamp": "2022-04-25T11:33:11Z",
      "version": 6,
      "changeset": 120161960,
      "user": "Lepuse",
      "uid": 9560399,
      "tags": {
        "name": "물야면",
        "name:en": "Murya-myeon",
        "name:ko": "물야면",
        "name:ko-Hani": "物野面",
        "name:ko-Latn": "Murya-myeon",
        "name:zh": "物野面",
        "name:zh-Hans": "物野面",
        "name:zh-Hant": "物野面",
        "ncat": "교차로및지명",
        "place": "town",
        "source": "mp2osm",
        "wikidata": "Q6939843"
      }
    },
    {
      "type": "node",
      "id": 415156748,
      "lat": 36.98455,
      "lon": 128.74449,
      "timestamp": "2018-08-12T04:30:14Z",
      "version": 3,
      "changeset": 61579197,
      "user": "Ian Wagner",
      "uid": 8637794,
      "tags": {
        "name": "오록리",
        "name:en": "Orok-ri",
        "name:ko": "오록리",
        "name:ko-Latn": "Orok-ri",
        "ncat": "교차로및지명",
        "place": "village",
        "source": "mp2osm"
      }
    },
    {
      "type": "node",
      "id": 415156749,
      "lat": 36.98322,
      "lon": 128.70709,
      "timestamp": "2018-08-12T04:30:14Z",
      "version": 3,
      "changeset": 61579197,
      "user": "Ian Wagner",
      "uid": 8637794,
      "tags": {
        "name": "압동리",
        "name:en": "Apdong-ri",
        "name:ko": "압동리",
        "name:ko-Latn": "Apdong-ri",
        "ncat": "교차로및지명",
        "place": "village",
        "source": "mp2osm"
      }
    },
    {
      "type": "node",
      "id": 415156750,
      "lat": 36.92758,
      "lon": 128.73759,
      "timestamp": "2018-08-12T04:30:14Z",
      "version": 3,
      "changeset": 61579197,
      "user": "Ian Wagner",
      "uid": 8637794,
      "tags": {
        "name": "북지리",
        "name:en": "Bukji-ri",
        "name:ko": "북지리",
        "name:ko-Latn": "Bukji-ri",
        "ncat": "교차로및지명",
        "place": "village",
        "source": "mp2osm"
      }
    },
    {
      "type": "node",
      "id": 415156751,
      "lat": 36.90061,
      "lon": 128.73056,
      "timestamp": "2018-08-12T04:30:15Z",
      "version": 3,
      "changeset": 61579197,
      "user": "Ian Wagner",
      "uid": 8637794,
      "tags": {
        "name": "삼계리",
        "name:en": "Samgye-ri",
        "name:ko": "삼계리",
        "name:ko-Latn": "Samgye-ri",
        "ncat": "교차로및지명",
        "place": "village",
        "source": "mp2osm"
      }
    },
    {
      "type": "node",
      "id": 415156752,
      "lat": 36.88887,
      "lon": 128.73916,
      "timestamp": "2018-08-12T04:30:15Z",
      "version": 4,
      "changeset": 61579197,
      "user": "Ian Wagner",
      "uid": 8637794,
      "tags": {
        "name": "내성리",
        "name:en": "Naeseong-ri",
        "name:ko": "내성리",
        "name:ko-Latn": "Naeseong-ri",
        "ncat": "교차로및지명",
        "place": "village",
        "source": "mp2osm"
      }
    },
    {
      "type": "node",
      "id": 415156753,
      "lat": 36.89007,
      "lon": 128.71101,
      "timestamp": "2022-04-25T11:33:11Z",
      "version": 6,
      "changeset": 120161960,
      "user": "Lepuse",
      "uid": 9560399,
      "tags": {
        "capital": "6",
        "name": "봉화읍",
        "name:en": "Bonghwa-eup",
        "name:ko": "봉화읍",
        "name:ko-Hani": "奉化邑",
        "name:ko-Latn": "Bonghwa-eup",
        "name:zh": "奉化邑",
        "name:zh-Hans": "奉化邑",
        "name:zh-Hant": "奉化邑",
        "ncat": "교차로및지명",
        "place": "town",
        "source": "mp2osm",
        "wikidata": "Q16184051"
      }
    },
    {
      "type": "node",
      "id": 415156754,
      "lat": 36.91256,
      "lon": 128.71066,
      "timestamp": "2018-08-12T04:30:15Z",
      "version": 3,
      "changeset": 61579197,
      "user": "Ian Wagner",
      "uid": 8637794,
      "tags": {
        "name": "해저리",
        "name:en": "Haejeo-ri",
        "name:ko": "해저리",
        "name:ko-Latn": "Haejeo-ri",
        "ncat": "교차로및지명",
        "place": "village",
        "source": "mp2osm"
      }
    },
    {
      "type": "node",
      "id": 415156755,
      "lat": 36.88814,
      "lon": 128.69865,
      "timestamp": "2018-08-12T04:30:15Z",
      "version": 3,
      "changeset": 61579197,
      "user": "Ian Wagner",
      "uid": 8637794,
      "tags": {
        "name": "적덕리",
        "name:en": "Jeokdeok-ri",
        "name:ko": "적덕리",
        "name:ko-Latn": "Jeokdeok-ri",
        "ncat": "교차로및지명",
        "place": "village",
        "source": "mp2osm"
      }
    },
    {
      "type": "node",
      "id": 415156756,
      "lat": 36.84924,
      "lon": 128.71888,
      "timestamp": "2018-08-12T04:30:15Z",
      "version": 3,
      "changeset": 61579197,
      "user": "Ian Wagner",
      "uid": 8637794,
      "tags": {
        "name": "지동리",
        "name:en": "Jidong-ri",
        "name:ko": "지동리",
        "name:ko-Latn": "Jidong-ri",
        "ncat": "교차로및지명",
        "place": "village",
        "source": "mp2osm"
      }
    },
    {
      "type": "node",
      "id": 415156757,
      "lat": 36.86917,
      "lon": 128.72444,
      "timestamp": "2018-08-12T04:30:15Z",
      "version": 3,
      "changeset": 61579197,
      "user": "Ian Wagner",
      "uid": 8637794,
      "tags": {
        "name": "석평리",
        "name:en": "Seokpyeong-ri",
        "name:ko": "석평리",
        "name:ko-Latn": "Seokpyeong-ri",
        "ncat": "교차로및지명",
        "place": "village",
        "source": "mp2osm"
      }
    },
    {
      "type": "node",
      "id": 415156758,
      "lat": 36.84971,
      "lon": 128.68583,
      "timestamp": "2018-08-12T04:30:15Z",
      "version": 3,
      "changeset": 61579197,
      "user": "Ian Wagner",
      "uid": 8637794,
      "tags": {
        "name": "신암리",
        "name:en": "Sinam-ri",
        "name:ko": "신암리",
        "name:ko-Latn": "Sinam-ri",
        "ncat": "교차로및지명",
        "place": "village",
        "source": "mp2osm"
      }
    },
    {
      "type": "node",
      "id": 415156759,
      "lat": 36.8071911,
      "lon": 128.7456389,
      "timestamp": "2018-08-12T04:30:16Z",
      "version": 4,
      "changeset": 61579197,
      "user": "Ian Wagner",
      "uid": 8637794,
      "tags": {
        "name": "구천리",
        "name:en": "Gucheon-ri",
        "name:ko": "구천리",
        "name:ko-Latn": "Gucheon-ri",
        "ncat": "교차로및지명",
        "place": "village",
        "source": "mp2osm"
      }
    },
    {
      "type": "node",
      "id": 415156760,
      "lat": 36.82785,
      "lon": 128.73103,
      "timestamp": "2018-08-12T04:30:16Z",
      "version": 3,
      "changeset": 61579197,
      "user": "Ian Wagner",
      "uid": 8637794,
      "tags": {
        "name": "설매리",
        "name:en": "Seolmae-ri",
        "name:ko": "설매리",
        "name:ko-Latn": "Seolmae-ri",
        "ncat": "교차로및지명",
        "place": "village",
        "source": "mp2osm"
      }
    },
    {
      "type": "node",
      "id": 415156761,
      "lat": 36.8072,
      "lon": 128.71287,
      "timestamp": "2018-08-12T04:30:16Z",
      "version": 3,
      "changeset": 61579197,
      "user": "Ian Wagner",
      "uid": 8637794,
      "tags": {
        "name": "두월리",
        "name:en": "Duwol-ri",
        "name:ko": "두월리",
        "name:ko-Latn": "Duwol-ri",
        "ncat": "교차로및지명",
        "place": "village",
        "source": "mp2osm"
      }
    },
    {
      "type": "node",
      "id": 415156762,
      "lat": 36.83136,
      "lon": 128.69024,
      "timestamp": "2018-08-12T04:30:16Z",
      "version": 3,
      "changeset": 61579197,
      "user": "Ian Wagner",
      "uid": 8637794,
      "tags": {
        "name": "석포리",
        "name:en": "Seokpo-ri",
        "name:ko": "석포리",
        "name:ko-Latn": "Seokpo-ri",
        "ncat": "교차로및지명",
        "place": "village",
        "source": "mp2osm"
      }
    },
    {
      "type": "node",
      "id": 415156763,
      "lat": 36.80482,
      "lon": 128.6799,
      "timestamp": "2018-08-12T04:30:16Z",
      "version": 3,
      "changeset": 61579197,
      "user": "Ian Wagner",
      "uid": 8637794,
      "tags": {
        "name": "용상리",
        "name:en": "Yongsang-ri",
        "name:ko": "용상리",
        "name:ko-Latn": "Yongsang-ri",
        "ncat": "교차로및지명",
        "place": "village",
        "source": "mp2osm"
      }
    },
    {
      "type": "node",
      "id": 415156764,
      "lat": 36.81682,
      "lon": 128.68757,
      "timestamp": "2022-04-25T11:33:11Z",
      "version": 6,
      "changeset": 120161960,
      "user": "Lepuse",
      "uid": 9560399,
      "tags": {
        "name": "이산면",
        "name:en": "Isan-myeon",
        "name:ko": "이산면",
        "name:ko-Hani": "伊山面",
        "name:ko-Latn": "Isan-myeon",
        "name:zh": "伊山面",
        "name:zh-Hans": "伊山面",
        "name:zh-Hant": "伊山面",
        "ncat": "교차로및지명",
        "place": "town",
        "source": "mp2osm",
        "wikidata": "Q12611609"
      }
    },
    {
      "type": "node",
      "id": 415156765,
      "lat": 36.81682,
      "lon": 128.69483,
      "timestamp": "2018-08-12T04:30:16Z",
      "version": 3,
      "changeset": 61579197,
      "user": "Ian Wagner",
      "uid": 8637794,
      "tags": {
        "name": "내림리",
        "name:en": "Naerim-ri",
        "name:ko": "내림리",
        "name:ko-Latn": "Naerim-ri",
        "ncat": "교차로및지명",
        "place": "village",
        "source": "mp2osm"
      }
    },
    {
      "type": "node",
      "id": 415156766,
      "lat": 36.78819,
      "lon": 128.68998,
      "timestamp": "2018-08-12T04:30:16Z",
      "version": 3,
      "changeset": 61579197,
      "user": "Ian Wagner",
      "uid": 8637794,
      "tags": {
        "name": "신천리",
        "name:en": "Sincheon-ri",
        "name:ko": "신천리",
        "name:ko-Latn": "Sincheon-ri",
        "ncat": "교차로및지명",
        "place": "village",
        "source": "mp2osm"
      }
    },
    {
      "type": "node",
      "id": 415156767,
      "lat": 36.76077,
      "lon": 128.69801,
      "timestamp": "2018-08-12T04:30:16Z",
      "version": 3,
      "changeset": 61579197,
      "user": "Ian Wagner",
      "uid": 8637794,
      "tags": {
        "name": "평은리",
        "name:en": "Pyeong-eun-ri",
        "name:ko": "평은리",
        "name:ko-Latn": "Pyeong-eun-ri",
        "ncat": "교차로및지명",
        "place": "village",
        "source": "mp2osm"
      }
    },
    {
      "type": "node",
      "id": 415156768,
      "lat": 36.78433,
      "lon": 128.71925,
      "timestamp": "2018-08-12T04:30:17Z",
      "version": 3,
      "changeset": 61579197,
      "user": "Ian Wagner",
      "uid": 8637794,
      "tags": {
        "name": "천본리",
        "name:en": "Cheonbon-ri",
        "name:ko": "천본리",
        "name:ko-Latn": "Cheonbon-ri",
        "ncat": "교차로및지명",
        "place": "village",
        "source": "mp2osm"
      }
    },
    {
      "type": "node",
      "id": 415158189,
      "lat": 36.59855,
      "lon": 129.37193,
      "timestamp": "2018-08-12T04:30:17Z",
      "version": 3,
      "changeset": 61579197,
      "user": "Ian Wagner",
      "uid": 8637794,
      "tags": {
        "name": "아곡리",
        "name:en": "Agok-ri",
        "name:ko": "아곡리",
        "name:ko-Latn": "Agok-ri",
        "ncat": "교차로및지명",
        "place": "village",
        "source": "mp2osm"
      }
    },
    {
      "type": "node",
      "id": 415158197,
      "lat": 36.67571,
      "lon": 129.3188,
      "timestamp": "2018-08-12T04:30:17Z",
      "version": 4,
      "changeset": 61579197,
      "user": "Ian Wagner",
      "uid": 8637794,
      "tags": {
        "name": "조금리",
        "name:en": "Jogeum-ri",
        "name:ko": "조금리",
        "name:ko-Latn": "Jogeum-ri",
        "ncat": "교차로및지명",
        "place": "village",
        "source": "mp2osm"
      }
    },
    {
      "type": "node",
      "id": 415158198,
      "lat": 36.63022,
      "lon": 129.28346,
      "timestamp": "2018-08-12T04:30:17Z",
      "version": 3,
      "changeset": 61579197,
      "user": "Ian Wagner",
      "uid": 8637794,
      "tags": {
        "name": "인천리",
        "name:en": "Incheon-ri",
        "name:ko": "인천리",
        "name:ko-Latn": "Incheon-ri",
        "ncat": "교차로및지명",
        "place": "village",
        "source": "mp2osm"
      }
    },
    {
      "type": "node",
      "id": 415158199,
      "lat": 36.64191,
      "lon": 129.32945,
      "timestamp": "2018-08-12T04:30:17Z",
      "version": 3,
      "changeset": 61579197,
      "user": "Ian Wagner",
      "uid": 8637794,
      "tags": {
        "name": "삼계리",
        "name:en": "Samgye-ri",
        "name:ko": "삼계리",
        "name:ko-Latn": "Samgye-ri",
        "ncat": "교차로및지명",
        "place": "village",
        "source": "mp2osm"
      }
    },
    {
      "type": "node",
      "id": 415158200,
      "lat": 36.6158,
      "lon": 129.31794,
      "timestamp": "2018-08-12T04:30:17Z",
      "version": 3,
      "changeset": 61579197,
      "user": "Ian Wagner",
      "uid": 8637794,
      "tags": {
        "name": "오촌리",
        "name:en": "Ochon-ri",
        "name:ko": "오촌리",
        "name:ko-Latn": "Ochon-ri",
        "ncat": "교차로및지명",
        "place": "village",
        "source": "mp2osm"
      }
    },
    {
      "type": "node",
      "id": 415158201,
      "lat": 36.60483,
      "lon": 129.29989,
      "timestamp": "2022-04-25T11:33:11Z",
      "version": 5,
      "changeset": 120161960,
      "user": "Lepuse",
      "uid": 9560399,
      "tags": {
        "name": "창수면",
        "name:en": "Changsu-myeon",
        "name:ko": "창수면",
        "name:ko-Hani": "蒼水面",
        "name:ko-Latn": "Changsu-myeon",
        "name:zh": "蒼水面",
        "name:zh-Hans": "苍水面",
        "name:zh-Hant": "蒼水面",
        "ncat": "교차로및지명",
        "place": "town",
        "source": "mp2osm"
      }
    },
    {
      "type": "node",
      "id": 415158202,
      "lat": 36.59872,
      "lon": 129.28378,
      "timestamp": "2018-08-12T04:30:18Z",
      "version": 3,
      "changeset": 61579197,
      "user": "Ian Wagner",
      "uid": 8637794,
      "tags": {
        "name": "갈천리",
        "name:en": "Galcheon-ri",
        "name:ko": "갈천리",
        "name:ko-Latn": "Galcheon-ri",
        "ncat": "교차로및지명",
        "place": "village",
        "source": "mp2osm"
      }
    },
    {
      "type": "node",
      "id": 415158203,
      "lat": 36.63807,
      "lon": 129.25404,
      "timestamp": "2018-08-12T04:30:18Z",
      "version": 3,
      "changeset": 61579197,
      "user": "Ian Wagner",
      "uid": 8637794,
      "tags": {
        "name": "보림리",
        "name:en": "Borim-ri",
        "name:ko": "보림리",
        "name:ko-Latn": "Borim-ri",
        "ncat": "교차로및지명",
        "place": "village",
        "source": "mp2osm"
      }
    },
    {
      "type": "node",
      "id": 415158204,
      "lat": 36.6556,
      "lon": 129.29017,
      "timestamp": "2018-08-12T04:30:18Z",
      "version": 4,
      "changeset": 61579197,
      "user": "Ian Wagner",
      "uid": 8637794,
      "tags": {
        "name": "수리",
        "name:en": "Su-ri",
        "name:ko": "수리",
        "name:ko-Latn": "Su-ri",
        "ncat": "교차로및지명",
        "place": "village",
        "source": "mp2osm"
      }
    },
    {
      "type": "node",
      "id": 415158205,
      "lat": 36.65786,
      "lon": 129.2487,
      "timestamp": "2018-08-12T04:30:18Z",
      "version": 4,
      "changeset": 61579197,
      "user": "Ian Wagner",
      "uid": 8637794,
      "tags": {
        "name": "백청리",
        "name:en": "Baekcheong-ri",
        "name:ko": "백청리",
        "name:ko-Latn": "Baekcheong-ri",
        "ncat": "교차로및지명",
        "place": "village",
        "source": "mp2osm"
      }
    },
    {
      "type": "node",
      "id": 415158206,
      "lat": 36.71043,
      "lon": 129.3204,
      "timestamp": "2018-08-12T04:30:18Z",
      "version": 4,
      "changeset": 61579197,
      "user": "Ian Wagner",
      "uid": 8637794,
      "tags": {
        "name": "온정리",
        "name:en": "Onjeong-ri",
        "name:ko": "온정리",
        "name:ko-Latn": "Onjeong-ri",
        "ncat": "교차로및지명",
        "place": "village",
        "source": "mp2osm"
      }
    },
    {
      "type": "node",
      "id": 415158207,
      "lat": 36.7519559,
      "lon": 129.3374826,
      "timestamp": "2018-08-12T04:30:18Z",
      "version": 4,
      "changeset": 61579197,
      "user": "Ian Wagner",
      "uid": 8637794,
      "tags": {
        "name": "선구리",
        "name:en": "Seongu-ri",
        "name:ko": "선구리",
        "name:ko-Latn": "Seongu-ri",
        "ncat": "교차로및지명",
        "place": "village",
        "source": "mp2osm"
      }
    },
    {
      "type": "node",
      "id": 415158211,
      "lat": 36.71184,
      "lon": 129.37356,
      "timestamp": "2018-08-12T04:30:18Z",
      "version": 4,
      "changeset": 61579197,
      "user": "Ian Wagner",
      "uid": 8637794,
      "tags": {
        "name": "금천리",
        "name:en": "Geumcheon-ri",
        "name:ko": "금천리",
        "name:ko-Latn": "Geumcheon-ri",
        "ncat": "교차로및지명",
        "place": "village",
        "source": "mp2osm"
      }
    },
    {
      "type": "node",
      "id": 415158225,
      "lat": 36.72663,
      "lon": 129.34584,
      "timestamp": "2018-08-12T04:30:19Z",
      "version": 4,
      "changeset": 61579197,
      "user": "Ian Wagner",
      "uid": 8637794,
      "tags": {
        "name": "소태리",
        "name:en": "Sotae-ri",
        "name:ko": "소태리",
        "name:ko-Latn": "Sotae-ri",
        "ncat": "교차로및지명",
        "place": "village",
        "source": "mp2osm"
      }
    },
    {
      "type": "node",
      "id": 415158226,
      "lat": 36.71504,
      "lon": 129.35307,
      "timestamp": "2022-04-25T11:33:11Z",
      "version": 9,
      "changeset": 120161960,
      "user": "Lepuse",
      "uid": 9560399,
      "tags": {
        "name": "온정면",
        "name:en": "Onjeong-myeon",
        "name:ko": "온정면",
        "name:ko-Hani": "溫井面",
        "name:ko-Latn": "Onjeong-myeon",
        "name:zh": "溫井面",
        "name:zh-Hans": "温井面",
        "name:zh-Hant": "溫井面",
        "ncat": "교차로및지명",
        "place": "town",
        "source": "mp2osm",
        "wikidata": "Q16184108"
      }
    },
    {
      "type": "node",
      "id": 415158227,
      "lat": 36.68167,
      "lon": 129.36659,
      "timestamp": "2018-08-12T04:30:19Z",
      "version": 4,
      "changeset": 61579197,
      "user": "Ian Wagner",
      "uid": 8637794,
      "tags": {
        "name": "덕산리",
        "name:en": "Deoksan-ri",
        "name:ko": "덕산리",
        "name:ko-Latn": "Deoksan-ri",
        "ncat": "교차로및지명",
        "place": "village",
        "source": "mp2osm"
      }
    },
    {
      "type": "node",
      "id": 415158266,
      "lat": 36.63453,
      "lon": 129.09837,
      "timestamp": "2018-08-12T04:30:19Z",
      "version": 3,
      "changeset": 61579197,
      "user": "Ian Wagner",
      "uid": 8637794,
      "tags": {
        "name": "감천리",
        "name:en": "Gamcheon-ri",
        "name:ko": "감천리",
        "name:ko-Latn": "Gamcheon-ri",
        "ncat": "교차로및지명",
        "place": "village",
        "source": "mp2osm"
      }
    },
    {
      "type": "node",
      "id": 415158268,
      "lat": 36.60018,
      "lon": 129.09483,
      "timestamp": "2018-08-12T04:30:19Z",
      "version": 3,
      "changeset": 61579197,
      "user": "Ian Wagner",
      "uid": 8637794,
      "tags": {
        "name": "신구리",
        "name:en": "Sin-gu-ri",
        "name:ko": "신구리",
        "name:ko-Latn": "Sin-gu-ri",
        "ncat": "교차로및지명",
        "place": "village",
        "source": "mp2osm"
      }
    },
    {
      "type": "node",
      "id": 415158269,
      "lat": 36.63157,
      "lon": 129.12907,
      "timestamp": "2018-08-12T04:30:19Z",
      "version": 3,
      "changeset": 61579197,
      "user": "Ian Wagner",
      "uid": 8637794,
      "tags": {
        "name": "전곡리",
        "name:en": "Jeon-gok-ri",
        "name:ko": "전곡리",
        "name:ko-Latn": "Jeon-gok-ri",
        "ncat": "교차로및지명",
        "place": "village",
        "source": "mp2osm"
      }
    },
    {
      "type": "node",
      "id": 415158270,
      "lat": 36.60994,
      "lon": 129.12048,
      "timestamp": "2018-08-12T04:30:19Z",
      "version": 3,
      "changeset": 61579197,
      "user": "Ian Wagner",
      "uid": 8637794,
      "tags": {
        "name": "양항리",
        "name:en": "Yanghang-ri",
        "name:ko": "양항리",
        "name:ko-Latn": "Yanghang-ri",
        "ncat": "교차로및지명",
        "place": "village",
        "source": "mp2osm"
      }
    },
    {
      "type": "node",
      "id": 415158271,
      "lat": 36.60844,
      "lon": 129.14715,
      "timestamp": "2018-08-12T04:30:19Z",
      "version": 3,
      "changeset": 61579197,
      "user": "Ian Wagner",
      "uid": 8637794,
      "tags": {
        "name": "소계리",
        "name:en": "Sogye-ri",
        "name:ko": "소계리",
        "name:ko-Latn": "Sogye-ri",
        "ncat": "교차로및지명",
        "place": "village",
        "source": "mp2osm"
      }
    },
    {
      "type": "node",
      "id": 415158272,
      "lat": 36.64432,
      "lon": 129.15231,
      "timestamp": "2018-08-12T04:30:20Z",
      "version": 3,
      "changeset": 61579197,
      "user": "Ian Wagner",
      "uid": 8637794,
      "tags": {
        "name": "대천리",
        "name:en": "Daecheon-ri",
        "name:ko": "대천리",
        "name:ko-Latn": "Daecheon-ri",
        "ncat": "교차로및지명",
        "place": "village",
        "source": "mp2osm"
      }
    },
    {
      "type": "node",
      "id": 415158273,
      "lat": 36.64696,
      "lon": 129.11935,
      "timestamp": "2018-08-12T04:30:20Z",
      "version": 3,
      "changeset": 61579197,
      "user": "Ian Wagner",
      "uid": 8637794,
      "tags": {
        "name": "현리",
        "name:en": "Hyeon-ri",
        "name:ko": "현리",
        "name:ko-Latn": "Hyeon-ri",
        "ncat": "교차로및지명",
        "place": "village",
        "source": "mp2osm"
      }
    },
    {
      "type": "node",
      "id": 415158274,
      "lat": 36.65601,
      "lon": 129.15263,
      "timestamp": "2022-04-25T11:33:11Z",
      "version": 6,
      "changeset": 120161960,
      "user": "Lepuse",
      "uid": 9560399,
      "tags": {
        "capital": "6",
        "name": "영양읍",
        "name:en": "Yeongyang-eup",
        "name:ko": "영양읍",
        "name:ko-Hani": "英陽邑",
        "name:ko-Latn": "Yeongyang-eup",
        "name:zh": "英陽邑",
        "name:zh-Hans": "英阳邑",
        "name:zh-Hant": "英陽邑",
        "ncat": "교차로및지명",
        "place": "town",
        "source": "mp2osm",
        "wikidata": "Q27323896"
      }
    },
    {
      "type": "node",
      "id": 415158275,
      "lat": 36.66612,
      "lon": 129.1427,
      "timestamp": "2018-08-12T04:30:20Z",
      "version": 3,
      "changeset": 61579197,
      "user": "Ian Wagner",
      "uid": 8637794,
      "tags": {
        "name": "하원리",
        "name:en": "Hawon-ri",
        "name:ko": "하원리",
        "name:ko-Latn": "Hawon-ri",
        "ncat": "교차로및지명",
        "place": "village",
        "source": "mp2osm"
      }
    },
    {
      "type": "node",
      "id": 415158276,
      "lat": 36.66968,
      "lon": 129.13244,
      "timestamp": "2018-08-12T04:30:20Z",
      "version": 3,
      "changeset": 61579197,
      "user": "Ian Wagner",
      "uid": 8637794,
      "tags": {
        "name": "삼지리",
        "name:en": "Samji-ri",
        "name:ko": "삼지리",
        "name:ko-Latn": "Samji-ri",
        "ncat": "교차로및지명",
        "place": "village",
        "source": "mp2osm"
      }
    },
    {
      "type": "node",
      "id": 415158278,
      "lat": 36.67374,
      "lon": 129.11534,
      "timestamp": "2018-08-12T04:30:21Z",
      "version": 3,
      "changeset": 61579197,
      "user": "Ian Wagner",
      "uid": 8637794,
      "tags": {
        "name": "동부리",
        "name:en": "Dongbu-ri",
        "name:ko": "동부리",
        "name:ko-Latn": "Dongbu-ri",
        "ncat": "교차로및지명",
        "place": "village",
        "source": "mp2osm"
      }
    },
    {
      "type": "node",
      "id": 415158279,
      "lat": 36.66736,
      "lon": 129.09811,
      "timestamp": "2018-08-12T04:30:21Z",
      "version": 3,
      "changeset": 61579197,
      "user": "Ian Wagner",
      "uid": 8637794,
      "tags": {
        "name": "서부리",
        "name:en": "Seobu-ri",
        "name:ko": "서부리",
        "name:ko-Latn": "Seobu-ri",
        "ncat": "교차로및지명",
        "place": "village",
        "source": "mp2osm"
      }
    },
    {
      "type": "node",
      "id": 415158280,
      "lat": 36.6602,
      "lon": 129.06886,
      "timestamp": "2018-08-12T04:30:21Z",
      "version": 3,
      "changeset": 61579197,
      "user": "Ian Wagner",
      "uid": 8637794,
      "tags": {
        "name": "청기리",
        "name:en": "Cheonggi-ri",
        "name:ko": "청기리",
        "name:ko-Latn": "Cheonggi-ri",
        "ncat": "교차로및지명",
        "place": "village",
        "source": "mp2osm"
      }
    },
    {
      "type": "node",
      "id": 415158281,
      "lat": 36.64565,
      "lon": 129.06062,
      "timestamp": "2018-08-12T04:30:21Z",
      "version": 3,
      "changeset": 61579197,
      "user": "Ian Wagner",
      "uid": 8637794,
      "tags": {
        "name": "상청리",
        "name:en": "Sangcheong-ri",
        "name:ko": "상청리",
        "name:ko-Latn": "Sangcheong-ri",
        "ncat": "교차로및지명",
        "place": "village",
        "source": "mp2osm"
      }
    },
    {
      "type": "node",
      "id": 415158282,
      "lat": 36.63018,
      "lon": 129.05989,
      "timestamp": "2018-08-12T04:30:21Z",
      "version": 3,
      "changeset": 61579197,
      "user": "Ian Wagner",
      "uid": 8637794,
      "tags": {
        "name": "저리",
        "name:en": "Jeo-ri",
        "name:ko": "저리",
        "name:ko-Latn": "Jeo-ri",
        "ncat": "교차로및지명",
        "place": "village",
        "source": "mp2osm"
      }
    },
    {
      "type": "node",
      "id": 415158283,
      "lat": 36.6162934,
      "lon": 129.0778952,
      "timestamp": "2018-10-23T17:05:17Z",
      "version": 4,
      "changeset": 63803772,
      "user": "maphunter36",
      "uid": 2924920,
      "tags": {
        "name": "연당리",
        "name:en": "Yeondang-ri",
        "name:ko": "연당리",
        "name:ko-Latn": "Yeondang-ri",
        "ncat": "교차로및지명",
        "place": "village",
        "source": "mp2osm"
      }
    },
    {
      "type": "node",
      "id": 415158285,
      "lat": 36.60305,
      "lon": 129.05223,
      "timestamp": "2018-08-12T04:30:21Z",
      "version": 3,
      "changeset": 61579197,
      "user": "Ian Wagner",
      "uid": 8637794,
      "tags": {
        "name": "신사리",
        "name:en": "Sinsa-ri",
        "name:ko": "신사리",
        "name:ko-Latn": "Sinsa-ri",
        "ncat": "교차로및지명",
        "place": "village",
        "source": "mp2osm"
      }
    },
    {
      "type": "node",
      "id": 415158287,
      "lat": 36.6208,
      "lon": 129.02966,
      "timestamp": "2018-08-12T04:30:21Z",
      "version": 3,
      "changeset": 61579197,
      "user": "Ian Wagner",
      "uid": 8637794,
      "tags": {
        "name": "대천리",
        "name:en": "Daecheon-ri",
        "name:ko": "대천리",
        "name:ko-Latn": "Daecheon-ri",
        "ncat": "교차로및지명",
        "place": "village",
        "source": "mp2osm"
      }
    },
    {
      "type": "node",
      "id": 415158288,
      "lat": 36.63629,
      "lon": 129.01393,
      "timestamp": "2018-08-12T04:30:21Z",
      "version": 3,
      "changeset": 61579197,
      "user": "Ian Wagner",
      "uid": 8637794,
      "tags": {
        "name": "금학리",
        "name:en": "Geumhak-ri",
        "name:ko": "금학리",
        "name:ko-Latn": "Geumhak-ri",
        "ncat": "교차로및지명",
        "place": "village",
        "source": "mp2osm"
      }
    },
    {
      "type": "node",
      "id": 415158289,
      "lat": 36.67841,
      "lon": 129.02296,
      "timestamp": "2018-08-12T04:30:22Z",
      "version": 3,
      "changeset": 61579197,
      "user": "Ian Wagner",
      "uid": 8637794,
      "tags": {
        "name": "토곡리",
        "name:en": "Togok-ri",
        "name:ko": "토곡리",
        "name:ko-Latn": "Togok-ri",
        "ncat": "교차로및지명",
        "place": "village",
        "source": "mp2osm"
      }
    },
    {
      "type": "node",
      "id": 415158290,
      "lat": 36.66056,
      "lon": 129.01704,
      "timestamp": "2018-08-12T04:30:22Z",
      "version": 3,
      "changeset": 61579197,
      "user": "Ian Wagner",
      "uid": 8637794,
      "tags": {
        "name": "구매리",
        "name:en": "Gumae-ri",
        "name:ko": "구매리",
        "name:ko-Latn": "Gumae-ri",
        "ncat": "교차로및지명",
        "place": "village",
        "source": "mp2osm"
      }
    },
    {
      "type": "node",
      "id": 415158291,
      "lat": 36.70964,
      "lon": 129.03668,
      "timestamp": "2018-08-12T04:30:22Z",
      "version": 3,
      "changeset": 61579197,
      "user": "Ian Wagner",
      "uid": 8637794,
      "tags": {
        "name": "토구리",
        "name:en": "Togu-ri",
        "name:ko": "토구리",
        "name:ko-Latn": "Togu-ri",
        "ncat": "교차로및지명",
        "place": "village",
        "source": "mp2osm"
      }
    },
    {
      "type": "node",
      "id": 415158292,
      "lat": 36.72028,
      "lon": 129.03163,
      "timestamp": "2018-08-12T04:30:22Z",
      "version": 3,
      "changeset": 61579197,
      "user": "Ian Wagner",
      "uid": 8637794,
      "tags": {
        "name": "기포리",
        "name:en": "Gipo-ri",
        "name:ko": "기포리",
        "name:ko-Latn": "Gipo-ri",
        "ncat": "교차로및지명",
        "place": "village",
        "source": "mp2osm"
      }
    },
    {
      "type": "node",
      "id": 415158293,
      "lat": 36.70371,
      "lon": 129.04266,
      "timestamp": "2022-04-25T11:33:11Z",
      "version": 6,
      "changeset": 120161960,
      "user": "Lepuse",
      "uid": 9560399,
      "tags": {
        "name": "청기면",
        "name:en": "Cheonggi-myeon",
        "name:ko": "청기면",
        "name:ko-Hani": "靑杞面",
        "name:ko-Latn": "Cheonggi-myeon",
        "name:zh": "靑杞面",
        "name:zh-Hans": "青杞面",
        "name:zh-Hant": "靑杞面",
        "ncat": "교차로및지명",
        "place": "town",
        "source": "mp2osm",
        "wikidata": "Q12619074"
      }
    },
    {
      "type": "node",
      "id": 415158294,
      "lat": 36.69165,
      "lon": 129.07104,
      "timestamp": "2018-08-12T04:30:22Z",
      "version": 3,
      "changeset": 61579197,
      "user": "Ian Wagner",
      "uid": 8637794,
      "tags": {
        "name": "정족리",
        "name:en": "Jeongjok-ri",
        "name:ko": "정족리",
        "name:ko-Latn": "Jeongjok-ri",
        "ncat": "교차로및지명",
        "place": "village",
        "source": "mp2osm"
      }
    },
    {
      "type": "node",
      "id": 415158295,
      "lat": 36.71811,
      "lon": 129.07577,
      "timestamp": "2018-08-12T04:30:22Z",
      "version": 3,
      "changeset": 61579197,
      "user": "Ian Wagner",
      "uid": 8637794,
      "tags": {
        "name": "산운리",
        "name:en": "Sanun-ri",
        "name:ko": "산운리",
        "name:ko-Latn": "Sanun-ri",
        "ncat": "교차로및지명",
        "place": "village",
        "source": "mp2osm"
      }
    },
    {
      "type": "node",
      "id": 415158296,
      "lat": 36.74367,
      "lon": 129.0203,
      "timestamp": "2018-08-12T04:30:23Z",
      "version": 3,
      "changeset": 61579197,
      "user": "Ian Wagner",
      "uid": 8637794,
      "tags": {
        "name": "무진리",
        "name:en": "Mujin-ri",
        "name:ko": "무진리",
        "name:ko-Latn": "Mujin-ri",
        "ncat": "교차로및지명",
        "place": "village",
        "source": "mp2osm"
      }
    },
    {
      "type": "node",
      "id": 415158297,
      "lat": 36.73191,
      "lon": 129.00013,
      "timestamp": "2018-08-12T04:30:23Z",
      "version": 3,
      "changeset": 61579197,
      "user": "Ian Wagner",
      "uid": 8637794,
      "tags": {
        "name": "사리",
        "name:en": "Sa-ri",
        "name:ko": "사리",
        "name:ko-Latn": "Sa-ri",
        "ncat": "교차로및지명",
        "place": "village",
        "source": "mp2osm"
      }
    },
    {
      "type": "node",
      "id": 415158298,
      "lat": 36.73841,
      "lon": 129.16192,
      "timestamp": "2018-08-12T04:30:23Z",
      "version": 5,
      "changeset": 61579197,
      "user": "Ian Wagner",
      "uid": 8637794,
      "tags": {
        "name": "칠성리",
        "name:en": "Chilseong-ri",
        "name:ko": "칠성리",
        "name:ko-Latn": "Chilseong-ri",
        "ncat": "교차로및지명",
        "place": "village",
        "source": "mp2osm"
      }
    },
    {
      "type": "node",
      "id": 415158299,
      "lat": 36.73937,
      "lon": 129.12907,
      "timestamp": "2022-04-25T11:33:11Z",
      "version": 6,
      "changeset": 120161960,
      "user": "Lepuse",
      "uid": 9560399,
      "tags": {
        "name": "일월면",
        "name:en": "Irwol-myeon",
        "name:ko": "일월면",
        "name:ko-Hani": "日月面",
        "name:ko-Latn": "Irwol-myeon",
        "name:zh": "日月面",
        "name:zh-Hans": "日月面",
        "name:zh-Hant": "日月面",
        "ncat": "교차로및지명",
        "place": "town",
        "source": "mp2osm",
        "wikidata": "Q16188947"
      }
    },
    {
      "type": "node",
      "id": 415158300,
      "lat": 36.71376,
      "lon": 129.14709,
      "timestamp": "2018-08-12T04:30:23Z",
      "version": 3,
      "changeset": 61579197,
      "user": "Ian Wagner",
      "uid": 8637794,
      "tags": {
        "name": "섬촌리",
        "name:en": "Seomchon-ri",
        "name:ko": "섬촌리",
        "name:ko-Latn": "Seomchon-ri",
        "ncat": "교차로및지명",
        "place": "village",
        "source": "mp2osm"
      }
    },
    {
      "type": "node",
      "id": 415158301,
      "lat": 36.73083,
      "lon": 129.09164,
      "timestamp": "2018-08-12T04:30:23Z",
      "version": 3,
      "changeset": 61579197,
      "user": "Ian Wagner",
      "uid": 8637794,
      "tags": {
        "name": "가곡리",
        "name:en": "Gagok-ri",
        "name:ko": "가곡리",
        "name:ko-Latn": "Gagok-ri",
        "ncat": "교차로및지명",
        "place": "village",
        "source": "mp2osm"
      }
    },
    {
      "type": "node",
      "id": 415158302,
      "lat": 36.71723,
      "lon": 129.10368,
      "timestamp": "2018-08-12T04:30:23Z",
      "version": 3,
      "changeset": 61579197,
      "user": "Ian Wagner",
      "uid": 8637794,
      "tags": {
        "name": "주곡리",
        "name:en": "Jugok-ri",
        "name:ko": "주곡리",
        "name:ko-Latn": "Jugok-ri",
        "ncat": "교차로및지명",
        "place": "village",
        "source": "mp2osm"
      }
    },
    {
      "type": "node",
      "id": 415158303,
      "lat": 36.70981,
      "lon": 129.12568,
      "timestamp": "2018-08-12T04:30:23Z",
      "version": 3,
      "changeset": 61579197,
      "user": "Ian Wagner",
      "uid": 8637794,
      "tags": {
        "name": "도계리",
        "name:en": "Dogye-ri",
        "name:ko": "도계리",
        "name:ko-Latn": "Dogye-ri",
        "ncat": "교차로및지명",
        "place": "village",
        "source": "mp2osm"
      }
    },
    {
      "type": "node",
      "id": 415158304,
      "lat": 36.68991,
      "lon": 129.10275,
      "timestamp": "2018-08-12T04:30:24Z",
      "version": 3,
      "changeset": 61579197,
      "user": "Ian Wagner",
      "uid": 8637794,
      "tags": {
        "name": "황용리",
        "name:en": "Hwang-yong-ri",
        "name:ko": "황용리",
        "name:ko-Latn": "Hwang-yong-ri",
        "ncat": "교차로및지명",
        "place": "village",
        "source": "mp2osm"
      }
    },
    {
      "type": "node",
      "id": 415158305,
      "lat": 36.6924,
      "lon": 129.12405,
      "timestamp": "2018-08-12T04:30:24Z",
      "version": 3,
      "changeset": 61579197,
      "user": "Ian Wagner",
      "uid": 8637794,
      "tags": {
        "name": "곡강리",
        "name:en": "Gokgang-ri",
        "name:ko": "곡강리",
        "name:ko-Latn": "Gokgang-ri",
        "ncat": "교차로및지명",
        "place": "village",
        "source": "mp2osm"
      }
    },
    {
      "type": "node",
      "id": 415158306,
      "lat": 36.68519,
      "lon": 129.1598,
      "timestamp": "2018-08-12T04:30:24Z",
      "version": 3,
      "changeset": 61579197,
      "user": "Ian Wagner",
      "uid": 8637794,
      "tags": {
        "name": "상원리",
        "name:en": "Sang-won-ri",
        "name:ko": "상원리",
        "name:ko-Latn": "Sang-won-ri",
        "ncat": "교차로및지명",
        "place": "village",
        "source": "mp2osm"
      }
    },
    {
      "type": "node",
      "id": 415158307,
      "lat": 36.71669,
      "lon": 129.17016,
      "timestamp": "2018-08-12T04:30:24Z",
      "version": 4,
      "changeset": 61579197,
      "user": "Ian Wagner",
      "uid": 8637794,
      "tags": {
        "name": "가천리",
        "name:en": "Gacheon-ri",
        "name:ko": "가천리",
        "name:ko-Latn": "Gacheon-ri",
        "ncat": "교차로및지명",
        "place": "village",
        "source": "mp2osm"
      }
    },
    {
      "type": "node",
      "id": 415158308,
      "lat": 36.6960287,
      "lon": 129.2026822,
      "timestamp": "2018-08-12T04:30:24Z",
      "version": 5,
      "changeset": 61579197,
      "user": "Ian Wagner",
      "uid": 8637794,
      "tags": {
        "name": "송하리",
        "name:en": "Songha-ri",
        "name:ko": "송하리",
        "name:ko-Latn": "Songha-ri",
        "ncat": "교차로및지명",
        "place": "village",
        "source": "mp2osm"
      }
    },
    {
      "type": "node",
      "id": 415158309,
      "lat": 36.6815,
      "lon": 129.24046,
      "timestamp": "2018-08-12T04:30:24Z",
      "version": 4,
      "changeset": 61579197,
      "user": "Ian Wagner",
      "uid": 8637794,
      "tags": {
        "name": "기산리",
        "name:en": "Gisan-ri",
        "name:ko": "기산리",
        "name:ko-Latn": "Gisan-ri",
        "ncat": "교차로및지명",
        "place": "village",
        "source": "mp2osm"
      }
    },
    {
      "type": "node",
      "id": 415158310,
      "lat": 36.72204,
      "lon": 129.24621,
      "timestamp": "2018-08-12T04:30:24Z",
      "version": 5,
      "changeset": 61579197,
      "user": "Ian Wagner",
      "uid": 8637794,
      "tags": {
        "name": "죽파리",
        "name:en": "Jukpa-ri",
        "name:ko": "죽파리",
        "name:ko-Latn": "Jukpa-ri",
        "ncat": "교차로및지명",
        "place": "village",
        "source": "mp2osm"
      }
    },
    {
      "type": "node",
      "id": 415158311,
      "lat": 36.7398,
      "lon": 129.19854,
      "timestamp": "2018-08-12T04:30:24Z",
      "version": 4,
      "changeset": 61579197,
      "user": "Ian Wagner",
      "uid": 8637794,
      "tags": {
        "name": "오기리",
        "name:en": "Ogi-ri",
        "name:ko": "오기리",
        "name:ko-Latn": "Ogi-ri",
        "ncat": "교차로및지명",
        "place": "village",
        "source": "mp2osm"
      }
    },
    {
      "type": "node",
      "id": 415158312,
      "lat": 36.67687,
      "lon": 129.18928,
      "timestamp": "2018-08-12T04:30:25Z",
      "version": 3,
      "changeset": 61579197,
      "user": "Ian Wagner",
      "uid": 8637794,
      "tags": {
        "name": "무학리",
        "name:en": "Muhak-ri",
        "name:ko": "무학리",
        "name:ko-Latn": "Muhak-ri",
        "ncat": "교차로및지명",
        "place": "village",
        "source": "mp2osm"
      }
    },
    {
      "type": "node",
      "id": 415158313,
      "lat": 36.64264,
      "lon": 129.18405,
      "timestamp": "2018-08-12T04:30:25Z",
      "version": 3,
      "changeset": 61579197,
      "user": "Ian Wagner",
      "uid": 8637794,
      "tags": {
        "name": "화천리",
        "name:en": "Hwacheon-ri",
        "name:ko": "화천리",
        "name:ko-Latn": "Hwacheon-ri",
        "ncat": "교차로및지명",
        "place": "village",
        "source": "mp2osm"
      }
    },
    {
      "type": "node",
      "id": 415158314,
      "lat": 36.63659,
      "lon": 129.21379,
      "timestamp": "2018-08-12T04:30:25Z",
      "version": 3,
      "changeset": 61579197,
      "user": "Ian Wagner",
      "uid": 8637794,
      "tags": {
        "name": "무창리",
        "name:en": "Muchang-ri",
        "name:ko": "무창리",
        "name:ko-Latn": "Muchang-ri",
        "ncat": "교차로및지명",
        "place": "village",
        "source": "mp2osm"
      }
    },
    {
      "type": "node",
      "id": 415158317,
      "lat": 36.59904,
      "lon": 129.184,
      "timestamp": "2018-08-12T04:30:25Z",
      "version": 3,
      "changeset": 61579197,
      "user": "Ian Wagner",
      "uid": 8637794,
      "tags": {
        "name": "홍계리",
        "name:en": "Honggye-ri",
        "name:ko": "홍계리",
        "name:ko-Latn": "Honggye-ri",
        "ncat": "교차로및지명",
        "place": "village",
        "source": "mp2osm"
      }
    },
    {
      "type": "node",
      "id": 415158344,
      "lat": 36.62835,
      "lon": 128.85223,
      "timestamp": "2018-08-12T04:30:25Z",
      "version": 3,
      "changeset": 61579197,
      "user": "Ian Wagner",
      "uid": 8637794,
      "tags": {
        "name": "도목리",
        "name:en": "Domok-ri",
        "name:ko": "도목리",
        "name:ko-Latn": "Domok-ri",
        "ncat": "교차로및지명",
        "place": "village",
        "source": "mp2osm"
      }
    },
    {
      "type": "node",
      "id": 415158345,
      "lat": 36.59851,
      "lon": 128.89857,
      "timestamp": "2018-08-12T04:30:25Z",
      "version": 3,
      "changeset": 61579197,
      "user": "Ian Wagner",
      "uid": 8637794,
      "tags": {
        "name": "사월리",
        "name:en": "Sawol-ri",
        "name:ko": "사월리",
        "name:ko-Latn": "Sawol-ri",
        "ncat": "교차로및지명",
        "place": "village",
        "source": "mp2osm"
      }
    },
    {
      "type": "node",
      "id": 415158346,
      "lat": 36.61046,
      "lon": 128.8786,
      "timestamp": "2018-08-12T04:30:25Z",
      "version": 3,
      "changeset": 61579197,
      "user": "Ian Wagner",
      "uid": 8637794,
      "tags": {
        "name": "미질리",
        "name:en": "Mijil-ri",
        "name:ko": "미질리",
        "name:ko-Latn": "Mijil-ri",
        "ncat": "교차로및지명",
        "place": "village",
        "source": "mp2osm"
      }
    },
    {
      "type": "node",
      "id": 415158348,
      "lat": 36.66049,
      "lon": 128.85188,
      "timestamp": "2018-08-12T04:30:25Z",
      "version": 3,
      "changeset": 61579197,
      "user": "Ian Wagner",
      "uid": 8637794,
      "tags": {
        "name": "주진리",
        "name:en": "Jujin-ri",
        "name:ko": "주진리",
        "name:ko-Latn": "Jujin-ri",
        "ncat": "교차로및지명",
        "place": "village",
        "source": "mp2osm"
      }
    },
    {
      "type": "node",
      "id": 415158349,
      "lat": 36.62627,
      "lon": 128.92276,
      "timestamp": "2018-08-12T04:30:26Z",
      "version": 3,
      "changeset": 61579197,
      "user": "Ian Wagner",
      "uid": 8637794,
      "tags": {
        "name": "계곡리",
        "name:en": "Gyegok-ri",
        "name:ko": "계곡리",
        "name:ko-Latn": "Gyegok-ri",
        "ncat": "교차로및지명",
        "place": "village",
        "source": "mp2osm"
      }
    },
    {
      "type": "node",
      "id": 415158350,
      "lat": 36.63953,
      "lon": 128.87431,
      "timestamp": "2018-08-12T04:30:26Z",
      "version": 3,
      "changeset": 61579197,
      "user": "Ian Wagner",
      "uid": 8637794,
      "tags": {
        "name": "기사리",
        "name:en": "Gisa-ri",
        "name:ko": "기사리",
        "name:ko-Latn": "Gisa-ri",
        "ncat": "교차로및지명",
        "place": "village",
        "source": "mp2osm"
      }
    },
    {
      "type": "node",
      "id": 415158351,
      "lat": 36.657,
      "lon": 128.90057,
      "timestamp": "2018-08-12T04:30:26Z",
      "version": 3,
      "changeset": 61579197,
      "user": "Ian Wagner",
      "uid": 8637794,
      "tags": {
        "name": "정산리",
        "name:en": "Jeongsan-ri",
        "name:ko": "정산리",
        "name:ko-Latn": "Jeongsan-ri",
        "ncat": "교차로및지명",
        "place": "village",
        "source": "mp2osm"
      }
    },
    {
      "type": "node",
      "id": 415158352,
      "lat": 36.67522,
      "lon": 128.90332,
      "timestamp": "2022-04-25T11:33:11Z",
      "version": 6,
      "changeset": 120161960,
      "user": "Lepuse",
      "uid": 9560399,
      "tags": {
        "name": "예안면",
        "name:en": "Yean-myeon",
        "name:ko": "예안면",
        "name:ko-Hani": "禮安面",
        "name:ko-Latn": "Yean-myeon",
        "name:zh": "禮安面",
        "name:zh-Hans": "礼安面",
        "name:zh-Hant": "禮安面",
        "ncat": "교차로및지명",
        "place": "town",
        "source": "mp2osm",
        "wikidata": "Q12607652"
      }
    },
    {
      "type": "node",
      "id": 415158353,
      "lat": 36.65874,
      "lon": 128.82226,
      "timestamp": "2018-08-12T04:30:26Z",
      "version": 3,
      "changeset": 61579197,
      "user": "Ian Wagner",
      "uid": 8637794,
      "tags": {
        "name": "라소리",
        "name:en": "Raso-ri",
        "name:ko": "라소리",
        "name:ko-Latn": "Raso-ri",
        "ncat": "교차로및지명",
        "place": "village",
        "source": "mp2osm"
      }
    },
    {
      "type": "node",
      "id": 415158354,
      "lat": 36.67856,
      "lon": 128.8,
      "timestamp": "2018-08-12T04:30:26Z",
      "version": 3,
      "changeset": 61579197,
      "user": "Ian Wagner",
      "uid": 8637794,
      "tags": {
        "name": "오천리",
        "name:en": "Ocheon-ri",
        "name:ko": "오천리",
        "name:ko-Latn": "Ocheon-ri",
        "ncat": "교차로및지명",
        "place": "village",
        "source": "mp2osm"
      }
    },
    {
      "type": "node",
      "id": 415158355,
      "lat": 36.64904,
      "lon": 128.79182,
      "timestamp": "2018-08-12T04:30:26Z",
      "version": 3,
      "changeset": 61579197,
      "user": "Ian Wagner",
      "uid": 8637794,
      "tags": {
        "name": "가야리",
        "name:en": "Gaya-ri",
        "name:ko": "가야리",
        "name:ko-Latn": "Gaya-ri",
        "ncat": "교차로및지명",
        "place": "village",
        "source": "mp2osm"
      }
    },
    {
      "type": "node",
      "id": 415158356,
      "lat": 36.63294,
      "lon": 128.83233,
      "timestamp": "2018-08-12T04:30:26Z",
      "version": 3,
      "changeset": 61579197,
      "user": "Ian Wagner",
      "uid": 8637794,
      "tags": {
        "name": "가류리",
        "name:en": "Garyu-ri",
        "name:ko": "가류리",
        "name:ko-Latn": "Garyu-ri",
        "ncat": "교차로및지명",
        "place": "village",
        "source": "mp2osm"
      }
    },
    {
      "type": "node",
      "id": 415158357,
      "lat": 36.60396,
      "lon": 128.8034,
      "timestamp": "2018-08-12T04:30:27Z",
      "version": 3,
      "changeset": 61579197,
      "user": "Ian Wagner",
      "uid": 8637794,
      "tags": {
        "name": "산야리",
        "name:en": "Sanya-ri",
        "name:ko": "산야리",
        "name:ko-Latn": "Sanya-ri",
        "ncat": "교차로및지명",
        "place": "village",
        "source": "mp2osm"
      }
    },
    {
      "type": "node",
      "id": 415158358,
      "lat": 36.63204,
      "lon": 128.80349,
      "timestamp": "2018-08-12T04:30:27Z",
      "version": 3,
      "changeset": 61579197,
      "user": "Ian Wagner",
      "uid": 8637794,
      "tags": {
        "name": "주계리",
        "name:en": "Jugye-ri",
        "name:ko": "주계리",
        "name:ko-Latn": "Jugye-ri",
        "ncat": "교차로및지명",
        "place": "village",
        "source": "mp2osm"
      }
    },
    {
      "type": "node",
      "id": 415158359,
      "lat": 36.63288,
      "lon": 128.78077,
      "timestamp": "2018-08-12T04:30:27Z",
      "version": 3,
      "changeset": 61579197,
      "user": "Ian Wagner",
      "uid": 8637794,
      "tags": {
        "name": "지내리",
        "name:en": "Jinae-ri",
        "name:ko": "지내리",
        "name:ko-Latn": "Jinae-ri",
        "ncat": "교차로및지명",
        "place": "village",
        "source": "mp2osm"
      }
    },
    {
      "type": "node",
      "id": 415158360,
      "lat": 36.62979,
      "lon": 128.785,
      "timestamp": "2022-04-25T11:33:11Z",
      "version": 6,
      "changeset": 120161960,
      "user": "Lepuse",
      "uid": 9560399,
      "tags": {
        "name": "와룡면",
        "name:en": "Waryong-myeon",
        "name:ko": "와룡면",
        "name:ko-Hani": "臥龍面",
        "name:ko-Latn": "Waryong-myeon",
        "name:zh": "臥龍面",
        "name:zh-Hans": "卧龙面",
        "name:zh-Hant": "臥龍面",
        "ncat": "교차로및지명",
        "place": "town",
        "source": "mp2osm",
        "wikidata": "Q12608331"
      }
    },
    {
      "type": "node",
      "id": 415158361,
      "lat": 36.61593,
      "lon": 128.78067,
      "timestamp": "2018-08-12T04:30:28Z",
      "version": 3,
      "changeset": 61579197,
      "user": "Ian Wagner",
      "uid": 8637794,
      "tags": {
        "name": "가구리",
        "name:en": "Gagu-ri",
        "name:ko": "가구리",
        "name:ko-Latn": "Gagu-ri",
        "ncat": "교차로및지명",
        "place": "village",
        "source": "mp2osm"
      }
    },
    {
      "type": "node",
      "id": 415158363,
      "lat": 36.6278,
      "lon": 128.76135,
      "timestamp": "2018-08-12T04:30:28Z",
      "version": 3,
      "changeset": 61579197,
      "user": "Ian Wagner",
      "uid": 8637794,
      "tags": {
        "name": "태리",
        "name:en": "Tae-ri",
        "name:ko": "태리",
        "name:ko-Latn": "Tae-ri",
        "ncat": "교차로및지명",
        "place": "village",
        "source": "mp2osm"
      }
    },
    {
      "type": "node",
      "id": 415158364,
      "lat": 36.60037,
      "lon": 128.751,
      "timestamp": "2018-08-12T04:30:28Z",
      "version": 3,
      "changeset": 61579197,
      "user": "Ian Wagner",
      "uid": 8637794,
      "tags": {
        "name": "서지리",
        "name:en": "Seoji-ri",
        "name:ko": "서지리",
        "name:ko-Latn": "Seoji-ri",
        "ncat": "교차로및지명",
        "place": "village",
        "source": "mp2osm"
      }
    },
    {
      "type": "node",
      "id": 415158365,
      "lat": 36.65065,
      "lon": 128.74798,
      "timestamp": "2018-08-12T04:30:28Z",
      "version": 3,
      "changeset": 61579197,
      "user": "Ian Wagner",
      "uid": 8637794,
      "tags": {
        "name": "주하리",
        "name:en": "Juha-ri",
        "name:ko": "주하리",
        "name:ko-Latn": "Juha-ri",
        "ncat": "교차로및지명",
        "place": "village",
        "source": "mp2osm"
      }
    },
    {
      "type": "node",
      "id": 415158366,
      "lat": 36.66056,
      "lon": 128.77113,
      "timestamp": "2018-08-12T04:30:28Z",
      "version": 3,
      "changeset": 61579197,
      "user": "Ian Wagner",
      "uid": 8637794,
      "tags": {
        "name": "감애리",
        "name:en": "Gamae-ri",
        "name:ko": "감애리",
        "name:ko-Latn": "Gamae-ri",
        "ncat": "교차로및지명",
        "place": "village",
        "source": "mp2osm"
      }
    },
    {
      "type": "node",
      "id": 415158367,
      "lat": 36.67678,
      "lon": 128.75743,
      "timestamp": "2018-08-12T04:30:28Z",
      "version": 3,
      "changeset": 61579197,
      "user": "Ian Wagner",
      "uid": 8637794,
      "tags": {
        "name": "서현리",
        "name:en": "Seohyeon-ri",
        "name:ko": "서현리",
        "name:ko-Latn": "Seohyeon-ri",
        "ncat": "교차로및지명",
        "place": "village",
        "source": "mp2osm"
      }
    },
    {
      "type": "node",
      "id": 415158368,
      "lat": 36.69775,
      "lon": 128.75358,
      "timestamp": "2018-08-12T04:30:28Z",
      "version": 3,
      "changeset": 61579197,
      "user": "Ian Wagner",
      "uid": 8637794,
      "tags": {
        "name": "서삼리",
        "name:en": "Seosam-ri",
        "name:ko": "서삼리",
        "name:ko-Latn": "Seosam-ri",
        "ncat": "교차로및지명",
        "place": "village",
        "source": "mp2osm"
      }
    },
    {
      "type": "node",
      "id": 415158369,
      "lat": 36.705,
      "lon": 128.75819,
      "timestamp": "2018-08-12T04:30:28Z",
      "version": 3,
      "changeset": 61579197,
      "user": "Ian Wagner",
      "uid": 8637794,
      "tags": {
        "name": "사신리",
        "name:en": "Sasin-ri",
        "name:ko": "사신리",
        "name:ko-Latn": "Sasin-ri",
        "ncat": "교차로및지명",
        "place": "village",
        "source": "mp2osm"
      }
    },
    {
      "type": "node",
      "id": 415158370,
      "lat": 36.73558,
      "lon": 128.76832,
      "timestamp": "2018-08-12T04:30:29Z",
      "version": 3,
      "changeset": 61579197,
      "user": "Ian Wagner",
      "uid": 8637794,
      "tags": {
        "name": "죽송리",
        "name:en": "Juksong-ri",
        "name:ko": "죽송리",
        "name:ko-Latn": "Juksong-ri",
        "ncat": "교차로및지명",
        "place": "village",
        "source": "mp2osm"
      }
    },
    {
      "type": "node",
      "id": 415158371,
      "lat": 36.682,
      "lon": 128.83235,
      "timestamp": "2018-08-12T04:30:29Z",
      "version": 3,
      "changeset": 61579197,
      "user": "Ian Wagner",
      "uid": 8637794,
      "tags": {
        "name": "천전리",
        "name:en": "Cheonjeon-ri",
        "name:ko": "천전리",
        "name:ko-Latn": "Cheonjeon-ri",
        "ncat": "교차로및지명",
        "place": "village",
        "source": "mp2osm"
      }
    },
    {
      "type": "node",
      "id": 415158372,
      "lat": 36.70506,
      "lon": 128.81669,
      "timestamp": "2018-08-12T04:30:29Z",
      "version": 3,
      "changeset": 61579197,
      "user": "Ian Wagner",
      "uid": 8637794,
      "tags": {
        "name": "서부리",
        "name:en": "Seobu-ri",
        "name:ko": "서부리",
        "name:ko-Latn": "Seobu-ri",
        "ncat": "교차로및지명",
        "place": "village",
        "source": "mp2osm"
      }
    },
    {
      "type": "node",
      "id": 415158373,
      "lat": 36.72021,
      "lon": 128.8336,
      "timestamp": "2018-08-12T04:30:29Z",
      "version": 3,
      "changeset": 61579197,
      "user": "Ian Wagner",
      "uid": 8637794,
      "tags": {
        "name": "분천리",
        "name:en": "Buncheon-ri",
        "name:ko": "분천리",
        "name:ko-Latn": "Buncheon-ri",
        "ncat": "교차로및지명",
        "place": "village",
        "source": "mp2osm"
      }
    },
    {
      "type": "node",
      "id": 415158374,
      "lat": 36.73506,
      "lon": 128.80847,
      "timestamp": "2018-08-12T04:30:29Z",
      "version": 3,
      "changeset": 61579197,
      "user": "Ian Wagner",
      "uid": 8637794,
      "tags": {
        "name": "의일리",
        "name:en": "Uiil-ri",
        "name:ko": "의일리",
        "name:ko-Latn": "Uiil-ri",
        "ncat": "교차로및지명",
        "place": "village",
        "source": "mp2osm"
      }
    },
    {
      "type": "node",
      "id": 415158375,
      "lat": 36.75242,
      "lon": 128.77624,
      "timestamp": "2018-08-12T04:30:29Z",
      "version": 3,
      "changeset": 61579197,
      "user": "Ian Wagner",
      "uid": 8637794,
      "tags": {
        "name": "신평리",
        "name:en": "Sinpyeong-ri",
        "name:ko": "신평리",
        "name:ko-Latn": "Sinpyeong-ri",
        "ncat": "교차로및지명",
        "place": "village",
        "source": "mp2osm"
      }
    },
    {
      "type": "node",
      "id": 415158376,
      "lat": 36.7023,
      "lon": 128.79663,
      "timestamp": "2018-08-12T04:30:29Z",
      "version": 3,
      "changeset": 61579197,
      "user": "Ian Wagner",
      "uid": 8637794,
      "tags": {
        "name": "선양리",
        "name:en": "Seonyang-ri",
        "name:ko": "선양리",
        "name:ko-Latn": "Seonyang-ri",
        "ncat": "교차로및지명",
        "place": "village",
        "source": "mp2osm"
      }
    },
    {
      "type": "node",
      "id": 415158377,
      "lat": 36.72285,
      "lon": 128.78038,
      "timestamp": "2018-08-12T04:30:29Z",
      "version": 3,
      "changeset": 61579197,
      "user": "Ian Wagner",
      "uid": 8637794,
      "tags": {
        "name": "구송리",
        "name:en": "Gusong-ri",
        "name:ko": "구송리",
        "name:ko-Latn": "Gusong-ri",
        "ncat": "교차로및지명",
        "place": "village",
        "source": "mp2osm"
      }
    },
    {
      "type": "node",
      "id": 415158378,
      "lat": 36.73513,
      "lon": 128.74778,
      "timestamp": "2018-08-12T04:30:29Z",
      "version": 3,
      "changeset": 61579197,
      "user": "Ian Wagner",
      "uid": 8637794,
      "tags": {
        "name": "녹래리",
        "name:en": "Nongnae-ri",
        "name:ko": "녹래리",
        "name:ko-Latn": "Nongnae-ri",
        "ncat": "교차로및지명",
        "place": "village",
        "source": "mp2osm"
      }
    },
    {
      "type": "node",
      "id": 415158379,
      "lat": 36.7501,
      "lon": 128.7671,
      "timestamp": "2022-04-25T11:33:11Z",
      "version": 6,
      "changeset": 120161960,
      "user": "Lepuse",
      "uid": 9560399,
      "tags": {
        "name": "녹전면",
        "name:en": "Nokjeon-myeon",
        "name:ko": "녹전면",
        "name:ko-Hani": "祿轉面",
        "name:ko-Latn": "Nokjeon-myeon",
        "name:zh": "祿轉面",
        "name:zh-Hans": "禄转面",
        "name:zh-Hant": "祿轉面",
        "ncat": "교차로및지명",
        "place": "town",
        "source": "mp2osm",
        "wikidata": "Q12590504"
      }
    },
    {
      "type": "node",
      "id": 415158380,
      "lat": 36.73688,
      "lon": 128.84141,
      "timestamp": "2022-04-25T11:33:11Z",
      "version": 5,
      "changeset": 120161960,
      "user": "Lepuse",
      "uid": 9560399,
      "tags": {
        "name": "도산면",
        "name:en": "Dosan-myeon",
        "name:ko": "도산면",
        "name:ko-Hani": "陶山面",
        "name:ko-Latn": "Dosan-myeon",
        "name:zh": "陶山面",
        "name:zh-Hans": "陶山面",
        "name:zh-Hant": "陶山面",
        "ncat": "교차로및지명",
        "place": "town",
        "source": "mp2osm"
      }
    },
    {
      "type": "node",
      "id": 415158381,
      "lat": 36.74281,
      "lon": 128.85162,
      "timestamp": "2018-08-12T04:30:30Z",
      "version": 3,
      "changeset": 61579197,
      "user": "Ian Wagner",
      "uid": 8637794,
      "tags": {
        "name": "토계리",
        "name:en": "Togye-ri",
        "name:ko": "토계리",
        "name:ko-Latn": "Togye-ri",
        "ncat": "교차로및지명",
        "place": "village",
        "source": "mp2osm"
      }
    },
    {
      "type": "node",
      "id": 415158382,
      "lat": 36.72135,
      "lon": 128.85165,
      "timestamp": "2018-08-12T04:30:30Z",
      "version": 3,
      "changeset": 61579197,
      "user": "Ian Wagner",
      "uid": 8637794,
      "tags": {
        "name": "의촌리",
        "name:en": "Uichon-ri",
        "name:ko": "의촌리",
        "name:ko-Latn": "Uichon-ri",
        "ncat": "교차로및지명",
        "place": "village",
        "source": "mp2osm"
      }
    },
    {
      "type": "node",
      "id": 415158383,
      "lat": 36.70539,
      "lon": 128.83699,
      "timestamp": "2018-08-12T04:30:30Z",
      "version": 3,
      "changeset": 61579197,
      "user": "Ian Wagner",
      "uid": 8637794,
      "tags": {
        "name": "동부리",
        "name:en": "Dongbu-ri",
        "name:ko": "동부리",
        "name:ko-Latn": "Dongbu-ri",
        "ncat": "교차로및지명",
        "place": "village",
        "source": "mp2osm"
      }
    },
    {
      "type": "node",
      "id": 415158384,
      "lat": 36.69625,
      "lon": 128.86488,
      "timestamp": "2018-08-12T04:30:30Z",
      "version": 3,
      "changeset": 61579197,
      "user": "Ian Wagner",
      "uid": 8637794,
      "tags": {
        "name": "부포리",
        "name:en": "Bupo-ri",
        "name:ko": "부포리",
        "name:ko-Latn": "Bupo-ri",
        "ncat": "교차로및지명",
        "place": "village",
        "source": "mp2osm"
      }
    },
    {
      "type": "node",
      "id": 415158385,
      "lat": 36.68279,
      "lon": 128.87426,
      "timestamp": "2018-08-12T04:30:30Z",
      "version": 3,
      "changeset": 61579197,
      "user": "Ian Wagner",
      "uid": 8637794,
      "tags": {
        "name": "귀단리",
        "name:en": "Gwidan-ri",
        "name:ko": "귀단리",
        "name:ko-Latn": "Gwidan-ri",
        "ncat": "교차로및지명",
        "place": "village",
        "source": "mp2osm"
      }
    },
    {
      "type": "node",
      "id": 415158386,
      "lat": 36.68882,
      "lon": 128.90133,
      "timestamp": "2018-08-12T04:30:30Z",
      "version": 3,
      "changeset": 61579197,
      "user": "Ian Wagner",
      "uid": 8637794,
      "tags": {
        "name": "태곡리",
        "name:en": "Taegok-ri",
        "name:ko": "태곡리",
        "name:ko-Latn": "Taegok-ri",
        "ncat": "교차로및지명",
        "place": "village",
        "source": "mp2osm"
      }
    },
    {
      "type": "node",
      "id": 415158387,
      "lat": 36.72584,
      "lon": 128.88104,
      "timestamp": "2018-08-12T04:30:31Z",
      "version": 3,
      "changeset": 61579197,
      "user": "Ian Wagner",
      "uid": 8637794,
      "tags": {
        "name": "원천리",
        "name:en": "Woncheon-ri",
        "name:ko": "원천리",
        "name:ko-Latn": "Woncheon-ri",
        "ncat": "교차로및지명",
        "place": "village",
        "source": "mp2osm"
      }
    },
    {
      "type": "node",
      "id": 415158388,
      "lat": 36.7447,
      "lon": 128.88763,
      "timestamp": "2018-08-12T04:30:31Z",
      "version": 3,
      "changeset": 61579197,
      "user": "Ian Wagner",
      "uid": 8637794,
      "tags": {
        "name": "단천리",
        "name:en": "Dancheon-ri",
        "name:ko": "단천리",
        "name:ko-Latn": "Dancheon-ri",
        "ncat": "교차로및지명",
        "place": "village",
        "source": "mp2osm"
      }
    },
    {
      "type": "node",
      "id": 415158389,
      "lat": 36.71807,
      "lon": 128.9272,
      "timestamp": "2018-08-12T04:30:31Z",
      "version": 3,
      "changeset": 61579197,
      "user": "Ian Wagner",
      "uid": 8637794,
      "tags": {
        "name": "삼계리",
        "name:en": "Samgye-ri",
        "name:ko": "삼계리",
        "name:ko-Latn": "Samgye-ri",
        "ncat": "교차로및지명",
        "place": "village",
        "source": "mp2osm"
      }
    },
    {
      "type": "node",
      "id": 415158390,
      "lat": 36.68801,
      "lon": 128.95164,
      "timestamp": "2018-08-12T04:30:31Z",
      "version": 3,
      "changeset": 61579197,
      "user": "Ian Wagner",
      "uid": 8637794,
      "tags": {
        "name": "인계리",
        "name:en": "In-gye-ri",
        "name:ko": "인계리",
        "name:ko-Latn": "In-gye-ri",
        "ncat": "교차로및지명",
        "place": "village",
        "source": "mp2osm"
      }
    },
    {
      "type": "node",
      "id": 415158391,
      "lat": 36.69506,
      "lon": 128.97404,
      "timestamp": "2018-08-12T04:30:31Z",
      "version": 3,
      "changeset": 61579197,
      "user": "Ian Wagner",
      "uid": 8637794,
      "tags": {
        "name": "동천리",
        "name:en": "Dongcheon-ri",
        "name:ko": "동천리",
        "name:ko-Latn": "Dongcheon-ri",
        "ncat": "교차로및지명",
        "place": "village",
        "source": "mp2osm"
      }
    },
    {
      "type": "node",
      "id": 415158392,
      "lat": 36.72592,
      "lon": 128.97056,
      "timestamp": "2018-08-12T04:30:31Z",
      "version": 3,
      "changeset": 61579197,
      "user": "Ian Wagner",
      "uid": 8637794,
      "tags": {
        "name": "도촌리",
        "name:en": "Dochon-ri",
        "name:ko": "도촌리",
        "name:ko-Latn": "Dochon-ri",
        "ncat": "교차로및지명",
        "place": "village",
        "source": "mp2osm"
      }
    },
    {
      "type": "node",
      "id": 415158393,
      "lat": 36.75188,
      "lon": 128.94348,
      "timestamp": "2018-08-12T04:30:31Z",
      "version": 3,
      "changeset": 61579197,
      "user": "Ian Wagner",
      "uid": 8637794,
      "tags": {
        "name": "신남리",
        "name:en": "Sinnam-ri",
        "name:ko": "신남리",
        "name:ko-Latn": "Sinnam-ri",
        "ncat": "교차로및지명",
        "place": "village",
        "source": "mp2osm"
      }
    },
    {
      "type": "node",
      "id": 415158394,
      "lat": 36.6526,
      "lon": 128.93301,
      "timestamp": "2018-08-12T04:30:31Z",
      "version": 3,
      "changeset": 61579197,
      "user": "Ian Wagner",
      "uid": 8637794,
      "tags": {
        "name": "구룡리",
        "name:en": "Guryong-ri",
        "name:ko": "구룡리",
        "name:ko-Latn": "Guryong-ri",
        "ncat": "교차로및지명",
        "place": "village",
        "source": "mp2osm"
      }
    },
    {
      "type": "node",
      "id": 415158395,
      "lat": 36.64796,
      "lon": 128.97152,
      "timestamp": "2018-08-12T04:30:31Z",
      "version": 3,
      "changeset": 61579197,
      "user": "Ian Wagner",
      "uid": 8637794,
      "tags": {
        "name": "대곡리",
        "name:en": "Daegok-ri",
        "name:ko": "대곡리",
        "name:ko-Latn": "Daegok-ri",
        "ncat": "교차로및지명",
        "place": "village",
        "source": "mp2osm"
      }
    },
    {
      "type": "node",
      "id": 415158396,
      "lat": 36.61867,
      "lon": 128.95065,
      "timestamp": "2018-08-12T04:30:32Z",
      "version": 3,
      "changeset": 61579197,
      "user": "Ian Wagner",
      "uid": 8637794,
      "tags": {
        "name": "위리",
        "name:en": "Wi-ri",
        "name:ko": "위리",
        "name:ko-Latn": "Wi-ri",
        "ncat": "교차로및지명",
        "place": "village",
        "source": "mp2osm"
      }
    },
    {
      "type": "node",
      "id": 415158492,
      "lat": 36.69442,
      "lon": 128.7035,
      "timestamp": "2018-08-12T04:30:32Z",
      "version": 3,
      "changeset": 61579197,
      "user": "Ian Wagner",
      "uid": 8637794,
      "tags": {
        "name": "옹천리",
        "name:en": "Ongcheon-ri",
        "name:ko": "옹천리",
        "name:ko-Latn": "Ongcheon-ri",
        "ncat": "교차로및지명",
        "place": "village",
        "source": "mp2osm"
      }
    },
    {
      "type": "node",
      "id": 415158493,
      "lat": 36.68022,
      "lon": 128.69819,
      "timestamp": "2018-08-12T04:30:32Z",
      "version": 3,
      "changeset": 61579197,
      "user": "Ian Wagner",
      "uid": 8637794,
      "tags": {
        "name": "장기리",
        "name:en": "Janggi-ri",
        "name:ko": "장기리",
        "name:ko-Latn": "Janggi-ri",
        "ncat": "교차로및지명",
        "place": "village",
        "source": "mp2osm"
      }
    },
    {
      "type": "node",
      "id": 415158494,
      "lat": 36.70936,
      "lon": 128.71777,
      "timestamp": "2018-08-12T04:30:32Z",
      "version": 3,
      "changeset": 61579197,
      "user": "Ian Wagner",
      "uid": 8637794,
      "tags": {
        "name": "지곡리",
        "name:en": "Jigok-ri",
        "name:ko": "지곡리",
        "name:ko-Latn": "Jigok-ri",
        "ncat": "교차로및지명",
        "place": "village",
        "source": "mp2osm"
      }
    },
    {
      "type": "node",
      "id": 415158495,
      "lat": 36.68888,
      "lon": 128.73858,
      "timestamp": "2018-08-12T04:30:32Z",
      "version": 3,
      "changeset": 61579197,
      "user": "Ian Wagner",
      "uid": 8637794,
      "tags": {
        "name": "대현리",
        "name:en": "Daehyeon-ri",
        "name:ko": "대현리",
        "name:ko-Latn": "Daehyeon-ri",
        "ncat": "교차로및지명",
        "place": "village",
        "source": "mp2osm"
      }
    },
    {
      "type": "node",
      "id": 415158496,
      "lat": 36.75066,
      "lon": 128.72142,
      "timestamp": "2018-08-12T04:30:32Z",
      "version": 3,
      "changeset": 61579197,
      "user": "Ian Wagner",
      "uid": 8637794,
      "tags": {
        "name": "오운리",
        "name:en": "Oun-ri",
        "name:ko": "오운리",
        "name:ko-Latn": "Oun-ri",
        "ncat": "교차로및지명",
        "place": "village",
        "source": "mp2osm"
      }
    },
    {
      "type": "node",
      "id": 415158497,
      "lat": 36.74326,
      "lon": 128.69476,
      "timestamp": "2022-04-25T11:33:11Z",
      "version": 6,
      "changeset": 120161960,
      "user": "Lepuse",
      "uid": 9560399,
      "tags": {
        "name": "평은면",
        "name:en": "Pyeongeun-myeon",
        "name:ko": "평은면",
        "name:ko-Hani": "平恩面",
        "name:ko-Latn": "Pyeongeun-myeon",
        "name:zh": "平恩面",
        "name:zh-Hans": "平恩面",
        "name:zh-Hant": "平恩面",
        "ncat": "교차로및지명",
        "place": "town",
        "source": "mp2osm",
        "wikidata": "Q12621808"
      }
    },
    {
      "type": "node",
      "id": 415158498,
      "lat": 36.72897,
      "lon": 128.6855,
      "timestamp": "2018-08-12T04:30:33Z",
      "version": 3,
      "changeset": 61579197,
      "user": "Ian Wagner",
      "uid": 8637794,
      "tags": {
        "name": "강동리",
        "name:en": "Gangdong-ri",
        "name:ko": "강동리",
        "name:ko-Latn": "Gangdong-ri",
        "ncat": "교차로및지명",
        "place": "village",
        "source": "mp2osm"
      }
    },
    {
      "type": "node",
      "id": 415158499,
      "lat": 36.64575,
      "lon": 128.72305,
      "timestamp": "2018-08-12T04:30:33Z",
      "version": 3,
      "changeset": 61579197,
      "user": "Ian Wagner",
      "uid": 8637794,
      "tags": {
        "name": "도진리",
        "name:en": "Dojin-ri",
        "name:ko": "도진리",
        "name:ko-Latn": "Dojin-ri",
        "ncat": "교차로및지명",
        "place": "village",
        "source": "mp2osm"
      }
    },
    {
      "type": "node",
      "id": 415158500,
      "lat": 36.65936,
      "lon": 128.71467,
      "timestamp": "2018-08-12T04:30:33Z",
      "version": 3,
      "changeset": 61579197,
      "user": "Ian Wagner",
      "uid": 8637794,
      "tags": {
        "name": "물한리",
        "name:en": "Mulhan-ri",
        "name:ko": "물한리",
        "name:ko-Latn": "Mulhan-ri",
        "ncat": "교차로및지명",
        "place": "village",
        "source": "mp2osm"
      }
    },
    {
      "type": "node",
      "id": 415158501,
      "lat": 36.67176,
      "lon": 128.72912,
      "timestamp": "2018-08-12T04:30:33Z",
      "version": 3,
      "changeset": 61579197,
      "user": "Ian Wagner",
      "uid": 8637794,
      "tags": {
        "name": "연곡리",
        "name:en": "Yeon-gok-ri",
        "name:ko": "연곡리",
        "name:ko-Latn": "Yeon-gok-ri",
        "ncat": "교차로및지명",
        "place": "village",
        "source": "mp2osm"
      }
    },
    {
      "type": "node",
      "id": 415158502,
      "lat": 36.67367,
      "lon": 128.6902,
      "timestamp": "2022-04-25T11:33:11Z",
      "version": 6,
      "changeset": 120161960,
      "user": "Lepuse",
      "uid": 9560399,
      "tags": {
        "name": "북후면",
        "name:en": "Bukhu-myeon",
        "name:ko": "북후면",
        "name:ko-Hani": "北後面",
        "name:ko-Latn": "Bukhu-myeon",
        "name:zh": "北後面",
        "name:zh-Hans": "北后面",
        "name:zh-Hant": "北後面",
        "ncat": "교차로및지명",
        "place": "town",
        "source": "mp2osm",
        "wikidata": "Q16191276"
      }
    },
    {
      "type": "node",
      "id": 415158503,
      "lat": 36.66805,
      "lon": 128.68455,
      "timestamp": "2018-08-12T04:30:33Z",
      "version": 3,
      "changeset": 61579197,
      "user": "Ian Wagner",
      "uid": 8637794,
      "tags": {
        "name": "도촌리",
        "name:en": "Dochon-ri",
        "name:ko": "도촌리",
        "name:ko-Latn": "Dochon-ri",
        "ncat": "교차로및지명",
        "place": "village",
        "source": "mp2osm"
      }
    },
    {
      "type": "node",
      "id": 415158504,
      "lat": 36.64683,
      "lon": 128.68751,
      "timestamp": "2018-08-12T04:30:33Z",
      "version": 3,
      "changeset": 61579197,
      "user": "Ian Wagner",
      "uid": 8637794,
      "tags": {
        "name": "광평리",
        "name:en": "Gwangpyeong-ri",
        "name:ko": "광평리",
        "name:ko-Latn": "Gwangpyeong-ri",
        "ncat": "교차로및지명",
        "place": "village",
        "source": "mp2osm"
      }
    },
    {
      "type": "node",
      "id": 415158507,
      "lat": 36.63048,
      "lon": 128.69981,
      "timestamp": "2018-08-12T04:30:34Z",
      "version": 3,
      "changeset": 61579197,
      "user": "Ian Wagner",
      "uid": 8637794,
      "tags": {
        "name": "저전리",
        "name:en": "Jeojeon-ri",
        "name:ko": "저전리",
        "name:ko-Latn": "Jeojeon-ri",
        "ncat": "교차로및지명",
        "place": "village",
        "source": "mp2osm"
      }
    },
    {
      "type": "node",
      "id": 415158508,
      "lat": 36.62121,
      "lon": 128.71661,
      "timestamp": "2018-08-12T04:30:34Z",
      "version": 3,
      "changeset": 61579197,
      "user": "Ian Wagner",
      "uid": 8637794,
      "tags": {
        "name": "오산리",
        "name:en": "Osan-ri",
        "name:ko": "오산리",
        "name:ko-Latn": "Osan-ri",
        "ncat": "교차로및지명",
        "place": "village",
        "source": "mp2osm"
      }
    },
    {
      "type": "node",
      "id": 415158509,
      "lat": 36.61209,
      "lon": 128.6909,
      "timestamp": "2018-08-12T04:30:34Z",
      "version": 3,
      "changeset": 61579197,
      "user": "Ian Wagner",
      "uid": 8637794,
      "tags": {
        "name": "이송천리",
        "name:en": "Isongcheon-ri",
        "name:ko": "이송천리",
        "name:ko-Latn": "Isongcheon-ri",
        "ncat": "교차로및지명",
        "place": "village",
        "source": "mp2osm"
      }
    },
    {
      "type": "node",
      "id": 415158512,
      "lat": 36.60078,
      "lon": 128.71217,
      "timestamp": "2019-09-08T02:43:45Z",
      "version": 4,
      "changeset": 74217758,
      "user": "Jisho",
      "uid": 4829972,
      "tags": {
        "name": "이천동",
        "name:en": "Icheon-dong",
        "name:ko": "이천동",
        "name:ko-Latn": "Icheon-dong",
        "place": "village",
        "source": "mp2osm"
      }
    },
    {
      "type": "node",
      "id": 415158515,
      "lat": 36.6073611,
      "lon": 128.7257381,
      "timestamp": "2018-08-12T04:30:34Z",
      "version": 4,
      "changeset": 61579197,
      "user": "Ian Wagner",
      "uid": 8637794,
      "tags": {
        "name": "이하리",
        "name:en": "Iha-ri",
        "name:ko": "이하리",
        "name:ko-Latn": "Iha-ri",
        "ncat": "교차로및지명",
        "place": "village",
        "source": "mp2osm"
      }
    },
    {
      "type": "node",
      "id": 415158516,
      "lat": 36.62284,
      "lon": 128.73974,
      "timestamp": "2018-08-12T04:30:34Z",
      "version": 3,
      "changeset": 61579197,
      "user": "Ian Wagner",
      "uid": 8637794,
      "tags": {
        "name": "이상리",
        "name:en": "Isang-ri",
        "name:ko": "이상리",
        "name:ko-Latn": "Isang-ri",
        "ncat": "교차로및지명",
        "place": "village",
        "source": "mp2osm"
      }
    },
    {
      "type": "node",
      "id": 436758856,
      "lat": 36.7646662,
      "lon": 129.1897862,
      "timestamp": "2018-11-16T01:59:12Z",
      "version": 3,
      "changeset": 64549918,
      "user": "octel",
      "uid": 238290,
      "tags": {
        "name": "한티재",
        "name:ko": "한티재",
        "natural": "saddle"
      }
    },
    {
      "type": "node",
      "id": 1869656978,
      "lat": 37.0080196,
      "lon": 128.7762081,
      "timestamp": "2018-08-12T04:30:36Z",
      "version": 4,
      "changeset": 61579197,
      "user": "Ian Wagner",
      "uid": 8637794,
      "tags": {
        "name": "주실령",
        "name:en": "Jusilryeong",
        "name:ko": "주실령",
        "name:ko-Latn": "Jusilryeong",
        "natural": "saddle",
        "source": "gps"
      }
    },
    {
      "type": "node",
      "id": 1869868303,
      "lat": 37.027969,
      "lon": 128.754013,
      "timestamp": "2018-08-12T04:30:36Z",
      "version": 3,
      "changeset": 61579197,
      "user": "Ian Wagner",
      "uid": 8637794,
      "tags": {
        "name": "박달령",
        "name:en": "bakdalryeong",
        "name:ko": "박달령",
        "name:ko-Latn": "bakdalryeong",
        "natural": "saddle",
        "source": "gps"
      }
    },
    {
      "type": "node",
      "id": 1869868307,
      "lat": 37.0387262,
      "lon": 128.7973093,
      "timestamp": "2018-11-28T01:16:14Z",
      "version": 4,
      "changeset": 64955539,
      "user": "maphunter36",
      "uid": 2924920,
      "tags": {
        "name": "도래기재",
        "name:en": "doraegijae",
        "name:ko": "도래기재",
        "name:ko-Latn": "doraegijae",
        "natural": "saddle",
        "source": "gps"
      }
    },
    {
      "type": "node",
      "id": 1869868386,
      "lat": 37.022487,
      "lon": 128.782363,
      "timestamp": "2021-05-01T05:22:49Z",
      "version": 4,
      "changeset": 103942200,
      "user": "pizzaiolo",
      "uid": 1772368,
      "tags": {
        "ele": "1242",
        "name": "옥돌봉",
        "name:en": "Okdolbong",
        "name:ko": "옥돌봉",
        "name:ko-Latn": "Okdolbong",
        "natural": "peak",
        "source": "gps",
        "wikidata": "Q27304117"
      }
    },
    {
      "type": "node",
      "id": 1871881031,
      "lat": 37.1076939,
      "lon": 128.9302126,
      "timestamp": "2018-08-12T04:30:37Z",
      "version": 4,
      "changeset": 61579197,
      "user": "Ian Wagner",
      "uid": 8637794,
      "tags": {
        "name": "반재",
        "name:en": "Banjae",
        "name:ko": "반재",
        "name:ko-Latn": "Banjae",
        "natural": "saddle",
        "source": "gps"
      }
    },
    {
      "type": "node",
      "id": 1871881181,
      "lat": 37.123157,
      "lon": 128.899459,
      "timestamp": "2018-08-12T04:30:39Z",
      "version": 3,
      "changeset": 61579197,
      "user": "Ian Wagner",
      "uid": 8637794,
      "tags": {
        "name": "화방재",
        "name:en": "hwabangjae",
        "name:ko": "화방재",
        "name:ko-Latn": "hwabangjae",
        "natural": "saddle",
        "source": "gps"
      }
    },
    {
      "type": "node",
      "id": 1871887964,
      "lat": 37.0372839,
      "lon": 128.7987449,
      "timestamp": "2020-04-13T05:04:50Z",
      "version": 4,
      "changeset": 83449162,
      "user": "Gwenvador",
      "uid": 10089878,
      "tags": {
        "amenity": "shelter",
        "name": "팔각정",
        "name:en": "palgakjeong",
        "name:ko": "팔각정",
        "name:ko-Latn": "palgakjeong",
        "source": "gps"
      }
    },
    {
      "type": "node",
      "id": 1871888005,
      "lat": 37.1087925,
      "lon": 128.9106667,
      "timestamp": "2018-08-12T04:30:39Z",
      "version": 3,
      "changeset": 61579197,
      "user": "Ian Wagner",
      "uid": 8637794,
      "tags": {
        "amenity": "shelter",
        "name": "유일사쉼터",
        "name:en": "yuilsa swimteo",
        "name:ko": "유일사쉼터",
        "name:ko-Latn": "uilsa swimteo"
      }
    },
    {
      "type": "node",
      "id": 2281009594,
      "lat": 36.6630074,
      "lon": 129.1135915,
      "timestamp": "2022-05-14T10:00:55Z",
      "version": 7,
      "changeset": 120972069,
      "user": "b-jazz-bot",
      "uid": 9451067,
      "tags": {
        "addr:housename": "CU Mart",
        "brand": "CU",
        "brand:wikidata": "Q12580836",
        "name": "CU Mart",
        "name:ko": "CU Mart",
        "operator": "BGF리테일",
        "operator:en": "BGF Retail",
        "payment:american_express": "yes",
        "payment:cash": "yes",
        "payment:coins": "yes",
        "payment:credit_cards": "yes",
        "payment:debit_cards": "yes",
        "payment:diners_club": "yes",
        "payment:discover_card": "yes",
        "payment:jcb": "yes",
        "payment:mastercard": "yes",
        "payment:notes": "yes",
        "payment:unionpay": "yes",
        "payment:visa": "yes",
        "shop": "convenience",
        "smoking": "no",
        "website": "https://cu.bgfretail.com/index.do"
      }
    },
    {
      "type": "node",
      "id": 2281020577,
      "lat": 36.6617771,
      "lon": 129.109255,
      "timestamp": "2013-04-25T15:39:09Z",
      "version": 1,
      "changeset": 15862109,
      "user": "rjhisle1973",
      "uid": 1390463,
      "tags": {
        "amenity": "shelter"
      }
    },
    {
      "type": "node",
      "id": 2418496679,
      "lat": 36.7184986,
      "lon": 129.3383825,
      "timestamp": "2013-08-14T03:49:09Z",
      "version": 1,
      "changeset": 17339686,
      "user": "UFeldmaus",
      "uid": 41190,
      "tags": {
        "natural": "spring",
        "source": "survey"
      }
    },
    {
      "type": "node",
      "id": 3878806510,
      "lat": 37.0764605,
      "lon": 129.2308983,
      "timestamp": "2021-05-01T02:57:40Z",
      "version": 4,
      "changeset": 103940724,
      "user": "pizzaiolo",
      "uid": 1772368,
      "tags": {
        "ele": "999.7",
        "name": "응봉산",
        "name:en": "Mt. Eungbong",
        "name:ko": "응봉산",
        "natural": "peak",
        "wikidata": "Q5409714"
      }
    },
    {
      "type": "node",
      "id": 4143966015,
      "lat": 37.0984237,
      "lon": 128.9191362,
      "timestamp": "2016-04-24T07:01:15Z",
      "version": 1,
      "changeset": 38827093,
      "user": "Rmivandecastle",
      "uid": 3859481,
      "tags": {
        "amenity": "drinking_water"
      }
    },
    {
      "type": "node",
      "id": 4636024607,
      "lat": 37.1285199,
      "lon": 129.0460543,
      "timestamp": "2017-01-26T21:57:24Z",
      "version": 1,
      "changeset": 45531706,
      "user": "갓머원",
      "uid": 5201103,
      "tags": {
        "addr:city": "태백시",
        "addr:housenumber": "7",
        "addr:street": "갈골길",
        "name": "상철암구판장",
        "operator": "한태식",
        "shop": "supermarket"
      }
    },
    {
      "type": "node",
      "id": 4636024609,
      "lat": 37.1287338,
      "lon": 129.0459893,
      "timestamp": "2017-01-26T21:57:24Z",
      "version": 1,
      "changeset": 45531706,
      "user": "갓머원",
      "uid": 5201103,
      "tags": {
        "name": "GS25 태백은주점",
        "opening_hours": "24시간",
        "shop": "supermarket"
      }
    },
    {
      "type": "node",
      "id": 4636126876,
      "lat": 37.1262457,
      "lon": 129.0462519,
      "timestamp": "2017-01-26T22:57:35Z",
      "version": 1,
      "changeset": 45533953,
      "user": "갓머원",
      "uid": 5201103,
      "tags": {
        "addr:city": "태백시",
        "name": "성실슈퍼",
        "shop": "supermarket"
      }
    },
    {
      "type": "node",
      "id": 4636920087,
      "lat": 36.6621231,
      "lon": 129.1164781,
      "timestamp": "2022-06-19T16:37:18Z",
      "version": 4,
      "changeset": 122586142,
      "user": "adreamy",
      "uid": 2750856,
      "tags": {
        "name": "OK마트",
        "name:en": "Yeoungyang OK Market",
        "name:ko": "OK마트",
        "shop": "supermarket"
      }
    },
    {
      "type": "node",
      "id": 4644196765,
      "lat": 37.1034966,
      "lon": 129.0101765,
      "timestamp": "2017-01-30T13:15:38Z",
      "version": 1,
      "changeset": 45651277,
      "user": "박민서",
      "uid": 5227170,
      "tags": {
        "name": "황금 편의점",
        "shop": "convenience"
      }
    },
    {
      "type": "node",
      "id": 4644196784,
      "lat": 37.1037171,
      "lon": 129.0086381,
      "timestamp": "2017-01-30T13:15:38Z",
      "version": 1,
      "changeset": 45651277,
      "user": "박민서",
      "uid": 5227170,
      "tags": {
        "name": "장성 CU",
        "shop": "convenience"
      }
    },
    {
      "type": "node",
      "id": 4644196785,
      "lat": 37.1010231,
      "lon": 129.0066604,
      "timestamp": "2017-01-30T13:15:38Z",
      "version": 1,
      "changeset": 45651277,
      "user": "박민서",
      "uid": 5227170,
      "tags": {
        "name": "장성 GS25",
        "shop": "convenience"
      }
    },
    {
      "type": "node",
      "id": 4661130995,
      "lat": 36.9070041,
      "lon": 128.8886938,
      "timestamp": "2017-02-05T13:16:25Z",
      "version": 5,
      "changeset": 45828651,
      "user": "하얀족제비",
      "uid": 5254026,
      "tags": {
        "description": "중간들 마을입구",
        "name": "중간들",
        "place": "hamlet"
      }
    },
    {
      "type": "node",
      "id": 4662423396,
      "lat": 37.1038667,
      "lon": 129.3746049,
      "timestamp": "2019-08-02T01:32:22Z",
      "version": 3,
      "changeset": 72919071,
      "user": "대왕판다",
      "uid": 8651497,
      "tags": {
        "brand": "GS25",
        "brand:wikidata": "Q624041",
        "name": "GS25",
        "name:en": "GS25",
        "name:ko": "GS25",
        "operator": "GS리테일",
        "operator:en": "GS Retail",
        "payment:american_express": "yes",
        "payment:cash": "yes",
        "payment:coins": "yes",
        "payment:diners_club": "yes",
        "payment:discover_card": "yes",
        "payment:jcb": "yes",
        "payment:mastercard": "yes",
        "payment:notes": "yes",
        "payment:unionpay": "yes",
        "payment:visa": "yes",
        "shop": "convenience",
        "website": "http://gs25.gsretail.com/gscvs/ko/main"
      }
    },
    {
      "type": "node",
      "id": 4662423401,
      "lat": 37.1046989,
      "lon": 129.3743664,
      "timestamp": "2022-05-14T09:59:01Z",
      "version": 4,
      "changeset": 120971974,
      "user": "b-jazz-bot",
      "uid": 9451067,
      "tags": {
        "brand": "CU",
        "brand:wikidata": "Q12580836",
        "name": "CU 북면점",
        "operator": "BGF리테일",
        "operator:en": "BGF Retail",
        "payment:american_express": "yes",
        "payment:cash": "yes",
        "payment:coins": "yes",
        "payment:credit_cards": "yes",
        "payment:debit_cards": "yes",
        "payment:diners_club": "yes",
        "payment:discover_card": "yes",
        "payment:jcb": "yes",
        "payment:mastercard": "yes",
        "payment:notes": "yes",
        "payment:unionpay": "yes",
        "payment:visa": "yes",
        "shop": "convenience",
        "smoking": "no",
        "website": "https://cu.bgfretail.com/index.do"
      }
    },
    {
      "type": "node",
      "id": 4665510961,
      "lat": 36.9037515,
      "lon": 128.7440523,
      "timestamp": "2017-02-05T14:49:17Z",
      "version": 1,
      "changeset": 45830990,
      "user": "하얀족제비",
      "uid": 5254026,
      "tags": {
        "name": "닭실마을",
        "place": "hamlet"
      }
    },
    {
      "type": "node",
      "id": 4707110850,
      "lat": 37.02503,
      "lon": 129.10635,
      "timestamp": "2021-05-01T05:22:55Z",
      "version": 4,
      "changeset": 103942200,
      "user": "pizzaiolo",
      "uid": 1772368,
      "tags": {
        "ele": "1076.6",
        "name": "오미산",
        "name:ko": "오미산",
        "natural": "peak",
        "wikidata": "Q27308212"
      }
    },
    {
      "type": "node",
      "id": 4707426558,
      "lat": 37.1571128,
      "lon": 128.986766,
      "timestamp": "2022-05-14T10:01:14Z",
      "version": 5,
      "changeset": 120972083,
      "user": "b-jazz-bot",
      "uid": 9451067,
      "tags": {
        "brand": "CU",
        "brand:wikidata": "Q12580836",
        "brand:wikipedia": "ko:CU (편의점)",
        "building": "yes",
        "name": "CU",
        "operator": "BGF리테일",
        "operator:en": "BGF Retail",
        "payment:american_express": "yes",
        "payment:cash": "yes",
        "payment:coins": "yes",
        "payment:credit_cards": "yes",
        "payment:debit_cards": "yes",
        "payment:diners_club": "yes",
        "payment:discover_card": "yes",
        "payment:jcb": "yes",
        "payment:mastercard": "yes",
        "payment:notes": "yes",
        "payment:unionpay": "yes",
        "payment:visa": "yes",
        "shop": "convenience",
        "smoking": "no",
        "website": "https://cu.bgfretail.com/index.do"
      }
    },
    {
      "type": "node",
      "id": 4707426572,
      "lat": 37.1594882,
      "lon": 128.9890528,
      "timestamp": "2022-05-14T10:00:10Z",
      "version": 5,
      "changeset": 120972026,
      "user": "b-jazz-bot",
      "uid": 9451067,
      "tags": {
        "brand": "CU",
        "brand:wikidata": "Q12580836",
        "building": "yes",
        "name": "CU",
        "operator": "BGF리테일",
        "operator:en": "BGF Retail",
        "payment:american_express": "yes",
        "payment:cash": "yes",
        "payment:coins": "yes",
        "payment:credit_cards": "yes",
        "payment:debit_cards": "yes",
        "payment:diners_club": "yes",
        "payment:discover_card": "yes",
        "payment:jcb": "yes",
        "payment:mastercard": "yes",
        "payment:notes": "yes",
        "payment:unionpay": "yes",
        "payment:visa": "yes",
        "shop": "convenience",
        "smoking": "no",
        "website": "https://cu.bgfretail.com/index.do"
      }
    },
    {
      "type": "node",
      "id": 4748620524,
      "lat": 36.7591385,
      "lon": 129.3017075,
      "timestamp": "2018-11-16T01:59:15Z",
      "version": 2,
      "changeset": 64549918,
      "user": "octel",
      "uid": 238290,
      "tags": {
        "name": "구주령",
        "name:ko": "구주령",
        "natural": "saddle"
      }
    },
    {
      "type": "node",
      "id": 4748621062,
      "lat": 36.7395792,
      "lon": 129.3355808,
      "timestamp": "2018-11-16T01:59:20Z",
      "version": 2,
      "changeset": 64549918,
      "user": "octel",
      "uid": 238290,
      "tags": {
        "name": "더티재",
        "name:ko": "더티재",
        "natural": "saddle"
      }
    },
    {
      "type": "node",
      "id": 4971597723,
      "lat": 37.0588987,
      "lon": 128.7718749,
      "timestamp": "2017-07-15T05:51:23Z",
      "version": 1,
      "changeset": 50298723,
      "user": "billy ze tramp",
      "uid": 6130004,
      "tags": {
        "name": "Campsite/water",
        "name:ko": "Campsite/water",
        "tourism": "camp_site"
      }
    },
    {
      "type": "node",
      "id": 5446801050,
      "lat": 36.9291256,
      "lon": 129.1488444,
      "timestamp": "2019-09-24T20:31:46Z",
      "version": 2,
      "changeset": 74876738,
      "user": "octel",
      "uid": 238290,
      "tags": {
        "name": "답운치",
        "name:ko": "답운치",
        "natural": "saddle"
      }
    },
    {
      "type": "node",
      "id": 5446801051,
      "lat": 37.0826413,
      "lon": 129.1325122,
      "timestamp": "2018-03-02T00:29:35Z",
      "version": 1,
      "changeset": 56804200,
      "user": "octel",
      "uid": 238290,
      "tags": {
        "name": "석개재",
        "name:ko": "석개재",
        "natural": "saddle"
      }
    },
    {
      "type": "node",
      "id": 5472122585,
      "lat": 37.095,
      "lon": 128.94,
      "timestamp": "2021-05-01T05:22:49Z",
      "version": 3,
      "changeset": 103942200,
      "user": "pizzaiolo",
      "uid": 1772368,
      "tags": {
        "ele": "1514.9",
        "name": "문수봉",
        "name:ko": "문수봉",
        "natural": "peak",
        "wikidata": "Q27304192"
      }
    },
    {
      "type": "node",
      "id": 5870717956,
      "lat": 37.1262956,
      "lon": 128.8598917,
      "timestamp": "2021-05-01T05:22:44Z",
      "version": 3,
      "changeset": 103942200,
      "user": "pizzaiolo",
      "uid": 1772368,
      "tags": {
        "ele": "1409",
        "name": "장산",
        "name:ko": "장산",
        "natural": "peak",
        "note": "SOTA : HL/GW-023",
        "wikidata": "Q27302447"
      }
    },
    {
      "type": "node",
      "id": 6054679983,
      "lat": 37.0992023,
      "lon": 129.3724043,
      "timestamp": "2020-06-02T07:11:32Z",
      "version": 2,
      "changeset": 86072524,
      "user": "mfbehrens99",
      "uid": 9645335,
      "tags": {
        "amenity": "shelter",
        "name": "Pavilion",
        "shelter_type": "lean_to"
      }
    },
    {
      "type": "node",
      "id": 6054680402,
      "lat": 36.6651137,
      "lon": 129.0652853,
      "timestamp": "2020-06-02T07:11:32Z",
      "version": 3,
      "changeset": 86072524,
      "user": "mfbehrens99",
      "uid": 9645335,
      "tags": {
        "amenity": "shelter",
        "name": "Pavilion",
        "name:ko": "Pavilion",
        "shelter_type": "lean_to"
      }
    },
    {
      "type": "node",
      "id": 6054682986,
      "lat": 36.6552121,
      "lon": 128.848153,
      "timestamp": "2019-01-01T15:21:19Z",
      "version": 2,
      "changeset": 65934646,
      "user": "LuxuryCoop",
      "uid": 7245212,
      "tags": {
        "amenity": "drinking_water",
        "name": "Drinking Water",
        "name:ko": "Drinking Water"
      }
    },
    {
      "type": "node",
      "id": 6411778135,
      "lat": 37.1253058,
      "lon": 128.8251429,
      "timestamp": "2019-04-17T12:33:19Z",
      "version": 1,
      "changeset": 69307489,
      "user": "갱이나그네",
      "uid": 5500779,
      "tags": {
        "name": "CU 영월상동점",
        "shop": "convenience"
      }
    },
    {
      "type": "node",
      "id": 6859767176,
      "lat": 36.8357606,
      "lon": 128.9398949,
      "timestamp": "2019-10-08T08:22:09Z",
      "version": 1,
      "changeset": 75404084,
      "user": "갱이나그네",
      "uid": 5500779,
      "tags": {
        "name": "고치현",
        "natural": "saddle"
      }
    },
    {
      "type": "node",
      "id": 7686882938,
      "lat": 37.0280576,
      "lon": 128.7544597,
      "timestamp": "2020-07-06T07:50:28Z",
      "version": 1,
      "changeset": 87585015,
      "user": "Gwenvador",
      "uid": 10089878,
      "tags": {
        "amenity": "shelter"
      }
    },
    {
      "type": "node",
      "id": 7686891960,
      "lat": 37.1158399,
      "lon": 128.94898,
      "timestamp": "2020-07-06T07:52:46Z",
      "version": 1,
      "changeset": 87585171,
      "user": "Gwenvador",
      "uid": 10089878,
      "tags": {
        "amenity": "shelter"
      }
    },
    {
      "type": "node",
      "id": 7686894105,
      "lat": 37.0286299,
      "lon": 128.7543239,
      "timestamp": "2020-07-06T07:50:40Z",
      "version": 1,
      "changeset": 87585036,
      "user": "Gwenvador",
      "uid": 10089878,
      "tags": {
        "natural": "spring"
      }
    },
    {
      "type": "node",
      "id": 7686900663,
      "lat": 37.0425275,
      "lon": 128.7206206,
      "timestamp": "2020-07-06T07:50:12Z",
      "version": 1,
      "changeset": 87584992,
      "user": "Gwenvador",
      "uid": 10089878,
      "tags": {
        "name": "선달샘",
        "natural": "spring"
      }
    },
    {
      "type": "node",
      "id": 7686904875,
      "lat": 37.0518618,
      "lon": 128.8290089,
      "timestamp": "2020-07-06T07:52:14Z",
      "version": 1,
      "changeset": 87585134,
      "user": "Gwenvador",
      "uid": 10089878,
      "tags": {
        "amenity": "shelter"
      }
    },
    {
      "type": "node",
      "id": 7686905163,
      "lat": 37.116713,
      "lon": 128.9495961,
      "timestamp": "2020-07-06T07:52:43Z",
      "version": 1,
      "changeset": 87585165,
      "user": "Gwenvador",
      "uid": 10089878,
      "tags": {
        "amenity": "shelter"
      }
    },
    {
      "type": "node",
      "id": 7972724266,
      "lat": 36.8984828,
      "lon": 129.1920928,
      "timestamp": "2021-05-01T05:21:41Z",
      "version": 2,
      "changeset": 103942200,
      "user": "pizzaiolo",
      "uid": 1772368,
      "tags": {
        "ele": "1067",
        "name": "통고산",
        "natural": "peak",
        "wikidata": "Q27290892"
      }
    },
    {
      "type": "node",
      "id": 8179276768,
      "lat": 37.04335,
      "lon": 128.9623695,
      "timestamp": "2021-05-01T05:22:47Z",
      "version": 2,
      "changeset": 103942200,
      "user": "pizzaiolo",
      "uid": 1772368,
      "tags": {
        "ele": "1277",
        "name": "청옥산",
        "natural": "peak",
        "wikidata": "Q27303414"
      }
    },
    {
      "type": "node",
      "id": 9821558665,
      "lat": 36.6606509,
      "lon": 129.1152569,
      "timestamp": "2022-06-16T06:15:53Z",
      "version": 2,
      "changeset": 122445133,
      "user": "adreamy",
      "uid": 2750856,
      "tags": {
        "amenity": "shelter",
        "shelter_type": "gazebo"
      }
    },
    {
      "type": "node",
      "id": 9824333101,
      "lat": 36.6583263,
      "lon": 129.1184348,
      "timestamp": "2022-06-17T07:15:13Z",
      "version": 1,
      "changeset": 122494132,
      "user": "adreamy",
      "uid": 2750856,
      "tags": {
        "amenity": "drinking_water",
        "fee": "no"
      }
    },
    {
      "type": "node",
      "id": 9824333110,
      "lat": 36.6566512,
      "lon": 129.1190299,
      "timestamp": "2022-06-17T07:15:13Z",
      "version": 1,
      "changeset": 122494132,
      "user": "adreamy",
      "uid": 2750856,
      "tags": {
        "amenity": "drinking_water"
      }
    },
    {
      "type": "node",
      "id": 9824333112,
      "lat": 36.660323,
      "lon": 129.1164202,
      "timestamp": "2022-06-17T07:15:13Z",
      "version": 1,
      "changeset": 122494132,
      "user": "adreamy",
      "uid": 2750856,
      "tags": {
        "amenity": "drinking_water"
      }
    },
    {
      "type": "node",
      "id": 9825197556,
      "lat": 36.6587176,
      "lon": 129.1193499,
      "timestamp": "2022-06-17T11:43:05Z",
      "version": 1,
      "changeset": 122505031,
      "user": "adreamy",
      "uid": 2750856,
      "tags": {
        "amenity": "drinking_water"
      }
    },
    {
      "type": "node",
      "id": 9828303928,
      "lat": 36.664912,
      "lon": 129.1256779,
      "timestamp": "2022-06-18T13:06:13Z",
      "version": 1,
      "changeset": 122546542,
      "user": "adreamy",
      "uid": 2750856,
      "tags": {
        "amenity": "shelter",
        "shelter_type": "gazebo"
      }
    },
    {
      "type": "node",
      "id": 9828303929,
      "lat": 36.6648464,
      "lon": 129.1261674,
      "timestamp": "2022-06-18T13:06:13Z",
      "version": 1,
      "changeset": 122546542,
      "user": "adreamy",
      "uid": 2750856,
      "tags": {
        "amenity": "shelter",
        "shelter_type": "gazebo"
      }
    },
    {
      "type": "node",
      "id": 9828303930,
      "lat": 36.6643967,
      "lon": 129.126028,
      "timestamp": "2022-06-18T13:06:13Z",
      "version": 1,
      "changeset": 122546542,
      "user": "adreamy",
      "uid": 2750856,
      "tags": {
        "amenity": "shelter",
        "shelter_type": "gazebo"
      }
    },
    {
      "type": "node",
      "id": 9828303931,
      "lat": 36.6644043,
      "lon": 129.1257437,
      "timestamp": "2022-06-18T13:06:13Z",
      "version": 1,
      "changeset": 122546542,
      "user": "adreamy",
      "uid": 2750856,
      "tags": {
        "amenity": "shelter",
        "shelter_type": "gazebo"
      }
    },
    {
      "type": "node",
      "id": 9830033653,
      "lat": 36.6640826,
      "lon": 129.1316351,
      "timestamp": "2022-06-19T04:48:21Z",
      "version": 2,
      "changeset": 122566788,
      "user": "adreamy",
      "uid": 2750856,
      "tags": {
        "amenity": "shelter",
        "shelter_type": "gazebo"
      }
    },
    {
      "type": "node",
      "id": 9832506272,
      "lat": 36.665792,
      "lon": 129.1135302,
      "timestamp": "2022-06-20T07:41:22Z",
      "version": 2,
      "changeset": 122607172,
      "user": "adreamy",
      "uid": 2750856,
      "tags": {
        "amenity": "shelter",
        "shelter_type": "gazebo"
      }
    },
    {
      "type": "way",
      "id": 471865321,
      "timestamp": "2017-02-03T22:13:11Z",
      "version": 2,
      "changeset": 45792145,
      "user": "하얀족제비",
      "uid": 5254026,
      "center": {
        "lat": 36.8900633,
        "lon": 128.7342301
      },
      "nodes": [],
      "tags": {
        "building": "yes",
        "name": "대창슈퍼",
        "shop": "supermarket"
      }
    },
    {
      "type": "way",
      "id": 471879621,
      "timestamp": "2017-02-03T22:05:52Z",
      "version": 3,
      "changeset": 45792007,
      "user": "하얀족제비",
      "uid": 5254026,
      "center": {
        "lat": 36.8915198,
        "lon": 128.7341895
      },
      "nodes": [],
      "tags": {
        "building": "yes",
        "name": "풀마트",
        "shop": "supermarket"
      }
    },
    {
      "type": "way",
      "id": 471896379,
      "timestamp": "2017-02-03T22:05:52Z",
      "version": 3,
      "changeset": 45792007,
      "user": "하얀족제비",
      "uid": 5254026,
      "center": {
        "lat": 36.8902729,
        "lon": 128.7366199
      },
      "nodes": [],
      "tags": {
        "building": "yes",
        "name": "봉화하나로마트",
        "shop": "supermarket"
      }
    },
    {
      "type": "way",
      "id": 471911734,
      "timestamp": "2017-02-04T11:10:59Z",
      "version": 2,
      "changeset": 45802132,
      "user": "하얀족제비",
      "uid": 5254026,
      "center": {
        "lat": 36.9106832,
        "lon": 128.8760408
      },
      "nodes": [],
      "tags": {
        "building": "yes",
        "name": "법전마트",
        "shop": "supermarket"
      }
    },
    {
      "type": "way",
      "id": 471911736,
      "timestamp": "2017-02-04T11:10:59Z",
      "version": 2,
      "changeset": 45802132,
      "user": "하얀족제비",
      "uid": 5254026,
      "center": {
        "lat": 36.9105462,
        "lon": 128.8757425
      },
      "nodes": [],
      "tags": {
        "building": "yes",
        "name": "반석마트",
        "shop": "supermarket"
      }
    },
    {
      "type": "way",
      "id": 472037372,
      "timestamp": "2017-02-04T04:56:15Z",
      "version": 1,
      "changeset": 45796583,
      "user": "manbonexus",
      "uid": 4826842,
      "center": {
        "lat": 37.1022394,
        "lon": 129.3735647
      },
      "nodes": [],
      "tags": {
        "building": "yes",
        "name": "북면농협 하나로마트",
        "shop": "supermarket"
      }
    },
    {
      "type": "way",
      "id": 472037384,
      "timestamp": "2017-02-04T04:56:16Z",
      "version": 1,
      "changeset": 45796583,
      "user": "manbonexus",
      "uid": 4826842,
      "center": {
        "lat": 37.1037488,
        "lon": 129.3746152
      },
      "nodes": [],
      "tags": {
        "building": "yes",
        "name": "홈마트",
        "shop": "supermarket"
      }
    },
    {
      "type": "way",
      "id": 472063165,
      "timestamp": "2017-03-06T22:12:28Z",
      "version": 2,
      "changeset": 46636266,
      "user": "benice",
      "uid": 5199687,
      "center": {
        "lat": 36.8879047,
        "lon": 128.7378588
      },
      "nodes": [],
      "tags": {
        "building": "yes",
        "name": "푸른마트",
        "shop": "supermarket"
      }
    },
    {
      "type": "way",
      "id": 477377655,
      "timestamp": "2022-05-14T09:59:20Z",
      "version": 4,
      "changeset": 120971986,
      "user": "b-jazz-bot",
      "uid": 9451067,
      "center": {
        "lat": 37.1570613,
        "lon": 128.986778
      },
      "nodes": [],
      "tags": {
        "brand": "CU",
        "brand:wikidata": "Q12580836",
        "building": "yes",
        "name": "CU",
        "operator": "BGF리테일",
        "operator:en": "BGF Retail",
        "payment:american_express": "yes",
        "payment:cash": "yes",
        "payment:coins": "yes",
        "payment:credit_cards": "yes",
        "payment:debit_cards": "yes",
        "payment:diners_club": "yes",
        "payment:discover_card": "yes",
        "payment:jcb": "yes",
        "payment:mastercard": "yes",
        "payment:notes": "yes",
        "payment:unionpay": "yes",
        "payment:visa": "yes",
        "shop": "convenience",
        "smoking": "no",
        "website": "https://cu.bgfretail.com/index.do"
      }
    },
    {
      "type": "way",
      "id": 477377658,
      "timestamp": "2022-05-14T09:59:05Z",
      "version": 4,
      "changeset": 120971976,
      "user": "b-jazz-bot",
      "uid": 9451067,
      "center": {
        "lat": 37.159519,
        "lon": 128.9890578
      },
      "nodes": [],
      "tags": {
        "brand": "CU",
        "brand:wikidata": "Q12580836",
        "building": "yes",
        "name": "CU",
        "operator": "BGF리테일",
        "operator:en": "BGF Retail",
        "payment:american_express": "yes",
        "payment:cash": "yes",
        "payment:coins": "yes",
        "payment:credit_cards": "yes",
        "payment:debit_cards": "yes",
        "payment:diners_club": "yes",
        "payment:discover_card": "yes",
        "payment:jcb": "yes",
        "payment:mastercard": "yes",
        "payment:notes": "yes",
        "payment:unionpay": "yes",
        "payment:visa": "yes",
        "shop": "convenience",
        "smoking": "no",
        "website": "https://cu.bgfretail.com/index.do"
      }
    },
    {
      "type": "way",
      "id": 791209566,
      "timestamp": "2020-04-13T05:04:50Z",
      "version": 1,
      "changeset": 83449162,
      "user": "Gwenvador",
      "uid": 10089878,
      "center": {
        "lat": 37.0372921,
        "lon": 128.7987419
      },
      "nodes": [],
      "tags": {
        "amenity": "shelter",
        "building": "yes"
      }
    }
  ]
}