{
  "osm3s": {
    "timestamp_osm_date": "2022-04-25T23:59:59Z",
    "timestamp_osm_base": "2022-04-26T06:12:23Z",
    "copyright": "The data included in this document is from www.openstreetmap.org. The data is made available under ODbL."
  },
  "elements": [
    {
      "type": "node",
      "id": 26862466,
      "lat": 67.5787125,
      "lon": 17.4874501,
      "timestamp": "2020-12-20T15:14:13Z",
      "version": 7,
      "changeset": 96143618,
      "user": "torger",
      "uid": 8288712,
      "tags": {
        "ele": "2011",
        "name": "Áhkká",
        "name:smj": "Áhkká",
        "natural": "peak",
        "note": "Stortoppen",
        "prominence": "1095",
        "wikidata": "Q419567"
      }
    },
    {
      "type": "node",
      "id": 26863507,
      "lat": 67.3638889,
      "lon": 17.3516667,
      "timestamp": "2019-10-20T07:37:12Z",
      "version": 4,
      "changeset": 75946147,
      "user": "pangoSE",
      "uid": 987207,
      "tags": {
        "name": "Lánjektjåhkkå",
        "name:smj": "Lánjektjåhkkå",
        "natural": "peak",
        "wikidata": "Q19380423"
      }
    },
    {
      "type": "node",
      "id": 26864499,
      "lat": 67.3983333,
      "lon": 17.5186111,
      "timestamp": "2021-10-25T20:29:02Z",
      "version": 5,
      "changeset": 112966123,
      "user": "Binnette",
      "uid": 918586,
      "tags": {
        "ele": "1804",
        "name": "Ruohtes",
        "name:smj": "Ruohtes",
        "natural": "peak",
        "wikidata": "Q10657858"
      }
    },
    {
      "type": "node",
      "id": 26864859,
      "lat": 67.4952786,
      "lon": 17.4897204,
      "timestamp": "2019-10-20T07:37:12Z",
      "version": 5,
      "changeset": 75946147,
      "user": "pangoSE",
      "uid": 987207,
      "tags": {
        "ele": "1922",
        "name": "Niják",
        "name:smj": "Niják",
        "natural": "peak",
        "wikidata": "Q19382978"
      }
    },
    {
      "type": "node",
      "id": 1844598314,
      "lat": 67.5564493,
      "lon": 17.4765584,
      "timestamp": "2012-07-30T21:25:22Z",
      "version": 1,
      "changeset": 12554295,
      "user": "tobiasra",
      "uid": 673040,
      "tags": {
        "tourism": "camp_site"
      }
    },
    {
      "type": "node",
      "id": 1844598357,
      "lat": 67.5787864,
      "lon": 17.3249814,
      "timestamp": "2012-07-30T21:25:24Z",
      "version": 1,
      "changeset": 12554295,
      "user": "tobiasra",
      "uid": 673040,
      "tags": {
        "tourism": "camp_site"
      }
    },
    {
      "type": "node",
      "id": 2425754030,
      "lat": 67.5283647,
      "lon": 17.3845267,
      "timestamp": "2013-08-20T17:14:27Z",
      "version": 1,
      "changeset": 17429528,
      "user": "mlrd",
      "uid": 168337,
      "tags": {
        "amenity": "shelter",
        "name": "Kisuriskåtan",
        "ruins": "yes",
        "shelter_type": "weather_shelter"
      }
    },
    {
      "type": "node",
      "id": 3445509974,
      "lat": 67.470012,
      "lon": 17.5375761,
      "timestamp": "2019-10-20T07:37:12Z",
      "version": 2,
      "changeset": 75946147,
      "user": "pangoSE",
      "uid": 987207,
      "tags": {
        "ele": "1857",
        "name": "Kantberget",
        "natural": "peak",
        "wikidata": "Q19376892"
      }
    },
    {
      "type": "node",
      "id": 7817761586,
      "lat": 67.4652435,
      "lon": 17.4668547,
      "timestamp": "2022-03-08T07:32:11Z",
      "version": 3,
      "changeset": 118224088,
      "user": "Matyjace",
      "uid": 10988408,
      "tags": {
        "amenity": "shelter",
        "building": "yes",
        "name": "Reindeer herder hut (abandoned but open)"
      }
    }
  ]
}