{
  "osm3s": {
    "timestamp_osm_date": "2022-01-30T23:59:59Z",
    "timestamp_osm_base": "2022-01-31T05:01:20Z",
    "copyright": "The data included in this document is from www.openstreetmap.org. The data is made available under ODbL."
  },
  "elements": [
    {
      "type": "node",
      "id": 26862478,
      "lat": 67.3254809,
      "lon": 17.488974,
      "timestamp": "2019-10-20T07:37:14Z",
      "version": 6,
      "changeset": 75946147,
      "user": "pangoSE",
      "uid": 987207,
      "tags": {
        "ele": "1974",
        "name": "Áhkátjåhkkå",
        "name:smj": "Áhkátjåhkkå",
        "natural": "peak",
        "prominence": "1065",
        "wikidata": "Q19399040"
      }
    },
    {
      "type": "node",
      "id": 26863360,
      "lat": 67.2272222,
      "lon": 16.8872222,
      "timestamp": "2019-10-20T07:37:12Z",
      "version": 4,
      "changeset": 75946147,
      "user": "pangoSE",
      "uid": 987207,
      "tags": {
        "name": "Kierkevare",
        "name:smj": "Gierggevárre",
        "name:sv": "Kierkevare",
        "natural": "peak",
        "wikidata": "Q19377103"
      }
    },
    {
      "type": "node",
      "id": 26864506,
      "lat": 67.2491667,
      "lon": 17.3966667,
      "timestamp": "2020-01-11T16:42:48Z",
      "version": 5,
      "changeset": 79456006,
      "user": "Essin",
      "uid": 438299,
      "tags": {
        "name": "Ryggåsberget",
        "natural": "peak",
        "wikidata": "Q19387129"
      }
    },
    {
      "type": "node",
      "id": 26864924,
      "lat": 67.195,
      "lon": 17.3047222,
      "timestamp": "2020-01-11T16:42:48Z",
      "version": 5,
      "changeset": 79456006,
      "user": "Essin",
      "uid": 438299,
      "tags": {
        "alt_name": "Tjatja",
        "name": "Tsahtsa",
        "name:smj": "Tsahtsa",
        "natural": "peak",
        "wikidata": "Q19393434"
      }
    },
    {
      "type": "way",
      "id": 622411605,
      "timestamp": "2018-09-03T16:41:17Z",
      "version": 1,
      "changeset": 62253302,
      "user": "process-mad",
      "uid": 8759106,
      "center": {
        "lat": 67.2683815,
        "lon": 17.0335393
      },
      "nodes": [],
      "tags": {
        "building": "yes",
        "name": "Duottarstuga",
        "opening_hours": "Jun 30-Sep 07",
        "operator": "Badjelánnda Laponia Turism",
        "tourism": "alpine_hut",
        "winter_room": "yes"
      }
    },
    {
      "type": "way",
      "id": 754817948,
      "timestamp": "2019-12-12T06:50:24Z",
      "version": 1,
      "changeset": 78299667,
      "user": "Peter Lantz",
      "uid": 10524104,
      "center": {
        "lat": 67.067968,
        "lon": 17.1581376
      },
      "nodes": [],
      "tags": {
        "building": "yes",
        "building:levels": "1",
        "fee": "yes",
        "name": "Såmmarlappa fjällstuga",
        "operator": "STF",
        "payment:cash": "yes",
        "payment:credit_cards": "yes",
        "tourism": "wilderness_hut"
      }
    }
  ]
}