{
  "osm3s": {
    "timestamp_osm_date": "2022-07-13T23:59:59Z",
    "timestamp_osm_base": "2022-07-14T07:40:39Z",
    "copyright": "The data included in this document is from www.openstreetmap.org. The data is made available under ODbL."
  },
  "elements": [
    {
      "type": "node",
      "id": 281172134,
      "lat": -43.7349453,
      "lon": 170.0977232,
      "timestamp": "2021-11-01T00:58:24Z",
      "version": 9,
      "changeset": 113212971,
      "user": "kylenz",
      "uid": 10140394,
      "tags": {
        "name": "Aoraki / Mount Cook",
        "name:mi": "Aoraki",
        "place": "village",
        "population": "250",
        "source:population": "Statistics NZ via Wikipedia",
        "wikidata": "Q1950416",
        "wikipedia": "en:Mount Cook Village"
      }
    },
    {
      "type": "node",
      "id": 427273242,
      "lat": -43.6111421,
      "lon": 169.886506,
      "timestamp": "2022-02-07T06:56:25Z",
      "version": 6,
      "changeset": 117104529,
      "user": "kylenz_linz",
      "uid": 8389777,
      "tags": {
        "capacity": "2",
        "drinking_water": "untreated",
        "ele": "110",
        "fireplace": "no",
        "mattress": "yes",
        "name": "Architect Creek Hut",
        "operator": "Department of Conservation",
        "operator:wikidata": "Q1191417",
        "operator:wikipedia": "en:Department of Conservation (New Zealand)",
        "ref:doc": "100061979",
        "ref:linz:topo50_id": "5395121",
        "reservation": "no",
        "toilets": "yes",
        "toilets:disposal": "pitlatrine",
        "tourism": "wilderness_hut",
        "website": "https://doc.govt.nz/link/af61db02aa2443468f5424b45ed86611"
      }
    },
    {
      "type": "node",
      "id": 470243351,
      "lat": -43.6824551,
      "lon": 170.0421118,
      "timestamp": "2018-09-27T03:13:48Z",
      "version": 5,
      "changeset": 62963379,
      "user": "lcmortensen",
      "uid": 341519,
      "tags": {
        "ele": "3151",
        "name": "Mount Sefton",
        "name:mi": "Kakīroa",
        "natural": "peak",
        "source": "LINZ_NZ_Topo50_Gridless_Maps",
        "wikidata": "Q1950712"
      }
    },
    {
      "type": "node",
      "id": 1123061617,
      "lat": -43.8331765,
      "lon": 170.0655852,
      "timestamp": "2011-01-27T05:00:12Z",
      "version": 1,
      "changeset": 7100312,
      "user": "LINZ Data Upload",
      "uid": 252775,
      "tags": {
        "LINZ:source_version": "V16",
        "attribution": "http://wiki.osm.org/wiki/Attribution#LINZ",
        "natural": "cave_entrance",
        "source_ref": "http://www.linz.govt.nz/topography/topo-maps/"
      }
    },
    {
      "type": "node",
      "id": 1140825366,
      "lat": -43.7621564,
      "lon": 170.0379054,
      "timestamp": "2021-09-26T01:34:09Z",
      "version": 3,
      "changeset": 111704976,
      "user": "kylenz_linz",
      "uid": 8389777,
      "tags": {
        "direction": "50",
        "ele": "2344",
        "name": "Sladden Saddle",
        "natural": "saddle",
        "ref:linz:topo50_id": "3338693",
        "wikidata": "Q49154136"
      }
    },
    {
      "type": "node",
      "id": 1225158524,
      "lat": -43.9570066,
      "lon": 169.8482206,
      "timestamp": "2021-05-07T00:43:27Z",
      "version": 3,
      "changeset": 104279294,
      "user": "kylenz",
      "uid": 10140394,
      "tags": {
        "amenity": "shelter",
        "direction": "197",
        "name": "Dasler Bivouac",
        "ref:doc": "100044464",
        "shelter_type": "lean_to",
        "source": "LINZ"
      }
    },
    {
      "type": "node",
      "id": 1225158543,
      "lat": -43.8886922,
      "lon": 169.7135681,
      "timestamp": "2021-05-07T02:29:54Z",
      "version": 2,
      "changeset": 104281423,
      "user": "kylenz",
      "uid": 10140394,
      "tags": {
        "amenity": "shelter",
        "shelter_type": "lean_to",
        "source": "LINZ"
      }
    },
    {
      "type": "node",
      "id": 1225158545,
      "lat": -43.8560007,
      "lon": 169.6676844,
      "timestamp": "2021-05-07T00:20:28Z",
      "version": 3,
      "changeset": 104278844,
      "user": "kylenz",
      "uid": 10140394,
      "tags": {
        "amenity": "shelter",
        "material": "rock",
        "source": "LINZ"
      }
    },
    {
      "type": "node",
      "id": 1225158567,
      "lat": -43.8266593,
      "lon": 169.9198816,
      "timestamp": "2022-02-09T09:29:08Z",
      "version": 4,
      "changeset": 117193013,
      "user": "kylenz_linz",
      "uid": 8389777,
      "tags": {
        "amenity": "shelter",
        "building": "yes",
        "material": "rock",
        "name": "Richardson Rock Bivouac",
        "ref:linz:topo50_id": "5394829",
        "source": "LINZ"
      }
    },
    {
      "type": "node",
      "id": 1225158642,
      "lat": -43.8238205,
      "lon": 169.5720751,
      "timestamp": "2021-05-07T00:20:28Z",
      "version": 3,
      "changeset": 104278844,
      "user": "kylenz",
      "uid": 10140394,
      "tags": {
        "amenity": "shelter",
        "material": "rock",
        "source": "LINZ"
      }
    },
    {
      "type": "node",
      "id": 1225158674,
      "lat": -43.6739116,
      "lon": 169.8919992,
      "timestamp": "2021-05-07T00:20:28Z",
      "version": 3,
      "changeset": 104278844,
      "user": "kylenz",
      "uid": 10140394,
      "tags": {
        "amenity": "shelter",
        "material": "rock",
        "source": "LINZ"
      }
    },
    {
      "type": "node",
      "id": 1225158712,
      "lat": -43.8231295,
      "lon": 169.4601055,
      "timestamp": "2021-05-07T00:20:28Z",
      "version": 4,
      "changeset": 104278844,
      "user": "kylenz",
      "uid": 10140394,
      "tags": {
        "amenity": "shelter",
        "material": "rock",
        "name": "Rock bivouac",
        "source": "LINZ"
      }
    },
    {
      "type": "node",
      "id": 1225158789,
      "lat": -43.7663112,
      "lon": 169.9053924,
      "timestamp": "2021-05-07T00:20:28Z",
      "version": 4,
      "changeset": 104278844,
      "user": "kylenz",
      "uid": 10140394,
      "tags": {
        "amenity": "shelter",
        "material": "rock",
        "name": "Rock bivouac",
        "source": "LINZ"
      }
    },
    {
      "type": "node",
      "id": 1225158840,
      "lat": -43.6310101,
      "lon": 169.9468247,
      "timestamp": "2022-02-08T09:37:29Z",
      "version": 5,
      "changeset": 117151928,
      "user": "kylenz_linz",
      "uid": 8389777,
      "tags": {
        "name": "Welcome Flat Campsite",
        "ref:linz:topo50_id": "5395128",
        "tourism": "wilderness_hut"
      }
    },
    {
      "type": "node",
      "id": 1225158876,
      "lat": -43.5915499,
      "lon": 170.0568876,
      "timestamp": "2021-05-07T00:20:28Z",
      "version": 3,
      "changeset": 104278844,
      "user": "kylenz",
      "uid": 10140394,
      "tags": {
        "amenity": "shelter",
        "material": "rock",
        "source": "LINZ"
      }
    },
    {
      "type": "node",
      "id": 1225158880,
      "lat": -43.8566094,
      "lon": 169.6627636,
      "timestamp": "2021-05-07T00:20:28Z",
      "version": 3,
      "changeset": 104278844,
      "user": "kylenz",
      "uid": 10140394,
      "tags": {
        "amenity": "shelter",
        "material": "rock",
        "source": "LINZ"
      }
    },
    {
      "type": "node",
      "id": 1225158882,
      "lat": -43.7278306,
      "lon": 169.6584626,
      "timestamp": "2021-05-07T02:29:54Z",
      "version": 2,
      "changeset": 104281423,
      "user": "kylenz",
      "uid": 10140394,
      "tags": {
        "amenity": "shelter",
        "shelter_type": "lean_to",
        "source": "LINZ"
      }
    },
    {
      "type": "node",
      "id": 1225158890,
      "lat": -43.7494501,
      "lon": 169.9370731,
      "timestamp": "2021-05-07T00:20:28Z",
      "version": 3,
      "changeset": 104278844,
      "user": "kylenz",
      "uid": 10140394,
      "tags": {
        "amenity": "shelter",
        "material": "rock",
        "source": "LINZ"
      }
    },
    {
      "type": "node",
      "id": 1225158899,
      "lat": -43.7062136,
      "lon": 169.978768,
      "timestamp": "2022-02-08T09:37:29Z",
      "version": 4,
      "changeset": 117151928,
      "user": "kylenz_linz",
      "uid": 8389777,
      "tags": {
        "amenity": "shelter",
        "material": "rock",
        "name": "Harpers Rock Bivouac",
        "ref:linz:topo50_id": "5395020"
      }
    },
    {
      "type": "node",
      "id": 1225158909,
      "lat": -44.0465876,
      "lon": 169.7412977,
      "timestamp": "2022-02-07T06:56:25Z",
      "version": 4,
      "changeset": 117104529,
      "user": "kylenz_linz",
      "uid": 8389777,
      "tags": {
        "drinking_water": "no",
        "fireplace": "yes",
        "mattress": "yes",
        "name": "South Huxley Bivouac",
        "operator": "Department of Conservation",
        "operator:wikidata": "Q1191417",
        "operator:wikipedia": "en:Department of Conservation (New Zealand)",
        "ref:doc": "100060562",
        "ref:linz:topo50_id": "5394244",
        "reservation": "no",
        "source": "LINZ",
        "toilets": "yes",
        "toilets:disposal": "pitlatrine",
        "tourism": "wilderness_hut",
        "website": "https://doc.govt.nz/link/7a8c5c04e4ea45a49d096159c3e7c102"
      }
    },
    {
      "type": "node",
      "id": 1225158911,
      "lat": -44.0068042,
      "lon": 169.9882036,
      "timestamp": "2022-02-09T09:29:08Z",
      "version": 3,
      "changeset": 117193013,
      "user": "kylenz_linz",
      "uid": 8389777,
      "tags": {
        "amenity": "shelter",
        "building": "yes",
        "name": "Stony Stream Bivouac",
        "ref:linz:topo50_id": "5395357",
        "shelter_type": "lean_to"
      }
    },
    {
      "type": "node",
      "id": 1225293058,
      "lat": -43.749451,
      "lon": 169.937073,
      "timestamp": "2021-09-26T00:03:52Z",
      "version": 3,
      "changeset": 111704078,
      "user": "kylenz",
      "uid": 10140394,
      "tags": {
        "amenity": "shelter",
        "name": "Rock bivouac",
        "shelter_type": "rock_shelter",
        "source": "LINZ"
      }
    },
    {
      "type": "node",
      "id": 2045497190,
      "lat": -43.9115734,
      "lon": 170.1250885,
      "timestamp": "2012-12-02T01:55:47Z",
      "version": 1,
      "changeset": 14119369,
      "user": "Dave2012",
      "uid": 935865,
      "tags": {
        "name": "Glentanner",
        "place": "hamlet"
      }
    },
    {
      "type": "node",
      "id": 2256011279,
      "lat": -44.0392037,
      "lon": 169.4585909,
      "timestamp": "2022-02-07T06:56:25Z",
      "version": 4,
      "changeset": 117104529,
      "user": "kylenz_linz",
      "uid": 8389777,
      "tags": {
        "drinking_water": "no",
        "fireplace": "yes",
        "mattress": "yes",
        "name": "Wills Hut",
        "operator": "Department of Conservation",
        "operator:wikidata": "Q1191417",
        "operator:wikipedia": "en:Department of Conservation (New Zealand)",
        "ref:doc": "100060268",
        "ref:linz:topo50_id": "5394179",
        "reservation": "no",
        "toilets": "yes",
        "toilets:disposal": "pitlatrine",
        "tourism": "wilderness_hut",
        "website": "https://doc.govt.nz/link/9ea7b21d8eb142c4a473a4687ca1a67d"
      }
    },
    {
      "type": "node",
      "id": 2625064349,
      "lat": -43.5950017,
      "lon": 170.1421677,
      "timestamp": "2022-03-30T14:13:12Z",
      "version": 8,
      "changeset": 119118617,
      "user": "Misa_zumba",
      "uid": 8774347,
      "tags": {
        "alt_name:mk": "Аораки",
        "ele": "3724",
        "isolation": "3140",
        "name": "Aoraki / Mount Cook",
        "name:af": "Mount Cook",
        "name:an": "Aoraki",
        "name:ar": "اوراكي/جبل كوك",
        "name:arz": "جبل اوراكى كوك",
        "name:be": "Гара Кука",
        "name:bg": "Кук",
        "name:bn": "আওরাকি / কুক পর্বত",
        "name:br": "Aoraki",
        "name:ca": "Mont Cook",
        "name:ceb": "Mount Cook",
        "name:cs": "Mount Cook",
        "name:cy": "Aoraki",
        "name:da": "Mount Cook",
        "name:de": "Aoraki/Mount Cook",
        "name:el": "Αοράκι/Όρος Κουκ",
        "name:en": "Mount Cook",
        "name:eo": "Aoraki",
        "name:es": "Monte Cook",
        "name:et": "Aoraki",
        "name:eu": "Cook mendia",
        "name:fa": "کوه کوک",
        "name:fi": "Mount Cook",
        "name:fr": "Aoraki/Mont Cook",
        "name:frp": "Aoraki/Mont Cook",
        "name:fy": "Mount Cook",
        "name:he": "הר קוק",
        "name:hi": "आओराकी / कुक पर्वत",
        "name:hr": "Mount Cook",
        "name:hy": "Կուկի լեռ",
        "name:id": "Aoraki/Gunung Cook",
        "name:io": "Monto Cook",
        "name:is": "Mount Cook",
        "name:it": "Aoraki/Monte Cook",
        "name:ja": "クック山",
        "name:ka": "კუკის მთა",
        "name:ko": "쿡산",
        "name:lt": "Kuko kalnas",
        "name:lv": "Aoraki",
        "name:mi": "Aoraki",
        "name:mk": "Кукова Планина",
        "name:ms": "Gunung Aoraki",
        "name:nl": "Mount Cook",
        "name:nn": "Aoraki/Mount Cook",
        "name:no": "Aoraki/Mount Cook",
        "name:pl": "Góra Cooka",
        "name:pnb": "آوراکی",
        "name:pt": "Monte Cook/Aoraki",
        "name:qu": "Aoraki Urqu",
        "name:ro": "Aoraki",
        "name:ru": "Гора Кука",
        "name:sco": "Aoraki / Moont Cook",
        "name:sh": "Mount Cook",
        "name:sk": "Cookov vrch",
        "name:sr": "Кук",
        "name:sv": "Aoraki/Mount Cook",
        "name:sw": "Aoraki",
        "name:tr": "Cook Dağı",
        "name:uk": "Гора Кука",
        "name:vi": "Aoraki",
        "name:wuu": "库克山",
        "name:zh": "庫克山",
        "natural": "peak",
        "prominence": "3724",
        "source": "LINZ_NZ_Topo50_Gridless_Maps",
        "source:name": "https://gazetteer.linz.govt.nz/place/7297",
        "wikidata": "Q5059",
        "wikipedia": "en:Aoraki / Mount Cook"
      }
    },
    {
      "type": "node",
      "id": 2962670125,
      "lat": -43.6432447,
      "lon": 170.15126,
      "timestamp": "2021-09-26T01:34:09Z",
      "version": 6,
      "changeset": 111704976,
      "user": "kylenz_linz",
      "uid": 8389777,
      "tags": {
        "description": "Some possible areas for a bivouac",
        "direction": "33",
        "ele": "2121",
        "mountain_pass": "yes",
        "name": "Ball Pass",
        "natural": "saddle",
        "ref:linz:topo50_id": "3338704",
        "wikidata": "Q32124789"
      }
    },
    {
      "type": "node",
      "id": 2974725505,
      "lat": -43.7254767,
      "lon": 170.0645794,
      "timestamp": "2019-08-01T01:22:31Z",
      "version": 6,
      "changeset": 72877020,
      "user": "ShakyIsles",
      "uid": 1968467,
      "tags": {
        "ele": "1933",
        "name": "Mount Ollivier",
        "natural": "peak",
        "wikidata": "Q6922579",
        "wikipedia": "en:Mount Ollivier"
      }
    },
    {
      "type": "node",
      "id": 3067946511,
      "lat": -43.6927102,
      "lon": 170.1241855,
      "timestamp": "2019-08-02T05:48:19Z",
      "version": 2,
      "changeset": 72923573,
      "user": "ShakyIsles",
      "uid": 1968467,
      "tags": {
        "ele": "2058",
        "name": "Mount Wakefield",
        "natural": "peak",
        "source": "LINZ",
        "wikidata": "Q31657460"
      }
    },
    {
      "type": "node",
      "id": 3067946512,
      "lat": -43.6804923,
      "lon": 170.1357089,
      "timestamp": "2019-08-01T01:41:09Z",
      "version": 2,
      "changeset": 72877309,
      "user": "ShakyIsles",
      "uid": 1968467,
      "tags": {
        "ele": "2083",
        "name": "Mount Kinsey",
        "natural": "peak",
        "source": "LINZ",
        "wikidata": "Q31689313"
      }
    },
    {
      "type": "node",
      "id": 3067946513,
      "lat": -43.6394992,
      "lon": 170.1469928,
      "timestamp": "2019-08-02T06:12:16Z",
      "version": 2,
      "changeset": 72924042,
      "user": "ShakyIsles",
      "uid": 1968467,
      "tags": {
        "ele": "2338",
        "name": "Turner Peak",
        "natural": "peak",
        "source": "LINZ",
        "wikidata": "Q31667319"
      }
    },
    {
      "type": "node",
      "id": 3559794208,
      "lat": -43.7336309,
      "lon": 170.0635458,
      "timestamp": "2019-08-01T01:22:31Z",
      "version": 4,
      "changeset": 72877020,
      "user": "ShakyIsles",
      "uid": 1968467,
      "tags": {
        "ele": "2042",
        "name": "Kitchener",
        "natural": "peak",
        "wikidata": "Q31669865"
      }
    },
    {
      "type": "node",
      "id": 3559845688,
      "lat": -43.7513632,
      "lon": 170.0620405,
      "timestamp": "2020-12-07T00:13:33Z",
      "version": 3,
      "changeset": 95385074,
      "user": "pizzaiolo",
      "uid": 1772368,
      "tags": {
        "ele": "2235",
        "name": "Mount Annette",
        "natural": "peak",
        "wikidata": "Q31667680"
      }
    },
    {
      "type": "node",
      "id": 4137060286,
      "lat": -43.6294961,
      "lon": 169.9461725,
      "timestamp": "2016-04-20T21:32:25Z",
      "version": 1,
      "changeset": 38740338,
      "user": "Fabian Schwab",
      "uid": 3835614,
      "tags": {
        "name": "Welcome Flat Hot Spring",
        "natural": "spring"
      }
    },
    {
      "type": "node",
      "id": 4452587189,
      "lat": -43.7333032,
      "lon": 170.0950589,
      "timestamp": "2021-02-23T02:28:37Z",
      "version": 2,
      "changeset": 99781520,
      "user": "michael60634",
      "uid": 10036384,
      "tags": {
        "amenity": "drinking_water"
      }
    },
    {
      "type": "node",
      "id": 4588410089,
      "lat": -43.65653,
      "lon": 170.1376735,
      "timestamp": "2022-01-06T06:11:33Z",
      "version": 3,
      "changeset": 115822223,
      "user": "kylenz",
      "uid": 10140394,
      "tags": {
        "backcountry": "yes",
        "caravans": "no",
        "fixme": "not a campsite. just a flat area. needs a different tag",
        "internet_access": "no",
        "tents": "yes",
        "tourism": "camp_site",
        "wheelchair": "no"
      }
    },
    {
      "type": "node",
      "id": 4775004262,
      "lat": -43.6980485,
      "lon": 170.0993879,
      "timestamp": "2017-04-04T15:46:56Z",
      "version": 1,
      "changeset": 47446502,
      "user": "Tomas Jurgutis",
      "uid": 4682344,
      "tags": {
        "name:lt": "ezero apziura",
        "tourism": "camp_site"
      }
    },
    {
      "type": "node",
      "id": 4915907912,
      "lat": -43.6786232,
      "lon": 169.6434545,
      "timestamp": "2020-12-07T00:13:05Z",
      "version": 3,
      "changeset": 95385074,
      "user": "pizzaiolo",
      "uid": 1772368,
      "tags": {
        "ele": "1409",
        "name": "Mount Baird",
        "natural": "peak",
        "source": "LINZ_NZ_Topo50_Gridless_Maps",
        "wikidata": "Q31661669"
      }
    },
    {
      "type": "node",
      "id": 4920357342,
      "lat": -44.0608864,
      "lon": 169.677741,
      "timestamp": "2020-03-10T07:27:08Z",
      "version": 3,
      "changeset": 81996110,
      "user": "ShakyIsles",
      "uid": 1968467,
      "tags": {
        "ele": "2435",
        "name": "Abseil Peak",
        "natural": "peak",
        "source": "LINZ_NZ_Topo50_Gridless_Maps",
        "wikidata": "Q31482256"
      }
    },
    {
      "type": "node",
      "id": 4920357344,
      "lat": -44.0706293,
      "lon": 169.6783461,
      "timestamp": "2021-03-14T08:20:21Z",
      "version": 4,
      "changeset": 100979717,
      "user": "lcmortensen",
      "uid": 341519,
      "tags": {
        "ele": "2505",
        "name": "Mount Huxley",
        "natural": "peak",
        "source": "LINZ_NZ_Topo50_Gridless_Maps",
        "wikidata": "Q31663804"
      }
    },
    {
      "type": "node",
      "id": 4920365585,
      "lat": -43.6605531,
      "lon": 170.0895545,
      "timestamp": "2019-08-02T07:37:18Z",
      "version": 3,
      "changeset": 72926468,
      "user": "ShakyIsles",
      "uid": 1968467,
      "tags": {
        "ele": "2265",
        "name": "Madonna",
        "natural": "peak",
        "source": "LINZ_NZ_Topo50_Gridless_Maps",
        "wikidata": "Q31668047"
      }
    },
    {
      "type": "node",
      "id": 4920365592,
      "lat": -43.6549637,
      "lon": 170.0985829,
      "timestamp": "2022-02-07T06:56:25Z",
      "version": 3,
      "changeset": 117104529,
      "user": "kylenz_linz",
      "uid": 8389777,
      "tags": {
        "drinking_water": "untreated",
        "fireplace": "no",
        "mattress": "yes",
        "name": "Copland Shelter",
        "operator": "Department of Conservation",
        "operator:wikidata": "Q1191417",
        "operator:wikipedia": "en:Department of Conservation (New Zealand)",
        "ref:doc": "100062671",
        "ref:linz:topo50_id": "5395497",
        "reservation": "no",
        "source": "LINZ NZ Topo 50",
        "toilets": "yes",
        "toilets:disposal": "pitlatrine",
        "tourism": "wilderness_hut",
        "website": "https://doc.govt.nz/link/cc1dd51d0c1247e49f595dbbce4ad8a6"
      }
    },
    {
      "type": "node",
      "id": 4920365595,
      "lat": -43.6745113,
      "lon": 170.0120511,
      "timestamp": "2021-09-26T01:34:09Z",
      "version": 4,
      "changeset": 111704976,
      "user": "kylenz_linz",
      "uid": 8389777,
      "tags": {
        "direction": "4",
        "ele": "2390",
        "name": "Welcome Pass",
        "natural": "saddle",
        "ref:linz:topo50_id": "3338699",
        "source": "LINZ_NZ_Topo50_Gridless_Maps",
        "wikidata": "Q49170523"
      }
    },
    {
      "type": "node",
      "id": 4920365601,
      "lat": -43.6754301,
      "lon": 170.0634315,
      "timestamp": "2019-08-02T07:37:18Z",
      "version": 3,
      "changeset": 72926468,
      "user": "ShakyIsles",
      "uid": 1968467,
      "tags": {
        "ele": "2764",
        "name": "The Footstool",
        "natural": "peak",
        "source": "LINZ_NZ_Topo50_Gridless_Maps",
        "wikidata": "Q31668098"
      }
    },
    {
      "type": "node",
      "id": 4920365603,
      "lat": -43.6901533,
      "lon": 170.0284877,
      "timestamp": "2019-08-02T07:37:18Z",
      "version": 4,
      "changeset": 72926468,
      "user": "ShakyIsles",
      "uid": 1968467,
      "tags": {
        "ele": "2643",
        "name": "Mount Brunner",
        "name:mi": "Te Whata Koro Kata",
        "natural": "peak",
        "source": "LINZ_NZ_Topo50_Gridless_Maps",
        "wikidata": "Q31706009"
      }
    },
    {
      "type": "node",
      "id": 4920365606,
      "lat": -43.6713763,
      "lon": 170.0738492,
      "timestamp": "2019-08-02T07:37:18Z",
      "version": 3,
      "changeset": 72926468,
      "user": "ShakyIsles",
      "uid": 1968467,
      "tags": {
        "ele": "2449",
        "name": "Cadogan Peak",
        "natural": "peak",
        "source": "LINZ_NZ_Topo50_Gridless_Maps",
        "wikidata": "Q31668080"
      }
    },
    {
      "type": "node",
      "id": 4931758324,
      "lat": -43.603142,
      "lon": 170.1441869,
      "timestamp": "2019-08-02T06:12:16Z",
      "version": 2,
      "changeset": 72924042,
      "user": "ShakyIsles",
      "uid": 1968467,
      "tags": {
        "ele": "3717",
        "name": "Middle Peak",
        "natural": "peak",
        "source": "LINZ_NZ_Topo50_Gridless_Maps",
        "wikidata": "Q31669037"
      }
    },
    {
      "type": "node",
      "id": 4931758326,
      "lat": -43.6256216,
      "lon": 170.0848372,
      "timestamp": "2019-08-02T07:37:18Z",
      "version": 2,
      "changeset": 72926468,
      "user": "ShakyIsles",
      "uid": 1968467,
      "tags": {
        "ele": "2557",
        "name": "Unicorn",
        "natural": "peak",
        "source": "LINZ_NZ_Topo50_Gridless_Maps",
        "wikidata": "Q31667976"
      }
    },
    {
      "type": "node",
      "id": 4931758327,
      "lat": -43.6762499,
      "lon": 169.9484994,
      "timestamp": "2019-08-02T20:28:20Z",
      "version": 2,
      "changeset": 72955991,
      "user": "ShakyIsles",
      "uid": 1968467,
      "tags": {
        "ele": "2340",
        "name": "Pioneer Peak",
        "natural": "peak",
        "source": "LINZ_NZ_Topo50_Gridless_Maps",
        "wikidata": "Q31668318"
      }
    },
    {
      "type": "node",
      "id": 4931758329,
      "lat": -43.6256216,
      "lon": 170.0932507,
      "timestamp": "2019-08-02T07:37:18Z",
      "version": 2,
      "changeset": 72926468,
      "user": "ShakyIsles",
      "uid": 1968467,
      "tags": {
        "ele": "2528",
        "name": "Mount Beatrice",
        "natural": "peak",
        "source": "LINZ_NZ_Topo50_Gridless_Maps",
        "wikidata": "Q31667948"
      }
    },
    {
      "type": "node",
      "id": 4931758331,
      "lat": -43.5894994,
      "lon": 170.1399855,
      "timestamp": "2019-08-10T09:34:26Z",
      "version": 4,
      "changeset": 73216794,
      "user": "ShakyIsles",
      "uid": 1968467,
      "tags": {
        "ele": "3440",
        "name": "Mount Dampier",
        "name:en": "Mount Dampier",
        "name:mi": "Rakiroa",
        "natural": "peak",
        "source": "LINZ_NZ_Topo50_Gridless_Maps",
        "wikidata": "Q476966",
        "wikipedia": "en:Mount Dampier"
      }
    },
    {
      "type": "node",
      "id": 4931758332,
      "lat": -43.60131,
      "lon": 170.0921757,
      "timestamp": "2019-04-17T11:02:58Z",
      "version": 2,
      "changeset": 69304765,
      "user": "StenSoft",
      "uid": 255936,
      "tags": {
        "ele": "3078",
        "name": "La Perouse",
        "natural": "peak",
        "old_name": "Mount Stokes",
        "source": "LINZ_NZ_Topo50_Gridless_Maps",
        "wikidata": "Q28182720",
        "wikipedia": "en:La Perouse (New Zealand)"
      }
    },
    {
      "type": "node",
      "id": 4931758333,
      "lat": -43.657096,
      "lon": 169.9406888,
      "timestamp": "2019-08-02T20:28:20Z",
      "version": 2,
      "changeset": 72955991,
      "user": "ShakyIsles",
      "uid": 1968467,
      "tags": {
        "ele": "2248",
        "name": "Mount Glorious",
        "natural": "peak",
        "source": "LINZ_NZ_Topo50_Gridless_Maps",
        "wikidata": "Q31696785"
      }
    },
    {
      "type": "node",
      "id": 4931758335,
      "lat": -43.6251385,
      "lon": 170.0891759,
      "timestamp": "2019-08-02T07:37:18Z",
      "version": 2,
      "changeset": 72926468,
      "user": "ShakyIsles",
      "uid": 1968467,
      "tags": {
        "ele": "2602",
        "name": "Dilemma Peak",
        "natural": "peak",
        "source": "LINZ_NZ_Topo50_Gridless_Maps",
        "wikidata": "Q31667960"
      }
    },
    {
      "type": "node",
      "id": 4931758337,
      "lat": -43.6219713,
      "lon": 170.1432857,
      "timestamp": "2020-12-07T00:13:37Z",
      "version": 2,
      "changeset": 95385074,
      "user": "pizzaiolo",
      "uid": 1772368,
      "tags": {
        "ele": "2925",
        "name": "Nazomi",
        "natural": "peak",
        "source": "LINZ_NZ_Topo50_Gridless_Maps",
        "wikidata": "Q31668933"
      }
    },
    {
      "type": "node",
      "id": 4931758338,
      "lat": -43.5850978,
      "lon": 170.141788,
      "timestamp": "2019-08-10T09:34:26Z",
      "version": 3,
      "changeset": 73216794,
      "user": "ShakyIsles",
      "uid": 1968467,
      "tags": {
        "ele": "3309",
        "name": "Mount Vancouver",
        "natural": "peak",
        "source": "LINZ_NZ_Topo50_Gridless_Maps",
        "wikidata": "Q3408320",
        "wikipedia": "en:Mount Vancouver (New Zealand)"
      }
    },
    {
      "type": "node",
      "id": 4931758339,
      "lat": -43.7028131,
      "lon": 170.0254037,
      "timestamp": "2019-08-02T07:37:18Z",
      "version": 2,
      "changeset": 72926468,
      "user": "ShakyIsles",
      "uid": 1968467,
      "tags": {
        "ele": "2518",
        "name": "Sharks Teeth",
        "natural": "peak",
        "source": "LINZ_NZ_Topo50_Gridless_Maps",
        "wikidata": "Q31669882"
      }
    },
    {
      "type": "node",
      "id": 4931758341,
      "lat": -43.6726198,
      "lon": 170.0030405,
      "timestamp": "2019-08-02T20:28:20Z",
      "version": 2,
      "changeset": 72955991,
      "user": "ShakyIsles",
      "uid": 1968467,
      "tags": {
        "ele": "2537",
        "name": "Scott Peak",
        "natural": "peak",
        "source": "LINZ_NZ_Topo50_Gridless_Maps",
        "wikidata": "Q31668285"
      }
    },
    {
      "type": "node",
      "id": 4931758342,
      "lat": -43.5933946,
      "lon": 170.1045996,
      "timestamp": "2019-08-10T09:34:26Z",
      "version": 2,
      "changeset": 73216794,
      "user": "ShakyIsles",
      "uid": 1968467,
      "tags": {
        "ele": "2827",
        "name": "Mount Jellicoe",
        "natural": "peak",
        "source": "LINZ_NZ_Topo50_Gridless_Maps",
        "wikidata": "Q31669073"
      }
    },
    {
      "type": "node",
      "id": 4931758344,
      "lat": -43.6087215,
      "lon": 170.1395993,
      "timestamp": "2019-08-02T06:12:16Z",
      "version": 2,
      "changeset": 72924042,
      "user": "ShakyIsles",
      "uid": 1968467,
      "tags": {
        "ele": "3593",
        "name": "Low Peak",
        "natural": "peak",
        "source": "LINZ_NZ_Topo50_Gridless_Maps",
        "wikidata": "Q31668985"
      }
    },
    {
      "type": "node",
      "id": 4931758345,
      "lat": -43.6342259,
      "lon": 170.0993404,
      "timestamp": "2019-08-02T07:37:18Z",
      "version": 3,
      "changeset": 72926468,
      "user": "ShakyIsles",
      "uid": 1968467,
      "tags": {
        "ele": "2333",
        "name": "Raureka Peak",
        "name:mi": "Raureka",
        "natural": "peak",
        "source": "LINZ_NZ_Topo50_Gridless_Maps",
        "wikidata": "Q31667919"
      }
    },
    {
      "type": "node",
      "id": 4931758346,
      "lat": -43.5876266,
      "lon": 170.129085,
      "timestamp": "2019-08-11T02:59:40Z",
      "version": 4,
      "changeset": 73232169,
      "user": "ShakyIsles",
      "uid": 1968467,
      "tags": {
        "ele": "3198",
        "name": "Mount Hicks",
        "name:en": "Mount Hicks",
        "natural": "peak",
        "source": "LINZ_NZ_Topo50_Gridless_Maps",
        "wikidata": "Q1950509",
        "wikipedia": "en:Mount Hicks (New Zealand)"
      }
    },
    {
      "type": "node",
      "id": 4931758347,
      "lat": -43.6763601,
      "lon": 169.9704656,
      "timestamp": "2019-08-02T20:28:20Z",
      "version": 2,
      "changeset": 72955991,
      "user": "ShakyIsles",
      "uid": 1968467,
      "tags": {
        "ele": "2435",
        "name": "Blizzard Peak",
        "natural": "peak",
        "source": "LINZ_NZ_Topo50_Gridless_Maps",
        "wikidata": "Q31669934"
      }
    },
    {
      "type": "node",
      "id": 4931758348,
      "lat": -43.6667839,
      "lon": 169.9789221,
      "timestamp": "2019-08-02T20:28:20Z",
      "version": 2,
      "changeset": 72955991,
      "user": "ShakyIsles",
      "uid": 1968467,
      "tags": {
        "ele": "2450",
        "name": "Splinter Peak",
        "natural": "peak",
        "source": "LINZ_NZ_Topo50_Gridless_Maps",
        "wikidata": "Q31668301"
      }
    },
    {
      "type": "node",
      "id": 4931758351,
      "lat": -43.5893719,
      "lon": 170.1153972,
      "timestamp": "2019-08-10T09:34:26Z",
      "version": 2,
      "changeset": 73216794,
      "user": "ShakyIsles",
      "uid": 1968467,
      "tags": {
        "ele": "2708",
        "name": "Sturdee Peak",
        "natural": "peak",
        "source": "LINZ_NZ_Topo50_Gridless_Maps",
        "wikidata": "Q31669108"
      }
    },
    {
      "type": "node",
      "id": 4931758352,
      "lat": -43.649116,
      "lon": 170.0935104,
      "timestamp": "2019-08-02T07:37:18Z",
      "version": 2,
      "changeset": 72926468,
      "user": "ShakyIsles",
      "uid": 1968467,
      "tags": {
        "ele": "2360",
        "name": "Lean Peak",
        "natural": "peak",
        "source": "LINZ_NZ_Topo50_Gridless_Maps",
        "wikidata": "Q31669982"
      }
    },
    {
      "type": "node",
      "id": 4931758355,
      "lat": -43.63845,
      "lon": 170.1458606,
      "timestamp": "2019-08-02T06:12:16Z",
      "version": 3,
      "changeset": 72924042,
      "user": "ShakyIsles",
      "uid": 1968467,
      "tags": {
        "ele": "2321",
        "name": "Proud Peak",
        "natural": "peak",
        "source": "LINZ_NZ_Topo50_Gridless_Maps",
        "wikidata": "Q31667302"
      }
    },
    {
      "type": "node",
      "id": 4931758358,
      "lat": -43.6309179,
      "lon": 170.0662591,
      "timestamp": "2019-08-02T07:43:32Z",
      "version": 2,
      "changeset": 72926712,
      "user": "ShakyIsles",
      "uid": 1968467,
      "tags": {
        "ele": "2411",
        "name": "Sibyl Peak",
        "natural": "peak",
        "source": "LINZ_NZ_Topo50_Gridless_Maps",
        "wikidata": "Q31667993"
      }
    },
    {
      "type": "node",
      "id": 4931758360,
      "lat": -43.6952115,
      "lon": 170.028279,
      "timestamp": "2019-08-02T07:37:18Z",
      "version": 2,
      "changeset": 72926468,
      "user": "ShakyIsles",
      "uid": 1968467,
      "tags": {
        "ele": "2546",
        "name": "Mount Stephen",
        "natural": "peak",
        "source": "LINZ_NZ_Topo50_Gridless_Maps",
        "wikidata": "Q31668150"
      }
    },
    {
      "type": "node",
      "id": 4931758365,
      "lat": -43.6320361,
      "lon": 170.1460752,
      "timestamp": "2020-12-07T00:13:38Z",
      "version": 2,
      "changeset": 95385074,
      "user": "pizzaiolo",
      "uid": 1772368,
      "tags": {
        "ele": "2514",
        "name": "Pibrac",
        "natural": "peak",
        "source": "LINZ_NZ_Topo50_Gridless_Maps",
        "wikidata": "Q31669965"
      }
    },
    {
      "type": "node",
      "id": 4931758366,
      "lat": -43.6393041,
      "lon": 170.1015784,
      "timestamp": "2019-08-02T07:37:18Z",
      "version": 2,
      "changeset": 72926468,
      "user": "ShakyIsles",
      "uid": 1968467,
      "tags": {
        "ele": "2248",
        "name": "Edith Peak",
        "natural": "peak",
        "source": "LINZ_NZ_Topo50_Gridless_Maps",
        "wikidata": "Q31668011"
      }
    },
    {
      "type": "node",
      "id": 4931776367,
      "lat": -43.7635437,
      "lon": 170.0159078,
      "timestamp": "2019-08-01T01:22:31Z",
      "version": 2,
      "changeset": 72877020,
      "user": "ShakyIsles",
      "uid": 1968467,
      "tags": {
        "ele": "2531",
        "name": "Mount Darby",
        "natural": "peak",
        "source": "LINZ_NZ_Topo50_Gridless_Maps",
        "wikidata": "Q31667763"
      }
    },
    {
      "type": "node",
      "id": 4931776368,
      "lat": -43.874631,
      "lon": 169.9298325,
      "timestamp": "2019-07-31T08:38:14Z",
      "version": 2,
      "changeset": 72844482,
      "user": "ShakyIsles",
      "uid": 1968467,
      "tags": {
        "ele": "2310",
        "name": "Mount Reticence",
        "natural": "peak",
        "source": "LINZ_NZ_Topo50_Gridless_Maps",
        "wikidata": "Q31670383"
      }
    },
    {
      "type": "node",
      "id": 4931776369,
      "lat": -43.6535585,
      "lon": 170.1481793,
      "timestamp": "2019-08-02T05:48:19Z",
      "version": 2,
      "changeset": 72923573,
      "user": "ShakyIsles",
      "uid": 1968467,
      "tags": {
        "ele": "2161",
        "name": "Mount Rosa",
        "natural": "peak",
        "source": "LINZ_NZ_Topo50_Gridless_Maps",
        "wikidata": "Q31670309"
      }
    },
    {
      "type": "node",
      "id": 4931776370,
      "lat": -43.7289341,
      "lon": 170.0215812,
      "timestamp": "2019-08-02T07:37:18Z",
      "version": 2,
      "changeset": 72926468,
      "user": "ShakyIsles",
      "uid": 1968467,
      "tags": {
        "ele": "2466",
        "name": "Mount Eric",
        "natural": "peak",
        "source": "LINZ_NZ_Topo50_Gridless_Maps",
        "wikidata": "Q31668185"
      }
    },
    {
      "type": "node",
      "id": 4931776371,
      "lat": -44.0418207,
      "lon": 169.8615971,
      "timestamp": "2019-07-31T07:34:57Z",
      "version": 2,
      "changeset": 72841944,
      "user": "ShakyIsles",
      "uid": 1968467,
      "tags": {
        "ele": "2050",
        "name": "Mount Glen Lyon",
        "natural": "peak",
        "source": "LINZ_NZ_Topo50_Gridless_Maps",
        "wikidata": "Q31481691"
      }
    },
    {
      "type": "node",
      "id": 4931776372,
      "lat": -43.8131948,
      "lon": 169.8998733,
      "timestamp": "2019-07-31T23:19:45Z",
      "version": 2,
      "changeset": 72875482,
      "user": "ShakyIsles",
      "uid": 1968467,
      "tags": {
        "ele": "2450",
        "name": "Mount Humphries",
        "natural": "peak",
        "source": "LINZ_NZ_Topo50_Gridless_Maps",
        "wikidata": "Q31692509"
      }
    },
    {
      "type": "node",
      "id": 4931776373,
      "lat": -43.7415219,
      "lon": 169.9963513,
      "timestamp": "2020-12-07T00:13:34Z",
      "version": 2,
      "changeset": 95385074,
      "user": "pizzaiolo",
      "uid": 1772368,
      "tags": {
        "ele": "2645",
        "name": "Vampire",
        "natural": "peak",
        "source": "LINZ_NZ_Topo50_Gridless_Maps",
        "wikidata": "Q31668220"
      }
    },
    {
      "type": "node",
      "id": 4931776374,
      "lat": -43.7249754,
      "lon": 170.0288232,
      "timestamp": "2019-08-02T07:37:18Z",
      "version": 3,
      "changeset": 72926468,
      "user": "ShakyIsles",
      "uid": 1968467,
      "tags": {
        "ele": "2503",
        "name": "Maunga Ma",
        "name:mi": "Maunga Ma",
        "natural": "peak",
        "source": "LINZ_NZ_Topo50_Gridless_Maps",
        "wikidata": "Q31685094"
      }
    },
    {
      "type": "node",
      "id": 4931776375,
      "lat": -43.7414583,
      "lon": 170.0074234,
      "timestamp": "2021-02-19T05:53:51Z",
      "version": 2,
      "changeset": 99565254,
      "user": "lcmortensen",
      "uid": 341519,
      "tags": {
        "ele": "2560",
        "name": "Mount Bannie",
        "natural": "peak",
        "source": "LINZ_NZ_Topo50_Gridless_Maps",
        "wikidata": "Q31669795"
      }
    },
    {
      "type": "node",
      "id": 4931776377,
      "lat": -43.8076792,
      "lon": 169.9656668,
      "timestamp": "2019-07-31T08:38:14Z",
      "version": 2,
      "changeset": 72844482,
      "user": "ShakyIsles",
      "uid": 1968467,
      "tags": {
        "ele": "2247",
        "name": "Prudence Peak",
        "natural": "peak",
        "source": "LINZ_NZ_Topo50_Gridless_Maps",
        "wikidata": "Q31670366"
      }
    },
    {
      "type": "node",
      "id": 4931776379,
      "lat": -43.7063024,
      "lon": 170.0228579,
      "timestamp": "2019-08-02T07:37:18Z",
      "version": 2,
      "changeset": 72926468,
      "user": "ShakyIsles",
      "uid": 1968467,
      "tags": {
        "ele": "2642",
        "name": "Mount Thomson",
        "natural": "peak",
        "source": "LINZ_NZ_Topo50_Gridless_Maps",
        "wikidata": "Q31661370"
      }
    },
    {
      "type": "node",
      "id": 4931776380,
      "lat": -43.7452733,
      "lon": 169.9845496,
      "timestamp": "2019-08-01T09:58:51Z",
      "version": 2,
      "changeset": 72890257,
      "user": "ShakyIsles",
      "uid": 1968467,
      "tags": {
        "ele": "2476",
        "name": "Mount Burns",
        "natural": "peak",
        "source": "LINZ_NZ_Topo50_Gridless_Maps",
        "wikidata": "Q31705675"
      }
    },
    {
      "type": "node",
      "id": 4931776381,
      "lat": -43.7595624,
      "lon": 169.9853649,
      "timestamp": "2019-08-01T01:22:31Z",
      "version": 2,
      "changeset": 72877020,
      "user": "ShakyIsles",
      "uid": 1968467,
      "tags": {
        "ele": "2339",
        "name": "Scissors",
        "natural": "peak",
        "source": "LINZ_NZ_Topo50_Gridless_Maps",
        "wikidata": "Q31667797"
      }
    },
    {
      "type": "node",
      "id": 4931776382,
      "lat": -43.7743145,
      "lon": 169.9707308,
      "timestamp": "2019-08-01T01:22:31Z",
      "version": 2,
      "changeset": 72877020,
      "user": "ShakyIsles",
      "uid": 1968467,
      "tags": {
        "ele": "2359",
        "name": "Mount Foster",
        "natural": "peak",
        "source": "LINZ_NZ_Topo50_Gridless_Maps",
        "wikidata": "Q31697946"
      }
    },
    {
      "type": "node",
      "id": 4931776383,
      "lat": -43.7888801,
      "lon": 169.9427886,
      "timestamp": "2019-07-31T22:52:45Z",
      "version": 2,
      "changeset": 72875088,
      "user": "ShakyIsles",
      "uid": 1968467,
      "tags": {
        "ele": "2650",
        "name": "Mount McKerrow",
        "natural": "peak",
        "source": "LINZ_NZ_Topo50_Gridless_Maps",
        "wikidata": "Q31670886"
      }
    },
    {
      "type": "node",
      "id": 4931776384,
      "lat": -43.7888786,
      "lon": 169.9582382,
      "timestamp": "2019-07-31T22:52:45Z",
      "version": 2,
      "changeset": 72875088,
      "user": "ShakyIsles",
      "uid": 1968467,
      "tags": {
        "ele": "2573",
        "name": "Black Tower Peak",
        "natural": "peak",
        "source": "LINZ_NZ_Topo50_Gridless_Maps",
        "wikidata": "Q31670801"
      }
    },
    {
      "type": "node",
      "id": 4931776385,
      "lat": -43.6577175,
      "lon": 170.1465056,
      "timestamp": "2019-08-02T05:48:19Z",
      "version": 2,
      "changeset": 72923573,
      "user": "ShakyIsles",
      "uid": 1968467,
      "tags": {
        "ele": "2091",
        "name": "Mount Mabel",
        "natural": "peak",
        "source": "LINZ_NZ_Topo50_Gridless_Maps",
        "wikidata": "Q31452972"
      }
    },
    {
      "type": "node",
      "id": 4931776387,
      "lat": -43.7676533,
      "lon": 170.0190535,
      "timestamp": "2019-08-01T01:22:31Z",
      "version": 2,
      "changeset": 72877020,
      "user": "ShakyIsles",
      "uid": 1968467,
      "tags": {
        "ele": "2504",
        "name": "Mount Marie",
        "natural": "peak",
        "source": "LINZ_NZ_Topo50_Gridless_Maps",
        "wikidata": "Q31667747"
      }
    },
    {
      "type": "node",
      "id": 4931776388,
      "lat": -43.7649275,
      "lon": 170.0454421,
      "timestamp": "2019-08-01T01:22:31Z",
      "version": 2,
      "changeset": 72877020,
      "user": "ShakyIsles",
      "uid": 1968467,
      "tags": {
        "ele": "2627",
        "name": "Mount Sealy",
        "natural": "peak",
        "source": "LINZ_NZ_Topo50_Gridless_Maps",
        "wikidata": "Q31668638"
      }
    },
    {
      "type": "node",
      "id": 4931776390,
      "lat": -43.7670768,
      "lon": 170.0250037,
      "timestamp": "2019-08-01T01:22:31Z",
      "version": 2,
      "changeset": 72877020,
      "user": "ShakyIsles",
      "uid": 1968467,
      "tags": {
        "ele": "2485",
        "name": "Mount Jeanette",
        "natural": "peak",
        "source": "LINZ_NZ_Topo50_Gridless_Maps",
        "wikidata": "Q31667732"
      }
    },
    {
      "type": "node",
      "id": 4931776391,
      "lat": -43.71235,
      "lon": 170.0862482,
      "timestamp": "2020-12-07T00:13:33Z",
      "version": 2,
      "changeset": 95385074,
      "user": "pizzaiolo",
      "uid": 1772368,
      "tags": {
        "ele": "922",
        "name": "White Horse Hill",
        "natural": "peak",
        "source": "LINZ_NZ_Topo50_Gridless_Maps",
        "wikidata": "Q31667249"
      }
    },
    {
      "type": "node",
      "id": 4931776392,
      "lat": -43.9589025,
      "lon": 169.8774329,
      "timestamp": "2019-07-31T08:49:44Z",
      "version": 2,
      "changeset": 72844943,
      "user": "ShakyIsles",
      "uid": 1968467,
      "tags": {
        "ele": "2499",
        "name": "Mount Glencairn",
        "natural": "peak",
        "source": "LINZ_NZ_Topo50_Gridless_Maps",
        "wikidata": "Q31670445"
      }
    },
    {
      "type": "node",
      "id": 4931776393,
      "lat": -43.8012818,
      "lon": 169.9307187,
      "timestamp": "2020-12-07T00:13:34Z",
      "version": 2,
      "changeset": 95385074,
      "user": "pizzaiolo",
      "uid": 1772368,
      "tags": {
        "ele": "2238",
        "name": "Mount Sinclair",
        "natural": "peak",
        "source": "LINZ_NZ_Topo50_Gridless_Maps",
        "wikidata": "Q31668071"
      }
    },
    {
      "type": "node",
      "id": 4931776396,
      "lat": -43.9115879,
      "lon": 169.9124947,
      "timestamp": "2020-12-07T00:13:40Z",
      "version": 2,
      "changeset": 95385074,
      "user": "pizzaiolo",
      "uid": 1772368,
      "tags": {
        "ele": "2284",
        "name": "Armistice Peak",
        "natural": "peak",
        "source": "LINZ_NZ_Topo50_Gridless_Maps",
        "wikidata": "Q31670413"
      }
    },
    {
      "type": "node",
      "id": 4931776397,
      "lat": -43.7317995,
      "lon": 170.0138028,
      "timestamp": "2019-08-02T07:37:18Z",
      "version": 2,
      "changeset": 72926468,
      "user": "ShakyIsles",
      "uid": 1968467,
      "tags": {
        "ele": "2598",
        "name": "Mount Isabel",
        "natural": "peak",
        "source": "LINZ_NZ_Topo50_Gridless_Maps",
        "wikidata": "Q31668203"
      }
    },
    {
      "type": "node",
      "id": 4931776398,
      "lat": -43.9389753,
      "lon": 169.8881617,
      "timestamp": "2019-07-31T07:55:54Z",
      "version": 2,
      "changeset": 72842675,
      "user": "ShakyIsles",
      "uid": 1968467,
      "tags": {
        "ele": "2392",
        "name": "Mount Glenisla",
        "natural": "peak",
        "source": "LINZ_NZ_Topo50_Gridless_Maps",
        "wikidata": "Q31670429"
      }
    },
    {
      "type": "node",
      "id": 4931776399,
      "lat": -43.9815745,
      "lon": 169.8884192,
      "timestamp": "2019-07-31T07:34:57Z",
      "version": 2,
      "changeset": 72841944,
      "user": "ShakyIsles",
      "uid": 1968467,
      "tags": {
        "ele": "2486",
        "name": "Ben Ross",
        "natural": "peak",
        "source": "LINZ_NZ_Topo50_Gridless_Maps",
        "wikidata": "Q31482236"
      }
    },
    {
      "type": "node",
      "id": 4931776400,
      "lat": -43.7570533,
      "lon": 169.9822278,
      "timestamp": "2019-08-01T01:35:02Z",
      "version": 2,
      "changeset": 72877218,
      "user": "ShakyIsles",
      "uid": 1968467,
      "tags": {
        "ele": "2340",
        "name": "Mount Montgomerie",
        "natural": "peak",
        "source": "LINZ_NZ_Topo50_Gridless_Maps",
        "wikidata": "Q31669830"
      }
    },
    {
      "type": "node",
      "id": 4931776401,
      "lat": -43.7910782,
      "lon": 169.9633065,
      "timestamp": "2019-07-31T22:52:45Z",
      "version": 3,
      "changeset": 72875088,
      "user": "ShakyIsles",
      "uid": 1968467,
      "tags": {
        "ele": "2678",
        "name": "Mount Hopkins",
        "natural": "peak",
        "source": "LINZ_NZ_Topo50_Gridless_Maps",
        "wikidata": "Q1950521",
        "wikipedia": "en:Mount Hopkins (New Zealand)"
      }
    },
    {
      "type": "node",
      "id": 4931776402,
      "lat": -43.7669715,
      "lon": 170.030984,
      "timestamp": "2019-08-01T01:22:31Z",
      "version": 2,
      "changeset": 72877020,
      "user": "ShakyIsles",
      "uid": 1968467,
      "tags": {
        "ele": "2519",
        "name": "Mount Jean",
        "natural": "peak",
        "source": "LINZ_NZ_Topo50_Gridless_Maps",
        "wikidata": "Q31667715"
      }
    },
    {
      "type": "node",
      "id": 4931776403,
      "lat": -43.9764158,
      "lon": 169.8779478,
      "timestamp": "2019-07-31T07:34:57Z",
      "version": 2,
      "changeset": 72841944,
      "user": "ShakyIsles",
      "uid": 1968467,
      "tags": {
        "ele": "2590",
        "name": "Mount Glenmary",
        "natural": "peak",
        "source": "LINZ_NZ_Topo50_Gridless_Maps",
        "wikidata": "Q31696835"
      }
    },
    {
      "type": "node",
      "id": 4931776404,
      "lat": -43.7544015,
      "lon": 169.9783547,
      "timestamp": "2019-08-01T01:35:02Z",
      "version": 2,
      "changeset": 72877218,
      "user": "ShakyIsles",
      "uid": 1968467,
      "tags": {
        "ele": "2373",
        "name": "Watch Tower",
        "natural": "peak",
        "source": "LINZ_NZ_Topo50_Gridless_Maps",
        "wikidata": "Q31667780"
      }
    },
    {
      "type": "node",
      "id": 4931776405,
      "lat": -43.7605233,
      "lon": 170.0351467,
      "timestamp": "2019-08-01T01:22:31Z",
      "version": 2,
      "changeset": 72877020,
      "user": "ShakyIsles",
      "uid": 1968467,
      "tags": {
        "ele": "2436",
        "name": "Mount Massey",
        "natural": "peak",
        "source": "LINZ_NZ_Topo50_Gridless_Maps",
        "wikidata": "Q31667698"
      }
    },
    {
      "type": "node",
      "id": 4931779204,
      "lat": -44.0705332,
      "lon": 169.7526706,
      "timestamp": "2020-12-07T00:12:37Z",
      "version": 3,
      "changeset": 95385074,
      "user": "pizzaiolo",
      "uid": 1772368,
      "tags": {
        "ele": "2289",
        "name": "Temple Peak",
        "natural": "peak",
        "source": "LINZ_NZ_Topo50_Gridless_Maps",
        "wikidata": "Q31484016"
      }
    },
    {
      "type": "node",
      "id": 4932294648,
      "lat": -43.9468869,
      "lon": 169.7819392,
      "timestamp": "2019-07-30T23:50:22Z",
      "version": 2,
      "changeset": 72832920,
      "user": "ShakyIsles",
      "uid": 1968467,
      "tags": {
        "ele": "2115",
        "name": "McNulty Peak",
        "natural": "peak",
        "source": "LINZ_NZ_Topo50_Gridless_Maps",
        "wikidata": "Q31482334"
      }
    },
    {
      "type": "node",
      "id": 4932294649,
      "lat": -44.0342973,
      "lon": 169.6804916,
      "timestamp": "2020-12-07T00:13:07Z",
      "version": 2,
      "changeset": 95385074,
      "user": "pizzaiolo",
      "uid": 1772368,
      "tags": {
        "ele": "2389",
        "name": "Mount Hammorack",
        "natural": "peak",
        "source": "LINZ_NZ_Topo50_Gridless_Maps",
        "wikidata": "Q31662547"
      }
    },
    {
      "type": "node",
      "id": 4932294650,
      "lat": -44.0388309,
      "lon": 169.6846093,
      "timestamp": "2020-12-07T00:13:07Z",
      "version": 2,
      "changeset": 95385074,
      "user": "pizzaiolo",
      "uid": 1772368,
      "tags": {
        "ele": "2389",
        "name": "Protuberance Peak",
        "natural": "peak",
        "source": "LINZ_NZ_Topo50_Gridless_Maps",
        "wikidata": "Q31662563"
      }
    },
    {
      "type": "node",
      "id": 4932294651,
      "lat": -44.0396037,
      "lon": 169.7006189,
      "timestamp": "2017-08-09T07:58:40Z",
      "version": 2,
      "changeset": 50963507,
      "user": "lcmortensen",
      "uid": 341519,
      "tags": {
        "ele": "2414",
        "name": "Soloist Peak",
        "natural": "peak",
        "source": "LINZ_NZ_Topo50_Gridless_Maps",
        "wikidata": "Q31482296"
      }
    },
    {
      "type": "node",
      "id": 4932294652,
      "lat": -43.9614691,
      "lon": 169.6965377,
      "timestamp": "2019-07-23T01:42:17Z",
      "version": 2,
      "changeset": 72535756,
      "user": "ShakyIsles",
      "uid": 1968467,
      "tags": {
        "ele": "2391",
        "name": "Mount Strauchon",
        "natural": "peak",
        "source": "LINZ_NZ_Topo50_Gridless_Maps",
        "wikidata": "Q31666363"
      }
    },
    {
      "type": "node",
      "id": 4932294654,
      "lat": -43.9309427,
      "lon": 169.7454182,
      "timestamp": "2019-07-30T23:42:17Z",
      "version": 2,
      "changeset": 72832843,
      "user": "ShakyIsles",
      "uid": 1968467,
      "tags": {
        "ele": "2335",
        "name": "Mount Trent",
        "natural": "peak",
        "source": "LINZ_NZ_Topo50_Gridless_Maps",
        "wikidata": "Q31660194"
      }
    },
    {
      "type": "node",
      "id": 4932294656,
      "lat": -44.0417632,
      "lon": 169.6970569,
      "timestamp": "2020-12-07T00:12:36Z",
      "version": 2,
      "changeset": 95385074,
      "user": "pizzaiolo",
      "uid": 1772368,
      "tags": {
        "ele": "2386",
        "name": "Stevenson Peak",
        "natural": "peak",
        "source": "LINZ_NZ_Topo50_Gridless_Maps",
        "wikidata": "Q31482315"
      }
    },
    {
      "type": "node",
      "id": 4932294657,
      "lat": -44.0100728,
      "lon": 169.702975,
      "timestamp": "2017-08-09T07:58:45Z",
      "version": 2,
      "changeset": 50963507,
      "user": "lcmortensen",
      "uid": 341519,
      "tags": {
        "ele": "2380",
        "name": "Anita Peak",
        "natural": "peak",
        "source": "LINZ_NZ_Topo50_Gridless_Maps",
        "wikidata": "Q31662579"
      }
    },
    {
      "type": "node",
      "id": 4932302901,
      "lat": -43.884905,
      "lon": 169.7974745,
      "timestamp": "2019-07-31T09:06:55Z",
      "version": 2,
      "changeset": 72845587,
      "user": "ShakyIsles",
      "uid": 1968467,
      "tags": {
        "ele": "2285",
        "name": "Mount Hickson",
        "natural": "peak",
        "source": "LINZ_NZ_Topo50_Gridless_Maps",
        "wikidata": "Q31670699"
      }
    },
    {
      "type": "node",
      "id": 4932302902,
      "lat": -43.9838947,
      "lon": 169.7651614,
      "timestamp": "2019-07-30T23:50:22Z",
      "version": 2,
      "changeset": 72832920,
      "user": "ShakyIsles",
      "uid": 1968467,
      "tags": {
        "ele": "2254",
        "name": "Boanerges",
        "natural": "peak",
        "source": "LINZ_NZ_Topo50_Gridless_Maps",
        "wikidata": "Q31670784"
      }
    },
    {
      "type": "node",
      "id": 4932302904,
      "lat": -43.8720349,
      "lon": 169.8251979,
      "timestamp": "2019-07-31T09:06:55Z",
      "version": 2,
      "changeset": 72845587,
      "user": "ShakyIsles",
      "uid": 1968467,
      "tags": {
        "ele": "2189",
        "name": "Mount Dundas",
        "natural": "peak",
        "source": "LINZ_NZ_Topo50_Gridless_Maps",
        "wikidata": "Q31700387"
      }
    },
    {
      "type": "node",
      "id": 4932302905,
      "lat": -43.9076949,
      "lon": 169.7645156,
      "timestamp": "2019-07-31T03:09:52Z",
      "version": 2,
      "changeset": 72835545,
      "user": "ShakyIsles",
      "uid": 1968467,
      "tags": {
        "ele": "2124",
        "name": "Welch Peak",
        "natural": "peak",
        "source": "LINZ_NZ_Topo50_Gridless_Maps",
        "wikidata": "Q31670731"
      }
    },
    {
      "type": "node",
      "id": 4932302906,
      "lat": -43.8924809,
      "lon": 169.7933547,
      "timestamp": "2020-12-07T00:13:40Z",
      "version": 2,
      "changeset": 95385074,
      "user": "pizzaiolo",
      "uid": 1772368,
      "tags": {
        "ele": "2434",
        "name": "Mount Jackson",
        "natural": "peak",
        "source": "LINZ_NZ_Topo50_Gridless_Maps",
        "wikidata": "Q31670715"
      }
    },
    {
      "type": "node",
      "id": 4932302907,
      "lat": -43.8991607,
      "lon": 169.7709529,
      "timestamp": "2019-07-31T03:09:52Z",
      "version": 2,
      "changeset": 72835545,
      "user": "ShakyIsles",
      "uid": 1968467,
      "tags": {
        "ele": "2253",
        "name": "Barron Peak",
        "natural": "peak",
        "source": "LINZ_NZ_Topo50_Gridless_Maps",
        "wikidata": "Q31708993"
      }
    },
    {
      "type": "node",
      "id": 4932302908,
      "lat": -43.9347426,
      "lon": 169.7952429,
      "timestamp": "2019-07-30T23:50:22Z",
      "version": 2,
      "changeset": 72832920,
      "user": "ShakyIsles",
      "uid": 1968467,
      "tags": {
        "ele": "2177",
        "name": "Gillies Peak",
        "natural": "peak",
        "source": "LINZ_NZ_Topo50_Gridless_Maps",
        "wikidata": "Q31670768"
      }
    },
    {
      "type": "node",
      "id": 4932302909,
      "lat": -43.9294886,
      "lon": 169.7984187,
      "timestamp": "2019-07-30T23:50:22Z",
      "version": 2,
      "changeset": 72832920,
      "user": "ShakyIsles",
      "uid": 1968467,
      "tags": {
        "ele": "2135",
        "name": "Hut Peak",
        "natural": "peak",
        "source": "LINZ_NZ_Topo50_Gridless_Maps",
        "wikidata": "Q31670750"
      }
    },
    {
      "type": "node",
      "id": 4932302910,
      "lat": -43.911776,
      "lon": 169.7631852,
      "timestamp": "2019-07-30T23:42:17Z",
      "version": 2,
      "changeset": 72832843,
      "user": "ShakyIsles",
      "uid": 1968467,
      "tags": {
        "ele": "2160",
        "name": "Mount Kitson",
        "natural": "peak",
        "source": "LINZ_NZ_Topo50_Gridless_Maps",
        "wikidata": "Q31689259"
      }
    },
    {
      "type": "node",
      "id": 4932302912,
      "lat": -43.9218555,
      "lon": 169.757177,
      "timestamp": "2019-07-30T23:42:17Z",
      "version": 2,
      "changeset": 72832843,
      "user": "ShakyIsles",
      "uid": 1968467,
      "tags": {
        "ele": "2265",
        "name": "Mount Dobson",
        "natural": "peak",
        "source": "LINZ_NZ_Topo50_Gridless_Maps",
        "wikidata": "Q31701122"
      }
    },
    {
      "type": "node",
      "id": 4932306543,
      "lat": -43.8323308,
      "lon": 169.8678128,
      "timestamp": "2019-07-31T23:19:45Z",
      "version": 3,
      "changeset": 72875482,
      "user": "ShakyIsles",
      "uid": 1968467,
      "tags": {
        "ele": "2347",
        "name": "Mount Nihokohatu",
        "name:mi": "Nihokohatu",
        "natural": "peak",
        "source": "LINZ_NZ_Topo50_Gridless_Maps",
        "wikidata": "Q34803921"
      }
    },
    {
      "type": "node",
      "id": 4932306545,
      "lat": -43.8404087,
      "lon": 169.8542515,
      "timestamp": "2020-12-07T00:13:40Z",
      "version": 2,
      "changeset": 95385074,
      "user": "pizzaiolo",
      "uid": 1772368,
      "tags": {
        "ele": "2446",
        "name": "Mount Browning",
        "natural": "peak",
        "source": "LINZ_NZ_Topo50_Gridless_Maps",
        "wikidata": "Q31670595"
      }
    },
    {
      "type": "node",
      "id": 4932306547,
      "lat": -43.8471887,
      "lon": 169.8443445,
      "timestamp": "2019-07-31T23:19:45Z",
      "version": 2,
      "changeset": 72875482,
      "user": "ShakyIsles",
      "uid": 1968467,
      "tags": {
        "ele": "2422",
        "name": "Mount Marchant",
        "natural": "peak",
        "source": "LINZ_NZ_Topo50_Gridless_Maps",
        "wikidata": "Q31685830"
      }
    },
    {
      "type": "node",
      "id": 4932325908,
      "lat": -43.9851382,
      "lon": 169.5694363,
      "timestamp": "2019-07-22T21:07:21Z",
      "version": 2,
      "changeset": 72531736,
      "user": "ShakyIsles",
      "uid": 1968467,
      "tags": {
        "ele": "2177",
        "name": "Mount Marshman",
        "natural": "peak",
        "source": "LINZ_NZ_Topo50_Gridless_Maps",
        "wikidata": "Q31685587"
      }
    },
    {
      "type": "node",
      "id": 4932325909,
      "lat": -43.9578679,
      "lon": 169.5941963,
      "timestamp": "2019-07-23T01:42:17Z",
      "version": 3,
      "changeset": 72535756,
      "user": "ShakyIsles",
      "uid": 1968467,
      "tags": {
        "ele": "2086",
        "name": "Mount Napoleon",
        "natural": "peak",
        "source": "LINZ_NZ_Topo50_Gridless_Maps",
        "wikidata": "Q31662609"
      }
    },
    {
      "type": "node",
      "id": 4932325910,
      "lat": -43.9575481,
      "lon": 169.6033695,
      "timestamp": "2019-07-23T01:42:17Z",
      "version": 2,
      "changeset": 72535756,
      "user": "ShakyIsles",
      "uid": 1968467,
      "tags": {
        "ele": "2120",
        "name": "Square Top",
        "natural": "peak",
        "source": "LINZ_NZ_Topo50_Gridless_Maps",
        "wikidata": "Q31667050"
      }
    },
    {
      "type": "node",
      "id": 4932325912,
      "lat": -43.9570229,
      "lon": 169.6085622,
      "timestamp": "2019-07-23T01:42:17Z",
      "version": 2,
      "changeset": 72535756,
      "user": "ShakyIsles",
      "uid": 1968467,
      "tags": {
        "ele": "2140",
        "name": "Wills Peak",
        "natural": "peak",
        "source": "LINZ_NZ_Topo50_Gridless_Maps",
        "wikidata": "Q31655425"
      }
    },
    {
      "type": "node",
      "id": 4932325913,
      "lat": -43.984848,
      "lon": 169.5770216,
      "timestamp": "2019-07-22T21:07:21Z",
      "version": 2,
      "changeset": 72531736,
      "user": "ShakyIsles",
      "uid": 1968467,
      "tags": {
        "ele": "2110",
        "name": "Hassing Peak",
        "natural": "peak",
        "source": "LINZ_NZ_Topo50_Gridless_Maps",
        "wikidata": "Q31662420"
      }
    },
    {
      "type": "node",
      "id": 4932325914,
      "lat": -43.9511839,
      "lon": 169.6347835,
      "timestamp": "2019-07-23T01:42:17Z",
      "version": 2,
      "changeset": 72535756,
      "user": "ShakyIsles",
      "uid": 1968467,
      "tags": {
        "ele": "1846",
        "name": "Snow Top",
        "natural": "peak",
        "source": "LINZ_NZ_Topo50_Gridless_Maps",
        "wikidata": "Q31662732"
      }
    },
    {
      "type": "node",
      "id": 4932325915,
      "lat": -43.9649295,
      "lon": 169.5863321,
      "timestamp": "2019-07-23T00:29:16Z",
      "version": 2,
      "changeset": 72534798,
      "user": "ShakyIsles",
      "uid": 1968467,
      "tags": {
        "ele": "1946",
        "name": "Watkins Dome",
        "natural": "peak",
        "source": "LINZ_NZ_Topo50_Gridless_Maps",
        "wikidata": "Q31662594"
      }
    },
    {
      "type": "node",
      "id": 4932330125,
      "lat": -43.9630143,
      "lon": 169.6318223,
      "timestamp": "2019-07-23T01:42:17Z",
      "version": 2,
      "changeset": 72535756,
      "user": "ShakyIsles",
      "uid": 1968467,
      "tags": {
        "ele": "2218",
        "name": "Mount Pearson",
        "natural": "peak",
        "source": "LINZ_NZ_Topo50_Gridless_Maps",
        "wikidata": "Q31662669"
      }
    },
    {
      "type": "node",
      "id": 4932330126,
      "lat": -43.9588147,
      "lon": 169.6477869,
      "timestamp": "2020-12-07T00:13:13Z",
      "version": 2,
      "changeset": 95385074,
      "user": "pizzaiolo",
      "uid": 1772368,
      "tags": {
        "ele": "2169",
        "name": "Adams Peak",
        "natural": "peak",
        "source": "LINZ_NZ_Topo50_Gridless_Maps",
        "wikidata": "Q31662700"
      }
    },
    {
      "type": "node",
      "id": 4932330128,
      "lat": -43.9586695,
      "lon": 169.6242821,
      "timestamp": "2019-07-23T01:42:17Z",
      "version": 3,
      "changeset": 72535756,
      "user": "ShakyIsles",
      "uid": 1968467,
      "tags": {
        "ele": "2280",
        "name": "Mount Maitland",
        "natural": "peak",
        "source": "LINZ_NZ_Topo50_Gridless_Maps",
        "wikidata": "Q31686865"
      }
    },
    {
      "type": "node",
      "id": 4932330134,
      "lat": -43.9626143,
      "lon": 169.6381738,
      "timestamp": "2019-07-23T01:42:17Z",
      "version": 2,
      "changeset": 72535756,
      "user": "ShakyIsles",
      "uid": 1968467,
      "tags": {
        "ele": "2209",
        "name": "Mount Giles",
        "natural": "peak",
        "source": "LINZ_NZ_Topo50_Gridless_Maps",
        "wikidata": "Q31697064"
      }
    },
    {
      "type": "node",
      "id": 4933425122,
      "lat": -44.0169239,
      "lon": 169.472862,
      "timestamp": "2019-07-22T21:07:21Z",
      "version": 2,
      "changeset": 72531736,
      "user": "ShakyIsles",
      "uid": 1968467,
      "tags": {
        "ele": "1700",
        "name": "Mount Earle",
        "natural": "peak",
        "source": "LINZ_NZ_Topo50_Gridless_Maps",
        "wikidata": "Q31700088"
      }
    },
    {
      "type": "node",
      "id": 4933425123,
      "lat": -44.0577733,
      "lon": 169.5124709,
      "timestamp": "2019-07-22T06:11:25Z",
      "version": 2,
      "changeset": 72499997,
      "user": "ShakyIsles",
      "uid": 1968467,
      "tags": {
        "ele": "2203",
        "name": "Mount Tole",
        "natural": "peak",
        "source": "LINZ_NZ_Topo50_Gridless_Maps",
        "wikidata": "Q31660668"
      }
    },
    {
      "type": "node",
      "id": 4933425124,
      "lat": -44.0356725,
      "lon": 169.5707227,
      "timestamp": "2019-07-22T21:07:21Z",
      "version": 2,
      "changeset": 72531736,
      "user": "ShakyIsles",
      "uid": 1968467,
      "tags": {
        "ele": "2238",
        "name": "Mount Enderby",
        "natural": "peak",
        "source": "LINZ_NZ_Topo50_Gridless_Maps",
        "wikidata": "Q31699527"
      }
    },
    {
      "type": "node",
      "id": 4933425125,
      "lat": -43.9933114,
      "lon": 169.5328147,
      "timestamp": "2019-07-22T21:07:21Z",
      "version": 2,
      "changeset": 72531736,
      "user": "ShakyIsles",
      "uid": 1968467,
      "tags": {
        "ele": "1963",
        "name": "Mount Awkward",
        "natural": "peak",
        "source": "LINZ_NZ_Topo50_Gridless_Maps",
        "wikidata": "Q31709432"
      }
    },
    {
      "type": "node",
      "id": 4933425126,
      "lat": -44.0105285,
      "lon": 169.5919958,
      "timestamp": "2019-07-22T21:07:21Z",
      "version": 2,
      "changeset": 72531736,
      "user": "ShakyIsles",
      "uid": 1968467,
      "tags": {
        "ele": "2204",
        "name": "Mount Tylee",
        "natural": "peak",
        "source": "LINZ_NZ_Topo50_Gridless_Maps",
        "wikidata": "Q31659040"
      }
    },
    {
      "type": "node",
      "id": 4933425128,
      "lat": -44.0053202,
      "lon": 169.5059068,
      "timestamp": "2019-07-22T21:07:21Z",
      "version": 2,
      "changeset": 72531736,
      "user": "ShakyIsles",
      "uid": 1968467,
      "tags": {
        "ele": "1810",
        "name": "Mount Bull",
        "natural": "peak",
        "source": "LINZ_NZ_Topo50_Gridless_Maps",
        "wikidata": "Q31705861"
      }
    },
    {
      "type": "node",
      "id": 4933425129,
      "lat": -44.012695,
      "lon": 169.5913059,
      "timestamp": "2019-07-22T21:07:21Z",
      "version": 3,
      "changeset": 72531736,
      "user": "ShakyIsles",
      "uid": 1968467,
      "tags": {
        "ele": "2219",
        "name": "Mount Holdsworth",
        "name:mi": "Taratahi",
        "natural": "peak",
        "source": "LINZ_NZ_Topo50_Gridless_Maps",
        "wikidata": "Q31693446"
      }
    },
    {
      "type": "node",
      "id": 4933425132,
      "lat": -44.0130984,
      "lon": 169.4832046,
      "timestamp": "2019-07-22T21:07:21Z",
      "version": 2,
      "changeset": 72531736,
      "user": "ShakyIsles",
      "uid": 1968467,
      "tags": {
        "ele": "1692",
        "name": "Mount Lakeman",
        "natural": "peak",
        "source": "LINZ_NZ_Topo50_Gridless_Maps",
        "wikidata": "Q31688443"
      }
    },
    {
      "type": "node",
      "id": 4933425133,
      "lat": -44.0591295,
      "lon": 169.5028169,
      "timestamp": "2019-07-22T06:11:25Z",
      "version": 2,
      "changeset": 72499997,
      "user": "ShakyIsles",
      "uid": 1968467,
      "tags": {
        "ele": "2080",
        "name": "Mount Wray",
        "natural": "peak",
        "source": "LINZ_NZ_Topo50_Gridless_Maps",
        "wikidata": "Q31655026"
      }
    },
    {
      "type": "node",
      "id": 4933425135,
      "lat": -44.0365812,
      "lon": 169.5344026,
      "timestamp": "2021-09-26T01:34:09Z",
      "version": 2,
      "changeset": 111704976,
      "user": "kylenz_linz",
      "uid": 8389777,
      "tags": {
        "direction": "324",
        "ele": "1578",
        "name": "Wills Pass",
        "natural": "saddle",
        "ref:linz:topo50_id": "3338655",
        "source": "LINZ_NZ_Topo50_Gridless_Maps"
      }
    },
    {
      "type": "node",
      "id": 4933425137,
      "lat": -44.0063492,
      "lon": 169.5910497,
      "timestamp": "2019-07-22T21:07:21Z",
      "version": 2,
      "changeset": 72531736,
      "user": "ShakyIsles",
      "uid": 1968467,
      "tags": {
        "ele": "2101",
        "name": "Mount Greenfield",
        "natural": "peak",
        "source": "LINZ_NZ_Topo50_Gridless_Maps",
        "wikidata": "Q31695971"
      }
    },
    {
      "type": "node",
      "id": 4933425138,
      "lat": -43.9961517,
      "lon": 169.5921237,
      "timestamp": "2021-09-26T01:34:09Z",
      "version": 2,
      "changeset": 111704976,
      "user": "kylenz_linz",
      "uid": 8389777,
      "tags": {
        "direction": "84",
        "ele": "1578",
        "name": "Wilson Pass",
        "natural": "saddle",
        "ref:linz:topo50_id": "3338663",
        "source": "LINZ_NZ_Topo50_Gridless_Maps"
      }
    },
    {
      "type": "node",
      "id": 4933425139,
      "lat": -43.9839184,
      "lon": 169.5432521,
      "timestamp": "2019-07-22T21:07:21Z",
      "version": 2,
      "changeset": 72531736,
      "user": "ShakyIsles",
      "uid": 1968467,
      "tags": {
        "ele": "2117",
        "name": "Shingle Top",
        "natural": "peak",
        "source": "LINZ_NZ_Topo50_Gridless_Maps",
        "wikidata": "Q31668241"
      }
    },
    {
      "type": "node",
      "id": 4933447223,
      "lat": -43.8134136,
      "lon": 169.6151282,
      "timestamp": "2020-12-07T00:13:14Z",
      "version": 2,
      "changeset": 95385074,
      "user": "pizzaiolo",
      "uid": 1772368,
      "tags": {
        "ele": "2123",
        "name": "Lantern Peak",
        "natural": "peak",
        "source": "LINZ_NZ_Topo50_Gridless_Maps",
        "wikidata": "Q31663290"
      }
    },
    {
      "type": "node",
      "id": 4933450388,
      "lat": -43.7287487,
      "lon": 169.5456527,
      "timestamp": "2020-12-07T00:13:05Z",
      "version": 2,
      "changeset": 95385074,
      "user": "pizzaiolo",
      "uid": 1772368,
      "tags": {
        "ele": "1236",
        "name": "Argentum",
        "natural": "peak",
        "source": "LINZ_NZ_Topo50_Gridless_Maps",
        "wikidata": "Q31661570"
      }
    },
    {
      "type": "node",
      "id": 4933450390,
      "lat": -43.692237,
      "lon": 169.5760732,
      "timestamp": "2018-09-27T00:11:03Z",
      "version": 2,
      "changeset": 62961504,
      "user": "lcmortensen",
      "uid": 341519,
      "tags": {
        "ele": "1189",
        "name": "Mount Douglas",
        "natural": "peak",
        "source": "LINZ_NZ_Topo50_Gridless_Maps",
        "wikidata": "Q31700689"
      }
    },
    {
      "type": "node",
      "id": 4933457873,
      "lat": -43.76325,
      "lon": 169.8230084,
      "timestamp": "2021-09-26T01:34:09Z",
      "version": 2,
      "changeset": 111704976,
      "user": "kylenz_linz",
      "uid": 8389777,
      "tags": {
        "direction": "101",
        "ele": "1445",
        "name": "Mueller Pass",
        "natural": "saddle",
        "ref:linz:topo50_id": "3338676",
        "source": "LINZ_NZ_Topo50_Gridless_Maps"
      }
    },
    {
      "type": "node",
      "id": 4933457879,
      "lat": -43.7290883,
      "lon": 169.7870474,
      "timestamp": "2020-12-07T00:13:32Z",
      "version": 2,
      "changeset": 95385074,
      "user": "pizzaiolo",
      "uid": 1772368,
      "tags": {
        "ele": "1973",
        "name": "Query Peak",
        "natural": "peak",
        "source": "LINZ_NZ_Topo50_Gridless_Maps",
        "wikidata": "Q31667131"
      }
    },
    {
      "type": "node",
      "id": 4933492003,
      "lat": -43.6873966,
      "lon": 169.8897424,
      "timestamp": "2019-08-03T00:11:34Z",
      "version": 2,
      "changeset": 72959443,
      "user": "ShakyIsles",
      "uid": 1968467,
      "tags": {
        "ele": "1911",
        "name": "Mount Peculiar",
        "natural": "peak",
        "source": "LINZ_NZ_Topo50_Gridless_Maps",
        "wikidata": "Q31667009"
      }
    },
    {
      "type": "node",
      "id": 4933492004,
      "lat": -43.6922686,
      "lon": 169.894506,
      "timestamp": "2019-08-03T00:11:34Z",
      "version": 2,
      "changeset": 72959443,
      "user": "ShakyIsles",
      "uid": 1968467,
      "tags": {
        "ele": "1855",
        "name": "Notable Peak",
        "natural": "peak",
        "source": "LINZ_NZ_Topo50_Gridless_Maps",
        "wikidata": "Q31667026"
      }
    },
    {
      "type": "node",
      "id": 4933492006,
      "lat": -43.6825242,
      "lon": 169.8737779,
      "timestamp": "2019-08-03T00:11:34Z",
      "version": 2,
      "changeset": 72959443,
      "user": "ShakyIsles",
      "uid": 1968467,
      "tags": {
        "ele": "1695",
        "name": "MacKnob",
        "natural": "peak",
        "source": "LINZ_NZ_Topo50_Gridless_Maps",
        "wikidata": "Q31666905"
      }
    },
    {
      "type": "node",
      "id": 4933492018,
      "lat": -43.6865277,
      "lon": 169.8854937,
      "timestamp": "2019-08-03T00:11:34Z",
      "version": 2,
      "changeset": 72959443,
      "user": "ShakyIsles",
      "uid": 1968467,
      "tags": {
        "ele": "1878",
        "name": "Mount Mirk",
        "natural": "peak",
        "source": "LINZ_NZ_Topo50_Gridless_Maps",
        "wikidata": "Q31666993"
      }
    },
    {
      "type": "node",
      "id": 4933492020,
      "lat": -43.6830829,
      "lon": 169.8658385,
      "timestamp": "2019-08-03T00:11:34Z",
      "version": 2,
      "changeset": 72959443,
      "user": "ShakyIsles",
      "uid": 1968467,
      "tags": {
        "ele": "1645",
        "name": "The Clue",
        "natural": "peak",
        "source": "LINZ_NZ_Topo50_Gridless_Maps",
        "wikidata": "Q31666976"
      }
    },
    {
      "type": "node",
      "id": 4933492524,
      "lat": -43.6968609,
      "lon": 169.9067368,
      "timestamp": "2019-08-03T00:11:34Z",
      "version": 2,
      "changeset": 72959443,
      "user": "ShakyIsles",
      "uid": 1968467,
      "tags": {
        "ele": "1866",
        "name": "The Helmet",
        "natural": "peak",
        "source": "LINZ_NZ_Topo50_Gridless_Maps",
        "wikidata": "Q31667043"
      }
    },
    {
      "type": "node",
      "id": 4933492528,
      "lat": -43.7111321,
      "lon": 169.9626555,
      "timestamp": "2020-12-07T00:13:33Z",
      "version": 2,
      "changeset": 95385074,
      "user": "pizzaiolo",
      "uid": 1772368,
      "tags": {
        "ele": "2125",
        "name": "The Gladiator",
        "natural": "peak",
        "source": "LINZ_NZ_Topo50_Gridless_Maps",
        "wikidata": "Q31667904"
      }
    },
    {
      "type": "node",
      "id": 4933492530,
      "lat": -43.7172661,
      "lon": 169.9461481,
      "timestamp": "2019-08-03T00:11:34Z",
      "version": 2,
      "changeset": 72959443,
      "user": "ShakyIsles",
      "uid": 1968467,
      "tags": {
        "ele": "1958",
        "name": "Mount Howitt",
        "natural": "peak",
        "source": "LINZ_NZ_Topo50_Gridless_Maps",
        "wikidata": "Q31692873"
      }
    },
    {
      "type": "node",
      "id": 4933492531,
      "lat": -43.7050191,
      "lon": 169.9317994,
      "timestamp": "2019-08-03T00:11:34Z",
      "version": 2,
      "changeset": 72959443,
      "user": "ShakyIsles",
      "uid": 1968467,
      "tags": {
        "ele": "1791",
        "name": "The Pommel",
        "natural": "peak",
        "source": "LINZ_NZ_Topo50_Gridless_Maps",
        "wikidata": "Q31675595"
      }
    },
    {
      "type": "node",
      "id": 4933492544,
      "lat": -43.6887,
      "lon": 169.9221434,
      "timestamp": "2022-02-07T06:56:25Z",
      "version": 3,
      "changeset": 117104529,
      "user": "kylenz_linz",
      "uid": 8389777,
      "tags": {
        "capacity": "4",
        "drinking_water": "no",
        "fee": "yes",
        "fireplace": "yes",
        "mattress": "yes",
        "name": "Horace Walker Hut",
        "operator": "Department of Conservation",
        "operator:wikidata": "Q1191417",
        "operator:wikipedia": "en:Department of Conservation (New Zealand)",
        "ref:doc": "100075079",
        "ref:linz:topo50_id": "5395113",
        "reservation": "no",
        "source": "LINZ_NZ_Topo50_Gridless_Maps",
        "toilets": "yes",
        "toilets:disposal": "pitlatrine",
        "tourism": "wilderness_hut",
        "website": "https://doc.govt.nz/link/1d4a8f4b84bb409e9680666883b763a4"
      }
    },
    {
      "type": "node",
      "id": 4933492558,
      "lat": -43.7295555,
      "lon": 169.93961,
      "timestamp": "2021-09-26T01:34:09Z",
      "version": 2,
      "changeset": 111704976,
      "user": "kylenz_linz",
      "uid": 8389777,
      "tags": {
        "direction": "312",
        "ele": "1530",
        "name": "Karangarua Saddle",
        "natural": "saddle",
        "ref:linz:topo50_id": "3338684",
        "source": "LINZ_NZ_Topo50_Gridless_Maps"
      }
    },
    {
      "type": "node",
      "id": 4933492567,
      "lat": -43.7209028,
      "lon": 169.9703374,
      "timestamp": "2021-09-26T01:34:09Z",
      "version": 2,
      "changeset": 111704976,
      "user": "kylenz_linz",
      "uid": 8389777,
      "tags": {
        "direction": "33",
        "ele": "1650",
        "name": "Douglas Pass",
        "natural": "saddle",
        "ref:linz:topo50_id": "3338679",
        "source": "LINZ_NZ_Topo50_Gridless_Maps"
      }
    },
    {
      "type": "node",
      "id": 4933509352,
      "lat": -43.6306692,
      "lon": 169.7871379,
      "timestamp": "2020-12-07T00:13:34Z",
      "version": 2,
      "changeset": 95385074,
      "user": "pizzaiolo",
      "uid": 1772368,
      "tags": {
        "ele": "1576",
        "name": "The Bump",
        "natural": "peak",
        "source": "LINZ_NZ_Topo50_Gridless_Maps",
        "wikidata": "Q31668236"
      }
    },
    {
      "type": "node",
      "id": 4933509353,
      "lat": -43.6200792,
      "lon": 169.783061,
      "timestamp": "2020-12-07T00:13:31Z",
      "version": 2,
      "changeset": 95385074,
      "user": "pizzaiolo",
      "uid": 1772368,
      "tags": {
        "ele": "1584",
        "name": "Grey Top",
        "natural": "peak",
        "source": "LINZ_NZ_Topo50_Gridless_Maps",
        "wikidata": "Q31666888"
      }
    },
    {
      "type": "node",
      "id": 4933509354,
      "lat": -43.6895638,
      "lon": 169.8038749,
      "timestamp": "2020-12-07T00:13:32Z",
      "version": 2,
      "changeset": 95385074,
      "user": "pizzaiolo",
      "uid": 1772368,
      "tags": {
        "ele": "1920",
        "name": "Mount Glower",
        "natural": "peak",
        "source": "LINZ_NZ_Topo50_Gridless_Maps",
        "wikidata": "Q31667148"
      }
    },
    {
      "type": "node",
      "id": 4933509355,
      "lat": -43.6344571,
      "lon": 169.7622041,
      "timestamp": "2020-12-07T00:13:06Z",
      "version": 2,
      "changeset": 95385074,
      "user": "pizzaiolo",
      "uid": 1772368,
      "tags": {
        "ele": "1647",
        "name": "West Peak",
        "natural": "peak",
        "source": "LINZ_NZ_Topo50_Gridless_Maps",
        "wikidata": "Q31661780"
      }
    },
    {
      "type": "node",
      "id": 4933509359,
      "lat": -43.6347072,
      "lon": 169.7252969,
      "timestamp": "2020-12-07T00:13:06Z",
      "version": 2,
      "changeset": 95385074,
      "user": "pizzaiolo",
      "uid": 1772368,
      "tags": {
        "ele": "1334",
        "name": "Mount Jacob",
        "natural": "peak",
        "source": "LINZ_NZ_Topo50_Gridless_Maps",
        "wikidata": "Q31661795"
      }
    },
    {
      "type": "node",
      "id": 4933509360,
      "lat": -43.7086329,
      "lon": 169.8278818,
      "timestamp": "2020-12-07T00:13:32Z",
      "version": 2,
      "changeset": 95385074,
      "user": "pizzaiolo",
      "uid": 1772368,
      "tags": {
        "ele": "1728",
        "name": "Jagged Spur",
        "natural": "peak",
        "source": "LINZ_NZ_Topo50_Gridless_Maps",
        "wikidata": "Q31667182"
      }
    },
    {
      "type": "node",
      "id": 4933517257,
      "lat": -43.5937056,
      "lon": 169.9977511,
      "timestamp": "2019-08-10T09:34:26Z",
      "version": 2,
      "changeset": 73216794,
      "user": "ShakyIsles",
      "uid": 1968467,
      "tags": {
        "ele": "2089",
        "name": "The Nick",
        "natural": "peak",
        "source": "LINZ_NZ_Topo50_Gridless_Maps",
        "wikidata": "Q31668846"
      }
    },
    {
      "type": "node",
      "id": 4933517259,
      "lat": -43.597125,
      "lon": 169.9999656,
      "timestamp": "2019-08-02T08:08:19Z",
      "version": 2,
      "changeset": 72927597,
      "user": "ShakyIsles",
      "uid": 1968467,
      "tags": {
        "ele": "2081",
        "name": "The Fang",
        "natural": "peak",
        "source": "LINZ_NZ_Topo50_Gridless_Maps",
        "wikidata": "Q31668829"
      }
    },
    {
      "type": "node",
      "id": 4933517268,
      "lat": -43.5904963,
      "lon": 169.9815441,
      "timestamp": "2019-08-10T09:34:26Z",
      "version": 2,
      "changeset": 73216794,
      "user": "ShakyIsles",
      "uid": 1968467,
      "tags": {
        "ele": "2240",
        "name": "Lyttle Peak",
        "natural": "peak",
        "source": "LINZ_NZ_Topo50_Gridless_Maps",
        "wikidata": "Q31668882"
      }
    },
    {
      "type": "node",
      "id": 4933517273,
      "lat": -43.6216925,
      "lon": 170.0102953,
      "timestamp": "2019-08-02T08:08:19Z",
      "version": 2,
      "changeset": 72927597,
      "user": "ShakyIsles",
      "uid": 1968467,
      "tags": {
        "ele": "1909",
        "name": "Price Peak",
        "natural": "peak",
        "source": "LINZ_NZ_Topo50_Gridless_Maps",
        "wikidata": "Q31668781"
      }
    },
    {
      "type": "node",
      "id": 4933517279,
      "lat": -43.5913744,
      "lon": 169.991228,
      "timestamp": "2019-08-10T09:34:26Z",
      "version": 2,
      "changeset": 73216794,
      "user": "ShakyIsles",
      "uid": 1968467,
      "tags": {
        "ele": "2089",
        "name": "Dent Noire",
        "natural": "peak",
        "source": "LINZ_NZ_Topo50_Gridless_Maps",
        "wikidata": "Q31668864"
      }
    },
    {
      "type": "node",
      "id": 4933517311,
      "lat": -43.5992984,
      "lon": 170.0265924,
      "timestamp": "2019-08-10T09:34:26Z",
      "version": 2,
      "changeset": 73216794,
      "user": "ShakyIsles",
      "uid": 1968467,
      "tags": {
        "ele": "2326",
        "name": "Mount Copland",
        "natural": "peak",
        "source": "LINZ_NZ_Topo50_Gridless_Maps",
        "wikidata": "Q31702954"
      }
    },
    {
      "type": "node",
      "id": 4963173406,
      "lat": -43.6077583,
      "lon": 169.5896055,
      "timestamp": "2018-05-26T12:31:16Z",
      "version": 2,
      "changeset": 59293180,
      "user": "andrew_dc",
      "uid": 1833351,
      "tags": {
        "name": "Bruce Bay",
        "name:mi": "Maitahi",
        "place": "hamlet"
      }
    },
    {
      "type": "node",
      "id": 4963310723,
      "lat": -43.6803931,
      "lon": 169.7133404,
      "timestamp": "2020-12-07T00:13:06Z",
      "version": 2,
      "changeset": 95385074,
      "user": "pizzaiolo",
      "uid": 1772368,
      "tags": {
        "ele": "1815",
        "name": "Mount Hermann",
        "natural": "peak",
        "source": "LINZ_NZ_Topo50_Gridless_Maps",
        "wikidata": "Q31661704"
      }
    },
    {
      "type": "node",
      "id": 4963361196,
      "lat": -43.7068573,
      "lon": 169.8669101,
      "timestamp": "2022-02-07T06:56:25Z",
      "version": 3,
      "changeset": 117104529,
      "user": "kylenz_linz",
      "uid": 8389777,
      "tags": {
        "capacity": "4",
        "drinking_water": "untreated",
        "fireplace": "yes",
        "mattress": "yes",
        "name": "Lame Duck Hut",
        "operator": "Department of Conservation",
        "operator:wikidata": "Q1191417",
        "operator:wikipedia": "en:Department of Conservation (New Zealand)",
        "ref:doc": "100081613",
        "ref:linz:topo50_id": "5395043",
        "reservation": "no",
        "source": "LINZ_NZ_Topo50_Gridless_Maps",
        "toilets": "yes",
        "toilets:disposal": "pitlatrine",
        "tourism": "wilderness_hut",
        "website": "https://doc.govt.nz/link/9a0dd08fb50a41a2a77c40e9eda99fc4"
      }
    },
    {
      "type": "node",
      "id": 4963361668,
      "lat": -43.7181873,
      "lon": 169.9085197,
      "timestamp": "2022-02-07T06:56:25Z",
      "version": 3,
      "changeset": 117104529,
      "user": "kylenz_linz",
      "uid": 8389777,
      "tags": {
        "capacity": "4",
        "drinking_water": "no",
        "fireplace": "yes",
        "mattress": "yes",
        "name": "Christmas Flat Hut",
        "operator": "Department of Conservation",
        "operator:wikidata": "Q1191417",
        "operator:wikipedia": "en:Department of Conservation (New Zealand)",
        "ref:doc": "100059653",
        "ref:linz:topo50_id": "5395010",
        "reservation": "no",
        "source": "LINZ_NZ_Topo50_Gridless_Maps",
        "toilets": "yes",
        "toilets:disposal": "pitlatrine",
        "tourism": "wilderness_hut",
        "website": "https://doc.govt.nz/link/00b22656ec2e487aac2baf171c7f82ae"
      }
    },
    {
      "type": "node",
      "id": 4963361693,
      "lat": -43.6666328,
      "lon": 169.8560536,
      "timestamp": "2019-08-03T00:24:49Z",
      "version": 3,
      "changeset": 72959561,
      "user": "ShakyIsles",
      "uid": 1968467,
      "tags": {
        "ele": "1222",
        "name": "Conical Hill",
        "natural": "peak",
        "source": "LINZ_NZ_Topo50_Gridless_Maps",
        "wikidata": "Q31646144"
      }
    },
    {
      "type": "node",
      "id": 4963361709,
      "lat": -43.6584972,
      "lon": 169.826855,
      "timestamp": "2022-02-07T06:56:25Z",
      "version": 3,
      "changeset": 117104529,
      "user": "kylenz_linz",
      "uid": 8389777,
      "tags": {
        "capacity": "6",
        "drinking_water": "untreated",
        "fireplace": "yes",
        "mattress": "yes",
        "name": "Cassel Flat Hut",
        "operator": "Department of Conservation",
        "operator:wikidata": "Q1191417",
        "operator:wikipedia": "en:Department of Conservation (New Zealand)",
        "ref:doc": "100059656",
        "ref:linz:topo50_id": "5395089",
        "reservation": "no",
        "source": "LINZ_NZ_Topo50_Gridless_Maps",
        "toilets": "yes",
        "toilets:disposal": "pitlatrine",
        "tourism": "wilderness_hut",
        "website": "https://doc.govt.nz/link/1f1295a7d0404adba54d21c4ac9b5975"
      }
    },
    {
      "type": "node",
      "id": 4963365267,
      "lat": -43.6357675,
      "lon": 169.8702156,
      "timestamp": "2019-08-03T00:42:07Z",
      "version": 2,
      "changeset": 72959692,
      "user": "ShakyIsles",
      "uid": 1968467,
      "tags": {
        "ele": "1594",
        "name": "Misty Peak",
        "natural": "peak",
        "source": "LINZ_NZ_Topo50_Gridless_Maps",
        "wikidata": "Q32279209"
      }
    },
    {
      "type": "node",
      "id": 4963365268,
      "lat": -43.6480581,
      "lon": 169.8544206,
      "timestamp": "2019-08-03T00:42:07Z",
      "version": 2,
      "changeset": 72959692,
      "user": "ShakyIsles",
      "uid": 1968467,
      "tags": {
        "ele": "1198",
        "name": "Cassel Hill",
        "natural": "peak",
        "source": "LINZ_NZ_Topo50_Gridless_Maps",
        "wikidata": "Q31666922"
      }
    },
    {
      "type": "node",
      "id": 4963365269,
      "lat": -43.6338728,
      "lon": 169.8922312,
      "timestamp": "2019-08-03T00:42:07Z",
      "version": 2,
      "changeset": 72959692,
      "user": "ShakyIsles",
      "uid": 1968467,
      "tags": {
        "ele": "1639",
        "name": "Mount Vexation",
        "natural": "peak",
        "source": "LINZ_NZ_Topo50_Gridless_Maps",
        "wikidata": "Q31668368"
      }
    },
    {
      "type": "node",
      "id": 4968311442,
      "lat": -44.0338316,
      "lon": 170.0318771,
      "timestamp": "2020-12-07T00:13:38Z",
      "version": 2,
      "changeset": 95385074,
      "user": "pizzaiolo",
      "uid": 1772368,
      "tags": {
        "ele": "2200",
        "name": "Mackenzies Peak",
        "natural": "peak",
        "source": "LINZ_NZ_Topo50_Gridless_Maps",
        "wikidata": "Q31670050"
      }
    },
    {
      "type": "node",
      "id": 4968311443,
      "lat": -44.0736804,
      "lon": 169.9507242,
      "timestamp": "2020-12-07T00:13:51Z",
      "version": 2,
      "changeset": 95385074,
      "user": "pizzaiolo",
      "uid": 1772368,
      "tags": {
        "ele": "2263",
        "name": "Backbone Peak",
        "natural": "peak",
        "source": "LINZ_NZ_Topo50_Gridless_Maps",
        "wikidata": "Q31671045"
      }
    },
    {
      "type": "node",
      "id": 5369941621,
      "lat": -43.6809258,
      "lon": 170.115871,
      "timestamp": "2022-01-06T06:11:33Z",
      "version": 2,
      "changeset": 115822223,
      "user": "kylenz",
      "uid": 10140394,
      "tags": {
        "backcountry": "yes",
        "fixme": "not a campsite. just a flat area. needs a different tag",
        "name": "Bivouac site",
        "tourism": "camp_site"
      }
    },
    {
      "type": "node",
      "id": 5752721440,
      "lat": -43.7444896,
      "lon": 169.9877942,
      "timestamp": "2021-09-26T01:34:09Z",
      "version": 2,
      "changeset": 111704976,
      "user": "kylenz_linz",
      "uid": 8389777,
      "tags": {
        "direction": "335",
        "ele": "2653",
        "name": "Bernard Col",
        "natural": "saddle",
        "ref:linz:topo50_id": "3338686"
      }
    },
    {
      "type": "node",
      "id": 5752755025,
      "lat": -43.7366457,
      "lon": 170.060892,
      "timestamp": "2021-09-26T01:34:09Z",
      "version": 3,
      "changeset": 111704976,
      "user": "kylenz_linz",
      "uid": 8389777,
      "tags": {
        "direction": "101",
        "ele": "1931",
        "name": "Waihi Pass",
        "name:mi": "Waihi",
        "natural": "saddle",
        "ref:linz:topo50_id": "3338697"
      }
    },
    {
      "type": "node",
      "id": 5753193198,
      "lat": -43.6112126,
      "lon": 170.0973561,
      "timestamp": "2021-09-26T01:34:09Z",
      "version": 3,
      "changeset": 111704976,
      "user": "kylenz_linz",
      "uid": 8389777,
      "tags": {
        "direction": "73",
        "ele": "2192",
        "name": "Baker Saddle",
        "natural": "saddle",
        "ref:linz:topo50_id": "3338703",
        "wikidata": "Q32124481"
      }
    },
    {
      "type": "node",
      "id": 5753211523,
      "lat": -43.6176077,
      "lon": 170.1437717,
      "timestamp": "2021-09-26T01:34:09Z",
      "version": 3,
      "changeset": 111704976,
      "user": "kylenz_linz",
      "uid": 8389777,
      "tags": {
        "direction": "84",
        "ele": "2819",
        "name": "Endeavour Col",
        "natural": "saddle",
        "ref:linz:topo50_id": "3338706",
        "wikidata": "Q32193381"
      }
    },
    {
      "type": "node",
      "id": 6136199486,
      "lat": -43.8564282,
      "lon": 170.1097367,
      "timestamp": "2018-12-14T02:04:26Z",
      "version": 1,
      "changeset": 65459598,
      "user": "Sama Magham",
      "uid": 3782180,
      "tags": {
        "name": "Freedom Camping for Self Contained Vehicles",
        "tourism": "camp_site"
      }
    },
    {
      "type": "node",
      "id": 6241210934,
      "lat": -43.8029177,
      "lon": 169.999232,
      "timestamp": "2022-02-07T06:56:25Z",
      "version": 2,
      "changeset": 117104529,
      "user": "kylenz_linz",
      "uid": 8389777,
      "tags": {
        "drinking_water": "untreated",
        "fireplace": "no",
        "mattress": "yes",
        "name": "Reardon Hut",
        "operator": "Department of Conservation",
        "operator:wikidata": "Q1191417",
        "operator:wikipedia": "en:Department of Conservation (New Zealand)",
        "ref:doc": "100034567",
        "ref:linz:topo50_id": "5395454",
        "reservation": "no",
        "toilets": "yes",
        "toilets:disposal": "pitlatrine",
        "tourism": "wilderness_hut",
        "website": "https://doc.govt.nz/link/fa6650a6b8df451abf39521fce25afe6"
      }
    },
    {
      "type": "node",
      "id": 6243884680,
      "lat": -43.5947123,
      "lon": 170.1217487,
      "timestamp": "2022-02-07T06:56:25Z",
      "version": 2,
      "changeset": 117104529,
      "user": "kylenz_linz",
      "uid": 8389777,
      "tags": {
        "drinking_water": "untreated",
        "fireplace": "no",
        "lit": "yes",
        "mattress": "yes",
        "name": "Empress Hut",
        "operator": "Department of Conservation",
        "operator:wikidata": "Q1191417",
        "operator:wikipedia": "en:Department of Conservation (New Zealand)",
        "ref:doc": "100075442",
        "ref:linz:topo50_id": "5395550",
        "reservation": "no",
        "toilets": "yes",
        "toilets:disposal": "pitlatrine",
        "tourism": "wilderness_hut",
        "website": "https://doc.govt.nz/link/9fabebbbdb81409bbbdac83f63a7206c"
      }
    },
    {
      "type": "node",
      "id": 6243884681,
      "lat": -43.7601752,
      "lon": 170.0001139,
      "timestamp": "2022-02-07T06:56:25Z",
      "version": 2,
      "changeset": 117104529,
      "user": "kylenz_linz",
      "uid": 8389777,
      "tags": {
        "drinking_water": "untreated",
        "fireplace": "no",
        "mattress": "yes",
        "name": "Barron Saddle Hut",
        "operator": "Department of Conservation",
        "operator:wikidata": "Q1191417",
        "operator:wikipedia": "en:Department of Conservation (New Zealand)",
        "ref:doc": "100075440",
        "ref:linz:topo50_id": "5395403",
        "reservation": "no",
        "toilets": "yes",
        "toilets:disposal": "pitlatrine",
        "tourism": "wilderness_hut",
        "website": "https://doc.govt.nz/link/4a0ca61987fd46d782ff266008d7536a"
      }
    },
    {
      "type": "node",
      "id": 6257406949,
      "lat": -44.0488934,
      "lon": 169.619819,
      "timestamp": "2022-02-07T06:56:25Z",
      "version": 2,
      "changeset": 117104529,
      "user": "kylenz_linz",
      "uid": 8389777,
      "tags": {
        "drinking_water": "no",
        "fireplace": "yes",
        "mattress": "yes",
        "name": "Forbes Hut",
        "operator": "Department of Conservation",
        "operator:wikidata": "Q1191417",
        "operator:wikipedia": "en:Department of Conservation (New Zealand)",
        "ref:doc": "100059029",
        "ref:linz:topo50_id": "5394208",
        "reservation": "no",
        "toilets": "yes",
        "toilets:disposal": "pitlatrine",
        "tourism": "wilderness_hut",
        "website": "https://doc.govt.nz/link/65eb9a4f5e9141d3b5dd7cda38f534a6"
      }
    },
    {
      "type": "node",
      "id": 6257406954,
      "lat": -43.8960632,
      "lon": 169.8791029,
      "timestamp": "2022-02-07T06:56:25Z",
      "version": 2,
      "changeset": 117104529,
      "user": "kylenz_linz",
      "uid": 8389777,
      "tags": {
        "drinking_water": "untreated",
        "fireplace": "yes",
        "mattress": "yes",
        "name": "Dodger Hut",
        "operator": "Department of Conservation",
        "operator:wikidata": "Q1191417",
        "operator:wikipedia": "en:Department of Conservation (New Zealand)",
        "ref:doc": "100034563",
        "ref:linz:topo50_id": "5394832",
        "reservation": "no",
        "toilets": "yes",
        "toilets:disposal": "pitlatrine",
        "tourism": "wilderness_hut",
        "website": "https://doc.govt.nz/link/d6739097b1644ee492abb475f13476db"
      }
    },
    {
      "type": "node",
      "id": 6260548765,
      "lat": -43.8237306,
      "lon": 169.4553331,
      "timestamp": "2022-02-07T06:56:25Z",
      "version": 2,
      "changeset": 117104529,
      "user": "kylenz_linz",
      "uid": 8389777,
      "tags": {
        "drinking_water": "no",
        "fireplace": "yes",
        "mattress": "yes",
        "name": "Middle Head Hut",
        "operator": "Department of Conservation",
        "operator:wikidata": "Q1191417",
        "operator:wikipedia": "en:Department of Conservation (New Zealand)",
        "ref:doc": "100060433",
        "ref:linz:topo50_id": "5394676",
        "reservation": "no",
        "toilets": "yes",
        "toilets:disposal": "pitlatrine",
        "tourism": "wilderness_hut",
        "website": "https://doc.govt.nz/link/a7c1f61044484635a283b70ae51a5dc9"
      }
    },
    {
      "type": "node",
      "id": 6317285885,
      "lat": -43.7096426,
      "lon": 169.4965244,
      "timestamp": "2019-03-05T01:26:15Z",
      "version": 1,
      "changeset": 67787641,
      "user": "PtitAngeSun",
      "uid": 8846515,
      "tags": {
        "name": "Salmon farm camping grounds",
        "tourism": "camp_site"
      }
    },
    {
      "type": "node",
      "id": 6548920555,
      "lat": -43.5909655,
      "lon": 170.1408506,
      "timestamp": "2021-09-26T01:34:09Z",
      "version": 4,
      "changeset": 111704976,
      "user": "kylenz_linz",
      "uid": 8389777,
      "tags": {
        "direction": "67",
        "ele": "3348",
        "name": "Green Saddle",
        "natural": "saddle",
        "ref:linz:topo50_id": "3338708",
        "wikidata": "Q32212828"
      }
    },
    {
      "type": "node",
      "id": 6548956026,
      "lat": -43.6866799,
      "lon": 170.1356228,
      "timestamp": "2021-09-26T01:34:09Z",
      "version": 3,
      "changeset": 111704976,
      "user": "kylenz_linz",
      "uid": 8389777,
      "tags": {
        "direction": "96",
        "ele": "1882",
        "name": "Billiken Pass",
        "natural": "saddle",
        "ref:linz:topo50_id": "3338711",
        "wikidata": "Q32130187"
      }
    },
    {
      "type": "node",
      "id": 6583665233,
      "lat": -43.6538273,
      "lon": 170.0940741,
      "timestamp": "2021-09-26T01:34:09Z",
      "version": 4,
      "changeset": 111704976,
      "user": "kylenz_linz",
      "uid": 8389777,
      "tags": {
        "direction": "84",
        "ele": "2150",
        "name": "Copland Pass",
        "name:mi": "Noti Hinetamatea",
        "natural": "saddle",
        "ref:linz:topo50_id": "3338700",
        "wikidata": "Q28180490",
        "wikipedia": "en:Copland Pass"
      }
    },
    {
      "type": "node",
      "id": 6583665236,
      "lat": -43.8787056,
      "lon": 170.0242373,
      "timestamp": "2019-08-01T08:09:23Z",
      "version": 2,
      "changeset": 72886286,
      "user": "ShakyIsles",
      "uid": 1968467,
      "tags": {
        "ele": "2557",
        "name": "Mauka Atua",
        "name:mi": "Mauka Atua",
        "natural": "peak",
        "wikidata": "Q31670349"
      }
    },
    {
      "type": "node",
      "id": 6583665237,
      "lat": -43.8808195,
      "lon": 170.027114,
      "timestamp": "2019-08-01T08:09:50Z",
      "version": 2,
      "changeset": 72886311,
      "user": "ShakyIsles",
      "uid": 1968467,
      "tags": {
        "ele": "2542",
        "name": "Kai Tarau",
        "name:mi": "Kai Tarau",
        "natural": "peak",
        "wikidata": "Q32182946"
      }
    },
    {
      "type": "node",
      "id": 6586147703,
      "lat": -43.5853565,
      "lon": 169.8820701,
      "timestamp": "2021-09-26T01:34:09Z",
      "version": 2,
      "changeset": 111704976,
      "user": "kylenz_linz",
      "uid": 8389777,
      "tags": {
        "direction": "113",
        "ele": "1263",
        "name": "Waka Mara",
        "name:mi": "Waka Mara",
        "natural": "saddle",
        "ref:linz:topo50_id": "3338690"
      }
    },
    {
      "type": "node",
      "id": 6586147718,
      "lat": -43.9590336,
      "lon": 169.7193418,
      "timestamp": "2021-10-25T22:17:34Z",
      "version": 4,
      "changeset": 112969213,
      "user": "Binnette",
      "uid": 918586,
      "tags": {
        "direction": "335",
        "ele": "1386",
        "name": "Brodrick Pass",
        "name:mi": "Tarahaka Tirau",
        "natural": "saddle",
        "ref:linz:topo50_id": "3338667",
        "wikidata": "Q32141229"
      }
    },
    {
      "type": "node",
      "id": 6638819563,
      "lat": -43.9812937,
      "lon": 169.582564,
      "timestamp": "2021-09-26T01:34:09Z",
      "version": 2,
      "changeset": 111704976,
      "user": "kylenz_linz",
      "uid": 8389777,
      "tags": {
        "direction": "56",
        "ele": "1868",
        "name": "Upper Studholme Pass",
        "natural": "saddle",
        "ref:linz:topo50_id": "3338662",
        "wikidata": "Q49159393"
      }
    },
    {
      "type": "node",
      "id": 6639131214,
      "lat": -43.9739995,
      "lon": 169.5864805,
      "timestamp": "2021-09-26T01:34:09Z",
      "version": 2,
      "changeset": 111704976,
      "user": "kylenz_linz",
      "uid": 8389777,
      "tags": {
        "direction": "119",
        "ele": "1730",
        "name": "Lower Studholme Pass",
        "natural": "saddle",
        "ref:linz:topo50_id": "3338664",
        "wikidata": "Q32249166"
      }
    },
    {
      "type": "node",
      "id": 6662832526,
      "lat": -43.9293878,
      "lon": 169.7588112,
      "timestamp": "2021-09-26T01:34:09Z",
      "version": 3,
      "changeset": 111704976,
      "user": "kylenz_linz",
      "uid": 8389777,
      "tags": {
        "direction": "84",
        "ele": "2071",
        "name": "Fraser Col",
        "natural": "saddle",
        "ref:linz:topo50_id": "3338666",
        "wikidata": "Q32202845"
      }
    },
    {
      "type": "node",
      "id": 6662832534,
      "lat": -43.9148703,
      "lon": 169.7622243,
      "timestamp": "2021-09-26T01:34:09Z",
      "version": 2,
      "changeset": 111704976,
      "user": "kylenz_linz",
      "uid": 8389777,
      "tags": {
        "direction": "101",
        "ele": "2022",
        "name": "Surveyors Col",
        "natural": "saddle",
        "ref:linz:topo50_id": "3338668",
        "wikidata": "Q49156750"
      }
    },
    {
      "type": "node",
      "id": 6663110134,
      "lat": -43.9037674,
      "lon": 169.7695836,
      "timestamp": "2021-09-26T01:34:09Z",
      "version": 2,
      "changeset": 111704976,
      "user": "kylenz_linz",
      "uid": 8389777,
      "tags": {
        "direction": "96",
        "ele": "1972",
        "name": "Chloe Col",
        "natural": "saddle",
        "ref:linz:topo50_id": "3338669",
        "wikidata": "Q32159595"
      }
    },
    {
      "type": "node",
      "id": 6665163152,
      "lat": -43.8219657,
      "lon": 169.9583899,
      "timestamp": "2021-09-26T01:34:09Z",
      "version": 2,
      "changeset": 111704976,
      "user": "kylenz_linz",
      "uid": 8389777,
      "tags": {
        "direction": "136",
        "ele": "2034",
        "name": "Tragedy Col",
        "natural": "saddle",
        "ref:linz:topo50_id": "3338675",
        "wikidata": "Q49158356"
      }
    },
    {
      "type": "node",
      "id": 6665163166,
      "lat": -43.7988943,
      "lon": 169.973106,
      "timestamp": "2021-09-26T01:34:09Z",
      "version": 2,
      "changeset": 111704976,
      "user": "kylenz_linz",
      "uid": 8389777,
      "tags": {
        "direction": "33",
        "name": "Faith Col",
        "natural": "saddle",
        "ref:linz:topo50_id": "3338683"
      }
    },
    {
      "type": "node",
      "id": 6665217905,
      "lat": -43.8764138,
      "lon": 169.8063563,
      "timestamp": "2021-09-26T01:34:09Z",
      "version": 2,
      "changeset": 111704976,
      "user": "kylenz_linz",
      "uid": 8389777,
      "tags": {
        "direction": "136",
        "ele": "1941",
        "name": "Elcho Pass",
        "natural": "saddle",
        "ref:linz:topo50_id": "3338673"
      }
    },
    {
      "type": "node",
      "id": 6668234023,
      "lat": -43.789362,
      "lon": 169.9597874,
      "timestamp": "2021-10-25T21:53:28Z",
      "version": 3,
      "changeset": 112968701,
      "user": "Binnette",
      "uid": 918586,
      "tags": {
        "direction": "33",
        "ele": "2440",
        "name": "Hope Col",
        "natural": "saddle",
        "ref:linz:topo50_id": "3338682",
        "wikidata": "Q32223772"
      }
    },
    {
      "type": "node",
      "id": 6668234048,
      "lat": -43.7965286,
      "lon": 169.9363677,
      "timestamp": "2021-09-26T01:34:09Z",
      "version": 2,
      "changeset": 111704976,
      "user": "kylenz_linz",
      "uid": 8389777,
      "tags": {
        "direction": "119",
        "ele": "2099",
        "name": "Mockery Col",
        "natural": "saddle",
        "ref:linz:topo50_id": "3338677",
        "wikidata": "Q32279777"
      }
    },
    {
      "type": "node",
      "id": 6668258673,
      "lat": -43.804377,
      "lon": 169.9203653,
      "timestamp": "2021-09-26T01:34:09Z",
      "version": 2,
      "changeset": 111704976,
      "user": "kylenz_linz",
      "uid": 8389777,
      "tags": {
        "direction": "136",
        "ele": "2021",
        "name": "Charity Col",
        "natural": "saddle",
        "ref:linz:topo50_id": "3338674"
      }
    },
    {
      "type": "node",
      "id": 6668825149,
      "lat": -43.7610146,
      "lon": 169.9921464,
      "timestamp": "2021-09-26T01:34:09Z",
      "version": 2,
      "changeset": 111704976,
      "user": "kylenz_linz",
      "uid": 8389777,
      "tags": {
        "direction": "353",
        "ele": "1992",
        "name": "Barron Saddle",
        "natural": "saddle",
        "ref:linz:topo50_id": "3338681",
        "wikidata": "Q32125738"
      }
    },
    {
      "type": "node",
      "id": 6668825178,
      "lat": -43.7618943,
      "lon": 170.0513589,
      "timestamp": "2021-09-26T01:34:09Z",
      "version": 2,
      "changeset": 111704976,
      "user": "kylenz_linz",
      "uid": 8389777,
      "tags": {
        "direction": "113",
        "ele": "2484;2428",
        "name": "Barrow Col",
        "natural": "saddle",
        "ref:linz:topo50_id": "3338694",
        "wikidata": "Q32125768"
      }
    },
    {
      "type": "node",
      "id": 6668856127,
      "lat": -43.7553456,
      "lon": 169.9804167,
      "timestamp": "2021-09-26T01:34:09Z",
      "version": 2,
      "changeset": 111704976,
      "user": "kylenz_linz",
      "uid": 8389777,
      "tags": {
        "direction": "44",
        "ele": "2226",
        "name": "Fyfe Pass",
        "natural": "saddle",
        "ref:linz:topo50_id": "3338678"
      }
    },
    {
      "type": "node",
      "id": 6669534407,
      "lat": -43.8037354,
      "lon": 170.0529502,
      "timestamp": "2019-08-01T08:09:23Z",
      "version": 1,
      "changeset": 72886286,
      "user": "ShakyIsles",
      "uid": 1968467,
      "tags": {
        "ele": "2444",
        "name": "Mount Cran",
        "natural": "peak",
        "wikidata": "Q31670297"
      }
    },
    {
      "type": "node",
      "id": 6669534421,
      "lat": -43.7864773,
      "lon": 170.0508582,
      "timestamp": "2021-09-26T01:34:09Z",
      "version": 2,
      "changeset": 111704976,
      "user": "kylenz_linz",
      "uid": 8389777,
      "tags": {
        "direction": "124",
        "ele": "2183",
        "name": "Jamieson Saddle",
        "natural": "saddle",
        "ref:linz:topo50_id": "3338698"
      }
    },
    {
      "type": "node",
      "id": 6669534430,
      "lat": -43.7776463,
      "lon": 170.0641027,
      "timestamp": "2019-08-01T08:09:23Z",
      "version": 1,
      "changeset": 72886286,
      "user": "ShakyIsles",
      "uid": 1968467,
      "tags": {
        "ele": "2379",
        "name": "Mount Edgar Thomson",
        "natural": "peak",
        "wikidata": "Q31667661"
      }
    },
    {
      "type": "node",
      "id": 6669662783,
      "lat": -43.7409681,
      "lon": 170.0033122,
      "timestamp": "2021-09-26T01:34:09Z",
      "version": 2,
      "changeset": 111704976,
      "user": "kylenz_linz",
      "uid": 8389777,
      "tags": {
        "direction": "358",
        "ele": "2452",
        "name": "Christopher Col",
        "natural": "saddle",
        "ref:linz:topo50_id": "3338692"
      }
    },
    {
      "type": "node",
      "id": 6673306992,
      "lat": -43.6364907,
      "lon": 170.1471589,
      "timestamp": "2021-09-26T01:34:09Z",
      "version": 2,
      "changeset": 111704976,
      "user": "kylenz_linz",
      "uid": 8389777,
      "tags": {
        "direction": "79",
        "ele": "2222",
        "name": "Proud Pass",
        "natural": "saddle",
        "ref:linz:topo50_id": "3338705",
        "wikidata": "Q49146619"
      }
    },
    {
      "type": "node",
      "id": 6673306996,
      "lat": -43.6066009,
      "lon": 170.1420031,
      "timestamp": "2021-09-26T01:34:09Z",
      "version": 2,
      "changeset": 111704976,
      "user": "kylenz_linz",
      "uid": 8389777,
      "tags": {
        "direction": "147",
        "ele": "3546",
        "name": "Porter Col",
        "natural": "saddle",
        "ref:linz:topo50_id": "3338707",
        "wikidata": "Q49146536"
      }
    },
    {
      "type": "node",
      "id": 6673516474,
      "lat": -43.6584203,
      "lon": 170.0916713,
      "timestamp": "2019-08-02T07:37:18Z",
      "version": 1,
      "changeset": 72926468,
      "user": "ShakyIsles",
      "uid": 1968467,
      "tags": {
        "ele": "2109",
        "name": "Fitzgerald Pass",
        "natural": "saddle",
        "wikidata": "Q32198693"
      }
    },
    {
      "type": "node",
      "id": 6673518194,
      "lat": -43.6805137,
      "lon": 170.050968,
      "timestamp": "2021-09-26T01:34:09Z",
      "version": 2,
      "changeset": 111704976,
      "user": "kylenz_linz",
      "uid": 8389777,
      "tags": {
        "direction": "335",
        "ele": "2662",
        "name": "Tuckett Col",
        "natural": "saddle",
        "ref:linz:topo50_id": "3338709",
        "wikidata": "Q49158888"
      }
    },
    {
      "type": "node",
      "id": 6673518204,
      "lat": -43.726621,
      "lon": 170.0251976,
      "timestamp": "2021-09-26T01:34:09Z",
      "version": 2,
      "changeset": 111704976,
      "user": "kylenz_linz",
      "uid": 8389777,
      "tags": {
        "direction": "318",
        "ele": "2375",
        "name": "Twain Col",
        "natural": "saddle",
        "ref:linz:topo50_id": "3338695",
        "wikidata": "Q49159115"
      }
    },
    {
      "type": "node",
      "id": 6673518217,
      "lat": -43.7007173,
      "lon": 170.0274653,
      "timestamp": "2021-09-26T01:34:09Z",
      "version": 2,
      "changeset": 111704976,
      "user": "kylenz_linz",
      "uid": 8389777,
      "tags": {
        "direction": "96",
        "ele": "2464",
        "name": "Brunner Col",
        "natural": "saddle",
        "ref:linz:topo50_id": "3338696"
      }
    },
    {
      "type": "node",
      "id": 6673575905,
      "lat": -43.6172736,
      "lon": 170.0233209,
      "timestamp": "2021-09-26T01:34:09Z",
      "version": 2,
      "changeset": 111704976,
      "user": "kylenz_linz",
      "uid": 8389777,
      "tags": {
        "direction": "130",
        "ele": "1642",
        "name": "Darkwater Saddle",
        "natural": "saddle",
        "ref:linz:topo50_id": "3338701",
        "wikidata": "Q32173490"
      }
    },
    {
      "type": "node",
      "id": 6677761548,
      "lat": -43.6752323,
      "lon": 169.9755103,
      "timestamp": "2021-09-26T01:34:09Z",
      "version": 2,
      "changeset": 111704976,
      "user": "kylenz_linz",
      "uid": 8389777,
      "tags": {
        "direction": "335",
        "ele": "2247",
        "name": "Lucy Walker Pass",
        "natural": "saddle",
        "ref:linz:topo50_id": "3338688",
        "wikidata": "Q32249420"
      }
    },
    {
      "type": "node",
      "id": 6677761562,
      "lat": -43.6584688,
      "lon": 169.9431092,
      "timestamp": "2021-09-26T01:34:09Z",
      "version": 2,
      "changeset": 111704976,
      "user": "kylenz_linz",
      "uid": 8389777,
      "tags": {
        "direction": "21",
        "ele": "2118",
        "name": "New Year Pass",
        "natural": "saddle",
        "ref:linz:topo50_id": "3338689",
        "wikidata": "Q32295028"
      }
    },
    {
      "type": "node",
      "id": 6678039777,
      "lat": -43.7033142,
      "lon": 169.9201547,
      "timestamp": "2021-11-25T08:38:22Z",
      "version": 2,
      "changeset": 114211159,
      "user": "kylenz_linz",
      "uid": 8389777,
      "tags": {
        "direction": "33",
        "ele": "1570",
        "name": "Red Deer Col",
        "natural": "saddle",
        "ref:linz:topo50_id": "3338680",
        "wikidata": "Q49150080"
      }
    },
    {
      "type": "node",
      "id": 6698682598,
      "lat": -43.606112,
      "lon": 170.0582682,
      "timestamp": "2019-08-10T09:34:26Z",
      "version": 1,
      "changeset": 73216794,
      "user": "ShakyIsles",
      "uid": 1968467,
      "tags": {
        "ele": "1877",
        "name": "Cuttance Col",
        "natural": "saddle",
        "wikidata": "Q32171852"
      }
    },
    {
      "type": "node",
      "id": 6698682737,
      "lat": -43.5886968,
      "lon": 170.1194204,
      "timestamp": "2021-09-26T01:34:09Z",
      "version": 2,
      "changeset": 111704976,
      "user": "kylenz_linz",
      "uid": 8389777,
      "tags": {
        "direction": "159",
        "ele": "2585",
        "name": "Harper Saddle",
        "natural": "saddle",
        "ref:linz:topo50_id": "3338713"
      }
    },
    {
      "type": "node",
      "id": 6702248139,
      "lat": -44.0693833,
      "lon": 169.5641525,
      "timestamp": "2019-08-12T07:42:25Z",
      "version": 2,
      "changeset": 73257705,
      "user": "ShakyIsles",
      "uid": 1968467,
      "tags": {
        "ele": "2062",
        "name": "Mount Ferguson",
        "natural": "peak",
        "wikidata": "Q31698842"
      }
    },
    {
      "type": "node",
      "id": 7034977124,
      "lat": -43.7206603,
      "lon": 170.0939592,
      "timestamp": "2020-12-07T00:13:32Z",
      "version": 3,
      "changeset": 95385074,
      "user": "pizzaiolo",
      "uid": 1772368,
      "tags": {
        "ele": "793",
        "name": "Foliage Hill",
        "natural": "peak",
        "wikidata": "Q31667233"
      }
    },
    {
      "type": "node",
      "id": 8663861517,
      "lat": -43.6990945,
      "lon": 170.0926007,
      "timestamp": "2022-02-07T06:56:25Z",
      "version": 2,
      "changeset": 117104529,
      "user": "kylenz_linz",
      "uid": 8389777,
      "tags": {
        "drinking_water": "untreated",
        "fireplace": "yes",
        "kitchen": "yes",
        "mattress": "yes",
        "name": "Hooker Hut",
        "operator": "Department of Conservation",
        "operator:wikidata": "Q1191417",
        "operator:wikipedia": "en:Department of Conservation (New Zealand)",
        "ref:doc": "100063445",
        "reservation": "required",
        "toilets": "yes",
        "toilets:disposal": "pitlatrine",
        "tourism": "wilderness_hut",
        "website": "https://doc.govt.nz/link/064466804b48485f8bfb6b98b82df096"
      }
    },
    {
      "type": "node",
      "id": 9123333304,
      "lat": -43.7576251,
      "lon": 169.9836988,
      "timestamp": "2021-09-26T01:34:09Z",
      "version": 1,
      "changeset": 111704976,
      "user": "kylenz_linz",
      "uid": 8389777,
      "tags": {
        "direction": "56",
        "ele": "2290",
        "name": "Hardies Gut",
        "natural": "saddle",
        "ref:linz:topo50_id": "3338685"
      }
    },
    {
      "type": "node",
      "id": 9123333305,
      "lat": -43.6760446,
      "lon": 169.9544693,
      "timestamp": "2021-09-26T01:34:09Z",
      "version": 1,
      "changeset": 111704976,
      "user": "kylenz_linz",
      "uid": 8389777,
      "tags": {
        "direction": "4",
        "ele": "2214",
        "name": "Wicks Col",
        "natural": "saddle",
        "ref:linz:topo50_id": "3338687"
      }
    },
    {
      "type": "node",
      "id": 9123333306,
      "lat": -43.606112,
      "lon": 170.0582682,
      "timestamp": "2021-09-26T01:34:09Z",
      "version": 1,
      "changeset": 111704976,
      "user": "kylenz_linz",
      "uid": 8389777,
      "tags": {
        "direction": "10",
        "ele": "1877",
        "name": "Cuttance Col",
        "natural": "saddle",
        "ref:linz:topo50_id": "3338702"
      }
    },
    {
      "type": "node",
      "id": 9123333307,
      "lat": -43.6584203,
      "lon": 170.0916713,
      "timestamp": "2021-09-26T01:34:09Z",
      "version": 1,
      "changeset": 111704976,
      "user": "kylenz_linz",
      "uid": 8389777,
      "tags": {
        "direction": "96",
        "ele": "2109",
        "name": "Fitzgerald Pass",
        "natural": "saddle",
        "ref:linz:topo50_id": "3338710"
      }
    },
    {
      "type": "node",
      "id": 9123364424,
      "lat": -44.0839792,
      "lon": 169.7647999,
      "timestamp": "2021-09-26T01:34:09Z",
      "version": 1,
      "changeset": 111704976,
      "user": "kylenz_linz",
      "uid": 8389777,
      "tags": {
        "direction": "33",
        "name": "Gunsight Pass",
        "natural": "saddle",
        "ref:linz:topo50_id": "3338658"
      }
    },
    {
      "type": "node",
      "id": 9123364425,
      "lat": -44.0774176,
      "lon": 169.7007239,
      "timestamp": "2021-09-26T01:34:09Z",
      "version": 1,
      "changeset": 111704976,
      "user": "kylenz_linz",
      "uid": 8389777,
      "tags": {
        "direction": "38",
        "ele": "1884",
        "name": "V Notch Pass",
        "natural": "saddle",
        "ref:linz:topo50_id": "3338657"
      }
    },
    {
      "type": "node",
      "id": 9123364433,
      "lat": -43.8435519,
      "lon": 169.5756217,
      "timestamp": "2021-09-26T01:34:09Z",
      "version": 1,
      "changeset": 111704976,
      "user": "kylenz_linz",
      "uid": 8389777,
      "tags": {
        "direction": "130",
        "ele": "1507",
        "name": "Clarke Pass",
        "natural": "saddle",
        "ref:linz:topo50_id": "3338665"
      }
    },
    {
      "type": "node",
      "id": 9123364434,
      "lat": -43.8417751,
      "lon": 169.6994274,
      "timestamp": "2021-09-26T01:34:09Z",
      "version": 1,
      "changeset": 111704976,
      "user": "kylenz_linz",
      "uid": 8389777,
      "tags": {
        "direction": "358",
        "ele": "1439",
        "name": "Lower Otoko Pass",
        "natural": "saddle",
        "ref:linz:topo50_id": "3338670"
      }
    },
    {
      "type": "node",
      "id": 9123364435,
      "lat": -43.832323,
      "lon": 169.7198378,
      "timestamp": "2021-09-26T01:34:09Z",
      "version": 1,
      "changeset": 111704976,
      "user": "kylenz_linz",
      "uid": 8389777,
      "tags": {
        "direction": "119",
        "ele": "1827",
        "name": "Harker Col",
        "natural": "saddle",
        "ref:linz:topo50_id": "3338672"
      }
    },
    {
      "type": "node",
      "id": 9123364436,
      "lat": -43.8297038,
      "lon": 169.7272706,
      "timestamp": "2021-09-26T01:34:09Z",
      "version": 1,
      "changeset": 111704976,
      "user": "kylenz_linz",
      "uid": 8389777,
      "tags": {
        "direction": "124",
        "ele": "1662",
        "name": "Upper Otoko Pass",
        "natural": "saddle",
        "ref:linz:topo50_id": "3338671"
      }
    },
    {
      "type": "node",
      "id": 9143475167,
      "lat": -43.9562895,
      "lon": 169.8459431,
      "timestamp": "2022-02-09T09:29:08Z",
      "version": 3,
      "changeset": 117193013,
      "user": "kylenz_linz",
      "uid": 8389777,
      "tags": {
        "amenity": "shelter",
        "building": "yes",
        "capacity": "2",
        "drinking_water": "no",
        "fee": "no",
        "fireplace": "yes",
        "mattress": "yes",
        "name": "Dasler Bivouac",
        "operator": "Department of Conservation",
        "operator:wikidata": "Q1191417",
        "operator:wikipedia": "en:Department of Conservation (New Zealand)",
        "ref:doc": "100044464",
        "ref:linz:topo50_id": "5394761",
        "reservation": "no",
        "toilets": "yes",
        "toilets:disposal": "pitlatrine",
        "tourism": "wilderness_hut",
        "website": "https://doc.govt.nz/link/6d8c206cbd0842669e7a4963124ea4a5"
      }
    },
    {
      "type": "node",
      "id": 9491849309,
      "lat": -43.9460087,
      "lon": 170.0856332,
      "timestamp": "2022-02-09T09:29:08Z",
      "version": 1,
      "changeset": 117193013,
      "user": "kylenz_linz",
      "uid": 8389777,
      "tags": {
        "building": "yes",
        "name": "Whale Stream Hut",
        "ref:linz:topo50_id": "5395360",
        "tourism": "wilderness_hut"
      }
    },
    {
      "type": "way",
      "id": 173548596,
      "timestamp": "2022-02-07T06:56:25Z",
      "version": 3,
      "changeset": 117104529,
      "user": "kylenz_linz",
      "uid": 8389777,
      "center": {
        "lat": -43.6305495,
        "lon": 169.9465316
      },
      "nodes": [],
      "tags": {
        "building": "yes",
        "capacity": "31",
        "drinking_water": "untreated",
        "fee": "yes",
        "fireplace": "yes",
        "mattress": "yes",
        "name": "Welcome Flat Hut",
        "operator": "Department of Conservation",
        "operator:wikidata": "Q1191417",
        "operator:wikipedia": "en:Department of Conservation (New Zealand)",
        "ref:doc": "100059655",
        "ref:linz:topo50_id": "5395127",
        "reservation": "required",
        "source": "Bing",
        "toilets": "yes",
        "toilets:disposal": "pitlatrine",
        "tourism": "wilderness_hut",
        "website": "https://doc.govt.nz/link/bbe7f413c0a4462693220dca0d311bd7"
      }
    },
    {
      "type": "way",
      "id": 224846655,
      "timestamp": "2015-02-27T19:49:31Z",
      "version": 3,
      "changeset": 29142977,
      "user": "heinzp",
      "uid": 74799,
      "center": {
        "lat": -43.9143125,
        "lon": 170.1230413
      },
      "nodes": [],
      "tags": {
        "name": "Glentanner Holiday Park",
        "tourism": "camp_site"
      }
    },
    {
      "type": "way",
      "id": 255279443,
      "timestamp": "2017-01-09T02:43:20Z",
      "version": 2,
      "changeset": 45016241,
      "user": "dmo84",
      "uid": 2995200,
      "center": {
        "lat": -43.7369566,
        "lon": 170.0966876
      },
      "nodes": [],
      "tags": {
        "amenity": "shelter",
        "building": "yes",
        "shelter_type": "basic_hut"
      }
    },
    {
      "type": "way",
      "id": 292795756,
      "timestamp": "2020-01-19T10:46:25Z",
      "version": 3,
      "changeset": 79751247,
      "user": "erik15",
      "uid": 2266556,
      "center": {
        "lat": -43.6620811,
        "lon": 170.110186
      },
      "nodes": [],
      "tags": {
        "abandoned": "tourism=alpine_hut",
        "name": "Hooker Hut (removed)",
        "operator": "Department of Conservation",
        "tourism": "alpine_hut"
      }
    },
    {
      "type": "way",
      "id": 293896409,
      "timestamp": "2022-02-07T06:56:25Z",
      "version": 8,
      "changeset": 117104529,
      "user": "kylenz_linz",
      "uid": 8389777,
      "center": {
        "lat": -43.7211073,
        "lon": 170.0645989
      },
      "nodes": [],
      "tags": {
        "beds": "28",
        "building": "yes",
        "drinking_water": "untreated",
        "ele": "1810",
        "fee": "yes",
        "fireplace": "no",
        "internet_access": "no",
        "kitchen": "yes",
        "lit": "yes",
        "mattress": "yes",
        "name": "Mueller Hut",
        "operator": "Department of Conservation",
        "operator:wikidata": "Q1191417",
        "operator:wikipedia": "en:Department of Conservation (New Zealand)",
        "ref:doc": "100040842",
        "ref:linz:topo50_id": "5395445",
        "reservation": "required",
        "smoking": "outside",
        "toilets": "yes",
        "toilets:disposal": "pitlatrine",
        "tourism": "wilderness_hut",
        "website": "https://doc.govt.nz/link/ca3bf5da422f462781809b92757e7278"
      }
    },
    {
      "type": "way",
      "id": 302563950,
      "timestamp": "2022-02-07T06:56:25Z",
      "version": 4,
      "changeset": 117104529,
      "user": "kylenz_linz",
      "uid": 8389777,
      "center": {
        "lat": -43.6876719,
        "lon": 170.0759295
      },
      "nodes": [],
      "tags": {
        "amenity": "shelter",
        "building": "yes",
        "drinking_water": "untreated",
        "fireplace": "no",
        "mattress": "no",
        "name": "Sefton Bivvy",
        "operator": "Department of Conservation",
        "operator:wikidata": "Q1191417",
        "operator:wikipedia": "en:Department of Conservation (New Zealand)",
        "ref:doc": "100063446",
        "ref:linz:topo50_id": "5395562",
        "reservation": "no",
        "shelter_type": "basic_hut",
        "toilets": "yes",
        "toilets:disposal": "pitlatrine",
        "tourism": "wilderness_hut",
        "website": "https://doc.govt.nz/link/1b4054cd45c84813a7a3baa4c27c23c6"
      }
    },
    {
      "type": "way",
      "id": 553042500,
      "timestamp": "2022-02-07T06:56:25Z",
      "version": 4,
      "changeset": 117104529,
      "user": "kylenz_linz",
      "uid": 8389777,
      "center": {
        "lat": -43.9750171,
        "lon": 169.7288373
      },
      "nodes": [],
      "tags": {
        "building": "yes",
        "capacity": "6",
        "drinking_water": "untreated",
        "fee": "yes",
        "fireplace": "yes",
        "mattress": "yes",
        "name": "Brodrick Hut",
        "operator": "Department of Conservation",
        "operator:wikidata": "Q1191417",
        "operator:wikipedia": "en:Department of Conservation (New Zealand)",
        "ref:doc": "100060561",
        "ref:linz:topo50_id": "5394734",
        "reservation": "no",
        "toilets": "yes",
        "toilets:disposal": "pitlatrine",
        "tourism": "wilderness_hut",
        "website": "https://doc.govt.nz/link/4d86ca4c3bf44e258c8aa4fde84fb6b1"
      }
    },
    {
      "type": "way",
      "id": 724699370,
      "timestamp": "2022-02-07T06:56:25Z",
      "version": 2,
      "changeset": 117104529,
      "user": "kylenz_linz",
      "uid": 8389777,
      "center": {
        "lat": -43.9229835,
        "lon": 169.6886947
      },
      "nodes": [],
      "tags": {
        "building": "yes",
        "drinking_water": "untreated",
        "fireplace": "yes",
        "mattress": "yes",
        "name": "Creswicke Flat Hut",
        "operator": "Department of Conservation",
        "operator:wikidata": "Q1191417",
        "operator:wikipedia": "en:Department of Conservation (New Zealand)",
        "ref:doc": "100102372",
        "ref:linz:topo50_id": "5394652",
        "reservation": "no",
        "toilets": "yes",
        "toilets:disposal": "pitlatrine",
        "tourism": "wilderness_hut",
        "website": "https://doc.govt.nz/link/ed049802258f40e9984031722d765040"
      }
    },
    {
      "type": "way",
      "id": 768966834,
      "timestamp": "2022-02-08T08:14:53Z",
      "version": 3,
      "changeset": 117148763,
      "user": "kylenz_linz",
      "uid": 8389777,
      "center": {
        "lat": -43.7181925,
        "lon": 170.0924351
      },
      "nodes": [],
      "tags": {
        "capacity:caravans": "0",
        "capacity:tents": "60",
        "caravans": "yes",
        "description": "Camp beneath magnificent alpine scenery including Mt Sefton. Enjoy a variety of walks from the valley floor to mountain tops.",
        "dog": "no",
        "drinking_water": "yes",
        "internet_access": "no",
        "name": "White Horse Hill Campground",
        "nudism": "no",
        "operator": "Department of Conservation",
        "operator:wikidata": "Q1191417",
        "operator:wikipedia": "en:Department of Conservation (New Zealand)",
        "payment:cryptocurrencies": "no",
        "payment:electronic_purses": "no",
        "ref:doc": "100043563",
        "reservation": "required",
        "sanitary_dump_station": "no",
        "shelter": "yes",
        "tents": "yes",
        "toilets": "yes",
        "toilets:disposal": "flush",
        "tourism": "camp_site",
        "website": "https://doc.govt.nz/link/81173e8283b84a1eb09e9bd87533360e",
        "wheelchair": "limited"
      }
    },
    {
      "type": "way",
      "id": 768966840,
      "timestamp": "2020-02-01T23:45:08Z",
      "version": 2,
      "changeset": 80423473,
      "user": "markbegbie",
      "uid": 339912,
      "center": {
        "lat": -43.7187933,
        "lon": 170.093474
      },
      "nodes": [],
      "tags": {
        "access": "yes",
        "amenity": "shelter",
        "bench": "yes",
        "bin": "yes",
        "building": "yes",
        "drinking_water": "yes",
        "shelter_type": "weather_shelter",
        "table": "yes"
      }
    },
    {
      "type": "way",
      "id": 963787300,
      "timestamp": "2022-07-11T05:32:37Z",
      "version": 3,
      "changeset": 123455050,
      "user": "Axel Wilke",
      "uid": 3685400,
      "center": {
        "lat": -43.6526906,
        "lon": 170.0188192
      },
      "nodes": [],
      "tags": {
        "building": "yes",
        "capacity": "8",
        "drinking_water": "untreated",
        "fee": "yes",
        "fireplace": "yes",
        "mattress": "yes",
        "name": "Douglas Rock Hut",
        "operator": "Department of Conservation",
        "operator:wikidata": "Q1191417",
        "operator:wikipedia": "en:Department of Conservation (New Zealand)",
        "ref:doc": "100062383",
        "ref:linz:topo50_id": "5395488",
        "reservation": "no",
        "toilets": "yes",
        "toilets:disposal": "pitlatrine",
        "tourism": "wilderness_hut",
        "website": "https://doc.govt.nz/link/e54eb2196ea9468382401bc92f882c8d",
        "wikidata": "Q113011383"
      }
    },
    {
      "type": "way",
      "id": 972848376,
      "timestamp": "2022-02-07T06:56:25Z",
      "version": 2,
      "changeset": 117104529,
      "user": "kylenz_linz",
      "uid": 8389777,
      "center": {
        "lat": -43.9332947,
        "lon": 169.9467228
      },
      "nodes": [],
      "tags": {
        "building": "yes",
        "capacity": "2",
        "drinking_water": "no",
        "fee": "no",
        "fireplace": "no",
        "mattress": "yes",
        "name": "Grough Hut",
        "operator": "Department of Conservation",
        "operator:wikidata": "Q1191417",
        "operator:wikipedia": "en:Department of Conservation (New Zealand)",
        "ref:doc": "100060566",
        "ref:linz:topo50_id": "5394765",
        "reservation": "no",
        "toilets": "yes",
        "toilets:disposal": "pitlatrine",
        "tourism": "wilderness_hut",
        "website": "https://doc.govt.nz/link/5d26225fcd36422fb543be1698bb8c32"
      }
    },
    {
      "type": "way",
      "id": 973500493,
      "timestamp": "2022-02-09T09:29:08Z",
      "version": 3,
      "changeset": 117193013,
      "user": "kylenz_linz",
      "uid": 8389777,
      "center": {
        "lat": -43.8799931,
        "lon": 169.9636699
      },
      "nodes": [],
      "tags": {
        "building": "yes",
        "capacity": "6",
        "drinking_water": "untreated",
        "fee": "yes",
        "fireplace": "yes",
        "mattress": "yes",
        "name": "Kennedy Memorial Hut",
        "operator": "Department of Conservation",
        "operator:wikidata": "Q1191417",
        "operator:wikipedia": "en:Department of Conservation (New Zealand)",
        "ref:doc": "100060565",
        "ref:linz:topo50_id": "5394835",
        "reservation": "no",
        "toilets": "yes",
        "toilets:disposal": "pitlatrine",
        "tourism": "wilderness_hut",
        "website": "https://doc.govt.nz/link/aae6d5023dea41e9928f64ff5fb48d72"
      }
    },
    {
      "type": "way",
      "id": 976027954,
      "timestamp": "2022-02-07T06:56:25Z",
      "version": 2,
      "changeset": 117104529,
      "user": "kylenz_linz",
      "uid": 8389777,
      "center": {
        "lat": -43.8197535,
        "lon": 169.5380184
      },
      "nodes": [],
      "tags": {
        "building": "yes",
        "capacity": "6",
        "drinking_water": "no",
        "fee": "no",
        "fireplace": "yes",
        "mattress": "yes",
        "name": "Tunnel Creek Hut",
        "operator": "Department of Conservation",
        "operator:wikidata": "Q1191417",
        "operator:wikipedia": "en:Department of Conservation (New Zealand)",
        "ref:doc": "100062380",
        "ref:linz:topo50_id": "5394678",
        "reservation": "no",
        "toilets": "yes",
        "toilets:disposal": "pitlatrine",
        "tourism": "wilderness_hut",
        "website": "https://doc.govt.nz/link/531e65d4023f42808abf34d203b83405"
      }
    },
    {
      "type": "way",
      "id": 988539926,
      "timestamp": "2022-02-09T09:29:08Z",
      "version": 3,
      "changeset": 117193013,
      "user": "kylenz_linz",
      "uid": 8389777,
      "center": {
        "lat": -44.0076406,
        "lon": 169.7432585
      },
      "nodes": [],
      "tags": {
        "alt_name": "Main Huxley Forks Hut",
        "building": "yes",
        "capacity": "8",
        "drinking_water": "untreated",
        "fee": "yes",
        "fireplace": "yes",
        "mattress": "yes",
        "name": "Huxley Forks Hut",
        "operator": "Department of Conservation",
        "operator:wikidata": "Q1191417",
        "operator:wikipedia": "en:Department of Conservation (New Zealand)",
        "ref:doc": "100034564",
        "ref:linz:topo50_id": "5394732",
        "reservation": "no",
        "toilets": "yes",
        "toilets:disposal": "pitlatrine",
        "tourism": "wilderness_hut",
        "website": "https://doc.govt.nz/link/66a882bbc86448b9adcd2c7406832f08"
      }
    },
    {
      "type": "way",
      "id": 988539927,
      "timestamp": "2021-10-01T09:48:34Z",
      "version": 1,
      "changeset": 111954986,
      "user": "petenz",
      "uid": 38928,
      "center": {
        "lat": -44.0076843,
        "lon": 169.7430812
      },
      "nodes": [],
      "tags": {
        "building": "yes",
        "capacity": "3",
        "name": "Officers Hut",
        "operator": "Department of Conservation",
        "ref:doc": "100038673",
        "tourism": "wilderness_hut"
      }
    },
    {
      "type": "way",
      "id": 988545411,
      "timestamp": "2022-02-07T06:56:25Z",
      "version": 2,
      "changeset": 117104529,
      "user": "kylenz_linz",
      "uid": 8389777,
      "center": {
        "lat": -44.0240097,
        "lon": 169.8118669
      },
      "nodes": [],
      "tags": {
        "building": "yes",
        "capacity": "6",
        "drinking_water": "no",
        "fee": "yes",
        "fireplace": "yes",
        "mattress": "yes",
        "name": "Monument Hut",
        "operator": "Department of Conservation",
        "operator:wikidata": "Q1191417",
        "operator:wikipedia": "en:Department of Conservation (New Zealand)",
        "ref:doc": "100075307",
        "ref:linz:topo50_id": "5394246",
        "reservation": "no",
        "toilets": "yes",
        "toilets:disposal": "pitlatrine",
        "tourism": "wilderness_hut",
        "website": "https://doc.govt.nz/link/ace377cf8e2640ba98333b1075df912e"
      }
    },
    {
      "type": "way",
      "id": 989256433,
      "timestamp": "2022-02-09T09:29:08Z",
      "version": 3,
      "changeset": 117193013,
      "user": "kylenz_linz",
      "uid": 8389777,
      "center": {
        "lat": -43.9986379,
        "lon": 169.8336947
      },
      "nodes": [],
      "tags": {
        "building": "yes",
        "capacity": "12",
        "drinking_water": "untreated",
        "fee": "yes",
        "fireplace": "yes",
        "mattress": "yes",
        "name": "Red Hut",
        "operator": "Department of Conservation",
        "operator:wikidata": "Q1191417",
        "operator:wikipedia": "en:Department of Conservation (New Zealand)",
        "ref:doc": "100065478",
        "ref:linz:topo50_id": "5394749",
        "reservation": "no",
        "toilets": "yes",
        "toilets:disposal": "pitlatrine",
        "tourism": "wilderness_hut",
        "website": "https://doc.govt.nz/link/fedbed845f774e4084f78b8c25db8935"
      }
    },
    {
      "type": "way",
      "id": 989257038,
      "timestamp": "2022-02-07T06:56:25Z",
      "version": 2,
      "changeset": 117104529,
      "user": "kylenz_linz",
      "uid": 8389777,
      "center": {
        "lat": -43.9313476,
        "lon": 169.8301661
      },
      "nodes": [],
      "tags": {
        "building": "yes",
        "capacity": "12",
        "drinking_water": "no",
        "fee": "yes",
        "fireplace": "yes",
        "mattress": "yes",
        "name": "Elcho Hut",
        "operator": "Department of Conservation",
        "operator:wikidata": "Q1191417",
        "operator:wikipedia": "en:Department of Conservation (New Zealand)",
        "ref:doc": "100059540",
        "ref:linz:topo50_id": "5394750",
        "reservation": "no",
        "toilets": "yes",
        "toilets:disposal": "pitlatrine",
        "tourism": "wilderness_hut",
        "website": "https://doc.govt.nz/link/e4a363fb354b48118736d9d6f5eec874"
      }
    },
    {
      "type": "way",
      "id": 989257460,
      "timestamp": "2022-02-07T06:56:25Z",
      "version": 2,
      "changeset": 117104529,
      "user": "kylenz_linz",
      "uid": 8389777,
      "center": {
        "lat": -43.9220908,
        "lon": 169.8364038
      },
      "nodes": [],
      "tags": {
        "building": "yes",
        "capacity": "4",
        "drinking_water": "no",
        "fee": "yes",
        "fireplace": "yes",
        "mattress": "yes",
        "name": "Cullers Hut",
        "operator": "Department of Conservation",
        "operator:wikidata": "Q1191417",
        "operator:wikipedia": "en:Department of Conservation (New Zealand)",
        "ref:doc": "100060560",
        "ref:linz:topo50_id": "5394729",
        "reservation": "no",
        "toilets": "yes",
        "toilets:disposal": "pitlatrine",
        "tourism": "wilderness_hut",
        "website": "https://doc.govt.nz/link/f9f1357298ac47f8a4f948884209ce94"
      }
    },
    {
      "type": "way",
      "id": 989257652,
      "timestamp": "2022-02-07T06:56:25Z",
      "version": 3,
      "changeset": 117104529,
      "user": "kylenz_linz",
      "uid": 8389777,
      "center": {
        "lat": -43.8470844,
        "lon": 169.9160043
      },
      "nodes": [],
      "tags": {
        "building": "yes",
        "capacity": "4",
        "drinking_water": "untreated",
        "fee": "no",
        "fireplace": "no",
        "mattress": "yes",
        "name": "Erceg Hut",
        "operator": "Department of Conservation",
        "operator:wikidata": "Q1191417",
        "operator:wikipedia": "en:Department of Conservation (New Zealand)",
        "ref:doc": "100065479",
        "ref:linz:topo50_id": "5394836",
        "reservation": "no",
        "toilets": "yes",
        "toilets:disposal": "pitlatrine",
        "tourism": "wilderness_hut",
        "website": "https://doc.govt.nz/link/e0b3af7d2d384c339a6690b76bc8beb1"
      }
    },
    {
      "type": "way",
      "id": 1029550256,
      "timestamp": "2022-02-09T09:29:08Z",
      "version": 1,
      "changeset": 117193013,
      "user": "kylenz_linz",
      "uid": 8389777,
      "center": {
        "lat": -43.9690793,
        "lon": 169.9594983
      },
      "nodes": [],
      "tags": {
        "building": "yes",
        "name": "Station Hut",
        "ref:linz:topo50_id": "5394764",
        "tourism": "wilderness_hut"
      }
    },
    {
      "type": "way",
      "id": 1029550257,
      "timestamp": "2022-02-09T09:29:08Z",
      "version": 1,
      "changeset": 117193013,
      "user": "kylenz_linz",
      "uid": 8389777,
      "center": {
        "lat": -44.0145982,
        "lon": 169.9228379
      },
      "nodes": [],
      "tags": {
        "building": "yes",
        "name": "Le Crens Hut",
        "ref:linz:topo50_id": "5394759",
        "tourism": "wilderness_hut"
      }
    },
    {
      "type": "way",
      "id": 1029550261,
      "timestamp": "2022-02-09T09:29:08Z",
      "version": 1,
      "changeset": 117193013,
      "user": "kylenz_linz",
      "uid": 8389777,
      "center": {
        "lat": -43.8331626,
        "lon": 169.9892653
      },
      "nodes": [],
      "tags": {
        "building": "yes",
        "name": "Waterfall Hut",
        "ref:linz:topo50_id": "5394842",
        "tourism": "wilderness_hut"
      }
    }
  ]
}