{
  "osm3s": {
    "timestamp_osm_date": "2021-10-04T23:59:59Z",
    "timestamp_osm_base": "2021-10-05T06:44:16Z",
    "copyright": "The data included in this document is from www.openstreetmap.org. The data is made available under ODbL."
  },
  "elements": [
    {
      "type": "node",
      "id": 174903102,
      "lat": -45.2535683,
      "lon": 169.3870836,
      "timestamp": "2020-10-06T08:52:48Z",
      "version": 8,
      "changeset": 92033798,
      "user": "lcmortensen",
      "uid": 341519,
      "tags": {
        "name": "Alexandra",
        "name:ja": "アレクサンドラ",
        "name:mi": "Kāmoanahaehae",
        "name:mk": "Александра",
        "place": "town",
        "population": "5730",
        "source:population": "Statistics NZ 2019",
        "wikidata": "Q2058593"
      }
    },
    {
      "type": "node",
      "id": 354677290,
      "lat": -45.19043,
      "lon": 169.3241428,
      "timestamp": "2020-09-24T03:36:12Z",
      "version": 10,
      "changeset": 91398654,
      "user": "lcmortensen",
      "uid": 341519,
      "tags": {
        "name": "Clyde",
        "name:mk": "Клајд",
        "place": "town",
        "population": "1200",
        "source:population": "Statistics NZ 2019",
        "wikidata": "Q1103586"
      }
    },
    {
      "type": "node",
      "id": 1186832987,
      "lat": -45.4786039,
      "lon": 169.3142466,
      "timestamp": "2020-07-27T09:11:47Z",
      "version": 2,
      "changeset": 88554355,
      "user": "andrew_dc",
      "uid": 1833351,
      "tags": {
        "name": "Lake Roxburgh",
        "place": "village"
      }
    },
    {
      "type": "node",
      "id": 1186832988,
      "lat": -45.5393399,
      "lon": 169.3139403,
      "timestamp": "2019-06-06T07:35:49Z",
      "version": 5,
      "changeset": 70979092,
      "user": "bjankuloski",
      "uid": 158784,
      "tags": {
        "name": "Roxburgh",
        "name:mk": "Роксбру",
        "place": "village",
        "population": "522",
        "wikidata": "Q2170720"
      }
    },
    {
      "type": "node",
      "id": 1225240908,
      "lat": -45.329898,
      "lon": 169.1451759,
      "timestamp": "2021-09-24T06:18:42Z",
      "version": 4,
      "changeset": 111629105,
      "user": "kylenz_linz",
      "uid": 8389777,
      "tags": {
        "capacity": "3",
        "name": "Boundary Hut",
        "ref:doc": "100043893",
        "source": "LINZ",
        "tourism": "wilderness_hut"
      }
    },
    {
      "type": "node",
      "id": 1225264454,
      "lat": -45.2080638,
      "lon": 169.069967,
      "timestamp": "2021-09-19T07:48:11Z",
      "version": 4,
      "changeset": 111397426,
      "user": "kylenz_linz",
      "uid": 8389777,
      "tags": {
        "name": "Old Woman Hut",
        "ref:doc": "100042893",
        "source": "LINZ",
        "tourism": "alpine_hut"
      }
    },
    {
      "type": "node",
      "id": 1785471821,
      "lat": -45.2532731,
      "lon": 169.3946538,
      "timestamp": "2014-02-25T02:12:49Z",
      "version": 2,
      "changeset": 20762681,
      "user": "JAYSONHOOGY",
      "uid": 190958,
      "tags": {
        "name": "Four Square",
        "shop": "convenience"
      }
    },
    {
      "type": "node",
      "id": 2588684436,
      "lat": -45.540025,
      "lon": 169.3138531,
      "timestamp": "2019-04-20T02:52:46Z",
      "version": 2,
      "changeset": 69393536,
      "user": "Adr1en",
      "uid": 3366289,
      "tags": {
        "addr:street": "Scotland Street",
        "name": "Super Value Supermarket",
        "opening_hours": "Mo-Su 07:00-19:00",
        "shop": "supermarket"
      }
    },
    {
      "type": "node",
      "id": 4844786528,
      "lat": -45.0954525,
      "lon": 168.7635436,
      "timestamp": "2017-05-10T01:46:50Z",
      "version": 1,
      "changeset": 48547851,
      "user": "Ralph Lam",
      "uid": 5838368,
      "tags": {
        "name:en": "The Jardines",
        "tourism": "camp_site"
      }
    },
    {
      "type": "node",
      "id": 4879714532,
      "lat": -45.5790443,
      "lon": 169.3208388,
      "timestamp": "2017-05-27T06:38:29Z",
      "version": 1,
      "changeset": 49017586,
      "user": "Vollöko",
      "uid": 5480634,
      "tags": {
        "name": "Pinders Pond",
        "name:de": "Pinders Pond",
        "name:en": "Pinders Pond",
        "tourism": "camp_site"
      }
    },
    {
      "type": "node",
      "id": 4931617823,
      "lat": -45.1292221,
      "lon": 169.3165493,
      "timestamp": "2017-10-11T10:20:15Z",
      "version": 2,
      "changeset": 52819240,
      "user": "ivss_xx",
      "uid": 1715587,
      "tags": {
        "addr:street": "State Highway 8",
        "name": "Champagne Gully",
        "name:de": "Champagne Gully",
        "name:en": "Champagne Gully",
        "tourism": "camp_site"
      }
    },
    {
      "type": "node",
      "id": 4973237364,
      "lat": -45.3529589,
      "lon": 169.1861891,
      "timestamp": "2018-06-23T19:50:59Z",
      "version": 2,
      "changeset": 60107869,
      "user": "gaddman",
      "uid": 365177,
      "tags": {
        "capacity": "5",
        "name": "Nicholsons Hut",
        "ref:doc": "100043894",
        "tourism": "wilderness_hut"
      }
    },
    {
      "type": "node",
      "id": 5616404449,
      "lat": -45.1865317,
      "lon": 169.3158036,
      "timestamp": "2020-12-04T14:33:39Z",
      "version": 2,
      "changeset": 95300866,
      "user": "Taktaal",
      "uid": 2921287,
      "tags": {
        "addr:housenumber": "25",
        "addr:street": "Sunderland Street",
        "addr:suburb": "Clyde",
        "name": "Clyde Butchery",
        "ref:linz:address_id": "905530",
        "shop": "convenience"
      }
    },
    {
      "type": "node",
      "id": 6240811361,
      "lat": -45.174547,
      "lon": 168.8026081,
      "timestamp": "2019-01-28T02:33:02Z",
      "version": 1,
      "changeset": 66691850,
      "user": "gaddman",
      "uid": 365177,
      "tags": {
        "name": "Two Mile Hut",
        "operator": "Department of Conservation",
        "ref:doc": "100043142",
        "tourism": "wilderness_hut"
      }
    },
    {
      "type": "node",
      "id": 6240811365,
      "lat": -45.51078,
      "lon": 169.1843,
      "timestamp": "2019-01-28T02:33:03Z",
      "version": 1,
      "changeset": 66691850,
      "user": "gaddman",
      "uid": 365177,
      "tags": {
        "name": "Junction Hut",
        "operator": "Department of Conservation",
        "ref:doc": "100042895",
        "tourism": "wilderness_hut"
      }
    },
    {
      "type": "node",
      "id": 6415383894,
      "lat": -45.2563902,
      "lon": 169.3931665,
      "timestamp": "2019-12-22T05:31:03Z",
      "version": 2,
      "changeset": 78726382,
      "user": "gaddman",
      "uid": 365177,
      "tags": {
        "addr:housenumber": "43",
        "addr:postcode": "9320",
        "addr:street": "Tarbert Street",
        "email": "thrive@thriveonline.co.nz",
        "name": "Thrive - Pure Food, True Health",
        "opening_hours": "Mo-Fr 09:00-18:00; Sa 10:00-17:00; Su 11:00-17:00",
        "phone": "+64 3 448 9517",
        "shop": "convenience",
        "website": "http://www.thriveonline.co.nz"
      }
    },
    {
      "type": "node",
      "id": 6415384386,
      "lat": -45.2570906,
      "lon": 169.392804,
      "timestamp": "2019-12-22T05:31:03Z",
      "version": 2,
      "changeset": 78726382,
      "user": "gaddman",
      "uid": 365177,
      "tags": {
        "addr:housenumber": "38",
        "addr:street": "Tarbert Street",
        "email": "alexandra@bininn.co.nz",
        "name": "Bin Inn",
        "opening_hours": "Mo-Fr 09:00-17:00; Sa 10:00-14:00",
        "phone": "+64 3 448 8691",
        "shop": "convenience",
        "website": "http://ww.bininn.co.nz"
      }
    },
    {
      "type": "node",
      "id": 6415486886,
      "lat": -45.1759235,
      "lon": 169.301975,
      "timestamp": "2019-04-19T04:51:22Z",
      "version": 1,
      "changeset": 69365003,
      "user": "Adr1en",
      "uid": 3366289,
      "tags": {
        "name": "Burton CK",
        "tourism": "camp_site"
      }
    },
    {
      "type": "node",
      "id": 6415489285,
      "lat": -45.2366848,
      "lon": 169.4147933,
      "timestamp": "2019-04-19T04:54:46Z",
      "version": 1,
      "changeset": 69365041,
      "user": "Adr1en",
      "uid": 3366289,
      "tags": {
        "addr:housenumber": "173",
        "addr:postcode": "9393",
        "addr:street": "Manuherikia Road",
        "email": "elmshoney@gmail.com",
        "name": "ELMS Honey",
        "phone": "+6434486603",
        "shop": "convenience"
      }
    },
    {
      "type": "node",
      "id": 6417205485,
      "lat": -45.540983,
      "lon": 169.3148185,
      "timestamp": "2019-12-22T05:31:03Z",
      "version": 3,
      "changeset": 78726382,
      "user": "gaddman",
      "uid": 365177,
      "tags": {
        "addr:housenumber": "109",
        "addr:street": "Scotland Street",
        "email": "sales@feinermans.shop",
        "name": "Feinerman's Whole Food Store",
        "opening_hours": "Mo, We 11:00-17:00; Tu, Th-Fr 07:00-17:00; Sa 10:00-14:00",
        "operator": "Sally Feinerman",
        "phone": "+64 21 900 643",
        "shop": "convenience",
        "website": "https://feinermans.shop/"
      }
    },
    {
      "type": "node",
      "id": 6594394581,
      "lat": -45.1396482,
      "lon": 168.8476244,
      "timestamp": "2020-08-02T06:49:58Z",
      "version": 2,
      "changeset": 88830976,
      "user": "lcmortensen",
      "uid": 341519,
      "tags": {
        "name": "Mount Tūwhakarōria",
        "name:mi": "Tūwhakarōria",
        "natural": "peak",
        "wikidata": "Q91722589"
      }
    },
    {
      "type": "node",
      "id": 6594394615,
      "lat": -45.1490831,
      "lon": 168.8577925,
      "timestamp": "2020-08-02T06:49:58Z",
      "version": 2,
      "changeset": 88830976,
      "user": "lcmortensen",
      "uid": 341519,
      "tags": {
        "ele": "2252",
        "name": "Te Kārearea Peak",
        "name:mi": "Te Kārearea",
        "natural": "peak",
        "wikidata": "Q97109110"
      }
    },
    {
      "type": "node",
      "id": 6594394616,
      "lat": -45.4456622,
      "lon": 168.8257634,
      "timestamp": "2020-12-07T00:12:56Z",
      "version": 2,
      "changeset": 95385074,
      "user": "pizzaiolo",
      "uid": 1772368,
      "tags": {
        "ele": "1538",
        "name": "Mount Tennyson",
        "name:mi": "Karu-a-hine",
        "natural": "peak",
        "wikidata": "Q31660073"
      }
    },
    {
      "type": "node",
      "id": 7748197582,
      "lat": -45.2006217,
      "lon": 169.3567371,
      "timestamp": "2020-07-26T05:27:26Z",
      "version": 1,
      "changeset": 88511191,
      "user": "andrew_dc",
      "uid": 1833351,
      "tags": {
        "name": "Muttontown",
        "place": "hamlet"
      }
    },
    {
      "type": "node",
      "id": 9123341532,
      "lat": -45.0897771,
      "lon": 169.0651066,
      "timestamp": "2021-09-26T01:43:00Z",
      "version": 1,
      "changeset": 111705034,
      "user": "kylenz_linz",
      "uid": 8389777,
      "tags": {
        "direction": "96",
        "ele": "824",
        "name": "Slapjack Saddle",
        "natural": "saddle",
        "ref:linz:topo50_id": "3338417"
      }
    },
    {
      "type": "node",
      "id": 9123341533,
      "lat": -45.1214654,
      "lon": 168.9798293,
      "timestamp": "2021-09-26T01:43:00Z",
      "version": 1,
      "changeset": 111705034,
      "user": "kylenz_linz",
      "uid": 8389777,
      "tags": {
        "direction": "358",
        "ele": "953",
        "name": "Doolans Saddle",
        "natural": "saddle",
        "ref:linz:topo50_id": "3338415"
      }
    },
    {
      "type": "node",
      "id": 9123341534,
      "lat": -45.1759004,
      "lon": 169.0745141,
      "timestamp": "2021-09-26T01:43:00Z",
      "version": 1,
      "changeset": 111705034,
      "user": "kylenz_linz",
      "uid": 8389777,
      "tags": {
        "direction": "347",
        "ele": "1173",
        "name": "Duffers Saddle",
        "natural": "saddle",
        "ref:linz:topo50_id": "3338416"
      }
    },
    {
      "type": "node",
      "id": 9123341535,
      "lat": -45.4373681,
      "lon": 168.9113599,
      "timestamp": "2021-09-26T01:43:00Z",
      "version": 1,
      "changeset": 111705034,
      "user": "kylenz_linz",
      "uid": 8389777,
      "tags": {
        "direction": "107",
        "name": "Remarkable Gap",
        "natural": "saddle",
        "ref:linz:topo50_id": "3338578"
      }
    },
    {
      "type": "node",
      "id": 9123341536,
      "lat": -45.5207524,
      "lon": 168.9671326,
      "timestamp": "2021-09-26T01:43:00Z",
      "version": 1,
      "changeset": 111705034,
      "user": "kylenz_linz",
      "uid": 8389777,
      "tags": {
        "direction": "67",
        "ele": "1137",
        "name": "Boggy Saddle",
        "natural": "saddle",
        "ref:linz:topo50_id": "3338339"
      }
    },
    {
      "type": "way",
      "id": 29280131,
      "timestamp": "2017-06-20T09:52:18Z",
      "version": 5,
      "changeset": 49688614,
      "user": "Robert Ancell",
      "uid": 1430787,
      "center": {
        "lat": -45.2466735,
        "lon": 169.4037744
      },
      "nodes": [],
      "tags": {
        "addr:city": "Alexandra",
        "addr:housenumber": "40",
        "addr:street": "Manuherikia Road",
        "email": "info@alexandraholidaypark.com",
        "fee": "yes",
        "name": "Alexandra Holiday Park",
        "phone": "+64 3 448 8297",
        "sanitary_dump_station": "yes",
        "tourism": "camp_site",
        "website": "http://www.alexandraholidaypark.com"
      }
    },
    {
      "type": "way",
      "id": 158623169,
      "timestamp": "2020-11-11T03:25:35Z",
      "version": 4,
      "changeset": 93892828,
      "user": "lcmortensen",
      "uid": 341519,
      "center": {
        "lat": -45.2499432,
        "lon": 169.3872827
      },
      "nodes": [],
      "tags": {
        "brand": "New World",
        "brand:wikidata": "Q7012488",
        "brand:wikipedia": "en:New World (supermarket)",
        "building": "commercial",
        "name": "New World",
        "shop": "supermarket"
      }
    },
    {
      "type": "way",
      "id": 383587259,
      "timestamp": "2015-11-30T10:24:49Z",
      "version": 1,
      "changeset": 35662370,
      "user": "Rudy355",
      "uid": 142831,
      "center": {
        "lat": -45.2425704,
        "lon": 169.3959325
      },
      "nodes": [],
      "tags": {
        "tourism": "camp_site"
      }
    },
    {
      "type": "way",
      "id": 383735326,
      "timestamp": "2018-07-23T04:58:21Z",
      "version": 2,
      "changeset": 60969207,
      "user": "HYPERseal",
      "uid": 5183134,
      "center": {
        "lat": -45.1926808,
        "lon": 169.3194175
      },
      "nodes": [],
      "tags": {
        "name": "Clyde Holiday Park",
        "tourism": "camp_site"
      }
    },
    {
      "type": "way",
      "id": 383735365,
      "timestamp": "2020-12-04T16:27:27Z",
      "version": 2,
      "changeset": 95305573,
      "user": "Taktaal",
      "uid": 2921287,
      "center": {
        "lat": -45.1887519,
        "lon": 169.3192464
      },
      "nodes": [],
      "tags": {
        "brand": "Four Square",
        "brand:wikidata": "Q5475558",
        "brand:wikipedia": "en:Four Square (supermarket)",
        "building": "yes",
        "name": "Four Square",
        "opening_hours": "Mo-Fr 07:00-20:00; Sa-Su 08:00-19:00",
        "shop": "supermarket"
      }
    }
  ]
}