{
  "osm3s": {
    "timestamp_osm_date": "2021-11-10T23:59:59Z",
    "timestamp_osm_base": "2021-11-11T05:23:39Z",
    "copyright": "The data included in this document is from www.openstreetmap.org. The data is made available under ODbL."
  },
  "elements": [
    {
      "type": "node",
      "id": 26862976,
      "lat": 48.3138069,
      "lon": 23.6801199,
      "timestamp": "2021-04-11T12:32:00Z",
      "version": 10,
      "changeset": 102736494,
      "user": "Antissimo",
      "uid": 2082188,
      "tags": {
        "ele": "1501",
        "name": "Менчул",
        "name:en": "Manchul",
        "name:hu": "Mencsely",
        "name:pl": "Manczuł",
        "name:uk": "Менчул",
        "natural": "peak",
        "prominence": "591",
        "source": "SRTM, Bing",
        "summit:cross": "yes",
        "wikidata": "Q13667714"
      }
    },
    {
      "type": "node",
      "id": 26862982,
      "lat": 48.3630555,
      "lon": 23.7941666,
      "timestamp": "2021-04-11T12:32:00Z",
      "version": 7,
      "changeset": 102736494,
      "user": "Antissimo",
      "uid": 2082188,
      "tags": {
        "alt_name": "Сиглянська",
        "ele": "1564",
        "name": "Сигланський",
        "name:en": "Ruzha",
        "name:hu": "Rózsa-havas",
        "name:pl": "Sygłański",
        "name:ru": "Сигланский",
        "name:uk": "Сигланський",
        "natural": "peak",
        "wikidata": "Q20092971",
        "wikipedia": "uk:Сигланський"
      }
    },
    {
      "type": "node",
      "id": 26862985,
      "lat": 48.4381252,
      "lon": 23.8005815,
      "timestamp": "2019-08-22T11:53:43Z",
      "version": 10,
      "changeset": 73620323,
      "user": "mirelon",
      "uid": 1270972,
      "tags": {
        "ele": "1719",
        "name": "Стримба",
        "name:en": "Strimba",
        "name:pl": "Strymba",
        "name:uk": "Стримба",
        "natural": "peak",
        "prominence": "557",
        "wikidata": "Q4444012",
        "wikipedia": "uk:Стримба (гора)"
      }
    },
    {
      "type": "node",
      "id": 26862988,
      "lat": 48.4233453,
      "lon": 23.638715,
      "timestamp": "2021-06-04T02:28:38Z",
      "version": 11,
      "changeset": 105806871,
      "user": "muchichka_s",
      "uid": 10857625,
      "tags": {
        "alt_name": "Тяпеш",
        "ele": "1324",
        "name": "Тапеш",
        "name:en": "Tapesh",
        "name:pl": "Tapesz",
        "natural": "peak",
        "prominence": "606",
        "summit:cross": "yes",
        "wikidata": "Q31519958"
      }
    },
    {
      "type": "node",
      "id": 262602639,
      "lat": 47.9905949,
      "lon": 23.6430563,
      "timestamp": "2021-10-18T10:24:11Z",
      "version": 16,
      "changeset": 112645956,
      "user": "muchichka_s",
      "uid": 10857625,
      "tags": {
        "is_in": "Maramureș,România",
        "is_in:country": "România",
        "is_in:county": "Maramureș",
        "name": "Remeți",
        "name:hu": "Pálosremete",
        "name:uk": "Ремета",
        "name:yi": "רעמיט",
        "old_postal_code": "4947",
        "place": "village",
        "population": "2599",
        "population:census:1992": "2599",
        "postal_code": "437235",
        "postal_code:source": "INSSE - SIRUTA",
        "siruta:code": "108561",
        "siruta:code_sup": "108552",
        "siruta:county": "Maramureș",
        "siruta:county_code": "MM",
        "siruta:county_id": "24",
        "siruta:name_sup": "Remeți",
        "siruta:type": "22",
        "wikidata": "Q1093653",
        "wikipedia": "ro:Remeți, Maramureș"
      }
    },
    {
      "type": "node",
      "id": 337598055,
      "lat": 48.4565758,
      "lon": 23.6471305,
      "timestamp": "2021-02-09T16:37:15Z",
      "version": 7,
      "changeset": 98989755,
      "user": "muchichka_s",
      "uid": 10857625,
      "tags": {
        "koatuu": "2122484001",
        "name": "Негровець",
        "name:en": "Nehrovets",
        "name:hu": "Felsőkalocsa",
        "name:prefix": "село",
        "name:ru": "Негровец",
        "name:uk": "Негровець",
        "place": "village",
        "population": "2231",
        "postal_code": "90042",
        "wikidata": "Q714289",
        "wikipedia": "uk:Негровець"
      }
    },
    {
      "type": "node",
      "id": 337598135,
      "lat": 48.448681,
      "lon": 23.54027,
      "timestamp": "2021-02-09T16:37:15Z",
      "version": 6,
      "changeset": 98989755,
      "user": "muchichka_s",
      "uid": 10857625,
      "tags": {
        "koatuu": "2122480801",
        "name": "Вучкове",
        "name:en": "Vuchkove",
        "name:hu": "Vucskómező",
        "name:prefix": "село",
        "name:ru": "Вучково",
        "name:uk": "Вучкове",
        "place": "village",
        "population": "697",
        "postal_code": "90046",
        "wikidata": "Q750338",
        "wikipedia": "uk:Вучкове"
      }
    },
    {
      "type": "node",
      "id": 337598229,
      "lat": 48.44627,
      "lon": 23.614429,
      "timestamp": "2021-02-09T16:37:15Z",
      "version": 7,
      "changeset": 98989755,
      "user": "muchichka_s",
      "uid": 10857625,
      "tags": {
        "koatuu": "2122484002",
        "loc_name": "Косий Верх",
        "name": "Косів Верх",
        "name:en": "Kosiv Verkh",
        "name:hu": "Koszóver",
        "name:prefix": "село",
        "name:ru": "Косов Верх",
        "name:uk": "Косів Верх",
        "place": "hamlet",
        "population": "16",
        "postal_code": "90042",
        "wikidata": "Q3850797",
        "wikipedia": "uk:Косів Верх"
      }
    },
    {
      "type": "node",
      "id": 337598449,
      "lat": 48.440441,
      "lon": 23.25325,
      "timestamp": "2020-11-15T19:20:56Z",
      "version": 7,
      "changeset": 94161308,
      "user": "muchichka_s",
      "uid": 10857625,
      "tags": {
        "koatuu": "2121985201",
        "name": "Кушниця",
        "name:en": "Kushnytsia",
        "name:hu": "Kovácsrét",
        "name:prefix": "село",
        "name:ru": "Кушница",
        "name:uk": "Кушниця",
        "place": "village",
        "population": "6100",
        "postal_code": "90151",
        "wikidata": "Q750931",
        "wikipedia": "uk:Кушниця"
      }
    },
    {
      "type": "node",
      "id": 337598826,
      "lat": 48.426567,
      "lon": 23.698563,
      "timestamp": "2021-09-02T07:20:47Z",
      "version": 11,
      "changeset": 110601075,
      "user": "muchichka_s",
      "uid": 10857625,
      "tags": {
        "koatuu": "2122482101",
        "name": "Колочава",
        "name:cs": "Koločava",
        "name:de": "Kolotschawa",
        "name:en": "Kolochava",
        "name:eo": "Koloĉava",
        "name:hu": "Alsókalocsa",
        "name:prefix": "село",
        "name:ru": "Колочава",
        "name:sk": "Lazy",
        "name:uk": "Колочава",
        "place": "village",
        "population": "5029",
        "postal_code": "90043",
        "wikidata": "Q664774",
        "wikipedia": "uk:Колочава"
      }
    },
    {
      "type": "node",
      "id": 337599149,
      "lat": 48.418949,
      "lon": 23.286091,
      "timestamp": "2021-05-13T13:55:05Z",
      "version": 8,
      "changeset": 104641672,
      "user": "muchichka_s",
      "uid": 10857625,
      "tags": {
        "koatuu": "2121981602",
        "name": "Суха",
        "name:en": "Sukha",
        "name:hu": "Szuha",
        "name:prefix": "село",
        "name:ru": "Суха",
        "name:uk": "Суха",
        "place": "village",
        "population": "1906",
        "postal_code": "90153",
        "wikidata": "Q3850195",
        "wikipedia": "uk:Суха (Хустський район)"
      }
    },
    {
      "type": "node",
      "id": 337599451,
      "lat": 48.412281,
      "lon": 23.266979,
      "timestamp": "2021-02-09T16:37:15Z",
      "version": 8,
      "changeset": 98989755,
      "user": "muchichka_s",
      "uid": 10857625,
      "tags": {
        "koatuu": "2121981601",
        "name": "Бронька",
        "name:en": "Bronka",
        "name:hu": "Szuhabaranka",
        "name:pl": "Bronka",
        "name:prefix": "село",
        "name:ro": "Bronka",
        "name:ru": "Бронька",
        "name:uk": "Бронька",
        "place": "village",
        "population": "1812",
        "postal_code": "90152",
        "wikidata": "Q714672",
        "wikipedia": "uk:Бронька"
      }
    },
    {
      "type": "node",
      "id": 337599925,
      "lat": 48.401642,
      "lon": 23.663521,
      "timestamp": "2021-02-09T16:37:15Z",
      "version": 6,
      "changeset": 98989755,
      "user": "muchichka_s",
      "uid": 10857625,
      "tags": {
        "koatuu": "2122482105",
        "name": "Мерешор",
        "name:de": "Mereschor",
        "name:en": "Mereshor",
        "name:eo": "Mereŝor",
        "name:hu": "Rókarét",
        "name:prefix": "село",
        "name:ru": "Мерешор",
        "name:sk": "Merešor",
        "name:uk": "Мерешор",
        "place": "village",
        "population": "711",
        "postal_code": "90043",
        "wikidata": "Q3850697",
        "wikipedia": "uk:Мерешор"
      }
    },
    {
      "type": "node",
      "id": 337600164,
      "lat": 48.395802,
      "lon": 23.58181,
      "timestamp": "2021-02-09T16:37:15Z",
      "version": 6,
      "changeset": 98989755,
      "user": "muchichka_s",
      "uid": 10857625,
      "tags": {
        "koatuu": "2122480802",
        "name": "Підчумаль",
        "name:en": "Pidchumal",
        "name:hu": "Podcsumály",
        "name:prefix": "село",
        "name:ru": "Подчумаль",
        "name:uk": "Підчумаль",
        "place": "village",
        "population": "156",
        "postal_code": "90046",
        "wikidata": "Q750700",
        "wikipedia": "uk:Підчумаль"
      }
    },
    {
      "type": "node",
      "id": 337600362,
      "lat": 48.385849,
      "lon": 23.5231,
      "timestamp": "2021-02-09T16:37:15Z",
      "version": 6,
      "changeset": 98989755,
      "user": "muchichka_s",
      "uid": 10857625,
      "tags": {
        "koatuu": "2125386203",
        "name": "Широке",
        "name:en": "Shyroke",
        "name:hu": "Siróka",
        "name:prefix": "село",
        "name:ru": "Широкое",
        "name:uk": "Широке",
        "place": "village",
        "population": "472",
        "postal_code": "90423",
        "wikidata": "Q4524451",
        "wikipedia": "uk:Широке (Хустський район)"
      }
    },
    {
      "type": "node",
      "id": 337600440,
      "lat": 48.380699,
      "lon": 23.577351,
      "timestamp": "2021-02-09T16:37:15Z",
      "version": 6,
      "changeset": 98989755,
      "user": "muchichka_s",
      "uid": 10857625,
      "tags": {
        "koatuu": "2125386202",
        "name": "Противень",
        "name:en": "Protyven",
        "name:hu": "Félszeg",
        "name:prefix": "село",
        "name:ru": "Противень",
        "name:uk": "Противень",
        "place": "village",
        "population": "652",
        "postal_code": "90420",
        "wikidata": "Q3849538",
        "wikipedia": "uk:Противень"
      }
    },
    {
      "type": "node",
      "id": 337600531,
      "lat": 48.376228,
      "lon": 23.844801,
      "timestamp": "2021-02-09T16:37:15Z",
      "version": 12,
      "changeset": 98989755,
      "user": "muchichka_s",
      "uid": 10857625,
      "tags": {
        "koatuu": "2124486102",
        "name": "Німецька Мокра",
        "name:de": "Deutsch-Mokra",
        "name:en": "Nimetska Mokra",
        "name:hu": "Németmokra",
        "name:prefix": "село",
        "name:ru": "Немецкая Мокрая",
        "name:uk": "Німецька Мокра",
        "old_name": "Комсомольськ",
        "old_name:de": "Komsomolsk",
        "old_name:en": "Komsomolsk",
        "old_name:ru": "Комсомольск",
        "old_name:uk": "Комсомольськ",
        "place": "village",
        "population": "540",
        "postal_code": "90521",
        "wikidata": "Q258296",
        "wikipedia": "uk:Німецька Мокра"
      }
    },
    {
      "type": "node",
      "id": 337600772,
      "lat": 48.36731,
      "lon": 23.28072,
      "timestamp": "2021-08-08T13:25:31Z",
      "version": 9,
      "changeset": 109346187,
      "user": "muchichka_s",
      "uid": 10857625,
      "tags": {
        "koatuu": "2121983001",
        "name": "Довге",
        "name:en": "Dovhe",
        "name:hu": "Dolha",
        "name:prefix": "село",
        "name:ru": "Долгое",
        "name:sk": "Dlhé",
        "name:uk": "Довге",
        "place": "village",
        "population": "6790",
        "postal_code": "90154",
        "wikidata": "Q854760",
        "wikipedia": "uk:Довге (Хустський район)"
      }
    },
    {
      "type": "node",
      "id": 337601098,
      "lat": 48.3583357,
      "lon": 23.4372261,
      "timestamp": "2021-02-09T16:37:15Z",
      "version": 7,
      "changeset": 98989755,
      "user": "muchichka_s",
      "uid": 10857625,
      "tags": {
        "koatuu": "2125385602",
        "name": "Медвежий",
        "name:en": "Medvezhyi",
        "name:hu": "Medvezsij",
        "name:prefix": "село",
        "name:ru": "Медвежий",
        "name:uk": "Медвежий",
        "place": "village",
        "population": "74",
        "postal_code": "90427",
        "wikidata": "Q3849387",
        "wikipedia": "uk:Медвежий"
      }
    },
    {
      "type": "node",
      "id": 337601199,
      "lat": 48.35701,
      "lon": 23.530661,
      "timestamp": "2021-02-09T16:37:15Z",
      "version": 6,
      "changeset": 98989755,
      "user": "muchichka_s",
      "uid": 10857625,
      "tags": {
        "koatuu": "2125386201",
        "name": "Нижній Бистрий",
        "name:en": "Nyzhnii Bystryi",
        "name:hu": "Alsóbisztra",
        "name:prefix": "село",
        "name:ru": "Нижний Быстрый",
        "name:uk": "Нижній Бистрий",
        "place": "village",
        "population": "1195",
        "postal_code": "90421",
        "wikidata": "Q663606",
        "wikipedia": "uk:Нижній Бистрий"
      }
    },
    {
      "type": "node",
      "id": 337601211,
      "lat": 48.35667,
      "lon": 23.359341,
      "timestamp": "2021-02-09T16:37:15Z",
      "version": 6,
      "changeset": 98989755,
      "user": "muchichka_s",
      "uid": 10857625,
      "tags": {
        "koatuu": "2125384804",
        "name": "Слоповий",
        "name:en": "Slopovyi",
        "name:hu": "Szlopony",
        "name:prefix": "село",
        "name:ru": "Слоповый",
        "name:uk": "Слоповий",
        "place": "village",
        "population": "105",
        "postal_code": "90425",
        "wikidata": "Q3849773",
        "wikipedia": "uk:Слоповий"
      }
    },
    {
      "type": "node",
      "id": 337601436,
      "lat": 48.350491,
      "lon": 23.9011,
      "timestamp": "2021-02-09T16:37:15Z",
      "version": 8,
      "changeset": 98989755,
      "user": "muchichka_s",
      "uid": 10857625,
      "tags": {
        "koatuu": "2124486101",
        "name": "Руська Мокра",
        "name:de": "Ruthenisch-Mokra",
        "name:en": "Rus'ka Mokra",
        "name:hu": "Oroszmokra",
        "name:prefix": "село",
        "name:ru": "Русская Мокрая",
        "name:uk": "Руська Мокра",
        "place": "village",
        "population": "2016",
        "postal_code": "90521",
        "wikidata": "Q842523",
        "wikipedia": "uk:Руська Мокра"
      }
    },
    {
      "type": "node",
      "id": 337601477,
      "lat": 48.34911,
      "lon": 23.61923,
      "timestamp": "2021-02-09T16:37:15Z",
      "version": 8,
      "changeset": 98989755,
      "user": "muchichka_s",
      "uid": 10857625,
      "tags": {
        "koatuu": "2125386901",
        "name": "Вільшани",
        "name:be": "Альшаны",
        "name:de": "Wilschany",
        "name:en": "Vilshany",
        "name:hu": "Égermező",
        "name:pl": "Olszany",
        "name:prefix": "село",
        "name:ru": "Ольшаны",
        "name:sk": "Olšany",
        "name:uk": "Вільшани",
        "place": "village",
        "population": "1125",
        "postal_code": "90424",
        "wikidata": "Q4334469",
        "wikipedia": "uk:Вільшани (Хустський район)"
      }
    },
    {
      "type": "node",
      "id": 337601530,
      "lat": 48.34808,
      "lon": 23.52207,
      "timestamp": "2021-02-09T16:37:15Z",
      "version": 6,
      "changeset": 98989755,
      "user": "muchichka_s",
      "uid": 10857625,
      "tags": {
        "koatuu": "2125380602",
        "name": "Гонцош",
        "name:en": "Hontsosh",
        "name:hu": "Gancos",
        "name:prefix": "село",
        "name:ru": "Гонцош",
        "name:uk": "Гонцош",
        "place": "village",
        "population": "58",
        "postal_code": "90426",
        "wikidata": "Q3849393",
        "wikipedia": "uk:Гонцош"
      }
    },
    {
      "type": "node",
      "id": 337601561,
      "lat": 48.34705,
      "lon": 23.36895,
      "timestamp": "2021-02-09T16:37:15Z",
      "version": 6,
      "changeset": 98989755,
      "user": "muchichka_s",
      "uid": 10857625,
      "tags": {
        "koatuu": "2125384802",
        "name": "Каллів",
        "name:en": "Kalliv",
        "name:hu": "Kálovi",
        "name:prefix": "село",
        "name:ru": "Каллов",
        "name:uk": "Каллів",
        "place": "village",
        "population": "94",
        "postal_code": "90425",
        "wikidata": "Q3849729",
        "wikipedia": "uk:Каллів"
      }
    },
    {
      "type": "node",
      "id": 337601635,
      "lat": 48.343281,
      "lon": 23.22887,
      "timestamp": "2021-02-09T16:37:15Z",
      "version": 7,
      "changeset": 98989755,
      "user": "muchichka_s",
      "uid": 10857625,
      "tags": {
        "koatuu": "2121986801",
        "name": "Приборжавське",
        "name:en": "Pryborzhavske",
        "name:hu": "Zárnya",
        "name:prefix": "село",
        "name:ru": "Приборжавское",
        "name:uk": "Приборжавське",
        "old_name": "Заднє",
        "place": "village",
        "population": "3585",
        "postal_code": "90155",
        "wikidata": "Q753523",
        "wikipedia": "uk:Приборжавське"
      }
    },
    {
      "type": "node",
      "id": 337601819,
      "lat": 48.339565,
      "lon": 23.35462,
      "timestamp": "2020-11-21T18:18:39Z",
      "version": 7,
      "changeset": 94556194,
      "user": "muchichka_s",
      "uid": 10857625,
      "tags": {
        "koatuu": "2125384801",
        "name": "Липецька Поляна",
        "name:en": "Lypetska Poliana",
        "name:hu": "Lipcsemező",
        "name:prefix": "село",
        "name:ru": "Липецкая Поляна",
        "name:uk": "Липецька Поляна",
        "place": "village",
        "population": "2544",
        "postal_code": "90425",
        "wikidata": "Q3850149",
        "wikipedia": "uk:Липецька Поляна"
      }
    },
    {
      "type": "node",
      "id": 337602426,
      "lat": 48.32748,
      "lon": 23.426291,
      "timestamp": "2021-02-09T16:37:15Z",
      "version": 6,
      "changeset": 98989755,
      "user": "muchichka_s",
      "uid": 10857625,
      "tags": {
        "koatuu": "2125385605",
        "name": "Тополин",
        "name:en": "Topolyn",
        "name:hu": "Topolin",
        "name:prefix": "село",
        "name:ru": "Тополин",
        "name:uk": "Тополин",
        "place": "village",
        "population": "318",
        "postal_code": "90427",
        "wikidata": "Q3849431",
        "wikipedia": "uk:Тополин"
      }
    },
    {
      "type": "node",
      "id": 337602589,
      "lat": 48.322224,
      "lon": 23.3857,
      "timestamp": "2021-02-09T16:37:15Z",
      "version": 8,
      "changeset": 98989755,
      "user": "muchichka_s",
      "uid": 10857625,
      "tags": {
        "koatuu": "2125384803",
        "name": "Ожоверх",
        "name:en": "Ozhoverkh",
        "name:hu": "Magastető",
        "name:prefix": "село",
        "name:ru": "Ожоверх",
        "name:uk": "Ожоверх",
        "place": "village",
        "population": "105",
        "postal_code": "90425",
        "wikidata": "Q3849714",
        "wikipedia": "uk:Ожоверх"
      }
    },
    {
      "type": "node",
      "id": 337602712,
      "lat": 48.318211,
      "lon": 23.20656,
      "timestamp": "2021-05-13T13:55:05Z",
      "version": 8,
      "changeset": 104641672,
      "user": "muchichka_s",
      "uid": 10857625,
      "tags": {
        "koatuu": "2121985801",
        "name": "Луково",
        "name:be": "Лукава",
        "name:en": "Lukovo",
        "name:hu": "Lukova",
        "name:prefix": "село",
        "name:ru": "Луково",
        "name:uk": "Луково",
        "place": "village",
        "population": "1558",
        "postal_code": "90156",
        "wikidata": "Q778113",
        "wikipedia": "uk:Луково (Україна)"
      }
    },
    {
      "type": "node",
      "id": 337602767,
      "lat": 48.316841,
      "lon": 23.48637,
      "timestamp": "2021-02-09T16:37:15Z",
      "version": 6,
      "changeset": 98989755,
      "user": "muchichka_s",
      "uid": 10857625,
      "tags": {
        "koatuu": "2125380603",
        "name": "Ряпідь",
        "name:en": "Riapid",
        "name:hu": "Rápigy",
        "name:prefix": "село",
        "name:ru": "Ряпидь",
        "name:uk": "Ряпідь",
        "place": "village",
        "population": "292",
        "postal_code": "90426",
        "wikidata": "Q4402721",
        "wikipedia": "uk:Ряпідь"
      }
    },
    {
      "type": "node",
      "id": 337603023,
      "lat": 48.308262,
      "lon": 23.44105,
      "timestamp": "2021-02-09T16:37:15Z",
      "version": 6,
      "changeset": 98989755,
      "user": "muchichka_s",
      "uid": 10857625,
      "tags": {
        "koatuu": "2125385603",
        "name": "Облаз",
        "name:en": "Oblaz",
        "name:hu": "Forduló",
        "name:prefix": "село",
        "name:ru": "Облаз",
        "name:uk": "Облаз",
        "place": "village",
        "population": "219",
        "postal_code": "90427",
        "wikidata": "Q3849792",
        "wikipedia": "uk:Облаз"
      }
    },
    {
      "type": "node",
      "id": 337603125,
      "lat": 48.305511,
      "lon": 23.424231,
      "timestamp": "2021-02-09T16:37:15Z",
      "version": 6,
      "changeset": 98989755,
      "user": "muchichka_s",
      "uid": 10857625,
      "tags": {
        "koatuu": "2125385604",
        "name": "Поточок",
        "name:en": "Potochok",
        "name:hu": "Kispatak",
        "name:prefix": "село",
        "name:ru": "Поточек",
        "name:uk": "Поточок",
        "place": "village",
        "population": "876",
        "postal_code": "90427",
        "wikidata": "Q3849754",
        "wikipedia": "uk:Поточок"
      }
    },
    {
      "type": "node",
      "id": 337603195,
      "lat": 48.303791,
      "lon": 23.490141,
      "timestamp": "2021-05-13T13:55:05Z",
      "version": 8,
      "changeset": 104641672,
      "user": "muchichka_s",
      "uid": 10857625,
      "tags": {
        "koatuu": "2125380601",
        "name": "Березово",
        "name:en": "Berezovo",
        "name:hu": "Berezna",
        "name:prefix": "село",
        "name:ru": "Берёзово",
        "name:uk": "Березово",
        "place": "village",
        "population": "3000",
        "postal_code": "90426",
        "wikidata": "Q793402",
        "wikipedia": "uk:Березово (Україна)"
      }
    },
    {
      "type": "node",
      "id": 337603334,
      "lat": 48.299671,
      "lon": 23.402599,
      "timestamp": "2021-02-09T16:37:15Z",
      "version": 7,
      "changeset": 98989755,
      "user": "muchichka_s",
      "uid": 10857625,
      "tags": {
        "koatuu": "2125385202",
        "name": "Крайнє",
        "name:en": "Krainie",
        "name:hu": "Kálló",
        "name:prefix": "село",
        "name:ru": "Крайнее",
        "name:uk": "Крайнє",
        "place": "village",
        "population": "279",
        "postal_code": "90413",
        "wikidata": "Q3849728",
        "wikipedia": "uk:Крайнє (Хустський район)"
      }
    },
    {
      "type": "node",
      "id": 337603596,
      "lat": 48.294521,
      "lon": 23.427999,
      "timestamp": "2021-02-09T16:37:15Z",
      "version": 6,
      "changeset": 98989755,
      "user": "muchichka_s",
      "uid": 10857625,
      "tags": {
        "koatuu": "2125385601",
        "name": "Монастирець",
        "name:en": "Monastyrets",
        "name:hu": "Monostor",
        "name:prefix": "село",
        "name:ru": "Монастырец",
        "name:uk": "Монастирець",
        "place": "village",
        "population": "1891",
        "postal_code": "90427",
        "wikidata": "Q3849738",
        "wikipedia": "uk:Монастирець (Хустський район)"
      }
    },
    {
      "type": "node",
      "id": 337603722,
      "lat": 48.291088,
      "lon": 23.573231,
      "timestamp": "2021-02-09T16:37:15Z",
      "version": 6,
      "changeset": 98989755,
      "user": "muchichka_s",
      "uid": 10857625,
      "tags": {
        "koatuu": "2125383001",
        "name": "Забрідь",
        "name:de": "Sabrid",
        "name:en": "Zabrid",
        "name:eo": "Zabridj",
        "name:hu": "Gázló",
        "name:prefix": "село",
        "name:ru": "Забродь",
        "name:sk": "Zábrod",
        "name:uk": "Забрідь",
        "place": "village",
        "population": "2077",
        "postal_code": "90428",
        "wikidata": "Q3849383",
        "wikipedia": "uk:Забрідь (Хустський район)"
      }
    },
    {
      "type": "node",
      "id": 337603933,
      "lat": 48.286968,
      "lon": 23.344231,
      "timestamp": "2021-02-09T16:37:15Z",
      "version": 9,
      "changeset": 98989755,
      "user": "muchichka_s",
      "uid": 10857625,
      "tags": {
        "koatuu": "2125385203",
        "name": "Кривий",
        "name:en": "Kryvyi",
        "name:hu": "Krivi",
        "name:prefix": "село",
        "name:ru": "Кривой",
        "name:uk": "Кривий",
        "place": "village",
        "population": "158",
        "postal_code": "90415",
        "wikidata": "Q3849377",
        "wikipedia": "uk:Кривий (Хустський район)"
      }
    },
    {
      "type": "node",
      "id": 337603957,
      "lat": 48.286282,
      "lon": 23.310591,
      "timestamp": "2021-02-09T16:37:15Z",
      "version": 6,
      "changeset": 98989755,
      "user": "muchichka_s",
      "uid": 10857625,
      "tags": {
        "koatuu": "2125385001",
        "name": "Липовець",
        "name:en": "Lypovets",
        "name:hu": "Hárspatak",
        "name:prefix": "село",
        "name:ru": "Липовец",
        "name:uk": "Липовець",
        "place": "village",
        "population": "1530",
        "postal_code": "90416",
        "wikidata": "Q3849784",
        "wikipedia": "uk:Липовець (Хустський район)"
      }
    },
    {
      "type": "node",
      "id": 337604148,
      "lat": 48.280449,
      "lon": 23.474689,
      "timestamp": "2021-02-09T16:37:15Z",
      "version": 6,
      "changeset": 98989755,
      "user": "muchichka_s",
      "uid": 10857625,
      "tags": {
        "koatuu": "2125382203",
        "name": "Кутлаш",
        "name:en": "Kutlash",
        "name:hu": "Kutlás",
        "name:prefix": "село",
        "name:ru": "Кутлаш",
        "name:uk": "Кутлаш",
        "place": "hamlet",
        "population": "50",
        "postal_code": "90430",
        "wikidata": "Q3849786",
        "wikipedia": "uk:Кутлаш"
      }
    },
    {
      "type": "node",
      "id": 337604221,
      "lat": 48.278728,
      "lon": 23.361401,
      "timestamp": "2021-02-09T16:37:15Z",
      "version": 6,
      "changeset": 98989755,
      "user": "muchichka_s",
      "uid": 10857625,
      "tags": {
        "koatuu": "2125385205",
        "name": "Осава",
        "name:en": "Osava",
        "name:hu": "Darázsvölgy",
        "name:prefix": "село",
        "name:ru": "Осава",
        "name:uk": "Осава",
        "place": "village",
        "population": "324",
        "postal_code": "90415",
        "wikidata": "Q3849426",
        "wikipedia": "uk:Осава"
      }
    },
    {
      "type": "node",
      "id": 337604404,
      "lat": 48.273579,
      "lon": 23.468861,
      "timestamp": "2021-02-09T16:37:15Z",
      "version": 7,
      "changeset": 98989755,
      "user": "muchichka_s",
      "uid": 10857625,
      "tags": {
        "koatuu": "2125382205",
        "name": "Сюрюк",
        "name:en": "Siuriuk",
        "name:hu": "Szurjuk",
        "name:prefix": "село",
        "name:ru": "Сюрюк",
        "name:uk": "Сюрюк",
        "place": "village",
        "population": "372",
        "postal_code": "90430",
        "wikidata": "Q3849724",
        "wikipedia": "uk:Сюрюк"
      }
    },
    {
      "type": "node",
      "id": 337604807,
      "lat": 48.266781,
      "lon": 23.738436,
      "timestamp": "2021-02-09T16:37:15Z",
      "version": 7,
      "changeset": 98989755,
      "user": "muchichka_s",
      "uid": 10857625,
      "tags": {
        "koatuu": "2124488402",
        "name": "Пригідь",
        "name:en": "Pryhid",
        "name:hu": "Prihud",
        "name:prefix": "село",
        "name:ru": "Пригодь",
        "name:uk": "Пригідь",
        "place": "village",
        "population": "663",
        "postal_code": "90516",
        "wikidata": "Q3850905",
        "wikipedia": "uk:Пригідь"
      }
    },
    {
      "type": "node",
      "id": 337604812,
      "lat": 48.266369,
      "lon": 23.42869,
      "timestamp": "2021-02-09T16:37:15Z",
      "version": 6,
      "changeset": 98989755,
      "user": "muchichka_s",
      "uid": 10857625,
      "tags": {
        "koatuu": "2125382201",
        "name": "Горінчово",
        "name:en": "Horinchovo",
        "name:hu": "Herincse",
        "name:prefix": "село",
        "name:ru": "Горинчово",
        "name:uk": "Горінчово",
        "place": "village",
        "population": "3071",
        "postal_code": "90430",
        "wikidata": "Q278842",
        "wikipedia": "uk:Горінчово"
      }
    },
    {
      "type": "node",
      "id": 337605048,
      "lat": 48.26088,
      "lon": 23.55331,
      "timestamp": "2021-02-09T16:37:15Z",
      "version": 7,
      "changeset": 98989755,
      "user": "muchichka_s",
      "uid": 10857625,
      "tags": {
        "koatuu": "2125382804",
        "name": "Становець",
        "name:de": "Stanowez",
        "name:en": "Stanovets",
        "name:eo": "Stanovec",
        "name:hu": "Sztanovec",
        "name:prefix": "село",
        "name:ru": "Становец",
        "name:sk": "Stanovec",
        "name:uk": "Становець",
        "place": "village",
        "population": "486",
        "postal_code": "90432",
        "wikidata": "Q3849421",
        "wikipedia": "uk:Становець"
      }
    },
    {
      "type": "node",
      "id": 337605098,
      "lat": 48.25951,
      "lon": 23.43247,
      "timestamp": "2021-02-09T16:37:15Z",
      "version": 6,
      "changeset": 98989755,
      "user": "muchichka_s",
      "uid": 10857625,
      "tags": {
        "koatuu": "2125382202",
        "name": "Ділок",
        "name:en": "Dilok",
        "name:hu": "Blizsnigyilok",
        "name:prefix": "село",
        "name:ru": "Дилок",
        "name:uk": "Ділок",
        "place": "village",
        "population": "302",
        "postal_code": "90430",
        "wikidata": "Q3849023",
        "wikipedia": "uk:Ділок (Хустський район)"
      }
    },
    {
      "type": "node",
      "id": 337605123,
      "lat": 48.25848,
      "lon": 23.518641,
      "timestamp": "2021-02-09T16:37:15Z",
      "version": 8,
      "changeset": 98989755,
      "user": "muchichka_s",
      "uid": 10857625,
      "tags": {
        "koatuu": "2125384003",
        "name": "Поляна",
        "name:en": "Poliana",
        "name:hu": "Gernyésmező",
        "name:prefix": "село",
        "name:ru": "Поляна",
        "name:uk": "Поляна",
        "place": "village",
        "population": "238",
        "postal_code": "90433",
        "wikidata": "Q3849766",
        "wikipedia": "uk:Поляна (Хустський район)"
      }
    },
    {
      "type": "node",
      "id": 337605127,
      "lat": 48.25848,
      "lon": 23.37479,
      "timestamp": "2021-02-09T16:37:15Z",
      "version": 9,
      "changeset": 98989755,
      "user": "muchichka_s",
      "uid": 10857625,
      "tags": {
        "koatuu": "2125385201",
        "name": "Липча",
        "name:en": "Lypcha",
        "name:hu": "Lipcse",
        "name:prefix": "село",
        "name:ru": "Липча",
        "name:uk": "Липча",
        "name:yi": "ליפשא",
        "place": "village",
        "population": "3769",
        "postal_code": "90415",
        "wikidata": "Q750456",
        "wikipedia": "uk:Липча"
      }
    },
    {
      "type": "node",
      "id": 337605219,
      "lat": 48.255039,
      "lon": 23.412901,
      "timestamp": "2021-02-09T16:37:15Z",
      "version": 6,
      "changeset": 98989755,
      "user": "muchichka_s",
      "uid": 10857625,
      "tags": {
        "koatuu": "2125382204",
        "name": "Посіч",
        "name:en": "Posich",
        "name:hu": "Poszics",
        "name:prefix": "село",
        "name:ru": "Посич",
        "name:uk": "Посіч",
        "place": "village",
        "population": "249",
        "postal_code": "90430",
        "wikidata": "Q3849048",
        "wikipedia": "uk:Посіч (Хустський район)"
      }
    },
    {
      "type": "node",
      "id": 337605323,
      "lat": 48.251686,
      "lon": 23.328648,
      "timestamp": "2021-02-09T16:37:15Z",
      "version": 7,
      "changeset": 98989755,
      "user": "muchichka_s",
      "uid": 10857625,
      "tags": {
        "koatuu": "2125384202",
        "name": "Залом",
        "name:en": "Zalom",
        "name:hu": "Szakadék",
        "name:prefix": "село",
        "name:ru": "Залом",
        "name:uk": "Залом",
        "place": "village",
        "population": "2323",
        "postal_code": "90414",
        "wikidata": "Q3849798",
        "wikipedia": "uk:Залом"
      }
    },
    {
      "type": "node",
      "id": 337605475,
      "lat": 48.246245,
      "lon": 23.7571514,
      "timestamp": "2021-02-09T16:37:15Z",
      "version": 7,
      "changeset": 98989755,
      "user": "muchichka_s",
      "uid": 10857625,
      "tags": {
        "koatuu": "2124488403",
        "name": "Фонтиняси",
        "name:en": "Fontyniasy",
        "name:hu": "Fontenyásza",
        "name:prefix": "село",
        "name:ru": "Фонтынясы",
        "name:uk": "Фонтиняси",
        "place": "village",
        "population": "655",
        "postal_code": "90516",
        "wikidata": "Q3850899",
        "wikipedia": "uk:Фонтиняси"
      }
    },
    {
      "type": "node",
      "id": 337605527,
      "lat": 48.248104,
      "lon": 23.5681,
      "timestamp": "2021-02-09T16:37:15Z",
      "version": 8,
      "changeset": 98989755,
      "user": "muchichka_s",
      "uid": 10857625,
      "tags": {
        "koatuu": "2125382803",
        "name": "Кічерели",
        "name:en": "Kicherely",
        "name:hu": "Kicserela",
        "name:prefix": "село",
        "name:ru": "Кичерели",
        "name:uk": "Кічерели",
        "place": "village",
        "population": "946",
        "postal_code": "90432",
        "wikidata": "Q3848954",
        "wikipedia": "uk:Кічерели"
      }
    },
    {
      "type": "node",
      "id": 337605631,
      "lat": 48.240971,
      "lon": 23.47504,
      "timestamp": "2021-02-09T16:37:15Z",
      "version": 6,
      "changeset": 98989755,
      "user": "muchichka_s",
      "uid": 10857625,
      "tags": {
        "koatuu": "2125384004",
        "name": "Хустець",
        "name:en": "Khustets",
        "name:hu": "Husztyecpatak",
        "name:prefix": "село",
        "name:ru": "Хустец",
        "name:uk": "Хустець",
        "place": "village",
        "population": "829",
        "postal_code": "90434",
        "wikidata": "Q3849790",
        "wikipedia": "uk:Хустець (Хустський район)"
      }
    },
    {
      "type": "node",
      "id": 337605671,
      "lat": 48.23959,
      "lon": 23.586269,
      "timestamp": "2021-02-09T16:37:15Z",
      "version": 6,
      "changeset": 98989755,
      "user": "muchichka_s",
      "uid": 10857625,
      "tags": {
        "koatuu": "2124483602",
        "name": "Росош",
        "name:en": "Rososh",
        "name:hu": "Rosszos",
        "name:prefix": "село",
        "name:ru": "Россошь",
        "name:uk": "Росош",
        "place": "village",
        "population": "344",
        "postal_code": "90511",
        "wikidata": "Q3850530",
        "wikipedia": "uk:Росош (Тячівський район)"
      }
    },
    {
      "type": "node",
      "id": 337605710,
      "lat": 48.23822,
      "lon": 23.33256,
      "timestamp": "2021-02-09T16:37:15Z",
      "version": 7,
      "changeset": 98989755,
      "user": "muchichka_s",
      "uid": 10857625,
      "tags": {
        "koatuu": "2125384201",
        "name": "Кошельово",
        "name:en": "Koshelovo",
        "name:hu": "Keselymező",
        "name:prefix": "село",
        "name:ru": "Кошелёво",
        "name:uk": "Кошельово",
        "place": "village",
        "population": "3101",
        "postal_code": "90413",
        "wikidata": "Q750459",
        "wikipedia": "uk:Кошельово"
      }
    },
    {
      "type": "node",
      "id": 337605776,
      "lat": 48.235985,
      "lon": 23.548994,
      "timestamp": "2021-02-09T16:37:15Z",
      "version": 7,
      "changeset": 98989755,
      "user": "muchichka_s",
      "uid": 10857625,
      "tags": {
        "koatuu": "2125382801",
        "name": "Драгово",
        "name:ar": "دراهوفو، كجوستينديل",
        "name:de": "Drahowo",
        "name:en": "Drahovo",
        "name:eo": "Drahovo",
        "name:hu": "Kövesliget",
        "name:prefix": "село",
        "name:ru": "Драгово",
        "name:sk": "Drahovo",
        "name:uk": "Драгово",
        "place": "village",
        "population": "4450",
        "postal_code": "90432",
        "wikidata": "Q843560",
        "wikipedia": "uk:Драгово"
      }
    },
    {
      "type": "node",
      "id": 337606195,
      "lat": 48.224491,
      "lon": 23.48671,
      "timestamp": "2021-02-09T16:37:15Z",
      "version": 6,
      "changeset": 98989755,
      "user": "muchichka_s",
      "uid": 10857625,
      "tags": {
        "koatuu": "2125384002",
        "name": "Лунка",
        "name:en": "Lunka",
        "name:hu": "Kislonka",
        "name:prefix": "село",
        "name:ru": "Лунка",
        "name:uk": "Лунка",
        "place": "village",
        "population": "762",
        "postal_code": "90433",
        "wikidata": "Q839226",
        "wikipedia": "uk:Лунка (Хустський район)"
      }
    },
    {
      "type": "node",
      "id": 337606268,
      "lat": 48.2233673,
      "lon": 23.5446013,
      "timestamp": "2021-02-09T16:37:15Z",
      "version": 9,
      "changeset": 98989755,
      "user": "muchichka_s",
      "uid": 10857625,
      "tags": {
        "koatuu": "2125382802",
        "name": "Забереж",
        "name:en": "Zaberezh",
        "name:hu": "Zsovtneve",
        "name:prefix": "село",
        "name:ru": "Забереж",
        "name:uk": "Забереж",
        "old_name": "Жовтневе",
        "place": "village",
        "population": "722",
        "postal_code": "90432",
        "wikidata": "Q3849722",
        "wikipedia": "uk:Забереж"
      }
    },
    {
      "type": "node",
      "id": 337655746,
      "lat": 48.216591,
      "lon": 23.75519,
      "timestamp": "2021-02-09T16:37:15Z",
      "version": 7,
      "changeset": 98989755,
      "user": "muchichka_s",
      "uid": 10857625,
      "tags": {
        "koatuu": "2124488401",
        "name": "Широкий Луг",
        "name:en": "Shyrokyi Luh",
        "name:hu": "Széleslonka",
        "name:prefix": "село",
        "name:ru": "Широкий Луг",
        "name:uk": "Широкий Луг",
        "place": "village",
        "population": "1964",
        "postal_code": "90516",
        "wikidata": "Q750359",
        "wikipedia": "uk:Широкий Луг"
      }
    },
    {
      "type": "node",
      "id": 337655781,
      "lat": 48.2159,
      "lon": 23.48328,
      "timestamp": "2021-02-09T16:37:15Z",
      "version": 7,
      "changeset": 98989755,
      "user": "muchichka_s",
      "uid": 10857625,
      "tags": {
        "koatuu": "2125384001",
        "name": "Копашново",
        "name:de": "Kopaschnowo",
        "name:en": "Kopashnovo",
        "name:eo": "Kopaŝnovo",
        "name:hu": "Gernyés",
        "name:prefix": "село",
        "name:ru": "Копашново",
        "name:sk": "Kopašnovo",
        "name:uk": "Копашново",
        "place": "village",
        "population": "3161",
        "postal_code": "90433",
        "wikidata": "Q751646",
        "wikipedia": "uk:Копашново"
      }
    },
    {
      "type": "node",
      "id": 337655893,
      "lat": 48.212811,
      "lon": 23.32501,
      "timestamp": "2021-02-09T16:37:15Z",
      "version": 10,
      "changeset": 98989755,
      "user": "muchichka_s",
      "uid": 10857625,
      "tags": {
        "koatuu": "2125383601",
        "name": "Іза",
        "name:de": "Isa",
        "name:en": "Iza",
        "name:eo": "Іза",
        "name:hu": "Iza",
        "name:prefix": "село",
        "name:ru": "Иза",
        "name:sk": "Iza",
        "name:uk": "Іза",
        "name:yi": "איזא",
        "place": "village",
        "population": "5237",
        "postal_code": "90436",
        "wikidata": "Q714241",
        "wikipedia": "uk:Іза"
      }
    },
    {
      "type": "node",
      "id": 337656146,
      "lat": 48.206291,
      "lon": 23.817329,
      "timestamp": "2021-02-09T16:37:15Z",
      "version": 6,
      "changeset": 98989755,
      "user": "muchichka_s",
      "uid": 10857625,
      "tags": {
        "koatuu": "2124486601",
        "name": "Тарасівка",
        "name:en": "Tarasivka",
        "name:hu": "Tereselpatak",
        "name:prefix": "село",
        "name:ru": "Тарасовка",
        "name:uk": "Тарасівка",
        "place": "village",
        "population": "3067",
        "postal_code": "90530",
        "wikidata": "Q683087",
        "wikipedia": "uk:Тарасівка (Тячівський район)"
      }
    },
    {
      "type": "node",
      "id": 337656311,
      "lat": 48.2063023,
      "lon": 23.3753292,
      "timestamp": "2021-08-11T12:50:36Z",
      "version": 8,
      "changeset": 109517493,
      "user": "muchichka_s",
      "uid": 10857625,
      "tags": {
        "koatuu": "2125383602",
        "name": "Карповтлаш",
        "name:de": "Karpowtlasch",
        "name:en": "Karpovtlash",
        "name:eo": "Karpovtlaŝ",
        "name:hu": "Kárpótlás",
        "name:prefix": "село",
        "name:ru": "Карповтлаш",
        "name:uk": "Карповтлаш",
        "place": "village",
        "population": "143",
        "postal_code": "90436",
        "wikidata": "Q3849552",
        "wikipedia": "uk:Карповтлаш"
      }
    },
    {
      "type": "node",
      "id": 337656335,
      "lat": 48.203228,
      "lon": 23.290478,
      "timestamp": "2021-05-13T13:55:05Z",
      "version": 14,
      "changeset": 104641672,
      "user": "muchichka_s",
      "uid": 10857625,
      "tags": {
        "koatuu": "2110890001",
        "name": "Зарічне",
        "name:be": "Зарэчнае",
        "name:de": "Saritschne",
        "name:en": "Zarichne",
        "name:eo": "Zariĉne",
        "name:hu": "Túlanagyágtelep",
        "name:prefix": "село",
        "name:ru": "Заречное",
        "name:uk": "Зарічне",
        "place": "village",
        "population": "384",
        "postal_code": "90405",
        "wikidata": "Q3849716",
        "wikipedia": "uk:Зарічне (Хустський район)"
      }
    },
    {
      "type": "node",
      "id": 337656399,
      "lat": 48.183575,
      "lon": 23.346735,
      "timestamp": "2021-02-10T15:33:40Z",
      "version": 11,
      "changeset": 99051124,
      "user": "muchichka_s",
      "uid": 10857625,
      "tags": {
        "koatuu": "2110890002",
        "name": "Кіреші",
        "name:de": "Kireschi",
        "name:en": "Kireshi",
        "name:eo": "Кіреші",
        "name:hu": "Kőrösös",
        "name:prefix": "село",
        "name:ru": "Киреши",
        "name:uk": "Кіреші",
        "place": "village",
        "population": "1404",
        "postal_code": "90409",
        "wikidata": "Q3849414",
        "wikipedia": "uk:Кіреші"
      }
    },
    {
      "type": "node",
      "id": 337656658,
      "lat": 48.192902,
      "lon": 23.65563,
      "timestamp": "2021-05-13T13:55:05Z",
      "version": 7,
      "changeset": 104641672,
      "user": "muchichka_s",
      "uid": 10857625,
      "tags": {
        "koatuu": "2124480601",
        "name": "Велика Уголька",
        "name:de": "Welyka Uholka",
        "name:en": "Velyka Uholka",
        "name:eo": "Velika Uholjka",
        "name:hu": "Nagyugolyka",
        "name:prefix": "село",
        "name:ru": "Великая Уголька",
        "name:sk": "Veľká Ugoľka",
        "name:uk": "Велика Уголька",
        "place": "village",
        "population": "2052",
        "postal_code": "90532",
        "wikidata": "Q750508",
        "wikipedia": "uk:Велика Уголька (село)"
      }
    },
    {
      "type": "node",
      "id": 337656665,
      "lat": 48.192902,
      "lon": 23.56567,
      "timestamp": "2021-02-09T16:37:15Z",
      "version": 7,
      "changeset": 98989755,
      "user": "muchichka_s",
      "uid": 10857625,
      "tags": {
        "koatuu": "2124483601",
        "name": "Кричово",
        "name:de": "Krytschowo",
        "name:en": "Krychovo",
        "name:eo": "Kriĉovo",
        "name:hu": "Kricsfalva",
        "name:prefix": "село",
        "name:ru": "Кричово",
        "name:sk": "Kričovo",
        "name:uk": "Кричово",
        "place": "village",
        "population": "2723",
        "postal_code": "90511",
        "wikidata": "Q750330",
        "wikipedia": "uk:Кричово"
      }
    },
    {
      "type": "node",
      "id": 337656668,
      "lat": 48.192902,
      "lon": 23.41564,
      "timestamp": "2021-02-09T16:37:15Z",
      "version": 7,
      "changeset": 98989755,
      "user": "muchichka_s",
      "uid": 10857625,
      "tags": {
        "koatuu": "2125386001",
        "name": "Нанково",
        "name:de": "Nankowo",
        "name:en": "Nankovo",
        "name:hu": "Hárspatak",
        "name:prefix": "село",
        "name:ru": "Нанково",
        "name:sk": "Nankovo",
        "name:uk": "Нанково",
        "place": "village",
        "population": "2567",
        "postal_code": "90435",
        "wikidata": "Q3850158",
        "wikipedia": "uk:Нанково"
      }
    },
    {
      "type": "node",
      "id": 337656676,
      "lat": 48.189854,
      "lon": 23.256008,
      "timestamp": "2021-05-13T13:55:05Z",
      "version": 12,
      "changeset": 104641672,
      "user": "muchichka_s",
      "uid": 10857625,
      "tags": {
        "koatuu": "2110890003",
        "name": "Чертіж",
        "name:en": "Chertizh",
        "name:hu": "Csertés",
        "name:prefix": "село",
        "name:ru": "Чертиж",
        "name:uk": "Чертіж",
        "place": "village",
        "population": "1517",
        "postal_code": "90407",
        "wikidata": "Q3849371",
        "wikipedia": "uk:Чертіж (Хустський район)"
      }
    },
    {
      "type": "node",
      "id": 337656692,
      "lat": 48.192558,
      "lon": 23.55057,
      "timestamp": "2021-02-09T16:37:15Z",
      "version": 7,
      "changeset": 98989755,
      "user": "muchichka_s",
      "uid": 10857625,
      "tags": {
        "koatuu": "2124488001",
        "name": "Чумальово",
        "name:de": "Tschumaljowo",
        "name:en": "Chumalovo",
        "name:eo": "Ĉumaljovo",
        "name:hu": "Csománfalva",
        "name:prefix": "село",
        "name:ru": "Чумалёво",
        "name:sk": "Čumaľovo",
        "name:uk": "Чумальово",
        "place": "village",
        "population": "2667",
        "postal_code": "90510",
        "wikidata": "Q750704",
        "wikipedia": "uk:Чумальово"
      }
    },
    {
      "type": "node",
      "id": 337656725,
      "lat": 48.191181,
      "lon": 23.43693,
      "timestamp": "2021-02-09T16:37:15Z",
      "version": 7,
      "changeset": 98989755,
      "user": "muchichka_s",
      "uid": 10857625,
      "tags": {
        "koatuu": "2125386601",
        "name": "Нижнє Селище",
        "name:de": "Nyschnje Selyschtsche",
        "name:en": "Nyzhnie Selysche",
        "name:eo": "Niĵne Seliŝĉe",
        "name:hu": "Alsószelistye",
        "name:prefix": "село",
        "name:ru": "Нижнее Селище",
        "name:sk": "Nižné Selišťe",
        "name:uk": "Нижнє Селище",
        "place": "village",
        "population": "3044",
        "postal_code": "90440",
        "wikidata": "Q679306",
        "wikipedia": "uk:Нижнє Селище"
      }
    },
    {
      "type": "node",
      "id": 337656848,
      "lat": 48.192223,
      "lon": 23.500517,
      "timestamp": "2021-02-09T16:37:15Z",
      "version": 8,
      "changeset": 98989755,
      "user": "muchichka_s",
      "uid": 10857625,
      "tags": {
        "koatuu": "2125383201",
        "name": "Золотарьово",
        "name:ar": "زولوتاروفو، زاكارباتسكا",
        "name:de": "Solotarjowo",
        "name:en": "Zolotarovo",
        "name:eo": "Zolotarovo",
        "name:hu": "Ötvösfalva",
        "name:prefix": "село",
        "name:ru": "Золотарёво",
        "name:sk": "Zlatáry",
        "name:uk": "Золотарьово",
        "place": "village",
        "population": "4266",
        "postal_code": "90441",
        "wikidata": "Q843556",
        "wikipedia": "uk:Золотарьово (Україна)"
      }
    },
    {
      "type": "node",
      "id": 337657214,
      "lat": 48.17917,
      "lon": 23.88599,
      "timestamp": "2021-04-22T18:17:06Z",
      "version": 10,
      "changeset": 103430617,
      "user": "muchichka_s",
      "uid": 10857625,
      "tags": {
        "koatuu": "2124455600",
        "name": "Дубове",
        "name:en": "Dubove",
        "name:hu": "Dombó",
        "name:pl": "Dubowe",
        "name:prefix": "селище міського типу",
        "name:ru": "Дубове",
        "name:uk": "Дубове",
        "place": "town",
        "population": "9591",
        "postal_code": "90531",
        "wikidata": "Q908208",
        "wikipedia": "uk:Дубове (Закарпатська область)"
      }
    },
    {
      "type": "node",
      "id": 337657270,
      "lat": 48.178139,
      "lon": 23.90453,
      "timestamp": "2021-02-09T16:37:15Z",
      "version": 7,
      "changeset": 98989755,
      "user": "muchichka_s",
      "uid": 10857625,
      "tags": {
        "koatuu": "2124455601",
        "name": "Вишній Дубовець",
        "name:en": "Vyshnii Dubovets",
        "name:hu": "Felsőpatakvölgy",
        "name:prefix": "село",
        "name:ru": "Вышний Дубовец",
        "name:uk": "Вишній Дубовець",
        "place": "village",
        "population": "714",
        "postal_code": "90531",
        "wikidata": "Q3850852",
        "wikipedia": "uk:Вишній Дубовець"
      }
    },
    {
      "type": "node",
      "id": 337657274,
      "lat": 48.1764917,
      "lon": 23.291166,
      "timestamp": "2020-11-17T23:10:01Z",
      "version": 8,
      "changeset": 94313247,
      "user": "muchichka_s",
      "uid": 10857625,
      "tags": {
        "koatuu": "2110800000",
        "name": "Хуст",
        "name:bg": "Хуст",
        "name:crh": "Hust",
        "name:cs": "Chust",
        "name:de": "Chust",
        "name:en": "Khust",
        "name:eo": "Ĥust",
        "name:fr": "Khoust",
        "name:he": "חוסט",
        "name:hu": "Huszt",
        "name:pl": "Chust",
        "name:prefix": "місто",
        "name:ro": "Hust",
        "name:ru": "Хуст",
        "name:sk": "Chust",
        "name:uk": "Хуст",
        "name:yi": "חוסט",
        "place": "town",
        "population": "28438",
        "postal_code": "90400",
        "wikidata": "Q146469",
        "wikipedia": "uk:Хуст"
      }
    },
    {
      "type": "node",
      "id": 337657308,
      "lat": 48.172405,
      "lon": 23.234766,
      "timestamp": "2021-02-09T16:37:15Z",
      "version": 9,
      "changeset": 98989755,
      "user": "muchichka_s",
      "uid": 10857625,
      "tags": {
        "koatuu": "2125384601",
        "name": "Крива",
        "name:en": "Kryva",
        "name:hu": "Tiszakirva",
        "name:prefix": "село",
        "name:ru": "Крива",
        "name:uk": "Крива",
        "place": "village",
        "population": "1365",
        "postal_code": "90412",
        "wikidata": "Q4240606",
        "wikipedia": "uk:Крива (Хустський район)"
      }
    },
    {
      "type": "node",
      "id": 337657342,
      "lat": 48.175388,
      "lon": 23.6388,
      "timestamp": "2021-02-09T16:37:15Z",
      "version": 6,
      "changeset": 98989755,
      "user": "muchichka_s",
      "uid": 10857625,
      "tags": {
        "koatuu": "2124487604",
        "name": "Мала Уголька",
        "name:de": "Mala Uholka",
        "name:en": "Mala Uholka",
        "name:eo": "Mala Uholjka",
        "name:hu": "Kisugolyka",
        "name:prefix": "село",
        "name:ru": "Малая Уголька",
        "name:sk": "Malá Ugoľka",
        "name:uk": "Мала Уголька",
        "place": "village",
        "population": "1503",
        "postal_code": "90514",
        "wikidata": "Q3850887",
        "wikipedia": "uk:Мала Уголька"
      }
    },
    {
      "type": "node",
      "id": 337657632,
      "lat": 48.167488,
      "lon": 23.53684,
      "timestamp": "2021-02-09T16:37:15Z",
      "version": 6,
      "changeset": 98989755,
      "user": "muchichka_s",
      "uid": 10857625,
      "tags": {
        "koatuu": "2124488002",
        "name": "Рівне",
        "name:en": "Rivne",
        "name:hu": "Rovne",
        "name:prefix": "село",
        "name:ru": "Ровное",
        "name:uk": "Рівне",
        "place": "village",
        "population": "368",
        "postal_code": "90510",
        "wikidata": "Q3850873",
        "wikipedia": "uk:Рівне (Тячівський район)"
      }
    },
    {
      "type": "node",
      "id": 337657687,
      "lat": 48.1516483,
      "lon": 23.7665368,
      "timestamp": "2021-02-09T16:37:15Z",
      "version": 8,
      "changeset": 98989755,
      "user": "muchichka_s",
      "uid": 10857625,
      "tags": {
        "koatuu": "2124485301",
        "name": "Новоселиця",
        "name:en": "Novoselytsia",
        "name:hu": "Újbárd",
        "name:prefix": "село",
        "name:ru": "Новоселица",
        "name:uk": "Новоселиця",
        "place": "village",
        "population": "3120",
        "postal_code": "90533",
        "wikidata": "Q3850832",
        "wikipedia": "uk:Новоселиця (Тячівський район)"
      }
    },
    {
      "type": "node",
      "id": 337657701,
      "lat": 48.163719,
      "lon": 23.598629,
      "timestamp": "2021-02-09T16:37:15Z",
      "version": 7,
      "changeset": 98989755,
      "user": "muchichka_s",
      "uid": 10857625,
      "tags": {
        "koatuu": "2124483001",
        "name": "Колодне",
        "name:de": "Kolodne",
        "name:en": "Kolodne",
        "name:eo": "Kolodne",
        "name:hu": "Darva",
        "name:prefix": "село",
        "name:ru": "Колодное",
        "name:sk": "Kolodné",
        "name:uk": "Колодне",
        "place": "village",
        "population": "2119",
        "postal_code": "90512",
        "wikidata": "Q750323",
        "wikipedia": "uk:Колодне (Тячівський район)"
      }
    },
    {
      "type": "node",
      "id": 337657818,
      "lat": 48.159939,
      "lon": 23.900761,
      "timestamp": "2021-02-09T16:37:15Z",
      "version": 6,
      "changeset": 98989755,
      "user": "muchichka_s",
      "uid": 10857625,
      "tags": {
        "koatuu": "2124455602",
        "name": "Нижній Дубовець",
        "name:en": "Nyzhnii Dubovets",
        "name:hu": "Alsópatakvölgy",
        "name:prefix": "село",
        "name:ru": "Нижний Дубовец",
        "name:uk": "Нижній Дубовець",
        "place": "village",
        "population": "1121",
        "postal_code": "90531",
        "wikidata": "Q3850882",
        "wikipedia": "uk:Нижній Дубовець"
      }
    },
    {
      "type": "node",
      "id": 337657846,
      "lat": 48.158909,
      "lon": 23.39024,
      "timestamp": "2021-02-09T16:37:15Z",
      "version": 7,
      "changeset": 98989755,
      "user": "muchichka_s",
      "uid": 10857625,
      "tags": {
        "koatuu": "2125381001",
        "name": "Боронява",
        "name:en": "Boroniava",
        "name:hu": "Husztbaranya",
        "name:prefix": "село",
        "name:ru": "Боронява",
        "name:uk": "Боронява",
        "place": "village",
        "population": "3511",
        "postal_code": "90442",
        "wikidata": "Q536391",
        "wikipedia": "uk:Боронява"
      }
    },
    {
      "type": "node",
      "id": 337658093,
      "lat": 48.15136,
      "lon": 23.625759,
      "timestamp": "2021-02-09T16:37:15Z",
      "version": 7,
      "changeset": 98989755,
      "user": "muchichka_s",
      "uid": 10857625,
      "tags": {
        "koatuu": "2124487601",
        "name": "Угля",
        "name:de": "Uhlja",
        "name:en": "Uhlia",
        "name:eo": "Uhlja",
        "name:hu": "Uglya",
        "name:prefix": "село",
        "name:ru": "Угля",
        "name:sk": "Uhľa",
        "name:uk": "Угля",
        "place": "village",
        "population": "3117",
        "postal_code": "90514",
        "wikidata": "Q704928",
        "wikipedia": "uk:Угля"
      }
    },
    {
      "type": "node",
      "id": 337658394,
      "lat": 48.14381,
      "lon": 23.45409,
      "timestamp": "2021-05-13T13:55:05Z",
      "version": 9,
      "changeset": 104641672,
      "user": "muchichka_s",
      "uid": 10857625,
      "tags": {
        "koatuu": "2125382601",
        "name": "Данилово",
        "name:be": "Данілава",
        "name:de": "Danylowo",
        "name:en": "Danylovo",
        "name:eo": "Danilovo",
        "name:hu": "Husztsófalva",
        "name:prefix": "село",
        "name:ru": "Данилово",
        "name:sk": "Danilovo",
        "name:uk": "Данилово",
        "place": "village",
        "population": "1851",
        "postal_code": "90443",
        "wikidata": "Q643917",
        "wikipedia": "uk:Данилово (Україна)"
      }
    },
    {
      "type": "node",
      "id": 337658399,
      "lat": 48.145725,
      "lon": 23.667278,
      "timestamp": "2021-02-09T16:37:15Z",
      "version": 7,
      "changeset": 98989755,
      "user": "muchichka_s",
      "uid": 10857625,
      "tags": {
        "koatuu": "2124487603",
        "name": "Груники",
        "name:en": "Hrunyky",
        "name:hu": "Grunyiki",
        "name:prefix": "село",
        "name:ru": "Груники",
        "name:uk": "Груники",
        "place": "village",
        "population": "1416",
        "postal_code": "90514",
        "wikidata": "Q3850621",
        "wikipedia": "uk:Груники"
      }
    },
    {
      "type": "node",
      "id": 337658421,
      "lat": 48.14312,
      "lon": 23.58765,
      "timestamp": "2021-02-09T16:37:15Z",
      "version": 6,
      "changeset": 98989755,
      "user": "muchichka_s",
      "uid": 10857625,
      "tags": {
        "koatuu": "2124482601",
        "name": "Дулово",
        "name:en": "Dulovo",
        "name:hu": "Dulfalva",
        "name:prefix": "село",
        "name:ru": "Дулово",
        "name:uk": "Дулово",
        "place": "village",
        "population": "2420",
        "postal_code": "90513",
        "wikidata": "Q750498",
        "wikipedia": "uk:Дулово"
      }
    },
    {
      "type": "node",
      "id": 337658504,
      "lat": 48.141399,
      "lon": 23.87364,
      "timestamp": "2021-02-09T16:37:15Z",
      "version": 7,
      "changeset": 98989755,
      "user": "muchichka_s",
      "uid": 10857625,
      "tags": {
        "koatuu": "2124482801",
        "name": "Калини",
        "name:en": "Kalyny",
        "name:hu": "Alsókálinfalva",
        "name:prefix": "село",
        "name:ru": "Калины",
        "name:uk": "Калини",
        "place": "village",
        "population": "5844",
        "postal_code": "90532",
        "wikidata": "Q4209942",
        "wikipedia": "uk:Калини (Тячівський район)"
      }
    },
    {
      "type": "node",
      "id": 337658626,
      "lat": 48.1770342,
      "lon": 23.7563857,
      "timestamp": "2021-02-09T16:37:15Z",
      "version": 9,
      "changeset": 98989755,
      "user": "muchichka_s",
      "uid": 10857625,
      "tags": {
        "koatuu": "2124485302",
        "name": "Тисалово",
        "name:en": "Tysalovo",
        "name:hu": "Tiszaló",
        "name:prefix": "село",
        "name:ru": "Тисалово",
        "name:uk": "Тисалово",
        "place": "village",
        "population": "1281",
        "postal_code": "90534",
        "wikidata": "Q750590",
        "wikipedia": "uk:Тисалово"
      }
    },
    {
      "type": "node",
      "id": 337658637,
      "lat": 48.13625,
      "lon": 23.506281,
      "timestamp": "2021-02-09T16:37:15Z",
      "version": 9,
      "changeset": 98989755,
      "user": "muchichka_s",
      "uid": 10857625,
      "tags": {
        "koatuu": "2125380201",
        "name": "Олександрівка",
        "name:be": "Аляксандраўка",
        "name:de": "Olexandriwka",
        "name:en": "Oleksandrivka",
        "name:eo": "Oleksandrivka",
        "name:hu": "Ósándorfalva",
        "name:pl": "Aleksandrówka",
        "name:prefix": "село",
        "name:ru": "Александровка",
        "name:sk": "Šandrovo",
        "name:uk": "Олександрівка",
        "place": "village",
        "population": "2279",
        "postal_code": "90444",
        "wikidata": "Q714635",
        "wikipedia": "uk:Олександрівка (Хустський район)"
      }
    },
    {
      "type": "node",
      "id": 337658762,
      "lat": 48.13142,
      "lon": 23.222546,
      "timestamp": "2021-05-13T13:55:05Z",
      "version": 11,
      "changeset": 104641672,
      "user": "muchichka_s",
      "uid": 10857625,
      "tags": {
        "koatuu": "2121282701",
        "name": "Новоселиця",
        "name:en": "Novoselytsia",
        "name:hu": "Sósfalu",
        "name:prefix": "село",
        "name:ru": "Новоселица",
        "name:uk": "Новоселиця",
        "name:yi": "נאוועסעליץ",
        "place": "village",
        "population": "1435",
        "postal_code": "90341",
        "wikidata": "Q714271",
        "wikipedia": "uk:Новоселиця (Берегівський район)"
      }
    },
    {
      "type": "node",
      "id": 337658789,
      "lat": 48.131451,
      "lon": 23.79948,
      "timestamp": "2021-02-09T16:37:15Z",
      "version": 6,
      "changeset": 98989755,
      "user": "muchichka_s",
      "uid": 10857625,
      "tags": {
        "koatuu": "2124484802",
        "name": "Підплеша",
        "name:en": "Pidplesha",
        "name:hu": "Pelesalja",
        "name:prefix": "село",
        "name:ru": "Подплеша",
        "name:uk": "Підплеша",
        "place": "village",
        "population": "1244",
        "postal_code": "90541",
        "wikidata": "Q3850524",
        "wikipedia": "uk:Підплеша"
      }
    },
    {
      "type": "node",
      "id": 337658868,
      "lat": 48.12767,
      "lon": 23.82729,
      "timestamp": "2021-02-09T16:37:15Z",
      "version": 6,
      "changeset": 98989755,
      "user": "muchichka_s",
      "uid": 10857625,
      "tags": {
        "koatuu": "2124481201",
        "name": "Ганичі",
        "name:en": "Hanychi",
        "name:hu": "Gánya",
        "name:prefix": "село",
        "name:ru": "Ганичи",
        "name:uk": "Ганичі",
        "place": "village",
        "population": "4986",
        "postal_code": "90535",
        "wikidata": "Q750465",
        "wikipedia": "uk:Ганичі"
      }
    },
    {
      "type": "node",
      "id": 337658969,
      "lat": 48.12389,
      "lon": 23.74077,
      "timestamp": "2021-02-09T16:37:15Z",
      "version": 6,
      "changeset": 98989755,
      "user": "muchichka_s",
      "uid": 10857625,
      "tags": {
        "koatuu": "2124485802",
        "name": "Вільхівчик",
        "name:en": "Vilkhivchyk",
        "name:hu": "Olhovcsik",
        "name:prefix": "село",
        "name:ru": "Ольховчик",
        "name:uk": "Вільхівчик",
        "place": "village",
        "population": "1441",
        "postal_code": "90543",
        "wikidata": "Q4334348",
        "wikipedia": "uk:Вільхівчик (Тячівський район)"
      }
    },
    {
      "type": "node",
      "id": 337658984,
      "lat": 48.123211,
      "lon": 23.773041,
      "timestamp": "2020-11-22T20:23:57Z",
      "version": 7,
      "changeset": 94597612,
      "user": "muchichka_s",
      "uid": 10857625,
      "tags": {
        "koatuu": "2124484801",
        "name": "Нересниця",
        "name:en": "Neresnytsia",
        "name:hu": "Nyéresháza",
        "name:prefix": "село",
        "name:ru": "Нересница",
        "name:uk": "Нересниця",
        "place": "village",
        "population": "3732",
        "postal_code": "90540",
        "wikidata": "Q750353",
        "wikipedia": "uk:Нересниця"
      }
    },
    {
      "type": "node",
      "id": 337659012,
      "lat": 48.122181,
      "lon": 23.70438,
      "timestamp": "2021-02-09T16:37:15Z",
      "version": 6,
      "changeset": 98989755,
      "user": "muchichka_s",
      "uid": 10857625,
      "tags": {
        "koatuu": "2124485901",
        "name": "Вільхівці-Лази",
        "name:en": "Vilkhivtsi-Lazy",
        "name:hu": "Irhóc-Lázi",
        "name:prefix": "село",
        "name:ru": "Ольховцы-Лазы",
        "name:uk": "Вільхівці-Лази",
        "place": "village",
        "population": "3215",
        "postal_code": "90544",
        "wikidata": "Q3850815",
        "wikipedia": "uk:Вільхівці-Лази"
      }
    },
    {
      "type": "node",
      "id": 337659120,
      "lat": 48.119328,
      "lon": 23.693367,
      "timestamp": "2021-02-09T16:37:15Z",
      "version": 7,
      "changeset": 98989755,
      "user": "muchichka_s",
      "uid": 10857625,
      "tags": {
        "koatuu": "2124485902",
        "name": "Ракове",
        "name:en": "Rakove",
        "name:hu": "Rakó",
        "name:prefix": "село",
        "name:ru": "Раково",
        "name:uk": "Ракове",
        "place": "village",
        "population": "968",
        "postal_code": "90544",
        "wikidata": "Q3850866",
        "wikipedia": "uk:Ракове (Тячівський район)"
      }
    },
    {
      "type": "node",
      "id": 337659169,
      "lat": 48.118404,
      "lon": 23.678503,
      "timestamp": "2021-02-09T16:37:15Z",
      "version": 8,
      "changeset": 98989755,
      "user": "muchichka_s",
      "uid": 10857625,
      "tags": {
        "koatuu": "2124487602",
        "name": "Бобове",
        "name:en": "Bobove",
        "name:hu": "Bobovoje",
        "name:prefix": "село",
        "name:ru": "Бобовое",
        "name:uk": "Бобове",
        "place": "village",
        "population": "198",
        "postal_code": "90514",
        "wikidata": "Q3850820",
        "wikipedia": "uk:Бобове (село)"
      }
    },
    {
      "type": "node",
      "id": 337659194,
      "lat": 48.1087449,
      "lon": 23.3144067,
      "timestamp": "2021-05-13T13:55:05Z",
      "version": 14,
      "changeset": 104641672,
      "user": "muchichka_s",
      "uid": 10857625,
      "tags": {
        "koatuu": "2125381401",
        "name": "Велятино",
        "name:ar": "فيلياتينو (زاكارباتسكا)",
        "name:de": "Weljatyno",
        "name:en": "Veliatyno",
        "name:fr": "Veliatyno",
        "name:hu": "Veléte",
        "name:hy": "Վէլիատինո",
        "name:it": "Veljatyno",
        "name:ka": "ველიატინო",
        "name:prefix": "село",
        "name:sk": "Veľatín",
        "name:uk": "Велятино",
        "name:yi": "וועליאטין",
        "old_name": "Велятин",
        "old_name:de": "Weljatyn",
        "old_name:en": "Veliatyn",
        "old_name:fr": "Veliatyn",
        "old_name:hy": "Վելյատին",
        "old_name:it": "Veljatyn",
        "old_name:ru": "Велятин",
        "old_name:uk": "Велятин",
        "place": "village",
        "population": "4576",
        "postal_code": "90453",
        "url": "https://ua.112.ua/polityka/rada-pereimenuvala-sim-sil-437077.html",
        "wikidata": "Q750807",
        "wikipedia": "uk:Велятино"
      }
    },
    {
      "type": "node",
      "id": 337659228,
      "lat": 48.117165,
      "lon": 23.382006,
      "timestamp": "2021-02-09T16:37:15Z",
      "version": 9,
      "changeset": 98989755,
      "user": "muchichka_s",
      "uid": 10857625,
      "tags": {
        "koatuu": "2125387401",
        "name": "Сокирниця",
        "name:de": "Sokyrnyzja",
        "name:en": "Sokyrnytsia",
        "name:eo": "Sokirnicja",
        "name:hu": "Szeklence",
        "name:prefix": "село",
        "name:ru": "Сокирница",
        "name:sk": "Sekernice",
        "name:uk": "Сокирниця",
        "place": "village",
        "population": "5217",
        "postal_code": "90450",
        "wikidata": "Q378822",
        "wikipedia": "uk:Сокирниця (Хустський район)"
      }
    },
    {
      "type": "node",
      "id": 337659404,
      "lat": 48.111191,
      "lon": 23.59417,
      "timestamp": "2021-02-09T16:37:15Z",
      "version": 6,
      "changeset": 98989755,
      "user": "muchichka_s",
      "uid": 10857625,
      "tags": {
        "koatuu": "2124487001",
        "name": "Теребля",
        "name:en": "Tereblia",
        "name:hu": "Talaborfalu",
        "name:prefix": "село",
        "name:ru": "Теребля",
        "name:uk": "Теребля",
        "place": "village",
        "population": "3705",
        "postal_code": "90550",
        "wikidata": "Q3406804",
        "wikipedia": "uk:Теребля (Тячівський район)"
      }
    },
    {
      "type": "node",
      "id": 337659435,
      "lat": 48.110096,
      "lon": 23.206003,
      "timestamp": "2017-06-25T19:38:56Z",
      "version": 9,
      "changeset": 49821411,
      "user": "Athoss15",
      "uid": 5284554,
      "tags": {
        "koatuu": "2121285601",
        "name": "Хижа",
        "name:hu": "Kistarna",
        "name:prefix": "село",
        "name:ru": "Хижа",
        "name:uk": "Хижа",
        "place": "village",
        "population": "1714",
        "wikidata": "Q281382",
        "wikipedia": "uk:Хижа"
      }
    },
    {
      "type": "node",
      "id": 337659480,
      "lat": 48.10638,
      "lon": 23.74729,
      "timestamp": "2021-02-09T16:37:15Z",
      "version": 8,
      "changeset": 98989755,
      "user": "muchichka_s",
      "uid": 10857625,
      "tags": {
        "koatuu": "2124485801",
        "name": "Вільхівці",
        "name:en": "Vilkhivtsi",
        "name:hu": "Irhóc",
        "name:prefix": "село",
        "name:ru": "Ольховцы",
        "name:uk": "Вільхівці",
        "place": "village",
        "population": "3374",
        "postal_code": "90542",
        "wikidata": "Q254366",
        "wikipedia": "uk:Вільхівці (Тячівський район)"
      }
    },
    {
      "type": "node",
      "id": 337659669,
      "lat": 48.101582,
      "lon": 23.506281,
      "timestamp": "2021-02-09T16:37:15Z",
      "version": 6,
      "changeset": 98989755,
      "user": "muchichka_s",
      "uid": 10857625,
      "tags": {
        "koatuu": "2124485001",
        "name": "Новобарово",
        "name:en": "Novobarovo",
        "name:hu": "Újbárd",
        "name:prefix": "село",
        "name:ru": "Новобарово",
        "name:uk": "Новобарово",
        "place": "village",
        "population": "2007",
        "postal_code": "90552",
        "wikidata": "Q750519",
        "wikipedia": "uk:Новобарово"
      }
    },
    {
      "type": "node",
      "id": 337659762,
      "lat": 48.099171,
      "lon": 23.69442,
      "timestamp": "2021-02-09T16:37:15Z",
      "version": 6,
      "changeset": 98989755,
      "user": "muchichka_s",
      "uid": 10857625,
      "tags": {
        "koatuu": "2124485803",
        "name": "Сасово",
        "name:en": "Sasovo",
        "name:hu": "Szálláspatak",
        "name:prefix": "село",
        "name:ru": "Сасово",
        "name:uk": "Сасово",
        "place": "village",
        "population": "426",
        "postal_code": "90542",
        "wikidata": "Q3850590",
        "wikipedia": "uk:Сасово (Тячівський район)"
      }
    },
    {
      "type": "node",
      "id": 337660010,
      "lat": 48.091305,
      "lon": 23.422409,
      "timestamp": "2021-02-09T16:37:15Z",
      "version": 10,
      "changeset": 98989755,
      "user": "muchichka_s",
      "uid": 10857625,
      "tags": {
        "koatuu": "2125387801",
        "name": "Стеблівка",
        "name:de": "Stebliwka",
        "name:en": "Steblivka",
        "name:hu": "Száldobos",
        "name:prefix": "село",
        "name:ru": "Стеблёвка",
        "name:uk": "Стеблівка",
        "place": "village",
        "population": "2231",
        "postal_code": "90451",
        "wikidata": "Q714422",
        "wikipedia": "uk:Стеблівка (Хустський район)"
      }
    },
    {
      "type": "node",
      "id": 337660057,
      "lat": 48.089218,
      "lon": 23.75004,
      "timestamp": "2021-02-09T16:37:15Z",
      "version": 6,
      "changeset": 98989755,
      "user": "muchichka_s",
      "uid": 10857625,
      "tags": {
        "koatuu": "2124487402",
        "name": "Вишоватий",
        "name:en": "Vyshovatyi",
        "name:hu": "Vosováti",
        "name:prefix": "село",
        "name:ru": "Вышоватый",
        "name:uk": "Вишоватий",
        "place": "village",
        "population": "1803",
        "postal_code": "90546",
        "wikidata": "Q3850809",
        "wikipedia": "uk:Вишоватий"
      }
    },
    {
      "type": "node",
      "id": 337660061,
      "lat": 48.087498,
      "lon": 23.6710269,
      "timestamp": "2021-02-09T16:37:15Z",
      "version": 7,
      "changeset": 98989755,
      "user": "muchichka_s",
      "uid": 10857625,
      "tags": {
        "koatuu": "2124484002",
        "name": "Округла",
        "name:en": "Okruhla",
        "name:hu": "Kerekhegy",
        "name:prefix": "село",
        "name:ru": "Округлая",
        "name:uk": "Округла",
        "place": "village",
        "population": "573",
        "postal_code": "90555",
        "wikidata": "Q2090223",
        "wikipedia": "uk:Округла"
      }
    },
    {
      "type": "node",
      "id": 337660222,
      "lat": 48.074154,
      "lon": 23.80612,
      "timestamp": "2021-02-09T16:37:15Z",
      "version": 7,
      "changeset": 98989755,
      "user": "muchichka_s",
      "uid": 10857625,
      "tags": {
        "koatuu": "2124487403",
        "name": "Петрушів",
        "name:en": "Petrushiv",
        "name:hu": "Petrusó",
        "name:prefix": "село",
        "name:ru": "Петрушов",
        "name:uk": "Петрушів",
        "place": "village",
        "population": "2687",
        "postal_code": "90545",
        "wikidata": "Q3850539",
        "wikipedia": "uk:Петрушів"
      }
    },
    {
      "type": "node",
      "id": 337660381,
      "lat": 48.075829,
      "lon": 23.530661,
      "timestamp": "2021-02-09T16:37:15Z",
      "version": 7,
      "changeset": 98989755,
      "user": "muchichka_s",
      "uid": 10857625,
      "tags": {
        "koatuu": "2124480801",
        "name": "Вонігове",
        "name:en": "Vonihove",
        "name:hu": "Vajnág",
        "name:prefix": "село",
        "name:ru": "Вонигово",
        "name:uk": "Вонігове",
        "place": "village",
        "population": "2654",
        "postal_code": "90553",
        "wikidata": "Q750122",
        "wikipedia": "uk:Вонігове"
      }
    },
    {
      "type": "node",
      "id": 337660466,
      "lat": 48.072464,
      "lon": 23.350922,
      "timestamp": "2021-02-14T20:26:32Z",
      "version": 8,
      "changeset": 99265858,
      "user": "muchichka_s",
      "uid": 10857625,
      "tags": {
        "koatuu": "2125355301",
        "name": "Модьорош",
        "name:en": "Modorosh",
        "name:hu": "Mogyorós",
        "name:prefix": "село",
        "name:ru": "Модёрош",
        "name:uk": "Модьорош",
        "place": "village",
        "population": "374",
        "postal_code": "90456",
        "wikidata": "Q3849733",
        "wikipedia": "uk:Модьорош"
      }
    },
    {
      "type": "node",
      "id": 337660491,
      "lat": 48.071709,
      "lon": 23.738371,
      "timestamp": "2021-02-09T16:37:15Z",
      "version": 9,
      "changeset": 98989755,
      "user": "muchichka_s",
      "uid": 10857625,
      "tags": {
        "koatuu": "2124487401",
        "name": "Терново",
        "name:en": "Ternovo",
        "name:hu": "Kökényes",
        "name:prefix": "село",
        "name:ru": "Терново",
        "name:uk": "Терново",
        "name:yi": "טערניווע",
        "place": "village",
        "population": "4302",
        "postal_code": "90545",
        "wikidata": "Q750334",
        "wikipedia": "uk:Терново"
      }
    },
    {
      "type": "node",
      "id": 337660544,
      "lat": 48.070332,
      "lon": 23.716049,
      "timestamp": "2021-02-09T16:37:15Z",
      "version": 6,
      "changeset": 98989755,
      "user": "muchichka_s",
      "uid": 10857625,
      "tags": {
        "koatuu": "2124482501",
        "name": "Добрянське",
        "name:en": "Dobrianske",
        "name:hu": "Nyágova",
        "name:prefix": "село",
        "name:ru": "Добрянское",
        "name:uk": "Добрянське",
        "place": "village",
        "population": "2714",
        "postal_code": "90560",
        "wikidata": "Q4163921",
        "wikipedia": "uk:Добрянське (Тячівський район)"
      }
    },
    {
      "type": "node",
      "id": 337660918,
      "lat": 48.0340247,
      "lon": 23.8510587,
      "timestamp": "2021-02-16T11:19:46Z",
      "version": 8,
      "changeset": 99375886,
      "user": "muchichka_s",
      "uid": 10857625,
      "tags": {
        "koatuu": "2124482402",
        "name": "Пещера",
        "name:en": "Peschera",
        "name:hu": "Pescsera",
        "name:prefix": "село",
        "name:ro": "Peștera",
        "name:ru": "Пещера",
        "name:uk": "Пещера",
        "place": "village",
        "population": "104",
        "postal_code": "90579",
        "wikidata": "Q3850914",
        "wikipedia": "uk:Пещера (село)"
      }
    },
    {
      "type": "node",
      "id": 337660943,
      "lat": 48.05938,
      "lon": 23.350082,
      "timestamp": "2021-02-09T15:21:22Z",
      "version": 7,
      "changeset": 98985932,
      "user": "muchichka_s",
      "uid": 10857625,
      "tags": {
        "koatuu": "2125355303",
        "name": "Шаян",
        "name:en": "Shaian",
        "name:hu": "Saján",
        "name:prefix": "село",
        "name:ru": "Шаян",
        "name:uk": "Шаян",
        "place": "village",
        "population": "534",
        "postal_code": "90457",
        "wikidata": "Q3849546",
        "wikipedia": "uk:Шаян (Україна)"
      }
    },
    {
      "type": "node",
      "id": 337660973,
      "lat": 48.058659,
      "lon": 23.64533,
      "timestamp": "2021-02-09T16:37:15Z",
      "version": 9,
      "changeset": 98989755,
      "user": "muchichka_s",
      "uid": 10857625,
      "tags": {
        "koatuu": "2124484001",
        "name": "Лази",
        "name:be": "Лазы",
        "name:en": "Lazy",
        "name:hu": "Lázi",
        "name:prefix": "село",
        "name:ru": "Лазы",
        "name:uk": "Лази",
        "place": "village",
        "population": "3801",
        "postal_code": "90554",
        "wikidata": "Q3850708",
        "wikipedia": "uk:Лази (Тячівський район)"
      }
    },
    {
      "type": "node",
      "id": 337661081,
      "lat": 48.055229,
      "lon": 23.88496,
      "timestamp": "2021-02-09T16:37:15Z",
      "version": 8,
      "changeset": 98989755,
      "user": "muchichka_s",
      "uid": 10857625,
      "tags": {
        "koatuu": "2124481601",
        "name": "Глибокий Потік",
        "name:en": "Hlybokyi Potik",
        "name:hu": "Szorospatak",
        "name:prefix": "село",
        "name:ro": "Strâmtura",
        "name:ru": "Глубокий Поток",
        "name:uk": "Глибокий Потік",
        "place": "village",
        "population": "5531",
        "postal_code": "90574",
        "wikidata": "Q751858",
        "wikipedia": "uk:Глибокий Потік"
      }
    },
    {
      "type": "node",
      "id": 337661118,
      "lat": 48.054199,
      "lon": 23.526541,
      "timestamp": "2021-02-09T16:37:15Z",
      "version": 8,
      "changeset": 98989755,
      "user": "muchichka_s",
      "uid": 10857625,
      "tags": {
        "koatuu": "2124486201",
        "name": "Руське Поле",
        "name:de": "Ruske Pole",
        "name:en": "Ruske Pole",
        "name:eo": "Ruske Pole",
        "name:hu": "Úrmező",
        "name:prefix": "село",
        "name:ru": "Русское Поле",
        "name:sk": "Ruské Pole",
        "name:uk": "Руське Поле",
        "place": "village",
        "population": "5243",
        "postal_code": "90551",
        "wikidata": "Q750125",
        "wikipedia": "uk:Руське Поле"
      }
    },
    {
      "type": "node",
      "id": 337661433,
      "lat": 48.0460598,
      "lon": 23.4277425,
      "timestamp": "2020-11-17T23:10:01Z",
      "version": 8,
      "changeset": 94313247,
      "user": "muchichka_s",
      "uid": 10857625,
      "tags": {
        "koatuu": "2125355300",
        "name": "Вишково",
        "name:en": "Vyshkovo",
        "name:hu": "Visk",
        "name:pl": "Wyszkowo",
        "name:prefix": "селище міського типу",
        "name:ru": "Вышково",
        "name:uk": "Вишково",
        "place": "town",
        "population": "8312",
        "postal_code": "90454",
        "wikidata": "Q1051025",
        "wikipedia": "uk:Вишково"
      }
    },
    {
      "type": "node",
      "id": 337661450,
      "lat": 48.0252892,
      "lon": 23.853977,
      "timestamp": "2021-02-16T10:52:37Z",
      "version": 8,
      "changeset": 99373483,
      "user": "muchichka_s",
      "uid": 10857625,
      "tags": {
        "koatuu": "2124482403",
        "name": "Подішор",
        "name:en": "Podishor",
        "name:hu": "Podisor",
        "name:prefix": "село",
        "name:ro": "Podișor",
        "name:ru": "Подишор",
        "name:uk": "Подішор",
        "place": "village",
        "population": "1183",
        "postal_code": "90572",
        "wikidata": "Q3850803",
        "wikipedia": "uk:Подішор"
      }
    },
    {
      "type": "node",
      "id": 337661470,
      "lat": 48.044579,
      "lon": 23.395041,
      "timestamp": "2021-02-09T16:37:15Z",
      "version": 6,
      "changeset": 98989755,
      "user": "muchichka_s",
      "uid": 10857625,
      "tags": {
        "koatuu": "2125355302",
        "name": "Ракош",
        "name:en": "Rakosh",
        "name:hu": "Rákos",
        "name:prefix": "село",
        "name:ru": "Ракош",
        "name:uk": "Ракош",
        "place": "village",
        "population": "1147",
        "postal_code": "90454",
        "wikidata": "Q3848993",
        "wikipedia": "uk:Ракош"
      }
    },
    {
      "type": "node",
      "id": 337661533,
      "lat": 48.0409165,
      "lon": 23.6383743,
      "timestamp": "2021-05-13T13:55:05Z",
      "version": 9,
      "changeset": 104641672,
      "user": "muchichka_s",
      "uid": 10857625,
      "tags": {
        "koatuu": "2124480405",
        "name": "Руня",
        "name:de": "Runja",
        "name:en": "Runia",
        "name:eo": "Runja",
        "name:hu": "Runya",
        "name:prefix": "село",
        "name:ru": "Руня",
        "name:sk": "Ruňa",
        "name:uk": "Руня",
        "place": "village",
        "population": "678",
        "postal_code": "90561",
        "wikidata": "Q3850601",
        "wikipedia": "uk:Руня (Україна)"
      }
    },
    {
      "type": "node",
      "id": 337661608,
      "lat": 48.0394866,
      "lon": 23.5929712,
      "timestamp": "2021-02-10T18:21:10Z",
      "version": 10,
      "changeset": 99058995,
      "user": "muchichka_s",
      "uid": 10857625,
      "tags": {
        "koatuu": "2124410101",
        "name": "Тячівка",
        "name:de": "Tjatschiwka",
        "name:en": "Tiachivka",
        "name:eo": "Tjaĉivka",
        "name:hu": "Kistécső",
        "name:prefix": "село",
        "name:ru": "Тячевка",
        "name:uk": "Тячівка",
        "place": "village",
        "population": "1555",
        "postal_code": "90509",
        "wikidata": "Q3850608",
        "wikipedia": "uk:Тячівка"
      }
    },
    {
      "type": "node",
      "id": 337661765,
      "lat": 48.034153,
      "lon": 23.658382,
      "timestamp": "2021-02-09T16:37:15Z",
      "version": 12,
      "changeset": 98989755,
      "user": "muchichka_s",
      "uid": 10857625,
      "tags": {
        "koatuu": "2124480404",
        "name": "Дібрівка",
        "name:be": "Дубраўка",
        "name:de": "Dibriwka",
        "name:en": "Dibrivka",
        "name:hu": "Dubrovka",
        "name:prefix": "село",
        "name:ru": "Дибровка",
        "name:uk": "Дібрівка",
        "place": "village",
        "population": "440",
        "postal_code": "90561",
        "wikidata": "Q4161168",
        "wikipedia": "uk:Дібрівка (Тячівський район)"
      }
    },
    {
      "type": "node",
      "id": 337661934,
      "lat": 48.0305101,
      "lon": 23.6954499,
      "timestamp": "2021-02-09T15:21:22Z",
      "version": 8,
      "changeset": 98985932,
      "user": "muchichka_s",
      "uid": 10857625,
      "tags": {
        "koatuu": "2124480501",
        "name": "Біловарці",
        "name:de": "Bilowarzi",
        "name:en": "Bilovartsi",
        "name:eo": "Bilovarci",
        "name:hu": "Kiskirva",
        "name:prefix": "село",
        "name:ru": "Беловарцы",
        "name:sk": "Bjelovarec",
        "name:uk": "Біловарці",
        "place": "village",
        "population": "992",
        "postal_code": "90562",
        "wikidata": "Q388701",
        "wikipedia": "uk:Біловарці"
      }
    },
    {
      "type": "node",
      "id": 337661981,
      "lat": 48.0322921,
      "lon": 23.8316365,
      "timestamp": "2021-02-16T13:25:40Z",
      "version": 9,
      "changeset": 99385326,
      "user": "muchichka_s",
      "uid": 10857625,
      "tags": {
        "koatuu": "2124487501",
        "name": "Топчино",
        "name:en": "Topchyno",
        "name:hu": "Topcsinó",
        "name:prefix": "село",
        "name:ro": "Topcino",
        "name:ru": "Топчино",
        "name:uk": "Топчино",
        "place": "village",
        "population": "2238",
        "postal_code": "90573",
        "wikidata": "Q750894",
        "wikipedia": "uk:Топчино"
      }
    },
    {
      "type": "node",
      "id": 337662088,
      "lat": 48.0256459,
      "lon": 23.6487986,
      "timestamp": "2021-02-09T16:37:15Z",
      "version": 7,
      "changeset": 98989755,
      "user": "muchichka_s",
      "uid": 10857625,
      "tags": {
        "koatuu": "2124480403",
        "name": "Глиняний",
        "name:de": "Hlynjanyj",
        "name:en": "Hlynianyi",
        "name:eo": "Hlinjanij",
        "name:hu": "Hlinyáni",
        "name:prefix": "село",
        "name:ru": "Глиняный",
        "name:sk": "Monastýr",
        "name:uk": "Глиняний",
        "place": "village",
        "population": "301",
        "postal_code": "90561",
        "wikidata": "Q3850892",
        "wikipedia": "uk:Глиняний"
      }
    },
    {
      "type": "node",
      "id": 337662132,
      "lat": 48.0270268,
      "lon": 23.7133846,
      "timestamp": "2020-12-28T20:39:07Z",
      "version": 8,
      "changeset": 96558228,
      "user": "muchichka_s",
      "uid": 10857625,
      "tags": {
        "koatuu": "2124483401",
        "name": "Крива",
        "name:de": "Krywa",
        "name:en": "Kryva",
        "name:eo": "Kriva",
        "name:hu": "Nagykirva",
        "name:prefix": "село",
        "name:ru": "Крива",
        "name:sk": "Krivé",
        "name:uk": "Крива",
        "place": "village",
        "population": "3524",
        "postal_code": "90563",
        "wikidata": "Q846429",
        "wikipedia": "uk:Крива (Тячівський район)"
      }
    },
    {
      "type": "node",
      "id": 337662621,
      "lat": 48.012661,
      "lon": 23.50559,
      "timestamp": "2021-02-09T16:37:15Z",
      "version": 6,
      "changeset": 98989755,
      "user": "muchichka_s",
      "uid": 10857625,
      "tags": {
        "koatuu": "2125355304",
        "name": "Яблунівка",
        "name:en": "Yablunivka",
        "name:hu": "Fenes",
        "name:prefix": "село",
        "name:ru": "Яблоновка",
        "name:uk": "Яблунівка",
        "place": "village",
        "population": "1451",
        "postal_code": "90458",
        "wikidata": "Q3849719",
        "wikipedia": "uk:Яблунівка (Хустський район)"
      }
    },
    {
      "type": "node",
      "id": 337662678,
      "lat": 48.01163,
      "lon": 23.5783799,
      "timestamp": "2020-11-16T16:43:38Z",
      "version": 10,
      "changeset": 94214880,
      "user": "muchichka_s",
      "uid": 10857625,
      "tags": {
        "koatuu": "2124410100",
        "name": "Тячів",
        "name:crh": "Tâçiv",
        "name:cs": "Ťačiv",
        "name:de": "Tjatschiw",
        "name:en": "Tiachiv",
        "name:eo": "Taĉiv",
        "name:fr": "Tiatchiv",
        "name:hu": "Técső",
        "name:pl": "Tiacziw",
        "name:prefix": "місто",
        "name:ro": "Teceu Mare",
        "name:ru": "Тячев",
        "name:sk": "Ťačov",
        "name:uk": "Тячів",
        "name:yi": "טעטש",
        "old_name:de": "Großteutschenau",
        "place": "town",
        "population": "9184",
        "postal_code": "90500",
        "wikidata": "Q146516",
        "wikipedia": "uk:Тячів"
      }
    },
    {
      "type": "node",
      "id": 337662884,
      "lat": 48.0132377,
      "lon": 23.8985715,
      "timestamp": "2021-02-16T14:19:47Z",
      "version": 9,
      "changeset": 99388544,
      "user": "muchichka_s",
      "uid": 10857625,
      "tags": {
        "koatuu": "2123687002",
        "name": "Добрік",
        "name:en": "Dobrik",
        "name:hu": "Dobrikdűlő",
        "name:prefix": "село",
        "name:ro": "Dobric",
        "name:ru": "Добрик",
        "name:uk": "Добрік",
        "place": "village",
        "population": "1106",
        "postal_code": "90617",
        "wikidata": "Q3851304",
        "wikipedia": "uk:Добрік"
      }
    },
    {
      "type": "node",
      "id": 337663001,
      "lat": 48.004761,
      "lon": 23.76721,
      "timestamp": "2021-02-09T16:37:15Z",
      "version": 11,
      "changeset": 98989755,
      "user": "muchichka_s",
      "uid": 10857625,
      "tags": {
        "koatuu": "2124482001",
        "name": "Грушово",
        "name:ar": "غروشوفو",
        "name:be": "Грушава",
        "name:de": "Hruschowo",
        "name:en": "Hrushovo",
        "name:eo": "Hruŝovo",
        "name:hu": "Szentmihálykörtvélyes",
        "name:prefix": "село",
        "name:ru": "Грушево",
        "name:sk": "Hrušovo",
        "name:uk": "Грушово",
        "place": "village",
        "population": "6500",
        "postal_code": "90570",
        "wikidata": "Q854713",
        "wikipedia": "uk:Грушово"
      }
    },
    {
      "type": "node",
      "id": 337663072,
      "lat": 48.003201,
      "lon": 23.663486,
      "timestamp": "2021-02-09T16:37:15Z",
      "version": 13,
      "changeset": 98989755,
      "user": "muchichka_s",
      "uid": 10857625,
      "tags": {
        "koatuu": "2124480401",
        "name": "Бедевля",
        "name:ar": "بيديفليا، زاكارباتسكا",
        "name:de": "Bedewlja",
        "name:en": "Bedevlia",
        "name:eo": "Bedevlja",
        "name:hu": "Bedőháza",
        "name:pl": "Bedewla",
        "name:prefix": "село",
        "name:ru": "Бедевля",
        "name:sk": "Bedevľa",
        "name:uk": "Бедевля",
        "name:yi": "בעדעווליע",
        "place": "village",
        "population": "3971",
        "postal_code": "90561",
        "wikidata": "Q791847",
        "wikipedia": "uk:Бедевля"
      }
    },
    {
      "type": "node",
      "id": 337663213,
      "lat": 47.998241,
      "lon": 23.835529,
      "timestamp": "2021-02-09T16:37:15Z",
      "version": 10,
      "changeset": 98989755,
      "user": "muchichka_s",
      "uid": 10857625,
      "tags": {
        "koatuu": "2124482401",
        "name": "Нижня Апша",
        "name:de": "Nyschnja Apscha",
        "name:en": "Nyzhnia Apsha",
        "name:eo": "Niĵna Apŝa",
        "name:hu": "Alsóapsa",
        "name:prefix": "село",
        "name:ro": "Apșa de Jos",
        "name:ru": "Нижняя Апша",
        "name:sk": "Nižná Apša",
        "name:uk": "Нижня Апша",
        "note": "Name changed officially in 2004",
        "old_name": "Діброва",
        "old_name:de": "Dibrowa",
        "place": "village",
        "population": "7227",
        "postal_code": "90571",
        "website": "http://www.derev.org.ua/zakarp/nyzhnia_apsha.htm",
        "wikidata": "Q663344",
        "wikipedia": "uk:Нижня Апша"
      }
    },
    {
      "type": "node",
      "id": 337663241,
      "lat": 47.9978901,
      "lon": 23.6995699,
      "timestamp": "2020-12-29T00:32:09Z",
      "version": 10,
      "changeset": 96564290,
      "user": "Garmin-User",
      "uid": 177389,
      "tags": {
        "koatuu": "2124456200",
        "name": "Тересва",
        "name:cs": "Teresva",
        "name:de": "Tereswa",
        "name:en": "Teresva",
        "name:eo": "Teresva",
        "name:hu": "Taracköz",
        "name:pl": "Tereswa",
        "name:prefix": "селище міського типу",
        "name:ru": "Тересва",
        "name:sk": "Terešva",
        "name:uk": "Тересва",
        "old_name:de": "Theresiental",
        "place": "town",
        "population": "7625",
        "postal_code": "90564",
        "wikidata": "Q1093435",
        "wikipedia": "uk:Тересва (смт)"
      }
    },
    {
      "type": "node",
      "id": 462245697,
      "lat": 47.9956553,
      "lon": 23.5384206,
      "timestamp": "2017-11-08T10:41:00Z",
      "version": 8,
      "changeset": 53606726,
      "user": "Müszi",
      "uid": 2143353,
      "tags": {
        "addr:postcode": "437236",
        "alt_name": "Cheveșla",
        "alt_name:hu": "Ferencvölgye",
        "is_in": "Remeți,Maramureș,România",
        "is_in:country": "România",
        "is_in:county": "Maramureș",
        "name": "Piatra",
        "name:de": "Franzenthal",
        "name:hu": "Kövesláz",
        "name:uk": "Каминиця",
        "old_name:hu": "Ferencvölgy",
        "old_postal_code": "4947",
        "place": "village",
        "population": "417",
        "population:census:1992": "417",
        "postal_code:source": "INSSE - SIRUTA",
        "siruta:code": "108570",
        "siruta:code_sup": "108552",
        "siruta:county": "Maramureș",
        "siruta:county_code": "MM",
        "siruta:county_id": "24",
        "siruta:name_sup": "Remeți",
        "siruta:type": "23",
        "wikidata": "Q1125745",
        "wikipedia": "hu:Kövesláz"
      }
    },
    {
      "type": "node",
      "id": 462245710,
      "lat": 48.0030497,
      "lon": 23.5808046,
      "timestamp": "2021-10-18T10:01:15Z",
      "version": 9,
      "changeset": 112644930,
      "user": "muchichka_s",
      "uid": 10857625,
      "tags": {
        "is_in": "Remeți,Maramureș,România",
        "is_in:country": "România",
        "is_in:county": "Maramureș",
        "name": "Teceu Mic",
        "name:hu": "Kistécső",
        "name:uk": "Малий Тячів",
        "old_postal_code": "4947",
        "place": "village",
        "population": "225",
        "population:census:1992": "225",
        "postal_code": "437237",
        "postal_code:source": "INSSE - SIRUTA",
        "siruta:code": "108589",
        "siruta:code_sup": "108552",
        "siruta:county": "Maramureș",
        "siruta:county_code": "MM",
        "siruta:county_id": "24",
        "siruta:name_sup": "Remeți",
        "siruta:type": "23",
        "wikidata": "Q1112356",
        "wikipedia": "ro:Teceu Mic, Maramureș"
      }
    },
    {
      "type": "node",
      "id": 463186460,
      "lat": 47.994351,
      "lon": 23.308737,
      "timestamp": "2021-10-18T12:08:47Z",
      "version": 8,
      "changeset": 112650413,
      "user": "muchichka_s",
      "uid": 10857625,
      "tags": {
        "name": "Cămărzana",
        "name:hu": "Komorzán",
        "name:uk": "Камарзана",
        "old_postal_code": "3923",
        "place": "village",
        "population": "2860",
        "population:census:1992": "2860",
        "postal_code": "447075",
        "postal_code:source": "INSSE - SIRUTA",
        "siruta:code": "137283",
        "siruta:code_sup": "137274",
        "siruta:county": "Satu Mare",
        "siruta:county_code": "SM",
        "siruta:county_id": "30",
        "siruta:name_sup": "Cămărzana",
        "siruta:type": "22",
        "wikidata": "Q647326",
        "wikipedia": "ro:Cămărzana, Satu Mare"
      }
    },
    {
      "type": "node",
      "id": 463187153,
      "lat": 48.0238409,
      "lon": 23.2539266,
      "timestamp": "2021-09-28T12:41:02Z",
      "version": 6,
      "changeset": 111817611,
      "user": "Buraddo",
      "uid": 2287200,
      "tags": {
        "addr:postcode": "447332",
        "name": "Turț-Băi",
        "name:hu": "Turcfürdő",
        "old_postal_code": "3937",
        "place": "hamlet",
        "population": "131",
        "population:census:1992": "131",
        "postal_code:source": "INSSE - SIRUTA",
        "siruta:code": "139205",
        "siruta:code_sup": "139170",
        "siruta:county": "Satu Mare",
        "siruta:county_code": "SM",
        "siruta:county_id": "30",
        "siruta:name_sup": "Turț",
        "siruta:type": "23",
        "wikipedia": "hu:Turcfürdő"
      }
    },
    {
      "type": "node",
      "id": 941385448,
      "lat": 48.0486521,
      "lon": 23.4862834,
      "timestamp": "2020-11-22T21:33:50Z",
      "version": 16,
      "changeset": 94599373,
      "user": "muchichka_s",
      "uid": 10857625,
      "tags": {
        "koatuu": "2124455300",
        "name": "Буштино",
        "name:de": "Buschtin an der Theiß",
        "name:en": "Bushtyno",
        "name:hu": "Bustyaháza",
        "name:pl": "Busztyno",
        "name:prefix": "селище міського типу",
        "name:ru": "Буштыно",
        "name:uk": "Буштино",
        "place": "town",
        "population": "8634",
        "postal_code": "90556",
        "wikidata": "Q852312",
        "wikipedia": "uk:Буштино"
      }
    },
    {
      "type": "node",
      "id": 1365402354,
      "lat": 48.119999,
      "lon": 23.437664,
      "timestamp": "2021-02-09T16:37:15Z",
      "version": 6,
      "changeset": 98989755,
      "user": "muchichka_s",
      "uid": 10857625,
      "tags": {
        "koatuu": "2125384401",
        "name": "Крайниково",
        "name:de": "Krajnykowo",
        "name:en": "Krainykovo",
        "name:eo": "Крайниково",
        "name:hu": "Mihálka",
        "name:prefix": "село",
        "name:ru": "Крайниково",
        "name:sk": "Krajníkovo",
        "name:uk": "Крайниково",
        "place": "village",
        "population": "1565",
        "postal_code": "90452",
        "wikidata": "Q750357",
        "wikipedia": "uk:Крайниково"
      }
    },
    {
      "type": "node",
      "id": 1762222951,
      "lat": 48.3261242,
      "lon": 23.8616192,
      "timestamp": "2021-06-04T03:06:38Z",
      "version": 4,
      "changeset": 105807602,
      "user": "muchichka_s",
      "uid": 10857625,
      "tags": {
        "ele": "1492",
        "name": "Климова",
        "natural": "peak",
        "source": "wikipedia",
        "wikidata": "Q31521508"
      }
    },
    {
      "type": "node",
      "id": 1762229837,
      "lat": 48.3791718,
      "lon": 23.7449259,
      "timestamp": "2021-06-04T03:06:38Z",
      "version": 5,
      "changeset": 105807602,
      "user": "muchichka_s",
      "uid": 10857625,
      "tags": {
        "ele": "1548",
        "name": "Топас",
        "name:cz": "Topas",
        "name:hu": "Topasz",
        "natural": "peak",
        "source": "wikipedia, SRTM",
        "wikidata": "Q31519797"
      }
    },
    {
      "type": "node",
      "id": 1762243359,
      "lat": 48.3977567,
      "lon": 23.8630665,
      "timestamp": "2021-06-04T03:06:38Z",
      "version": 4,
      "changeset": 105807602,
      "user": "muchichka_s",
      "uid": 10857625,
      "tags": {
        "ele": "1546",
        "name": "Прибуй",
        "natural": "peak",
        "source": "wikipedia",
        "wikidata": "Q18425335"
      }
    },
    {
      "type": "node",
      "id": 1784537880,
      "lat": 48.4133685,
      "lon": 23.8802363,
      "timestamp": "2021-06-04T03:06:38Z",
      "version": 3,
      "changeset": 105807602,
      "user": "muchichka_s",
      "uid": 10857625,
      "tags": {
        "ele": "1337",
        "name": "Прислуп",
        "natural": "peak",
        "source": "wikipedia",
        "wikidata": "Q18425524"
      }
    },
    {
      "type": "node",
      "id": 1839604811,
      "lat": 48.3636381,
      "lon": 23.6270249,
      "timestamp": "2012-07-27T09:07:13Z",
      "version": 1,
      "changeset": 12508690,
      "user": "Alexey_ND",
      "uid": 515330,
      "tags": {
        "name": "Родник",
        "natural": "spring"
      }
    },
    {
      "type": "node",
      "id": 1839605155,
      "lat": 48.3863303,
      "lon": 23.6375728,
      "timestamp": "2020-08-31T08:22:41Z",
      "version": 3,
      "changeset": 90177558,
      "user": "Brych92",
      "uid": 11736656,
      "tags": {
        "access": "yes",
        "fee": "no",
        "openfire": "yes",
        "tourism": "camp_site"
      }
    },
    {
      "type": "node",
      "id": 1845431214,
      "lat": 48.3384542,
      "lon": 23.8027337,
      "timestamp": "2021-04-12T15:44:37Z",
      "version": 3,
      "changeset": 102814688,
      "user": "Antissimo",
      "uid": 2082188,
      "tags": {
        "ele": "1495",
        "name": "Гропа",
        "name:uk": "Гропа",
        "natural": "peak",
        "wikidata": "Q106473000"
      }
    },
    {
      "type": "node",
      "id": 2061968458,
      "lat": 48.4267782,
      "lon": 23.7710006,
      "timestamp": "2012-12-11T18:15:44Z",
      "version": 1,
      "changeset": 14241115,
      "user": "oleh75",
      "uid": 1122213,
      "tags": {
        "natural": "spring"
      }
    },
    {
      "type": "node",
      "id": 2367633322,
      "lat": 48.436474,
      "lon": 23.8026284,
      "timestamp": "2013-06-30T18:27:31Z",
      "version": 1,
      "changeset": 16768038,
      "user": "oleh75",
      "uid": 1122213,
      "tags": {
        "natural": "spring"
      }
    },
    {
      "type": "node",
      "id": 2367769688,
      "lat": 48.4208948,
      "lon": 23.8036473,
      "timestamp": "2020-11-06T18:59:17Z",
      "version": 2,
      "changeset": 93680881,
      "user": "Agronom1983",
      "uid": 10483128,
      "tags": {
        "description": "По стостоянию на 23 сентября 2020 родник заиленый.\nВозможно, он сезонный.",
        "drinking_water": "yes",
        "fixme": "Проверить родник в начале сезона.",
        "intermittent": "yes",
        "name": "Сезонный родник",
        "natural": "spring"
      }
    },
    {
      "type": "node",
      "id": 2367769710,
      "lat": 48.4266748,
      "lon": 23.8107865,
      "timestamp": "2021-06-04T02:33:08Z",
      "version": 2,
      "changeset": 105806931,
      "user": "muchichka_s",
      "uid": 10857625,
      "tags": {
        "ele": "1652",
        "name": "Стреминіс",
        "name:uk": "Стреминіс",
        "natural": "peak",
        "wikidata": "Q16607606"
      }
    },
    {
      "type": "node",
      "id": 2385331025,
      "lat": 48.414167,
      "lon": 23.7606481,
      "timestamp": "2021-02-15T11:43:55Z",
      "version": 2,
      "changeset": 99306405,
      "user": "matvey_kiev_ua",
      "uid": 371387,
      "tags": {
        "natural": "spring"
      }
    },
    {
      "type": "node",
      "id": 2411435962,
      "lat": 48.4128906,
      "lon": 23.6841537,
      "timestamp": "2021-11-09T11:04:29Z",
      "version": 3,
      "changeset": 113560587,
      "user": "Igornpp",
      "uid": 12969567,
      "tags": {
        "amenity": "shelter",
        "natural": "spring"
      }
    },
    {
      "type": "node",
      "id": 2411445951,
      "lat": 48.3656269,
      "lon": 23.8689659,
      "timestamp": "2013-08-08T20:11:42Z",
      "version": 1,
      "changeset": 17271677,
      "user": "mapmaniak",
      "uid": 109724,
      "tags": {
        "natural": "spring"
      }
    },
    {
      "type": "node",
      "id": 2411445952,
      "lat": 48.3692043,
      "lon": 23.8615022,
      "timestamp": "2013-08-08T20:11:42Z",
      "version": 1,
      "changeset": 17271677,
      "user": "mapmaniak",
      "uid": 109724,
      "tags": {
        "natural": "spring"
      }
    },
    {
      "type": "node",
      "id": 2411445956,
      "lat": 48.3936555,
      "lon": 23.830399,
      "timestamp": "2013-08-08T20:11:43Z",
      "version": 1,
      "changeset": 17271677,
      "user": "mapmaniak",
      "uid": 109724,
      "tags": {
        "natural": "spring"
      }
    },
    {
      "type": "node",
      "id": 2432337664,
      "lat": 48.4131596,
      "lon": 23.6815587,
      "timestamp": "2021-05-30T15:38:01Z",
      "version": 2,
      "changeset": 105573142,
      "user": "ukrainian_tourist",
      "uid": 12784289,
      "tags": {
        "amenity": "shelter"
      }
    },
    {
      "type": "node",
      "id": 2520272029,
      "lat": 48.1492074,
      "lon": 23.3232614,
      "timestamp": "2021-02-16T07:45:43Z",
      "version": 5,
      "changeset": 99358343,
      "user": "muchichka_s",
      "uid": 10857625,
      "tags": {
        "addr:city": "Хуст",
        "addr:housenumber": "205",
        "addr:street": "Івана Франка вулиця",
        "amenity": "fuel",
        "brand": "CHIPO",
        "fuel:diesel": "yes",
        "fuel:lpg": "yes",
        "fuel:octane_92": "yes",
        "fuel:octane_95": "yes",
        "name": "Chipo",
        "opening_hours": "24/7",
        "operator": "ТОВ \"ПОДІЛЛЯНАФТОЗБУТ\"",
        "ref": "25",
        "shop": "convenience",
        "vending": "coffee",
        "website": "https://chipo.ua/"
      }
    },
    {
      "type": "node",
      "id": 2852473720,
      "lat": 48.4371557,
      "lon": 23.6881917,
      "timestamp": "2021-03-02T17:40:59Z",
      "version": 2,
      "changeset": 100296652,
      "user": "WestBam_Ukr",
      "uid": 2315262,
      "tags": {
        "name": "Convenient store",
        "shop": "convenience"
      }
    },
    {
      "type": "node",
      "id": 2906373822,
      "lat": 48.4393339,
      "lon": 23.6884347,
      "timestamp": "2021-09-02T07:20:47Z",
      "version": 11,
      "changeset": 110601075,
      "user": "muchichka_s",
      "uid": 10857625,
      "tags": {
        "koatuu": "2122482103",
        "name": "Горб",
        "name:hu": "Gorb",
        "name:prefix": "село",
        "name:ru": "Горб",
        "name:uk": "Горб",
        "place": "village",
        "postal_code": "90048",
        "wikidata": "Q750822",
        "wikipedia": "uk:Горб (село)"
      }
    },
    {
      "type": "node",
      "id": 3017228143,
      "lat": 48.4123973,
      "lon": 23.6839273,
      "timestamp": "2014-08-14T21:45:45Z",
      "version": 1,
      "changeset": 24755724,
      "user": "benya_cat",
      "uid": 674929,
      "tags": {
        "tourism": "camp_site"
      }
    },
    {
      "type": "node",
      "id": 3017253564,
      "lat": 48.1629353,
      "lon": 23.2980201,
      "timestamp": "2016-12-28T21:23:09Z",
      "version": 3,
      "changeset": 44741628,
      "user": "Deynega Kirill",
      "uid": 3887146,
      "tags": {
        "name": "Антонio",
        "name:ru": "Антонио",
        "name:uk": "Антонio",
        "shop": "convenience"
      }
    },
    {
      "type": "node",
      "id": 3669076272,
      "lat": 48.4399004,
      "lon": 23.6120128,
      "timestamp": "2015-07-27T18:35:20Z",
      "version": 1,
      "changeset": 32915859,
      "user": "breammen",
      "uid": 1259238,
      "tags": {
        "natural": "spring"
      }
    },
    {
      "type": "node",
      "id": 3753236429,
      "lat": 48.392003,
      "lon": 23.7393671,
      "timestamp": "2020-06-25T11:13:51Z",
      "version": 2,
      "changeset": 87136184,
      "user": "User5 - Lightcyphers",
      "uid": 9249148,
      "tags": {
        "natural": "spring"
      }
    },
    {
      "type": "node",
      "id": 3754813347,
      "lat": 48.4168524,
      "lon": 23.7057988,
      "timestamp": "2015-09-22T18:03:43Z",
      "version": 1,
      "changeset": 34189140,
      "user": "oleh75",
      "uid": 1122213,
      "tags": {
        "natural": "spring"
      }
    },
    {
      "type": "node",
      "id": 3755421510,
      "lat": 48.4410663,
      "lon": 23.7919654,
      "timestamp": "2015-09-23T06:38:37Z",
      "version": 1,
      "changeset": 34198438,
      "user": "oleh75",
      "uid": 1122213,
      "tags": {
        "natural": "spring"
      }
    },
    {
      "type": "node",
      "id": 3755421520,
      "lat": 48.442818,
      "lon": 23.797189,
      "timestamp": "2015-09-23T06:38:37Z",
      "version": 1,
      "changeset": 34198438,
      "user": "oleh75",
      "uid": 1122213,
      "tags": {
        "natural": "spring"
      }
    },
    {
      "type": "node",
      "id": 3755421528,
      "lat": 48.444473,
      "lon": 23.7993387,
      "timestamp": "2015-09-23T06:38:37Z",
      "version": 1,
      "changeset": 34198438,
      "user": "oleh75",
      "uid": 1122213,
      "tags": {
        "natural": "spring"
      }
    },
    {
      "type": "node",
      "id": 3979754031,
      "lat": 48.4303262,
      "lon": 23.7024052,
      "timestamp": "2016-01-31T15:09:36Z",
      "version": 1,
      "changeset": 36918439,
      "user": "oleh75",
      "uid": 1122213,
      "tags": {
        "drinking_water": "no",
        "natural": "spring"
      }
    },
    {
      "type": "node",
      "id": 3999914664,
      "lat": 48.4389454,
      "lon": 23.7084944,
      "timestamp": "2016-02-10T22:45:56Z",
      "version": 2,
      "changeset": 37136386,
      "user": "oleh75",
      "uid": 1122213,
      "tags": {
        "drinking_water": "no",
        "natural": "spring"
      }
    },
    {
      "type": "node",
      "id": 3999918135,
      "lat": 48.4382765,
      "lon": 23.7023153,
      "timestamp": "2016-02-10T22:45:56Z",
      "version": 1,
      "changeset": 37136386,
      "user": "oleh75",
      "uid": 1122213,
      "tags": {
        "drinking_water": "no",
        "natural": "spring"
      }
    },
    {
      "type": "node",
      "id": 4008333823,
      "lat": 48.446862,
      "lon": 23.7168921,
      "timestamp": "2016-02-15T22:12:57Z",
      "version": 1,
      "changeset": 37235344,
      "user": "oleh75",
      "uid": 1122213,
      "tags": {
        "drinking_water": "no",
        "natural": "spring"
      }
    },
    {
      "type": "node",
      "id": 4272977780,
      "lat": 48.2001897,
      "lon": 23.286397,
      "timestamp": "2021-04-27T18:41:34Z",
      "version": 2,
      "changeset": 103726412,
      "user": "andiua",
      "uid": 4087591,
      "tags": {
        "drinking_water": "yes",
        "intermittent": "no",
        "natural": "spring"
      }
    },
    {
      "type": "node",
      "id": 4310541756,
      "lat": 48.1761954,
      "lon": 23.2900029,
      "timestamp": "2018-10-27T12:53:32Z",
      "version": 2,
      "changeset": 63927405,
      "user": "andiua",
      "uid": 4087591,
      "tags": {
        "name": "Антоніо",
        "operator": "Антоніо",
        "shop": "supermarket"
      }
    },
    {
      "type": "node",
      "id": 4311613926,
      "lat": 48.1089471,
      "lon": 23.3190421,
      "timestamp": "2016-07-19T17:53:11Z",
      "version": 1,
      "changeset": 40875467,
      "user": "Alexander Vin",
      "uid": 193756,
      "tags": {
        "name": "Амбар",
        "shop": "convenience"
      }
    },
    {
      "type": "node",
      "id": 4312577682,
      "lat": 48.108938,
      "lon": 23.3183515,
      "timestamp": "2016-07-20T11:30:18Z",
      "version": 1,
      "changeset": 40894088,
      "user": "Alexander Vin",
      "uid": 193756,
      "tags": {
        "name": "Рукавичка",
        "shop": "convenience"
      }
    },
    {
      "type": "node",
      "id": 4349838043,
      "lat": 48.3990468,
      "lon": 23.7896181,
      "timestamp": "2020-11-04T00:04:02Z",
      "version": 2,
      "changeset": 93507409,
      "user": "opencarpatia",
      "uid": 10067215,
      "tags": {
        "amenity": "shelter",
        "shelter_type": "picnic_shelter",
        "source": "bing;survey"
      }
    },
    {
      "type": "node",
      "id": 4357219489,
      "lat": 48.021538,
      "lon": 23.5516942,
      "timestamp": "2019-05-27T19:53:55Z",
      "version": 3,
      "changeset": 70673250,
      "user": "CRCulver",
      "uid": 340741,
      "tags": {
        "name": "Silverland",
        "shop": "supermarket"
      }
    },
    {
      "type": "node",
      "id": 4357241191,
      "lat": 48.0159828,
      "lon": 23.5655529,
      "timestamp": "2016-08-19T09:43:43Z",
      "version": 1,
      "changeset": 41552077,
      "user": "Віталік М",
      "uid": 4442912,
      "tags": {
        "name": "Колос",
        "name:uk": "Колос",
        "shop": "convenience"
      }
    },
    {
      "type": "node",
      "id": 4385991722,
      "lat": 48.39197,
      "lon": 23.73983,
      "timestamp": "2018-07-15T19:11:08Z",
      "version": 2,
      "changeset": 60738707,
      "user": "Jiří Komárek",
      "uid": 524625,
      "tags": {
        "drinking_water": "yes",
        "name": "Облаштоване джерело",
        "name:en": "Drinking water",
        "name:ru": "Обустроенный родник",
        "name:uk": "Облаштоване джерело",
        "natural": "spring"
      }
    },
    {
      "type": "node",
      "id": 4385996599,
      "lat": 48.41978,
      "lon": 23.70924,
      "timestamp": "2018-07-15T19:11:08Z",
      "version": 2,
      "changeset": 60738707,
      "user": "Jiří Komárek",
      "uid": 524625,
      "tags": {
        "drinking_water": "yes",
        "name": "Питна вода (у цій точці потоку)",
        "name:en": "Drinking water (in this spot of the stream)",
        "name:ru": "Питьевая вода (в этой точке потока)",
        "name:uk": "Питна вода (у цій точці потоку)",
        "natural": "spring"
      }
    },
    {
      "type": "node",
      "id": 4386005037,
      "lat": 48.34313,
      "lon": 23.80369,
      "timestamp": "2018-07-15T19:11:08Z",
      "version": 2,
      "changeset": 60738707,
      "user": "Jiří Komárek",
      "uid": 524625,
      "tags": {
        "drinking_water": "yes",
        "name": "Питна вода (у цій точці потоку)",
        "name:en": "Drinking water (in this spot of the stream)",
        "name:ru": "Питьевая вода (в этой точке потока)",
        "name:uk": "Питна вода (у цій точці потоку)",
        "natural": "spring"
      }
    },
    {
      "type": "node",
      "id": 4828192544,
      "lat": 48.4304099,
      "lon": 23.6491823,
      "timestamp": "2017-05-01T08:19:01Z",
      "version": 2,
      "changeset": 48299861,
      "user": "oleh75",
      "uid": 1122213,
      "tags": {
        "natural": "spring"
      }
    },
    {
      "type": "node",
      "id": 4829048441,
      "lat": 48.4278957,
      "lon": 23.6608056,
      "timestamp": "2017-05-01T16:05:48Z",
      "version": 1,
      "changeset": 48311424,
      "user": "oleh75",
      "uid": 1122213,
      "tags": {
        "natural": "spring"
      }
    },
    {
      "type": "node",
      "id": 4831139599,
      "lat": 48.3770267,
      "lon": 23.6308714,
      "timestamp": "2021-08-11T08:29:16Z",
      "version": 4,
      "changeset": 109502723,
      "user": "Brych92",
      "uid": 11736656,
      "tags": {
        "amenity": "shelter",
        "image": "https://photos.app.goo.gl/gEupf1UJchcqG2j26",
        "name": "Плотина(Альтанка)",
        "shelter_type": "picnic_shelter"
      }
    },
    {
      "type": "node",
      "id": 4846219222,
      "lat": 48.2426084,
      "lon": 23.4779583,
      "timestamp": "2017-05-10T18:07:31Z",
      "version": 1,
      "changeset": 48570007,
      "user": "Віталій Кострець",
      "uid": 5646846,
      "tags": {
        "addr:housenumber": "78",
        "addr:street": "Хустець",
        "name": "Кострець В.В",
        "name:uk": "Кострець В.В",
        "shop": "convenience"
      }
    },
    {
      "type": "node",
      "id": 4964492778,
      "lat": 48.3879003,
      "lon": 23.7444377,
      "timestamp": "2017-07-11T19:25:59Z",
      "version": 1,
      "changeset": 50210463,
      "user": "oleh75",
      "uid": 1122213,
      "tags": {
        "natural": "spring"
      }
    },
    {
      "type": "node",
      "id": 4964492779,
      "lat": 48.3885131,
      "lon": 23.7454247,
      "timestamp": "2017-07-11T19:25:59Z",
      "version": 1,
      "changeset": 50210463,
      "user": "oleh75",
      "uid": 1122213,
      "tags": {
        "natural": "spring"
      }
    },
    {
      "type": "node",
      "id": 4989695431,
      "lat": 48.3977507,
      "lon": 23.8083909,
      "timestamp": "2020-12-25T00:18:40Z",
      "version": 2,
      "changeset": 96405716,
      "user": "opencarpatia",
      "uid": 10067215,
      "tags": {
        "bottle": "yes",
        "drinking_water": "yes",
        "man_made": "spring_box",
        "natural": "spring"
      }
    },
    {
      "type": "node",
      "id": 5063360335,
      "lat": 48.3752457,
      "lon": 23.6944998,
      "timestamp": "2017-08-28T05:14:52Z",
      "version": 1,
      "changeset": 51497483,
      "user": "4i3",
      "uid": 3622005,
      "tags": {
        "natural": "spring"
      }
    },
    {
      "type": "node",
      "id": 5063361962,
      "lat": 48.3609894,
      "lon": 23.7922168,
      "timestamp": "2021-01-29T13:53:02Z",
      "version": 2,
      "changeset": 98369348,
      "user": "Artem Kuz",
      "uid": 6935690,
      "tags": {
        "natural": "spring"
      }
    },
    {
      "type": "node",
      "id": 5063366732,
      "lat": 48.3968583,
      "lon": 23.6407645,
      "timestamp": "2017-08-28T05:25:58Z",
      "version": 1,
      "changeset": 51497617,
      "user": "4i3",
      "uid": 3622005,
      "tags": {
        "natural": "spring"
      }
    },
    {
      "type": "node",
      "id": 5063375372,
      "lat": 48.4088949,
      "lon": 23.625289,
      "timestamp": "2017-08-28T05:32:52Z",
      "version": 1,
      "changeset": 51497693,
      "user": "4i3",
      "uid": 3622005,
      "tags": {
        "natural": "spring"
      }
    },
    {
      "type": "node",
      "id": 5073046321,
      "lat": 48.3042609,
      "lon": 23.9021957,
      "timestamp": "2020-12-27T08:23:29Z",
      "version": 2,
      "changeset": 96475047,
      "user": "zlyisalat",
      "uid": 357342,
      "tags": {
        "description": "Место под 5-7 палаток, оборудовано столом и лавками, есть место для костра.",
        "tourism": "camp_site"
      }
    },
    {
      "type": "node",
      "id": 5073046322,
      "lat": 48.4051161,
      "lon": 23.7135758,
      "timestamp": "2021-01-27T22:03:56Z",
      "version": 3,
      "changeset": 98253362,
      "user": "Artem Kuz",
      "uid": 6935690,
      "tags": {
        "description": "место для 4-5 палаток, защищено от ветра, есть место для разведения костра.",
        "fee": "no",
        "tourism": "camp_site"
      }
    },
    {
      "type": "node",
      "id": 5081716840,
      "lat": 48.3317461,
      "lon": 23.8307713,
      "timestamp": "2017-09-05T14:07:13Z",
      "version": 1,
      "changeset": 51752180,
      "user": "trs_",
      "uid": 6579629,
      "tags": {
        "natural": "spring"
      }
    },
    {
      "type": "node",
      "id": 5092366362,
      "lat": 48.3865625,
      "lon": 23.5628683,
      "timestamp": "2017-09-09T17:44:37Z",
      "version": 1,
      "changeset": 51886846,
      "user": "trs_",
      "uid": 6579629,
      "tags": {
        "natural": "spring"
      }
    },
    {
      "type": "node",
      "id": 5092366363,
      "lat": 48.380885,
      "lon": 23.5663318,
      "timestamp": "2017-09-09T17:44:37Z",
      "version": 1,
      "changeset": 51886846,
      "user": "trs_",
      "uid": 6579629,
      "tags": {
        "natural": "spring"
      }
    },
    {
      "type": "node",
      "id": 5145789443,
      "lat": 48.4451557,
      "lon": 23.5482084,
      "timestamp": "2020-11-04T01:30:56Z",
      "version": 2,
      "changeset": 93508554,
      "user": "opencarpatia",
      "uid": 10067215,
      "tags": {
        "bottle": "yes",
        "drinking_water": "yes",
        "natural": "spring"
      }
    },
    {
      "type": "node",
      "id": 5503749108,
      "lat": 48.3988871,
      "lon": 23.7895837,
      "timestamp": "2021-07-15T16:00:33Z",
      "version": 3,
      "changeset": 108063305,
      "user": "sourserg",
      "uid": 13764093,
      "tags": {
        "ele": "937.6",
        "name": "Присліп",
        "name:ru": "Прислоп",
        "natural": "saddle",
        "wikidata": "Q12144322",
        "wikipedia": "uk:Присліп (Боржава)"
      }
    },
    {
      "type": "node",
      "id": 5613165270,
      "lat": 48.4333633,
      "lon": 23.6918851,
      "timestamp": "2021-03-02T17:40:59Z",
      "version": 5,
      "changeset": 100296652,
      "user": "WestBam_Ukr",
      "uid": 2315262,
      "tags": {
        "addr:housenumber": "52",
        "addr:postcode": "90043",
        "addr:street": "Шевченка вулиця",
        "name": "Вершина",
        "opening_hours:covid19": "open",
        "payment:cash": "yes",
        "payment:contactless": "yes",
        "payment:mastercard": "yes",
        "payment:visa": "yes",
        "shop": "convenience"
      }
    },
    {
      "type": "node",
      "id": 5632931939,
      "lat": 48.121788,
      "lon": 23.3023609,
      "timestamp": "2018-05-21T15:49:02Z",
      "version": 1,
      "changeset": 59154921,
      "user": "Michael Greenberg",
      "uid": 6186055,
      "tags": {
        "amenity": "drinking_water",
        "name": "Криниця Пинті",
        "name:ru": "Крыныця Пынти",
        "name:uk": "Криниця Пинті"
      }
    },
    {
      "type": "node",
      "id": 5641527959,
      "lat": 48.0592319,
      "lon": 23.355981,
      "timestamp": "2021-01-05T05:35:37Z",
      "version": 4,
      "changeset": 96949529,
      "user": "opencarpatia",
      "uid": 10067215,
      "tags": {
        "amenity": "drinking_water",
        "covered": "yes",
        "description": "Бювет являє собою будку з кількома кранами, де можна нбирати питну воду \"Шаянська № 242\".",
        "man_made": "water_tap",
        "name": "Мінеральна вода Шаянська №242",
        "opening_hours": "Mo-Su 08:00-17:00",
        "ref": "242"
      }
    },
    {
      "type": "node",
      "id": 5641544291,
      "lat": 48.0597723,
      "lon": 23.3509204,
      "timestamp": "2021-01-05T05:35:37Z",
      "version": 2,
      "changeset": 96949529,
      "user": "opencarpatia",
      "uid": 10067215,
      "tags": {
        "amenity": "drinking_water",
        "description": "Бювет з мінеральною водою Шаянська. Тут з кранів можна набирати води Шаянська № 4, 242 як холодними так і підігрітими.",
        "fee": "18 UAH",
        "indoor": "yes",
        "man_made": "water_tap",
        "name": "Бювет ДП \"Санаторій Шаян\""
      }
    },
    {
      "type": "node",
      "id": 5720904846,
      "lat": 48.1673787,
      "lon": 23.4412421,
      "timestamp": "2018-06-27T13:29:17Z",
      "version": 2,
      "changeset": 60218452,
      "user": "evolvent",
      "uid": 3748280,
      "tags": {
        "intermittent": "no",
        "name": "Хрещатик",
        "natural": "spring"
      }
    },
    {
      "type": "node",
      "id": 5782065687,
      "lat": 48.199343,
      "lon": 23.2693443,
      "timestamp": "2018-07-24T15:42:27Z",
      "version": 1,
      "changeset": 61028597,
      "user": "evolvent",
      "uid": 3748280,
      "tags": {
        "natural": "spring"
      }
    },
    {
      "type": "node",
      "id": 5834072814,
      "lat": 48.3267898,
      "lon": 23.8396962,
      "timestamp": "2018-08-15T09:28:53Z",
      "version": 1,
      "changeset": 61680277,
      "user": "SL0308",
      "uid": 8467960,
      "tags": {
        "natural": "spring"
      }
    },
    {
      "type": "node",
      "id": 5834079685,
      "lat": 48.419696,
      "lon": 23.7089092,
      "timestamp": "2018-08-15T09:28:52Z",
      "version": 1,
      "changeset": 61680277,
      "user": "SL0308",
      "uid": 8467960,
      "tags": {
        "tourism": "camp_site"
      }
    },
    {
      "type": "node",
      "id": 5834079686,
      "lat": 48.3377025,
      "lon": 23.8071419,
      "timestamp": "2018-08-15T09:28:53Z",
      "version": 1,
      "changeset": 61680277,
      "user": "SL0308",
      "uid": 8467960,
      "tags": {
        "natural": "spring"
      }
    },
    {
      "type": "node",
      "id": 5834079785,
      "lat": 48.3235238,
      "lon": 23.8484879,
      "timestamp": "2018-08-15T09:28:55Z",
      "version": 1,
      "changeset": 61680277,
      "user": "SL0308",
      "uid": 8467960,
      "tags": {
        "natural": "spring"
      }
    },
    {
      "type": "node",
      "id": 5852242918,
      "lat": 48.3988916,
      "lon": 23.7895252,
      "timestamp": "2019-04-29T15:45:12Z",
      "version": 2,
      "changeset": 69701704,
      "user": "Andrej-T",
      "uid": 3048141,
      "tags": {
        "amenity": "shelter"
      }
    },
    {
      "type": "node",
      "id": 5852263139,
      "lat": 48.3865808,
      "lon": 23.8332315,
      "timestamp": "2018-08-23T21:32:32Z",
      "version": 1,
      "changeset": 61934101,
      "user": "Pfad-Finder",
      "uid": 222568,
      "tags": {
        "name": "ABC",
        "shop": "convenience"
      }
    },
    {
      "type": "node",
      "id": 5852263249,
      "lat": 48.394731,
      "lon": 23.8156896,
      "timestamp": "2020-12-25T01:07:56Z",
      "version": 2,
      "changeset": 96406240,
      "user": "opencarpatia",
      "uid": 10067215,
      "tags": {
        "natural": "spring"
      }
    },
    {
      "type": "node",
      "id": 5956541785,
      "lat": 48.182925,
      "lon": 23.3135747,
      "timestamp": "2019-04-05T17:40:38Z",
      "version": 2,
      "changeset": 68931061,
      "user": "b-jazz-bot",
      "uid": 9451067,
      "tags": {
        "addr:housenumber": "122-124",
        "addr:postcode": "90400",
        "addr:street": "Небесної Сотні вулиця",
        "name": "Велет Маркет",
        "name:en": "Velet Market",
        "opening_hours": "Mo-Fr 08:00-18:00; Sa 08:00-15:00",
        "phone": "+380986737393",
        "shop": "convenience",
        "website": "https://veletmarket.com.ua/"
      }
    },
    {
      "type": "node",
      "id": 5956541787,
      "lat": 48.2200661,
      "lon": 23.3439064,
      "timestamp": "2020-06-13T10:50:33Z",
      "version": 3,
      "changeset": 86596124,
      "user": "iWowik",
      "uid": 481934,
      "tags": {
        "addr:housenumber": "252",
        "addr:street": "Центральна вулиця",
        "name": "Велет Маркет",
        "name:en": "Veelet Market",
        "opening_hours": "Mo-Fr 08:00-18:00; Sa 08:00-15:00",
        "phone": "+380986737393",
        "shop": "convenience",
        "website": "https://veletmarket.com.ua/"
      }
    },
    {
      "type": "node",
      "id": 5966476235,
      "lat": 48.1349145,
      "lon": 23.7924994,
      "timestamp": "2018-10-08T13:29:38Z",
      "version": 1,
      "changeset": 63311701,
      "user": "CandyNik_UA",
      "uid": 8842747,
      "tags": {
        "natural": "cave_entrance"
      }
    },
    {
      "type": "node",
      "id": 6199843385,
      "lat": 48.2552529,
      "lon": 23.6353929,
      "timestamp": "2020-04-23T21:22:39Z",
      "version": 2,
      "changeset": 84023513,
      "user": "evolvent",
      "uid": 3748280,
      "tags": {
        "access": "yes",
        "fee": "no",
        "name": "Дружба",
        "natural": "cave_entrance",
        "tourism": "attraction",
        "wheelchair": "no"
      }
    },
    {
      "type": "node",
      "id": 6436520173,
      "lat": 48.4013431,
      "lon": 23.7759684,
      "timestamp": "2020-11-04T00:04:02Z",
      "version": 4,
      "changeset": 93507409,
      "user": "opencarpatia",
      "uid": 10067215,
      "tags": {
        "access": "yes",
        "amenity": "drinking_water",
        "natural": "spring",
        "wheelchair": "limited"
      }
    },
    {
      "type": "node",
      "id": 6497963123,
      "lat": 48.1777232,
      "lon": 23.2929169,
      "timestamp": "2019-05-24T15:08:59Z",
      "version": 1,
      "changeset": 70589987,
      "user": "CRCulver",
      "uid": 340741,
      "tags": {
        "name": "Alma",
        "shop": "supermarket"
      }
    },
    {
      "type": "node",
      "id": 6508585334,
      "lat": 48.4408887,
      "lon": 23.2524589,
      "timestamp": "2019-05-29T10:56:00Z",
      "version": 1,
      "changeset": 70728959,
      "user": "CRCulver",
      "uid": 340741,
      "tags": {
        "name": "Амбар",
        "name:en": "Ambar",
        "name:uk": "Амбар",
        "shop": "supermarket"
      }
    },
    {
      "type": "node",
      "id": 6508585365,
      "lat": 48.3662077,
      "lon": 23.2833391,
      "timestamp": "2019-05-29T10:56:00Z",
      "version": 1,
      "changeset": 70728959,
      "user": "CRCulver",
      "uid": 340741,
      "tags": {
        "name": "Щодня",
        "shop": "convenience"
      }
    },
    {
      "type": "node",
      "id": 6544945987,
      "lat": 48.4174744,
      "lon": 23.7039257,
      "timestamp": "2019-06-13T13:08:44Z",
      "version": 1,
      "changeset": 71218101,
      "user": "opencarpatia",
      "uid": 10067215,
      "tags": {
        "natural": "spring"
      }
    },
    {
      "type": "node",
      "id": 6544945988,
      "lat": 48.3936911,
      "lon": 23.7394165,
      "timestamp": "2021-10-26T13:40:09Z",
      "version": 2,
      "changeset": 112995035,
      "user": "Agronom1983",
      "uid": 10483128,
      "tags": {
        "drinking_water": "no",
        "intermittent": "yes",
        "name": "Не питьевой",
        "name:en": "Non drinkable",
        "natural": "spring"
      }
    },
    {
      "type": "node",
      "id": 6562300575,
      "lat": 48.0131648,
      "lon": 23.5711402,
      "timestamp": "2019-06-21T06:36:21Z",
      "version": 1,
      "changeset": 71469681,
      "user": "CRCulver",
      "uid": 340741,
      "tags": {
        "name": "Nina",
        "shop": "supermarket"
      }
    },
    {
      "type": "node",
      "id": 6620489624,
      "lat": 48.457119,
      "lon": 23.5025602,
      "timestamp": "2019-07-16T14:43:06Z",
      "version": 1,
      "changeset": 72309520,
      "user": "Martin Chovanec",
      "uid": 148369,
      "tags": {
        "amenity": "shelter",
        "shelter_type": "picnic_shelter"
      }
    },
    {
      "type": "node",
      "id": 6620489626,
      "lat": 48.4571331,
      "lon": 23.5028064,
      "timestamp": "2019-07-16T14:43:06Z",
      "version": 1,
      "changeset": 72309520,
      "user": "Martin Chovanec",
      "uid": 148369,
      "tags": {
        "bottle": "yes",
        "natural": "spring"
      }
    },
    {
      "type": "node",
      "id": 6783734607,
      "lat": 48.3927862,
      "lon": 23.8178243,
      "timestamp": "2020-12-25T00:18:40Z",
      "version": 2,
      "changeset": 96405716,
      "user": "opencarpatia",
      "uid": 10067215,
      "tags": {
        "amenity": "shelter",
        "bench": "yes",
        "fireplace": "yes",
        "picnic_table": "yes",
        "shelter_type": "picnic_shelter"
      }
    },
    {
      "type": "node",
      "id": 7179732589,
      "lat": 48.3870071,
      "lon": 23.7686181,
      "timestamp": "2020-02-02T20:25:22Z",
      "version": 1,
      "changeset": 80445893,
      "user": "opencarpatia",
      "uid": 10067215,
      "tags": {
        "intermittent": "yes",
        "natural": "spring"
      }
    },
    {
      "type": "node",
      "id": 7179759967,
      "lat": 48.3821031,
      "lon": 23.7763855,
      "timestamp": "2020-02-02T20:47:41Z",
      "version": 1,
      "changeset": 80446298,
      "user": "opencarpatia",
      "uid": 10067215,
      "tags": {
        "natural": "spring"
      }
    },
    {
      "type": "node",
      "id": 7179905084,
      "lat": 48.4223502,
      "lon": 23.7902648,
      "timestamp": "2020-02-02T22:47:13Z",
      "version": 1,
      "changeset": 80448357,
      "user": "opencarpatia",
      "uid": 10067215,
      "tags": {
        "natural": "spring"
      }
    },
    {
      "type": "node",
      "id": 7179905111,
      "lat": 48.4236238,
      "lon": 23.7806228,
      "timestamp": "2020-02-02T22:47:13Z",
      "version": 1,
      "changeset": 80448357,
      "user": "opencarpatia",
      "uid": 10067215,
      "tags": {
        "amenity": "shelter"
      }
    },
    {
      "type": "node",
      "id": 7182448922,
      "lat": 48.3631126,
      "lon": 23.6437016,
      "timestamp": "2020-02-03T20:12:12Z",
      "version": 1,
      "changeset": 80497400,
      "user": "opencarpatia",
      "uid": 10067215,
      "tags": {
        "amenity": "shelter",
        "ruins": "yes"
      }
    },
    {
      "type": "node",
      "id": 7182448946,
      "lat": 48.3413385,
      "lon": 23.6628621,
      "timestamp": "2020-02-03T20:12:12Z",
      "version": 1,
      "changeset": 80497400,
      "user": "opencarpatia",
      "uid": 10067215,
      "tags": {
        "drinking_water": "yes",
        "natural": "spring"
      }
    },
    {
      "type": "node",
      "id": 7182448948,
      "lat": 48.3407736,
      "lon": 23.6638427,
      "timestamp": "2020-02-03T20:12:12Z",
      "version": 1,
      "changeset": 80497400,
      "user": "opencarpatia",
      "uid": 10067215,
      "tags": {
        "intermittent": "yes",
        "natural": "spring"
      }
    },
    {
      "type": "node",
      "id": 7182448954,
      "lat": 48.320769,
      "lon": 23.6809131,
      "timestamp": "2020-02-03T20:12:12Z",
      "version": 1,
      "changeset": 80497400,
      "user": "opencarpatia",
      "uid": 10067215,
      "tags": {
        "amenity": "shelter"
      }
    },
    {
      "type": "node",
      "id": 7207267678,
      "lat": 48.444375,
      "lon": 23.5514306,
      "timestamp": "2020-11-04T01:30:56Z",
      "version": 2,
      "changeset": 93508554,
      "user": "opencarpatia",
      "uid": 10067215,
      "tags": {
        "bottle": "yes",
        "drinking_water": "yes",
        "natural": "spring"
      }
    },
    {
      "type": "node",
      "id": 7360176161,
      "lat": 48.3937323,
      "lon": 23.7399335,
      "timestamp": "2020-04-02T21:49:44Z",
      "version": 1,
      "changeset": 83001023,
      "user": "zlyisalat",
      "uid": 357342,
      "tags": {
        "backcountry": "yes",
        "tourism": "camp_site"
      }
    },
    {
      "type": "node",
      "id": 7360176162,
      "lat": 48.3527419,
      "lon": 23.792258,
      "timestamp": "2020-04-02T21:49:44Z",
      "version": 1,
      "changeset": 83001023,
      "user": "zlyisalat",
      "uid": 357342,
      "tags": {
        "natural": "spring"
      }
    },
    {
      "type": "node",
      "id": 7360176163,
      "lat": 48.3330742,
      "lon": 23.8292081,
      "timestamp": "2020-04-02T21:49:44Z",
      "version": 1,
      "changeset": 83001023,
      "user": "zlyisalat",
      "uid": 357342,
      "tags": {
        "backcountry": "yes",
        "tourism": "camp_site"
      }
    },
    {
      "type": "node",
      "id": 7360179603,
      "lat": 48.4047124,
      "lon": 23.7178442,
      "timestamp": "2021-01-27T22:03:56Z",
      "version": 2,
      "changeset": 98253362,
      "user": "Artem Kuz",
      "uid": 6935690,
      "tags": {
        "natural": "spring"
      }
    },
    {
      "type": "node",
      "id": 7403320067,
      "lat": 48.1741351,
      "lon": 23.4605527,
      "timestamp": "2020-04-14T20:23:06Z",
      "version": 1,
      "changeset": 83552994,
      "user": "evolvent",
      "uid": 3748280,
      "tags": {
        "amenity": "shelter",
        "shelter_type": "picnic_shelter"
      }
    },
    {
      "type": "node",
      "id": 7530564031,
      "lat": 48.4532003,
      "lon": 23.6210202,
      "timestamp": "2020-05-18T02:18:24Z",
      "version": 1,
      "changeset": 85353381,
      "user": "opencarpatia",
      "uid": 10067215,
      "tags": {
        "natural": "spring"
      }
    },
    {
      "type": "node",
      "id": 7530564037,
      "lat": 48.4493354,
      "lon": 23.6147486,
      "timestamp": "2020-05-18T02:18:24Z",
      "version": 1,
      "changeset": 85353381,
      "user": "opencarpatia",
      "uid": 10067215,
      "tags": {
        "natural": "spring"
      }
    },
    {
      "type": "node",
      "id": 7530564040,
      "lat": 48.4468133,
      "lon": 23.6192312,
      "timestamp": "2020-06-24T07:13:20Z",
      "version": 2,
      "changeset": 87067949,
      "user": "User4 - Lightcyphers",
      "uid": 7753484,
      "tags": {
        "drinking_water": "yes",
        "intermittent": "no",
        "natural": "spring"
      }
    },
    {
      "type": "node",
      "id": 7530564044,
      "lat": 48.4473679,
      "lon": 23.6269533,
      "timestamp": "2020-05-18T02:18:24Z",
      "version": 1,
      "changeset": 85353381,
      "user": "opencarpatia",
      "uid": 10067215,
      "tags": {
        "natural": "spring"
      }
    },
    {
      "type": "node",
      "id": 7530564045,
      "lat": 48.4470928,
      "lon": 23.6271246,
      "timestamp": "2020-05-18T02:18:24Z",
      "version": 1,
      "changeset": 85353381,
      "user": "opencarpatia",
      "uid": 10067215,
      "tags": {
        "natural": "spring"
      }
    },
    {
      "type": "node",
      "id": 7530564046,
      "lat": 48.4470294,
      "lon": 23.6273557,
      "timestamp": "2020-05-18T02:18:24Z",
      "version": 1,
      "changeset": 85353381,
      "user": "opencarpatia",
      "uid": 10067215,
      "tags": {
        "natural": "spring"
      }
    },
    {
      "type": "node",
      "id": 7530564058,
      "lat": 48.4443747,
      "lon": 23.6282758,
      "timestamp": "2020-05-18T02:18:24Z",
      "version": 1,
      "changeset": 85353381,
      "user": "opencarpatia",
      "uid": 10067215,
      "tags": {
        "natural": "spring"
      }
    },
    {
      "type": "node",
      "id": 7530564060,
      "lat": 48.4449551,
      "lon": 23.6260301,
      "timestamp": "2020-05-18T02:18:24Z",
      "version": 1,
      "changeset": 85353381,
      "user": "opencarpatia",
      "uid": 10067215,
      "tags": {
        "natural": "spring"
      }
    },
    {
      "type": "node",
      "id": 7530564065,
      "lat": 48.4461376,
      "lon": 23.6211865,
      "timestamp": "2020-05-18T02:18:24Z",
      "version": 1,
      "changeset": 85353381,
      "user": "opencarpatia",
      "uid": 10067215,
      "tags": {
        "amenity": "drinking_water",
        "bottle": "yes",
        "fee": "no"
      }
    },
    {
      "type": "node",
      "id": 7530627731,
      "lat": 48.4352899,
      "lon": 23.6455621,
      "timestamp": "2020-05-18T02:50:52Z",
      "version": 1,
      "changeset": 85354011,
      "user": "opencarpatia",
      "uid": 10067215,
      "tags": {
        "natural": "spring"
      }
    },
    {
      "type": "node",
      "id": 7530705284,
      "lat": 48.449782,
      "lon": 23.6229227,
      "timestamp": "2020-05-18T03:51:35Z",
      "version": 1,
      "changeset": 85355489,
      "user": "opencarpatia",
      "uid": 10067215,
      "tags": {
        "natural": "spring"
      }
    },
    {
      "type": "node",
      "id": 7769735986,
      "lat": 48.3327695,
      "lon": 23.8296108,
      "timestamp": "2021-10-21T09:30:05Z",
      "version": 2,
      "changeset": 112782111,
      "user": "Agronom1983",
      "uid": 10483128,
      "tags": {
        "name": "Ночівля",
        "name:en": "Camping",
        "tourism": "camp_site"
      }
    },
    {
      "type": "node",
      "id": 7817504185,
      "lat": 48.3318014,
      "lon": 23.8307765,
      "timestamp": "2020-08-16T15:44:06Z",
      "version": 1,
      "changeset": 89475846,
      "user": "ak83",
      "uid": 10202758,
      "tags": {
        "name": "джерело слабке",
        "natural": "spring"
      }
    },
    {
      "type": "node",
      "id": 7817504186,
      "lat": 48.3310234,
      "lon": 23.8328641,
      "timestamp": "2020-08-16T15:44:06Z",
      "version": 1,
      "changeset": 89475846,
      "user": "ak83",
      "uid": 10202758,
      "tags": {
        "amenity": "shelter"
      }
    },
    {
      "type": "node",
      "id": 7851215985,
      "lat": 48.448732,
      "lon": 23.4654506,
      "timestamp": "2020-08-27T20:02:39Z",
      "version": 1,
      "changeset": 90044152,
      "user": "Artziz",
      "uid": 11700449,
      "tags": {
        "name": "Місце під палатку з обладнаним вогнищем",
        "tourism": "camp_site"
      }
    },
    {
      "type": "node",
      "id": 7868501281,
      "lat": 48.2530339,
      "lon": 23.6688906,
      "timestamp": "2020-09-02T12:36:46Z",
      "version": 1,
      "changeset": 90304960,
      "user": "Kaskad13",
      "uid": 1230692,
      "tags": {
        "name": "Мінеральне джерело",
        "natural": "spring"
      }
    },
    {
      "type": "node",
      "id": 7868501282,
      "lat": 48.2382407,
      "lon": 23.6735818,
      "timestamp": "2020-09-02T12:36:46Z",
      "version": 1,
      "changeset": 90304960,
      "user": "Kaskad13",
      "uid": 1230692,
      "tags": {
        "name": "Мінеральне джерело Буркут",
        "natural": "spring"
      }
    },
    {
      "type": "node",
      "id": 7868544212,
      "lat": 48.3826473,
      "lon": 23.6310258,
      "timestamp": "2020-09-02T12:55:48Z",
      "version": 1,
      "changeset": 90305860,
      "user": "Kaskad13",
      "uid": 1230692,
      "tags": {
        "natural": "spring"
      }
    },
    {
      "type": "node",
      "id": 7868544226,
      "lat": 48.3586266,
      "lon": 23.6245309,
      "timestamp": "2020-09-02T12:55:48Z",
      "version": 1,
      "changeset": 90305860,
      "user": "Kaskad13",
      "uid": 1230692,
      "tags": {
        "natural": "spring"
      }
    },
    {
      "type": "node",
      "id": 7868544227,
      "lat": 48.3491736,
      "lon": 23.6188312,
      "timestamp": "2020-09-02T12:55:48Z",
      "version": 1,
      "changeset": 90305860,
      "user": "Kaskad13",
      "uid": 1230692,
      "tags": {
        "natural": "spring"
      }
    },
    {
      "type": "node",
      "id": 7873157385,
      "lat": 48.389673,
      "lon": 23.7456322,
      "timestamp": "2020-09-03T16:36:23Z",
      "version": 1,
      "changeset": 90372670,
      "user": "Дима Ворчун",
      "uid": 11612780,
      "tags": {
        "amenity": "shelter"
      }
    },
    {
      "type": "node",
      "id": 7891112685,
      "lat": 48.270552,
      "lon": 23.5762839,
      "timestamp": "2020-09-12T11:24:32Z",
      "version": 2,
      "changeset": 90791372,
      "user": "iorant",
      "uid": 374661,
      "tags": {
        "drinking_water": "yes",
        "name": "Мінеральна вода",
        "name:en": "Mineral water",
        "natural": "spring"
      }
    },
    {
      "type": "node",
      "id": 8175775617,
      "lat": 48.1966381,
      "lon": 23.2558148,
      "timestamp": "2020-11-29T06:19:54Z",
      "version": 1,
      "changeset": 94971200,
      "user": "Vic Chetov",
      "uid": 5006208,
      "tags": {
        "name": "У Рея",
        "natural": "spring"
      }
    },
    {
      "type": "node",
      "id": 8258707760,
      "lat": 48.3927679,
      "lon": 23.8187409,
      "timestamp": "2020-12-25T01:07:56Z",
      "version": 2,
      "changeset": 96406240,
      "user": "opencarpatia",
      "uid": 10067215,
      "tags": {
        "bottle": "yes",
        "natural": "spring"
      }
    },
    {
      "type": "node",
      "id": 8292305379,
      "lat": 48.0595971,
      "lon": 23.3548723,
      "timestamp": "2021-01-05T05:35:37Z",
      "version": 1,
      "changeset": 96949529,
      "user": "opencarpatia",
      "uid": 10067215,
      "tags": {
        "man_made": "water_well",
        "natural": "spring",
        "ref": "242"
      }
    },
    {
      "type": "node",
      "id": 8322641043,
      "lat": 48.3708049,
      "lon": 23.5818717,
      "timestamp": "2021-01-14T23:48:46Z",
      "version": 1,
      "changeset": 97519959,
      "user": "opencarpatia",
      "uid": 10067215,
      "tags": {
        "access": "no",
        "natural": "spring"
      }
    },
    {
      "type": "node",
      "id": 8385289617,
      "lat": 48.0423851,
      "lon": 23.4883423,
      "timestamp": "2021-02-02T08:21:36Z",
      "version": 2,
      "changeset": 98561129,
      "user": "iWowik",
      "uid": 481934,
      "tags": {
        "addr:housenumber": "4",
        "addr:postcode": "90556",
        "addr:street": "Б. Хмельницького вулиця",
        "name": "Міні-маркет «Сіль Землі»",
        "name:en": "«Sil Zemli” market",
        "name:ru": "Мини-маркет «Соль Земли»",
        "shop": "convenience"
      }
    },
    {
      "type": "node",
      "id": 8424956981,
      "lat": 48.425982,
      "lon": 23.7067891,
      "timestamp": "2021-02-15T10:06:55Z",
      "version": 1,
      "changeset": 99298959,
      "user": "matvey_kiev_ua",
      "uid": 371387,
      "tags": {
        "name": "ФрукТаІн",
        "opening_hours:covid19": "open",
        "shop": "convenience"
      }
    },
    {
      "type": "node",
      "id": 8429184606,
      "lat": 48.4327861,
      "lon": 23.6918565,
      "timestamp": "2021-02-16T15:31:36Z",
      "version": 2,
      "changeset": 99392016,
      "user": "matvey_kiev_ua",
      "uid": 371387,
      "tags": {
        "name": "ФрукТаІн",
        "opening_hours:covid19": "open",
        "payment:cash": "yes",
        "shop": "convenience"
      }
    },
    {
      "type": "node",
      "id": 8571653864,
      "lat": 48.218988,
      "lon": 23.282977,
      "timestamp": "2021-03-29T12:51:23Z",
      "version": 1,
      "changeset": 101918779,
      "user": "evolvent",
      "uid": 3748280,
      "tags": {
        "drinking_water": "yes",
        "natural": "spring"
      }
    },
    {
      "type": "node",
      "id": 8736461500,
      "lat": 48.4582311,
      "lon": 23.5267784,
      "timestamp": "2021-05-16T15:41:49Z",
      "version": 1,
      "changeset": 104774602,
      "user": "mitrandir_hex",
      "uid": 2321949,
      "tags": {
        "amenity": "shelter",
        "shelter_type": "picnic_shelter"
      }
    },
    {
      "type": "node",
      "id": 8736461501,
      "lat": 48.4581722,
      "lon": 23.5270773,
      "timestamp": "2021-05-16T15:41:49Z",
      "version": 1,
      "changeset": 104774602,
      "user": "mitrandir_hex",
      "uid": 2321949,
      "tags": {
        "amenity": "shelter",
        "shelter_type": "picnic_shelter"
      }
    },
    {
      "type": "node",
      "id": 8736461502,
      "lat": 48.4582707,
      "lon": 23.5272065,
      "timestamp": "2021-05-16T15:41:49Z",
      "version": 1,
      "changeset": 104774602,
      "user": "mitrandir_hex",
      "uid": 2321949,
      "tags": {
        "amenity": "shelter",
        "shelter_type": "picnic_shelter"
      }
    },
    {
      "type": "node",
      "id": 8781259474,
      "lat": 48.4163596,
      "lon": 23.6846576,
      "timestamp": "2021-05-30T15:24:18Z",
      "version": 1,
      "changeset": 105572596,
      "user": "Agronom1983",
      "uid": 10483128,
      "tags": {
        "natural": "spring"
      }
    },
    {
      "type": "node",
      "id": 8781273573,
      "lat": 48.4127679,
      "lon": 23.6833612,
      "timestamp": "2021-05-30T15:38:01Z",
      "version": 1,
      "changeset": 105573142,
      "user": "ukrainian_tourist",
      "uid": 12784289,
      "tags": {
        "amenity": "shelter"
      }
    },
    {
      "type": "node",
      "id": 8781273574,
      "lat": 48.412677,
      "lon": 23.683529,
      "timestamp": "2021-05-30T15:38:01Z",
      "version": 1,
      "changeset": 105573142,
      "user": "ukrainian_tourist",
      "uid": 12784289,
      "tags": {
        "amenity": "shelter"
      }
    },
    {
      "type": "node",
      "id": 8781276240,
      "lat": 48.414136,
      "lon": 23.6836448,
      "timestamp": "2021-05-30T15:24:18Z",
      "version": 1,
      "changeset": 105572596,
      "user": "Agronom1983",
      "uid": 10483128,
      "tags": {
        "description": "Много места",
        "tourism": "camp_site"
      }
    },
    {
      "type": "node",
      "id": 8781289547,
      "lat": 48.4224775,
      "lon": 23.7065519,
      "timestamp": "2021-05-30T15:24:17Z",
      "version": 1,
      "changeset": 105572596,
      "user": "Agronom1983",
      "uid": 10483128,
      "tags": {
        "name": "Ручей",
        "natural": "spring"
      }
    },
    {
      "type": "node",
      "id": 8872662886,
      "lat": 48.329443,
      "lon": 23.6099625,
      "timestamp": "2021-06-28T15:13:45Z",
      "version": 1,
      "changeset": 107096064,
      "user": "ExplorerUA",
      "uid": 3100177,
      "tags": {
        "drinking_water": "yes",
        "natural": "spring"
      }
    },
    {
      "type": "node",
      "id": 8878147958,
      "lat": 48.2695475,
      "lon": 23.6348602,
      "timestamp": "2021-06-29T19:58:03Z",
      "version": 1,
      "changeset": 107168337,
      "user": "ig44572",
      "uid": 8249615,
      "tags": {
        "name": "Буркут",
        "natural": "spring"
      }
    },
    {
      "type": "node",
      "id": 8972579546,
      "lat": 48.2215326,
      "lon": 23.2820468,
      "timestamp": "2021-08-01T18:21:58Z",
      "version": 1,
      "changeset": 108983810,
      "user": "andiua",
      "uid": 4087591,
      "tags": {
        "drinking_water": "yes",
        "intermittent": "no",
        "name": "Джерело з труби. З протилежної сторони потоку",
        "natural": "spring"
      }
    },
    {
      "type": "node",
      "id": 8984994368,
      "lat": 48.2688868,
      "lon": 23.5760719,
      "timestamp": "2021-08-06T07:20:44Z",
      "version": 2,
      "changeset": 109240462,
      "user": "evolvent",
      "uid": 3748280,
      "tags": {
        "drinking_water": "yes",
        "name": "Мінеральна",
        "natural": "spring"
      }
    },
    {
      "type": "node",
      "id": 8997701817,
      "lat": 48.0104399,
      "lon": 23.5890472,
      "timestamp": "2021-08-11T06:33:50Z",
      "version": 2,
      "changeset": 109497007,
      "user": "che_",
      "uid": 3169212,
      "tags": {
        "name": "АТБ",
        "opening_hours": "24/7",
        "shop": "supermarket"
      }
    },
    {
      "type": "node",
      "id": 9010269024,
      "lat": 48.0585185,
      "lon": 23.3478573,
      "timestamp": "2021-08-16T12:48:49Z",
      "version": 1,
      "changeset": 109750898,
      "user": "Sergioni145",
      "uid": 2436512,
      "tags": {
        "amenity": "shelter",
        "shelter_type": "gazebo"
      }
    },
    {
      "type": "node",
      "id": 9010269114,
      "lat": 48.0541479,
      "lon": 23.3680044,
      "timestamp": "2021-08-16T12:48:49Z",
      "version": 1,
      "changeset": 109750898,
      "user": "Sergioni145",
      "uid": 2436512,
      "tags": {
        "amenity": "shelter",
        "shelter_type": "gazebo"
      }
    },
    {
      "type": "node",
      "id": 9010269115,
      "lat": 48.0539912,
      "lon": 23.3681194,
      "timestamp": "2021-08-16T12:48:49Z",
      "version": 1,
      "changeset": 109750898,
      "user": "Sergioni145",
      "uid": 2436512,
      "tags": {
        "amenity": "shelter",
        "shelter_type": "gazebo"
      }
    },
    {
      "type": "node",
      "id": 9010269116,
      "lat": 48.0538421,
      "lon": 23.3682458,
      "timestamp": "2021-08-16T12:48:49Z",
      "version": 1,
      "changeset": 109750898,
      "user": "Sergioni145",
      "uid": 2436512,
      "tags": {
        "amenity": "shelter",
        "shelter_type": "gazebo"
      }
    },
    {
      "type": "node",
      "id": 9010269117,
      "lat": 48.0554089,
      "lon": 23.3711535,
      "timestamp": "2021-08-16T12:48:49Z",
      "version": 1,
      "changeset": 109750898,
      "user": "Sergioni145",
      "uid": 2436512,
      "tags": {
        "amenity": "shelter",
        "shelter_type": "gazebo"
      }
    },
    {
      "type": "node",
      "id": 9010269118,
      "lat": 48.055287,
      "lon": 23.3713543,
      "timestamp": "2021-08-16T12:48:49Z",
      "version": 1,
      "changeset": 109750898,
      "user": "Sergioni145",
      "uid": 2436512,
      "tags": {
        "amenity": "shelter",
        "shelter_type": "gazebo"
      }
    },
    {
      "type": "node",
      "id": 9010269119,
      "lat": 48.0551306,
      "lon": 23.3716118,
      "timestamp": "2021-08-16T12:48:49Z",
      "version": 1,
      "changeset": 109750898,
      "user": "Sergioni145",
      "uid": 2436512,
      "tags": {
        "amenity": "shelter",
        "shelter_type": "gazebo"
      }
    },
    {
      "type": "node",
      "id": 9010269120,
      "lat": 48.0549239,
      "lon": 23.3719395,
      "timestamp": "2021-08-16T12:48:49Z",
      "version": 1,
      "changeset": 109750898,
      "user": "Sergioni145",
      "uid": 2436512,
      "tags": {
        "amenity": "shelter",
        "shelter_type": "gazebo"
      }
    },
    {
      "type": "node",
      "id": 9010269139,
      "lat": 48.0554481,
      "lon": 23.3701325,
      "timestamp": "2021-08-16T12:48:49Z",
      "version": 1,
      "changeset": 109750898,
      "user": "Sergioni145",
      "uid": 2436512,
      "tags": {
        "amenity": "shelter",
        "shelter_type": "gazebo"
      }
    },
    {
      "type": "node",
      "id": 9010269140,
      "lat": 48.0553488,
      "lon": 23.3698731,
      "timestamp": "2021-08-16T12:48:49Z",
      "version": 1,
      "changeset": 109750898,
      "user": "Sergioni145",
      "uid": 2436512,
      "tags": {
        "amenity": "shelter",
        "shelter_type": "gazebo"
      }
    },
    {
      "type": "node",
      "id": 9010528066,
      "lat": 48.1215615,
      "lon": 23.3014962,
      "timestamp": "2021-08-16T15:00:12Z",
      "version": 1,
      "changeset": 109757009,
      "user": "Sergioni145",
      "uid": 2436512,
      "tags": {
        "amenity": "shelter",
        "shelter_type": "gazebo"
      }
    },
    {
      "type": "node",
      "id": 9010528067,
      "lat": 48.1216078,
      "lon": 23.3016077,
      "timestamp": "2021-08-16T15:00:12Z",
      "version": 1,
      "changeset": 109757009,
      "user": "Sergioni145",
      "uid": 2436512,
      "tags": {
        "amenity": "shelter",
        "shelter_type": "gazebo"
      }
    },
    {
      "type": "node",
      "id": 9010528068,
      "lat": 48.1216835,
      "lon": 23.3017863,
      "timestamp": "2021-08-16T15:00:12Z",
      "version": 1,
      "changeset": 109757009,
      "user": "Sergioni145",
      "uid": 2436512,
      "tags": {
        "amenity": "shelter",
        "shelter_type": "gazebo"
      }
    },
    {
      "type": "node",
      "id": 9010528069,
      "lat": 48.1217665,
      "lon": 23.3019489,
      "timestamp": "2021-08-16T15:00:12Z",
      "version": 1,
      "changeset": 109757009,
      "user": "Sergioni145",
      "uid": 2436512,
      "tags": {
        "amenity": "shelter",
        "shelter_type": "gazebo"
      }
    },
    {
      "type": "node",
      "id": 9010561624,
      "lat": 48.1702683,
      "lon": 23.2985033,
      "timestamp": "2021-08-16T15:21:28Z",
      "version": 1,
      "changeset": 109757981,
      "user": "Sergioni145",
      "uid": 2436512,
      "tags": {
        "amenity": "drinking_water"
      }
    },
    {
      "type": "node",
      "id": 9021088790,
      "lat": 48.1170456,
      "lon": 23.4370082,
      "timestamp": "2021-08-19T19:48:30Z",
      "version": 1,
      "changeset": 109951919,
      "user": "andiua",
      "uid": 4087591,
      "tags": {
        "drinking_water": "yes",
        "name": "Мінеральне джерело",
        "natural": "spring"
      }
    },
    {
      "type": "node",
      "id": 9039985117,
      "lat": 48.1785573,
      "lon": 23.30765,
      "timestamp": "2021-08-27T08:40:57Z",
      "version": 1,
      "changeset": 110327148,
      "user": "Vic Chetov",
      "uid": 5006208,
      "tags": {
        "name": "АВС+",
        "name:en": "ABC+",
        "shop": "convenience"
      }
    },
    {
      "type": "node",
      "id": 9039985118,
      "lat": 48.1787747,
      "lon": 23.3079382,
      "timestamp": "2021-08-27T08:41:03Z",
      "version": 1,
      "changeset": 110327148,
      "user": "Vic Chetov",
      "uid": 5006208,
      "tags": {
        "name": "Фенікс",
        "shop": "convenience"
      }
    },
    {
      "type": "node",
      "id": 9077652459,
      "lat": 48.3048405,
      "lon": 23.9024846,
      "timestamp": "2021-09-09T19:36:28Z",
      "version": 1,
      "changeset": 110992382,
      "user": "Захар Кравцов",
      "uid": 4126487,
      "tags": {
        "tourism": "camp_site"
      }
    },
    {
      "type": "node",
      "id": 9103162486,
      "lat": 48.4323393,
      "lon": 23.4969565,
      "timestamp": "2021-09-18T09:15:31Z",
      "version": 1,
      "changeset": 111366730,
      "user": "Jarkiy",
      "uid": 208947,
      "tags": {
        "natural": "spring"
      }
    },
    {
      "type": "node",
      "id": 9103170688,
      "lat": 48.4360518,
      "lon": 23.5770915,
      "timestamp": "2021-09-18T09:29:37Z",
      "version": 1,
      "changeset": 111367164,
      "user": "Jarkiy",
      "uid": 208947,
      "tags": {
        "natural": "spring"
      }
    },
    {
      "type": "node",
      "id": 9105938045,
      "lat": 48.4324799,
      "lon": 23.8031588,
      "timestamp": "2021-09-19T18:49:46Z",
      "version": 1,
      "changeset": 111420813,
      "user": "Agronom1983",
      "uid": 10483128,
      "tags": {
        "description": "На пару палаток, тут ветер.",
        "tourism": "camp_site"
      }
    },
    {
      "type": "node",
      "id": 9105989716,
      "lat": 48.4343678,
      "lon": 23.7983511,
      "timestamp": "2021-09-19T18:51:00Z",
      "version": 1,
      "changeset": 111420836,
      "user": "Agronom1983",
      "uid": 10483128,
      "tags": {
        "description": "На пару палаток, тут ветер.",
        "tourism": "camp_site"
      }
    },
    {
      "type": "node",
      "id": 9120116550,
      "lat": 48.4298037,
      "lon": 23.6913737,
      "timestamp": "2021-09-24T12:44:05Z",
      "version": 1,
      "changeset": 111646254,
      "user": "Jarkiy",
      "uid": 208947,
      "tags": {
        "natural": "spring"
      }
    },
    {
      "type": "node",
      "id": 9120116551,
      "lat": 48.4279327,
      "lon": 23.6928844,
      "timestamp": "2021-10-21T09:28:13Z",
      "version": 2,
      "changeset": 112782000,
      "user": "Agronom1983",
      "uid": 10483128,
      "tags": {
        "tourism": "camp_site"
      }
    },
    {
      "type": "node",
      "id": 9120116552,
      "lat": 48.4305355,
      "lon": 23.6899833,
      "timestamp": "2021-10-21T09:29:46Z",
      "version": 2,
      "changeset": 112782095,
      "user": "Agronom1983",
      "uid": 10483128,
      "tags": {
        "tourism": "camp_site"
      }
    },
    {
      "type": "node",
      "id": 9189818786,
      "lat": 48.3339064,
      "lon": 23.8093843,
      "timestamp": "2021-10-21T09:28:08Z",
      "version": 1,
      "changeset": 112782000,
      "user": "Agronom1983",
      "uid": 10483128,
      "tags": {
        "natural": "spring"
      }
    },
    {
      "type": "node",
      "id": 9189831187,
      "lat": 48.3356136,
      "lon": 23.8191255,
      "timestamp": "2021-10-21T09:28:12Z",
      "version": 1,
      "changeset": 112782000,
      "user": "Agronom1983",
      "uid": 10483128,
      "tags": {
        "Fixme": "Проверить состояние",
        "tourism": "wilderness_hut"
      }
    },
    {
      "type": "node",
      "id": 9237749936,
      "lat": 48.4128737,
      "lon": 23.684057,
      "timestamp": "2021-11-09T11:07:53Z",
      "version": 2,
      "changeset": 113560726,
      "user": "Igornpp",
      "uid": 12969567,
      "tags": {
        "name": "Мінеральне джерело \"Боркут\"",
        "natural": "spring"
      }
    },
    {
      "type": "way",
      "id": 30696381,
      "timestamp": "2021-01-14T17:48:37Z",
      "version": 11,
      "changeset": 97509507,
      "user": "muchichka_s",
      "uid": 10857625,
      "center": {
        "lat": 48.0065904,
        "lon": 23.6582676
      },
      "nodes": [],
      "tags": {
        "admin_level": "9",
        "boundary": "administrative",
        "koatuu": "2124480401",
        "name": "Бедевля",
        "place": "village",
        "population": "3971",
        "postal_code": "90561",
        "wikidata": "Q791847",
        "wikipedia": "uk:Бедевля"
      }
    },
    {
      "type": "way",
      "id": 30696686,
      "timestamp": "2021-01-14T17:48:37Z",
      "version": 7,
      "changeset": 97509507,
      "user": "muchichka_s",
      "uid": 10857625,
      "center": {
        "lat": 48.033026,
        "lon": 23.6614112
      },
      "nodes": [],
      "tags": {
        "admin_level": "9",
        "boundary": "administrative",
        "koatuu": "2124480404",
        "name": "Дібрівка",
        "place": "village",
        "population": "440",
        "postal_code": "90561",
        "wikidata": "Q4161168",
        "wikipedia": "uk:Дібрівка (Тячівський район)"
      }
    },
    {
      "type": "way",
      "id": 30697040,
      "timestamp": "2021-01-14T17:48:37Z",
      "version": 5,
      "changeset": 97509507,
      "user": "muchichka_s",
      "uid": 10857625,
      "center": {
        "lat": 48.2605499,
        "lon": 23.5548171
      },
      "nodes": [],
      "tags": {
        "admin_level": "9",
        "boundary": "administrative",
        "koatuu": "2125382804",
        "name": "Становець",
        "place": "village",
        "population": "486",
        "postal_code": "90432",
        "wikidata": "Q3849421",
        "wikipedia": "uk:Становець"
      }
    },
    {
      "type": "way",
      "id": 30697660,
      "timestamp": "2021-01-14T17:48:37Z",
      "version": 5,
      "changeset": 97509507,
      "user": "muchichka_s",
      "uid": 10857625,
      "center": {
        "lat": 48.1448575,
        "lon": 23.6672898
      },
      "nodes": [],
      "tags": {
        "admin_level": "9",
        "boundary": "administrative",
        "koatuu": "2124487603",
        "name": "Груники",
        "place": "village",
        "population": "1416",
        "postal_code": "90514",
        "wikidata": "Q3850621",
        "wikipedia": "uk:Груники"
      }
    },
    {
      "type": "way",
      "id": 30698418,
      "timestamp": "2021-01-14T17:48:37Z",
      "version": 5,
      "changeset": 97509507,
      "user": "muchichka_s",
      "uid": 10857625,
      "center": {
        "lat": 48.17745,
        "lon": 23.915865
      },
      "nodes": [],
      "tags": {
        "admin_level": "9",
        "boundary": "administrative",
        "landuse": "residential",
        "name": "Вишній Дубовець",
        "name:uk": "Вишній Дубовець",
        "place": "village"
      }
    },
    {
      "type": "way",
      "id": 30698827,
      "timestamp": "2021-01-14T17:48:37Z",
      "version": 9,
      "changeset": 97509507,
      "user": "muchichka_s",
      "uid": 10857625,
      "center": {
        "lat": 48.0290498,
        "lon": 23.6574929
      },
      "nodes": [],
      "tags": {
        "admin_level": "9",
        "boundary": "administrative",
        "koatuu": "2124480403",
        "name": "Глиняний",
        "place": "village",
        "population": "301",
        "postal_code": "90561",
        "wikidata": "Q3850892",
        "wikipedia": "uk:Глиняний"
      }
    },
    {
      "type": "way",
      "id": 30698910,
      "timestamp": "2021-01-14T17:48:37Z",
      "version": 7,
      "changeset": 97509507,
      "user": "muchichka_s",
      "uid": 10857625,
      "center": {
        "lat": 48.0298668,
        "lon": 23.69425
      },
      "nodes": [],
      "tags": {
        "admin_level": "9",
        "boundary": "administrative",
        "fixme": "уточнити межі бо виправлено тільки технологічно",
        "koatuu": "2124480501",
        "name": "Біловарці",
        "place": "village",
        "population": "992",
        "postal_code": "90562",
        "wikidata": "Q388701",
        "wikipedia": "uk:Біловарці"
      }
    },
    {
      "type": "way",
      "id": 30699326,
      "timestamp": "2021-01-14T17:48:37Z",
      "version": 7,
      "changeset": 97509507,
      "user": "muchichka_s",
      "uid": 10857625,
      "center": {
        "lat": 48.1429489,
        "lon": 23.5880016
      },
      "nodes": [],
      "tags": {
        "admin_level": "9",
        "boundary": "administrative",
        "koatuu": "2124482601",
        "name": "Дулово",
        "place": "village",
        "population": "1503",
        "postal_code": "90513",
        "wikidata": "Q750498",
        "wikipedia": "uk:Дулово"
      }
    },
    {
      "type": "way",
      "id": 30699469,
      "timestamp": "2021-01-14T17:48:37Z",
      "version": 6,
      "changeset": 97509507,
      "user": "muchichka_s",
      "uid": 10857625,
      "center": {
        "lat": 48.196764,
        "lon": 23.658025
      },
      "nodes": [],
      "tags": {
        "admin_level": "9",
        "boundary": "administrative",
        "koatuu": "2124480601",
        "name": "Велика Уголька",
        "place": "village",
        "population": "2052",
        "postal_code": "90532",
        "wikidata": "Q750508",
        "wikipedia": "uk:Велика Уголька (село)"
      }
    },
    {
      "type": "way",
      "id": 30699848,
      "timestamp": "2021-01-14T17:48:37Z",
      "version": 8,
      "changeset": 97509507,
      "user": "muchichka_s",
      "uid": 10857625,
      "center": {
        "lat": 48.084155,
        "lon": 23.675195
      },
      "nodes": [],
      "tags": {
        "admin_level": "9",
        "boundary": "administrative",
        "koatuu": "2124484002",
        "name": "Округла",
        "place": "village",
        "population": "573",
        "postal_code": "90555",
        "wikidata": "Q2090223",
        "wikipedia": "uk:Округла"
      }
    },
    {
      "type": "way",
      "id": 30699902,
      "timestamp": "2021-01-14T17:48:37Z",
      "version": 10,
      "changeset": 97509507,
      "user": "muchichka_s",
      "uid": 10857625,
      "center": {
        "lat": 48.449658,
        "lon": 23.5361985
      },
      "nodes": [],
      "tags": {
        "admin_level": "9",
        "boundary": "administrative",
        "koatuu": "2122480801",
        "name": "Вучкове",
        "place": "village",
        "population": "697",
        "postal_code": "90046",
        "wikidata": "Q750338",
        "wikipedia": "uk:Вучкове"
      }
    },
    {
      "type": "way",
      "id": 30700148,
      "timestamp": "2021-01-14T17:48:37Z",
      "version": 7,
      "changeset": 97509507,
      "user": "muchichka_s",
      "uid": 10857625,
      "center": {
        "lat": 48.1633915,
        "lon": 23.5974869
      },
      "nodes": [],
      "tags": {
        "admin_level": "9",
        "boundary": "administrative",
        "koatuu": "2124483001",
        "name": "Колодне",
        "place": "village",
        "population": "2119",
        "postal_code": "90512",
        "wikidata": "Q750323",
        "wikipedia": "uk:Колодне (Тячівський район)"
      }
    },
    {
      "type": "way",
      "id": 30700868,
      "timestamp": "2021-01-14T17:48:37Z",
      "version": 10,
      "changeset": 97509507,
      "user": "muchichka_s",
      "uid": 10857625,
      "center": {
        "lat": 48.125435,
        "lon": 23.8162514
      },
      "nodes": [],
      "tags": {
        "admin_level": "9",
        "boundary": "administrative",
        "koatuu": "2124481201",
        "name": "Ганичі",
        "place": "village",
        "population": "4986",
        "postal_code": "90535",
        "wikidata": "Q750465",
        "wikipedia": "uk:Ганичі"
      }
    },
    {
      "type": "way",
      "id": 30700976,
      "timestamp": "2021-01-14T17:48:37Z",
      "version": 12,
      "changeset": 97509507,
      "user": "muchichka_s",
      "uid": 10857625,
      "center": {
        "lat": 48.0737761,
        "lon": 23.7389448
      },
      "nodes": [],
      "tags": {
        "admin_level": "9",
        "boundary": "administrative",
        "koatuu": "2124487401",
        "landuse": "residential",
        "name": "Терново",
        "place": "village",
        "population": "4302",
        "postal_code": "90545",
        "wikidata": "Q750334",
        "wikipedia": "uk:Терново"
      }
    },
    {
      "type": "way",
      "id": 30700982,
      "timestamp": "2020-11-21T18:18:39Z",
      "version": 4,
      "changeset": 94556194,
      "user": "muchichka_s",
      "uid": 10857625,
      "center": {
        "lat": 48.3316634,
        "lon": 23.3597282
      },
      "nodes": [],
      "tags": {
        "admin_level": "9",
        "boundary": "administrative",
        "koatuu": "2125384801",
        "landuse": "residential",
        "name": "Липецька Поляна",
        "name:en": "Lypetska Poliana",
        "name:hu": "Lipcsemező",
        "name:prefix": "село",
        "name:ru": "Липецкая Поляна",
        "name:uk": "Липецька Поляна",
        "place": "village",
        "population": "2544",
        "postal_code": "90425",
        "residential": "rural",
        "wikidata": "Q3850149",
        "wikipedia": "uk:Липецька Поляна"
      }
    },
    {
      "type": "way",
      "id": 30701069,
      "timestamp": "2021-01-14T17:48:37Z",
      "version": 11,
      "changeset": 97509507,
      "user": "muchichka_s",
      "uid": 10857625,
      "center": {
        "lat": 48.06733,
        "lon": 23.7097
      },
      "nodes": [],
      "tags": {
        "admin_level": "9",
        "boundary": "administrative",
        "koatuu": "2124482501",
        "landuse": "residential",
        "name": "Добрянське",
        "place": "village",
        "population": "2714",
        "postal_code": "90560",
        "wikidata": "Q4163921",
        "wikipedia": "uk:Добрянське (Тячівський район)"
      }
    },
    {
      "type": "way",
      "id": 30701222,
      "timestamp": "2021-01-14T17:48:37Z",
      "version": 5,
      "changeset": 97509507,
      "user": "muchichka_s",
      "uid": 10857625,
      "center": {
        "lat": 48.2906514,
        "lon": 23.5741242
      },
      "nodes": [],
      "tags": {
        "admin_level": "9",
        "boundary": "administrative",
        "koatuu": "2125383001",
        "name": "Забрідь",
        "place": "village",
        "population": "2077",
        "postal_code": "90428",
        "wikidata": "Q3849383",
        "wikipedia": "uk:Забрідь (Хустський район)"
      }
    },
    {
      "type": "way",
      "id": 30701304,
      "timestamp": "2021-01-14T17:48:37Z",
      "version": 10,
      "changeset": 97509507,
      "user": "muchichka_s",
      "uid": 10857625,
      "center": {
        "lat": 48.099175,
        "lon": 23.7322412
      },
      "nodes": [],
      "tags": {
        "admin_level": "9",
        "boundary": "administrative",
        "koatuu": "2124485801",
        "name": "Вільхівці",
        "place": "village",
        "population": "3374",
        "postal_code": "90543",
        "wikidata": "Q254366",
        "wikipedia": "uk:Вільхівці (Тячівський район)"
      }
    },
    {
      "type": "way",
      "id": 30701474,
      "timestamp": "2021-01-14T17:48:37Z",
      "version": 10,
      "changeset": 97509507,
      "user": "muchichka_s",
      "uid": 10857625,
      "center": {
        "lat": 48.1129035,
        "lon": 23.5975659
      },
      "nodes": [],
      "tags": {
        "admin_level": "9",
        "boundary": "administrative",
        "koatuu": "2124487001",
        "name": "Теребля",
        "place": "village",
        "population": "1389",
        "postal_code": "90550",
        "wikidata": "Q3406804",
        "wikipedia": "uk:Теребля (Тячівський район)"
      }
    },
    {
      "type": "way",
      "id": 30701570,
      "timestamp": "2020-11-21T18:22:49Z",
      "version": 7,
      "changeset": 94556332,
      "user": "muchichka_s",
      "uid": 10857625,
      "center": {
        "lat": 48.4513384,
        "lon": 23.2579075
      },
      "nodes": [],
      "tags": {
        "admin_level": "9",
        "boundary": "administrative",
        "koatuu": "2121985201",
        "landuse": "residential",
        "name": "Кушниця",
        "name:en": "Kushnytsia",
        "name:hu": "Kovácsrét",
        "name:prefix": "село",
        "name:ru": "Кушница",
        "name:uk": "Кушниця",
        "place": "village",
        "population": "6100",
        "postal_code": "90151",
        "residential": "rural",
        "wikidata": "Q750931",
        "wikipedia": "uk:Кушниця"
      }
    },
    {
      "type": "way",
      "id": 30701600,
      "timestamp": "2021-08-08T13:25:31Z",
      "version": 10,
      "changeset": 109346187,
      "user": "muchichka_s",
      "uid": 10857625,
      "center": {
        "lat": 48.3682866,
        "lon": 23.2854831
      },
      "nodes": [],
      "tags": {
        "admin_level": "9",
        "boundary": "administrative",
        "koatuu": "2121983001",
        "landuse": "residential",
        "name": "Довге",
        "name:en": "Dovhe",
        "name:hu": "Dolha",
        "name:prefix": "село",
        "name:ru": "Долгое",
        "name:sk": "Dlhé",
        "name:uk": "Довге",
        "place": "village",
        "population": "6790",
        "postal_code": "90154",
        "wikidata": "Q854760",
        "wikipedia": "uk:Довге (Хустський район)"
      }
    },
    {
      "type": "way",
      "id": 30701667,
      "timestamp": "2021-01-14T17:48:37Z",
      "version": 6,
      "changeset": 97509507,
      "user": "muchichka_s",
      "uid": 10857625,
      "center": {
        "lat": 48.123975,
        "lon": 23.3976077
      },
      "nodes": [],
      "tags": {
        "admin_level": "9",
        "boundary": "administrative",
        "koatuu": "2125387401",
        "landuse": "residential",
        "name": "Сокирниця",
        "place": "village",
        "population": "5217",
        "postal_code": "90450",
        "wikidata": "Q378822",
        "wikipedia": "uk:Сокирниця (Хустський район)"
      }
    },
    {
      "type": "way",
      "id": 45420806,
      "timestamp": "2020-07-09T15:07:32Z",
      "version": 15,
      "changeset": 87772272,
      "user": "Zipu",
      "uid": 10900494,
      "center": {
        "lat": 47.9850531,
        "lon": 23.7688129
      },
      "nodes": [],
      "tags": {
        "CLC:details": "This item has been retagged to make it invisible in renderings, but still available for edits.",
        "CLC:explanation": "See http://wiki.openstreetmap.org/wiki/Romania_CLC_Import.",
        "admin_level": "6",
        "name": "Câmpulung la Tisa",
        "place": "village",
        "pre-CLC:landuse": "residential",
        "siruta:code": "107724",
        "source": "Mircea Angelescu (cultura.ro)"
      }
    },
    {
      "type": "way",
      "id": 75512183,
      "timestamp": "2020-07-04T19:26:17Z",
      "version": 6,
      "changeset": 87539396,
      "user": "Garmin-User",
      "uid": 177389,
      "center": {
        "lat": 47.995145,
        "lon": 23.2003335
      },
      "nodes": [],
      "tags": {
        "name": "Turț",
        "place": "village",
        "siruta:code": "139189",
        "source": "Mircea Angelescu, geo-spatial.org"
      }
    },
    {
      "type": "way",
      "id": 297819147,
      "timestamp": "2016-06-23T12:05:32Z",
      "version": 4,
      "changeset": 40230308,
      "user": "andiua",
      "uid": 4087591,
      "center": {
        "lat": 48.196041,
        "lon": 23.3093894
      },
      "nodes": [],
      "tags": {
        "addr:city": "Хуст",
        "addr:street": "Львівська вулиця",
        "name": "Silverland",
        "shop": "supermarket"
      }
    },
    {
      "type": "way",
      "id": 431521267,
      "timestamp": "2017-10-11T10:59:35Z",
      "version": 2,
      "changeset": 52820632,
      "user": "iorant",
      "uid": 374661,
      "center": {
        "lat": 48.1835928,
        "lon": 23.2901179
      },
      "nodes": [],
      "tags": {
        "building": "yes",
        "name": "АВС «Хвилинка»",
        "shop": "convenience"
      }
    },
    {
      "type": "way",
      "id": 509785486,
      "timestamp": "2021-08-16T15:00:12Z",
      "version": 2,
      "changeset": 109757009,
      "user": "Sergioni145",
      "uid": 2436512,
      "center": {
        "lat": 48.1178786,
        "lon": 23.3161571
      },
      "nodes": [],
      "tags": {
        "building": "yes",
        "building:levels": "1",
        "name": "Abc",
        "shop": "convenience"
      }
    },
    {
      "type": "way",
      "id": 907142920,
      "timestamp": "2021-02-14T20:42:38Z",
      "version": 1,
      "changeset": 99266342,
      "user": "muchichka_s",
      "uid": 10857625,
      "center": {
        "lat": 48.0096615,
        "lon": 23.49599
      },
      "nodes": [],
      "tags": {
        "admin_level": "9",
        "boundary": "administrative",
        "koatuu": "2125355304",
        "name": "Яблунівка",
        "name:en": "Yablunivka",
        "name:prefix": "село",
        "name:ru": "Яблоновка",
        "name:uk": "Яблунівка",
        "place": "village",
        "population": "1451",
        "postal_code": "90458",
        "wikidata": "Q3849719",
        "wikipedia": "uk:Яблунівка (Хустський район)"
      }
    },
    {
      "type": "way",
      "id": 907149203,
      "timestamp": "2021-02-14T21:18:08Z",
      "version": 1,
      "changeset": 99267405,
      "user": "muchichka_s",
      "uid": 10857625,
      "center": {
        "lat": 48.0584625,
        "lon": 23.3349502
      },
      "nodes": [],
      "tags": {
        "admin_level": "9",
        "boundary": "administrative",
        "koatuu": "2125355303",
        "name": "Шаян",
        "name:en": "Shaian",
        "name:hu": "Saján",
        "name:prefix": "село",
        "name:ru": "Шаян",
        "name:uk": "Шаян",
        "place": "village",
        "population": "534",
        "postal_code": "90457",
        "wikidata": "Q3849546",
        "wikipedia": "uk:Шаян (Україна)"
      }
    },
    {
      "type": "way",
      "id": 972273155,
      "timestamp": "2021-08-11T13:08:45Z",
      "version": 1,
      "changeset": 109518261,
      "user": "muchichka_s",
      "uid": 10857625,
      "center": {
        "lat": 48.2233063,
        "lon": 23.3450252
      },
      "nodes": [],
      "tags": {
        "addr:city": "Іза",
        "addr:postcode": "90436",
        "addr:street": "Центральна вулиця",
        "amenity": "fuel",
        "brand": "CHIPO",
        "building": "retail",
        "contact:website": "https://chipo.ua/",
        "fuel:diesel": "yes",
        "fuel:octane_92": "yes",
        "fuel:octane_95": "yes",
        "name": "Chipo",
        "opening_hours": "24/7",
        "operator": "ТОВ \"ПОДІЛЛЯНАФТОЗБУТ\"",
        "ref": "54",
        "shop": "convenience",
        "vending": "coffee"
      }
    },
    {
      "type": "way",
      "id": 981351534,
      "timestamp": "2021-09-09T19:36:28Z",
      "version": 1,
      "changeset": 110992382,
      "user": "Захар Кравцов",
      "uid": 4126487,
      "center": {
        "lat": 48.3487956,
        "lon": 23.7825033
      },
      "nodes": [],
      "tags": {
        "building": "yes",
        "tourism": "wilderness_hut"
      }
    }
  ]
}