{
  "osm3s": {
    "timestamp_osm_date": "2022-07-09T23:59:59Z",
    "timestamp_osm_base": "2022-07-10T06:29:02Z",
    "copyright": "The data included in this document is from www.openstreetmap.org. The data is made available under ODbL."
  },
  "elements": [
    {
      "type": "node",
      "id": 367526520,
      "lat": 69.0437044,
      "lon": 20.8564835,
      "timestamp": "2021-01-21T17:00:02Z",
      "version": 8,
      "changeset": 97918828,
      "user": "frspp",
      "uid": 76015,
      "tags": {
        "alt_name": "Saanatunturi",
        "ele": "1028.7",
        "name": "Saana",
        "name:en": "Saana fell",
        "name:fi": "Saana",
        "name:se": "Sáná",
        "natural": "peak",
        "website": "https://luontoon.fi/kilpisjarvi",
        "wikidata": "Q1637507",
        "wikipedia": "fi:Saana (tunturi)"
      }
    },
    {
      "type": "node",
      "id": 1237273402,
      "lat": 69.0454638,
      "lon": 20.8004,
      "timestamp": "2020-02-22T19:45:26Z",
      "version": 7,
      "changeset": 81353102,
      "user": "Mateusz_P_90110",
      "uid": 10649349,
      "tags": {
        "ele": "490",
        "name": "Kilpisjärvi",
        "name:fi": "Kilpisjärvi",
        "name:se": "Gilbbesjávri",
        "place": "village",
        "population": "114",
        "website": "http://www.kilpisjarvi.org/",
        "wikidata": "Q999185",
        "wikipedia": "fi:Kilpisjärvi"
      }
    },
    {
      "type": "node",
      "id": 1838223860,
      "lat": 69.0167041,
      "lon": 21.044868,
      "timestamp": "2022-01-29T14:15:16Z",
      "version": 2,
      "changeset": 116745894,
      "user": "JyriK",
      "uid": 22190,
      "tags": {
        "drinking_water": "yes",
        "intermittent": "no",
        "natural": "spring"
      }
    },
    {
      "type": "node",
      "id": 1839074949,
      "lat": 69.0340434,
      "lon": 21.0804976,
      "timestamp": "2022-03-17T07:48:21Z",
      "version": 2,
      "changeset": 118579532,
      "user": "|Yucca|",
      "uid": 3391786,
      "tags": {
        "natural": "spring"
      }
    },
    {
      "type": "node",
      "id": 2212074979,
      "lat": 69.0165498,
      "lon": 20.8764724,
      "timestamp": "2022-05-22T19:33:59Z",
      "version": 10,
      "changeset": 121333545,
      "user": "b-jazz-bot",
      "uid": 9451067,
      "tags": {
        "addr:city": "Enontekiö",
        "addr:housenumber": "14205",
        "addr:postcode": "99490",
        "addr:street": "Käsivarrentie",
        "branch": "Kilpishalli",
        "brand": "K-Market",
        "brand:wikidata": "Q11868562",
        "brand:wikipedia": "fi:K-Market",
        "name": "K-Market",
        "opening_hours": "Jun-Aug Mo-Sa 09:00-21:00; Su 10:00-20:00; Dec-Feb Mo-Th 10:00-18:00; Fr 10:00-21:00; Sa 10:00-19:00; Su 11:00-18:00",
        "operator": "Kilpishalli Oy",
        "phone": "+358 (0)16 537747",
        "shop": "convenience",
        "website": "https://www.kilpishalli.fi/"
      }
    },
    {
      "type": "node",
      "id": 2995663760,
      "lat": 69.0122312,
      "lon": 20.8619811,
      "timestamp": "2016-01-22T09:58:52Z",
      "version": 2,
      "changeset": 36735304,
      "user": "JyriK",
      "uid": 22190,
      "tags": {
        "amenity": "shelter",
        "name": "Laavu",
        "shelter_type": "lean_to"
      }
    },
    {
      "type": "node",
      "id": 4304149546,
      "lat": 69.0362823,
      "lon": 20.8662176,
      "timestamp": "2016-07-15T10:45:46Z",
      "version": 1,
      "changeset": 40757982,
      "user": "JyriK",
      "uid": 22190,
      "tags": {
        "natural": "spring"
      }
    },
    {
      "type": "node",
      "id": 5013678731,
      "lat": 68.9234934,
      "lon": 20.7644295,
      "timestamp": "2017-08-04T08:53:19Z",
      "version": 1,
      "changeset": 50830961,
      "user": "Anitta",
      "uid": 6418499,
      "tags": {
        "name": "Risteys",
        "name:fi": "Risteys",
        "tourism": "wilderness_hut"
      }
    },
    {
      "type": "node",
      "id": 5013678826,
      "lat": 68.9234256,
      "lon": 20.7639457,
      "timestamp": "2017-08-04T08:53:19Z",
      "version": 1,
      "changeset": 50830961,
      "user": "Anitta",
      "uid": 6418499,
      "tags": {
        "name": "Risteys",
        "name:fi": "Risteys",
        "tourism": "wilderness_hut"
      }
    },
    {
      "type": "node",
      "id": 6852605826,
      "lat": 69.0588648,
      "lon": 20.6826725,
      "timestamp": "2019-10-04T19:48:28Z",
      "version": 1,
      "changeset": 75302037,
      "user": "JyriK",
      "uid": 22190,
      "tags": {
        "natural": "spring"
      }
    },
    {
      "type": "node",
      "id": 7125723332,
      "lat": 69.012231,
      "lon": 20.861981,
      "timestamp": "2020-01-12T09:47:15Z",
      "version": 1,
      "changeset": 79470921,
      "user": "operaman",
      "uid": 10646352,
      "tags": {
        "amenity": "shelter",
        "fixme": "Position may be off ± 50 meters. What type of shelter is this?",
        "source": "Facebook group Vindskydd i Norden",
        "source:url": "https://is.gd/rjlDvK"
      }
    },
    {
      "type": "node",
      "id": 7908022165,
      "lat": 69.0720652,
      "lon": 20.6152177,
      "timestamp": "2020-09-15T08:37:12Z",
      "version": 1,
      "changeset": 90910713,
      "user": "|Yucca|",
      "uid": 3391786,
      "tags": {
        "natural": "spring"
      }
    },
    {
      "type": "node",
      "id": 7908022182,
      "lat": 69.0722645,
      "lon": 20.614016,
      "timestamp": "2020-09-15T08:37:12Z",
      "version": 1,
      "changeset": 90910713,
      "user": "|Yucca|",
      "uid": 3391786,
      "tags": {
        "natural": "spring"
      }
    },
    {
      "type": "node",
      "id": 7908022194,
      "lat": 69.0726324,
      "lon": 20.6118272,
      "timestamp": "2020-09-15T08:37:12Z",
      "version": 1,
      "changeset": 90910713,
      "user": "|Yucca|",
      "uid": 3391786,
      "tags": {
        "natural": "spring"
      }
    },
    {
      "type": "node",
      "id": 7908022208,
      "lat": 69.0708848,
      "lon": 20.6179644,
      "timestamp": "2020-09-15T08:37:12Z",
      "version": 1,
      "changeset": 90910713,
      "user": "|Yucca|",
      "uid": 3391786,
      "tags": {
        "natural": "spring"
      }
    },
    {
      "type": "node",
      "id": 7908022295,
      "lat": 69.070538,
      "lon": 20.6191775,
      "timestamp": "2020-09-15T08:37:12Z",
      "version": 1,
      "changeset": 90910713,
      "user": "|Yucca|",
      "uid": 3391786,
      "tags": {
        "natural": "spring"
      }
    },
    {
      "type": "node",
      "id": 7908022517,
      "lat": 69.0794572,
      "lon": 20.6062908,
      "timestamp": "2020-09-15T08:37:12Z",
      "version": 1,
      "changeset": 90910713,
      "user": "|Yucca|",
      "uid": 3391786,
      "tags": {
        "natural": "spring"
      }
    },
    {
      "type": "node",
      "id": 7908442672,
      "lat": 68.9256358,
      "lon": 21.0554277,
      "timestamp": "2020-09-15T11:08:50Z",
      "version": 1,
      "changeset": 90921339,
      "user": "|Yucca|",
      "uid": 3391786,
      "tags": {
        "natural": "spring"
      }
    },
    {
      "type": "node",
      "id": 7908442769,
      "lat": 68.9255858,
      "lon": 21.0559431,
      "timestamp": "2020-09-15T11:08:50Z",
      "version": 1,
      "changeset": 90921339,
      "user": "|Yucca|",
      "uid": 3391786,
      "tags": {
        "natural": "spring"
      }
    },
    {
      "type": "node",
      "id": 8027599498,
      "lat": 68.9643973,
      "lon": 21.061788,
      "timestamp": "2020-10-21T08:09:54Z",
      "version": 1,
      "changeset": 92814282,
      "user": "|Yucca|",
      "uid": 3391786,
      "tags": {
        "natural": "spring"
      }
    },
    {
      "type": "node",
      "id": 8027599543,
      "lat": 68.9657957,
      "lon": 21.0727183,
      "timestamp": "2020-10-21T08:09:54Z",
      "version": 1,
      "changeset": 92814282,
      "user": "|Yucca|",
      "uid": 3391786,
      "tags": {
        "natural": "spring"
      }
    },
    {
      "type": "node",
      "id": 8035282557,
      "lat": 68.9717532,
      "lon": 21.0659045,
      "timestamp": "2020-10-22T08:37:21Z",
      "version": 1,
      "changeset": 92879806,
      "user": "|Yucca|",
      "uid": 3391786,
      "tags": {
        "natural": "spring"
      }
    },
    {
      "type": "node",
      "id": 8062007424,
      "lat": 69.0627925,
      "lon": 20.8181258,
      "timestamp": "2020-10-29T08:36:33Z",
      "version": 1,
      "changeset": 93223285,
      "user": "|Yucca|",
      "uid": 3391786,
      "tags": {
        "natural": "spring"
      }
    },
    {
      "type": "node",
      "id": 8062007533,
      "lat": 69.0630324,
      "lon": 20.817963,
      "timestamp": "2020-10-29T08:36:33Z",
      "version": 1,
      "changeset": 93223285,
      "user": "|Yucca|",
      "uid": 3391786,
      "tags": {
        "natural": "spring"
      }
    },
    {
      "type": "node",
      "id": 8062007539,
      "lat": 69.0633193,
      "lon": 20.8177623,
      "timestamp": "2020-10-29T08:36:33Z",
      "version": 1,
      "changeset": 93223285,
      "user": "|Yucca|",
      "uid": 3391786,
      "tags": {
        "natural": "spring"
      }
    },
    {
      "type": "node",
      "id": 8062007565,
      "lat": 69.0631915,
      "lon": 20.8177121,
      "timestamp": "2020-10-29T08:36:33Z",
      "version": 1,
      "changeset": 93223285,
      "user": "|Yucca|",
      "uid": 3391786,
      "tags": {
        "natural": "spring"
      }
    },
    {
      "type": "node",
      "id": 8065730210,
      "lat": 69.0273815,
      "lon": 20.9244226,
      "timestamp": "2020-10-30T13:26:08Z",
      "version": 1,
      "changeset": 93293528,
      "user": "|Yucca|",
      "uid": 3391786,
      "tags": {
        "natural": "spring"
      }
    },
    {
      "type": "node",
      "id": 9810716499,
      "lat": 69.0735871,
      "lon": 20.5017434,
      "timestamp": "2022-06-11T11:40:49Z",
      "version": 1,
      "changeset": 122245928,
      "user": "NKA",
      "uid": 3497659,
      "tags": {
        "alt_name": "Gåldahytta",
        "building": "shed",
        "capacity": "22",
        "dnt:classification": "ubetjent",
        "dnt:iid": "266",
        "dnt:lock": "yes",
        "ele": "527",
        "idrettsanleggregisteret:iid": "1939001804",
        "name": "Goldahytta",
        "network": "Den Norske Turistforening",
        "operator": "Troms Turlag",
        "owner": "Troms Turlag",
        "ref:bygningsnr": "192040043",
        "ref:kartverket:hytte": "1364",
        "tourism": "wilderness_hut",
        "website": "https://ut.no/hytte/goldahytta"
      }
    },
    {
      "type": "node",
      "id": 9833914382,
      "lat": 69.1203051,
      "lon": 20.4110172,
      "timestamp": "2022-06-20T16:08:44Z",
      "version": 1,
      "changeset": 122630765,
      "user": "NKA",
      "uid": 3497659,
      "tags": {
        "amenity": "shelter",
        "name": "Breidalsgammen",
        "operator": "Statskog",
        "ref:kartverket:hytte": "3087",
        "shelter_type": "lean_to"
      }
    },
    {
      "type": "way",
      "id": 355321726,
      "timestamp": "2019-10-04T19:43:20Z",
      "version": 5,
      "changeset": 75301849,
      "user": "JyriK",
      "uid": 22190,
      "center": {
        "lat": 69.0603132,
        "lon": 20.5570133
      },
      "nodes": [],
      "tags": {
        "addr:city": "Enontekiö",
        "bin": "no",
        "building": "cabin",
        "capacity": "6",
        "ele": "490",
        "fee": "no",
        "fireplace": "stove",
        "gas": "yes",
        "name": "Kuohkimajärven autiotupa",
        "name:en": "Kuohkimajärvi wilderness hut",
        "name:fr": "cabane déserte de Kuohkimajärvi",
        "name:sv": "Kuohkimajärvi ödestuga",
        "note": "autiotupa",
        "operator": "Metsähallitus",
        "phone": "0205 64 7990;0205 64 7950",
        "reservation": "no",
        "shelter_type": "basic_hut",
        "snowmobile": "yes",
        "tourism": "wilderness_hut",
        "website": "https://www.luontoon.fi/kuohkimajarviautiotupa"
      }
    },
    {
      "type": "way",
      "id": 355321727,
      "timestamp": "2019-10-04T19:43:20Z",
      "version": 4,
      "changeset": 75301849,
      "user": "JyriK",
      "uid": 22190,
      "center": {
        "lat": 69.0607746,
        "lon": 20.5574281
      },
      "nodes": [],
      "tags": {
        "addr:city": "Enontekiö",
        "building": "cabin",
        "capacity": "10",
        "fee": "yes",
        "fireplace": "stove",
        "gas": "yes",
        "mattress": "yes",
        "name": "Kuohkimajärvi varaustupa",
        "operator": "Metsähallitus",
        "phone": "0205 64 7990;0205 64 7950",
        "reservation": "required",
        "tourism": "wilderness_hut",
        "website": "https://www.luontoon.fi/kuohkimajarvivaraustupa"
      }
    },
    {
      "type": "way",
      "id": 355321730,
      "timestamp": "2019-04-25T18:42:48Z",
      "version": 5,
      "changeset": 69577133,
      "user": "pangoSE",
      "uid": 987207,
      "center": {
        "lat": 69.0624295,
        "lon": 21.0916315
      },
      "nodes": [],
      "tags": {
        "addr:city": "Enontekiö",
        "building": "cabin",
        "building:levels": "1",
        "capacity": "10",
        "fee": "no",
        "fireplace": "stove",
        "gas": "yes",
        "name": "Saarijärvi autiotupa",
        "name:en": "Saarijärvi wilderness hut",
        "name:sv": "Saarijärvi ödestuga",
        "operator": "Metsähallitus",
        "pets": "no",
        "reservation": "no",
        "tourism": "wilderness_hut",
        "website": "https://nationalparks.fi/kasivarsi"
      }
    },
    {
      "type": "way",
      "id": 606318952,
      "timestamp": "2022-03-17T08:26:52Z",
      "version": 4,
      "changeset": 118580955,
      "user": "|Yucca|",
      "uid": 3391786,
      "center": {
        "lat": 69.046009,
        "lon": 20.8875436
      },
      "nodes": [],
      "tags": {
        "amenity": "shelter",
        "bench": "yes",
        "bin": "yes",
        "building": "hut",
        "name": "Saanajärvi kota",
        "name:en": "Saanajärvi Lapp Hut",
        "operator": "Metsähallitus",
        "shelter_type": "basic_hut",
        "snowmobile": "yes",
        "website": "https://nationalparks.fi/kasivarsi"
      }
    }
  ]
}