{
  "osm3s": {
    "timestamp_osm_date": "2021-08-14T23:59:59Z",
    "timestamp_osm_base": "2021-08-15T05:51:06Z",
    "copyright": "The data included in this document is from www.openstreetmap.org. The data is made available under ODbL."
  },
  "elements": [
    {
      "type": "node",
      "id": 269080009,
      "lat": -46.2813342,
      "lon": 167.7384665,
      "timestamp": "2018-09-27T06:05:03Z",
      "version": 6,
      "changeset": 62965965,
      "user": "lcmortensen",
      "uid": 341519,
      "tags": {
        "is_in": "Southland",
        "name": "Orepuki",
        "name:mi": "Orepuki",
        "place": "hamlet",
        "wikidata": "Q7101620"
      }
    },
    {
      "type": "node",
      "id": 269099366,
      "lat": -46.1323096,
      "lon": 167.6907627,
      "timestamp": "2019-06-06T09:48:09Z",
      "version": 8,
      "changeset": 70983297,
      "user": "bjankuloski",
      "uid": 158784,
      "tags": {
        "is_in": "Southland",
        "name": "Tuatapere",
        "name:mi": "Tūātapere",
        "name:mk": "Туатапере",
        "place": "village",
        "population": "570",
        "source:population": "Statistics NZ 2016",
        "wikidata": "Q1324727"
      }
    },
    {
      "type": "node",
      "id": 982958505,
      "lat": -46.3466063,
      "lon": 167.7801618,
      "timestamp": "2019-07-09T10:43:49Z",
      "version": 4,
      "changeset": 72048911,
      "user": "andrew_dc",
      "uid": 1833351,
      "tags": {
        "name": "Ruahine",
        "name:mi": "Ōruahine",
        "place": "hamlet",
        "source": "LINZ & NZ Open GIS"
      }
    },
    {
      "type": "node",
      "id": 982959971,
      "lat": -46.33229,
      "lon": 167.74865,
      "timestamp": "2019-07-09T10:43:49Z",
      "version": 4,
      "changeset": 72048911,
      "user": "andrew_dc",
      "uid": 1833351,
      "tags": {
        "name": "Pahia",
        "name:mi": "Pāhia",
        "place": "hamlet",
        "source": "LINZ & NZ Open GIS",
        "wikidata": "Q7124549"
      }
    },
    {
      "type": "node",
      "id": 982962446,
      "lat": -46.24165,
      "lon": 167.69372,
      "timestamp": "2018-07-08T01:29:29Z",
      "version": 3,
      "changeset": 60500091,
      "user": "andrew_dc",
      "uid": 1833351,
      "tags": {
        "name": "Waihoaka",
        "name:mi": "Waihōaka",
        "place": "hamlet",
        "source": "LINZ & NZ Open GIS"
      }
    },
    {
      "type": "node",
      "id": 983008811,
      "lat": -46.3509977,
      "lon": 168.0202689,
      "timestamp": "2020-10-06T08:52:48Z",
      "version": 11,
      "changeset": 92033798,
      "user": "lcmortensen",
      "uid": 341519,
      "tags": {
        "alt_name:mk": "Ривертон / Апарима",
        "name": "Riverton / Aparima",
        "name:en": "Riverton",
        "name:mi": "Aparima",
        "name:mk": "Ривертон",
        "place": "town",
        "population": "1700",
        "source": "LINZ & NZ Open GIS",
        "source:population": "Statistics NZ 2019",
        "wikidata": "Q152152"
      }
    },
    {
      "type": "node",
      "id": 984609860,
      "lat": -46.17298,
      "lon": 168.0137,
      "timestamp": "2012-09-27T20:55:24Z",
      "version": 3,
      "changeset": 13277906,
      "user": "locke",
      "uid": 65032,
      "tags": {
        "name": "Ringway",
        "place": "hamlet",
        "source": "LINZ & NZ Open GIS"
      }
    },
    {
      "type": "node",
      "id": 984610300,
      "lat": -46.1398505,
      "lon": 167.9989374,
      "timestamp": "2020-12-06T14:22:36Z",
      "version": 7,
      "changeset": 95367684,
      "user": "pizzaiolo",
      "uid": 1772368,
      "tags": {
        "name": "Otautau",
        "name:mi": "Ōtautau",
        "name:mk": "Отаутау",
        "place": "village",
        "source": "LINZ & NZ Open GIS",
        "wikidata": "Q15264642"
      }
    },
    {
      "type": "node",
      "id": 1055646229,
      "lat": -46.307066,
      "lon": 167.9906933,
      "timestamp": "2019-06-06T10:05:35Z",
      "version": 7,
      "changeset": 70983856,
      "user": "bjankuloski",
      "uid": 158784,
      "tags": {
        "name": "Waipango",
        "name:mi": "Waipango",
        "name:mk": "Ваипанго",
        "place": "hamlet",
        "source": "LINZ & NZ Open GIS",
        "wikidata": "Q16402842"
      }
    },
    {
      "type": "node",
      "id": 1055686432,
      "lat": -46.3007,
      "lon": 168.01507,
      "timestamp": "2019-06-06T02:51:25Z",
      "version": 5,
      "changeset": 70972707,
      "user": "bjankuloski",
      "uid": 158784,
      "tags": {
        "name": "Gummies Bush",
        "name:mk": "Гамис Буш",
        "place": "hamlet",
        "source": "LINZ & NZ Open GIS",
        "wikidata": "Q16394919"
      }
    },
    {
      "type": "node",
      "id": 1055686525,
      "lat": -46.24165,
      "lon": 168.03567,
      "timestamp": "2012-08-29T15:02:05Z",
      "version": 3,
      "changeset": 12906448,
      "user": "locke",
      "uid": 65032,
      "tags": {
        "name": "Gropers Bush",
        "place": "hamlet",
        "source": "LINZ & NZ Open GIS"
      }
    },
    {
      "type": "node",
      "id": 1056312432,
      "lat": -46.11531,
      "lon": 167.7102,
      "timestamp": "2019-07-08T06:30:10Z",
      "version": 4,
      "changeset": 71999604,
      "user": "andrew_dc",
      "uid": 1833351,
      "tags": {
        "name": "Piko Piko",
        "name:mi": "Piko Piko",
        "place": "hamlet",
        "source": "LINZ & NZ Open GIS"
      }
    },
    {
      "type": "node",
      "id": 1056313331,
      "lat": -46.15925,
      "lon": 167.63879,
      "timestamp": "2018-07-08T00:19:15Z",
      "version": 4,
      "changeset": 60499659,
      "user": "andrew_dc",
      "uid": 1833351,
      "tags": {
        "name": "Papatotara",
        "name:mi": "Papatōtara",
        "place": "hamlet",
        "source": "LINZ & NZ Open GIS"
      }
    },
    {
      "type": "node",
      "id": 1056313548,
      "lat": -46.0812836,
      "lon": 167.795734,
      "timestamp": "2018-07-08T00:19:16Z",
      "version": 5,
      "changeset": 60499659,
      "user": "andrew_dc",
      "uid": 1833351,
      "tags": {
        "name": "Pukemaori",
        "name:mi": "Pukemaori",
        "place": "hamlet",
        "source": "LINZ & NZ Open GIS"
      }
    },
    {
      "type": "node",
      "id": 1056314075,
      "lat": -46.21418,
      "lon": 167.91618,
      "timestamp": "2012-09-27T20:58:09Z",
      "version": 3,
      "changeset": 13277953,
      "user": "locke",
      "uid": 65032,
      "tags": {
        "name": "Pourakino Valley",
        "place": "hamlet",
        "source": "LINZ & NZ Open GIS"
      }
    },
    {
      "type": "node",
      "id": 1056314856,
      "lat": -46.09471,
      "lon": 167.88734,
      "timestamp": "2012-08-29T15:02:07Z",
      "version": 3,
      "changeset": 12906448,
      "user": "locke",
      "uid": 65032,
      "tags": {
        "name": "Raymonds Gap",
        "place": "hamlet",
        "source": "LINZ & NZ Open GIS"
      }
    },
    {
      "type": "node",
      "id": 1056316295,
      "lat": -46.202117,
      "lon": 167.6567719,
      "timestamp": "2019-07-08T06:30:10Z",
      "version": 6,
      "changeset": 71999604,
      "user": "andrew_dc",
      "uid": 1833351,
      "tags": {
        "name": "Te Waewae",
        "name:mi": "Te Waewae",
        "name:mk": "Те Ваевае",
        "place": "hamlet",
        "source": "LINZ & NZ Open GIS"
      }
    },
    {
      "type": "node",
      "id": 1056316449,
      "lat": -46.17024,
      "lon": 167.67587,
      "timestamp": "2019-07-08T06:30:10Z",
      "version": 4,
      "changeset": 71999604,
      "user": "andrew_dc",
      "uid": 1833351,
      "tags": {
        "name": "Te Tua",
        "name:mi": "Te Tua",
        "place": "hamlet",
        "source": "LINZ & NZ Open GIS"
      }
    },
    {
      "type": "node",
      "id": 1056342034,
      "lat": -46.0744834,
      "lon": 167.8554589,
      "timestamp": "2017-08-25T01:19:04Z",
      "version": 4,
      "changeset": 51421933,
      "user": "Rudy355",
      "uid": 142831,
      "tags": {
        "name": "Merrivale",
        "place": "hamlet",
        "source": "LINZ & NZ Open GIS"
      }
    },
    {
      "type": "node",
      "id": 1056356842,
      "lat": -46.1563152,
      "lon": 167.3985652,
      "timestamp": "2016-08-26T12:27:38Z",
      "version": 2,
      "changeset": 41713888,
      "user": "Rekrutacja",
      "uid": 90243,
      "tags": {
        "amenity": "shelter",
        "building": "yes",
        "linz:garmin_type": "0x6402",
        "name": "Track Burn Hut",
        "source": "LINZ & NZ Open GIS",
        "tourism": "alpine_hut"
      }
    },
    {
      "type": "node",
      "id": 1061030181,
      "lat": -46.13125,
      "lon": 167.88449,
      "timestamp": "2021-04-10T09:12:34Z",
      "version": 2,
      "changeset": 102687939,
      "user": "lcmortensen",
      "uid": 341519,
      "tags": {
        "name": "Ferndunlaw",
        "natural": "peak",
        "source": "LINZ & NZ Open GIS",
        "wikidata": "Q30509077"
      }
    },
    {
      "type": "node",
      "id": 1061032298,
      "lat": -46.16833,
      "lon": 167.8323,
      "timestamp": "2020-12-06T14:23:04Z",
      "version": 2,
      "changeset": 95367684,
      "user": "pizzaiolo",
      "uid": 1772368,
      "tags": {
        "name": "Bald Hill",
        "natural": "peak",
        "source": "LINZ & NZ Open GIS",
        "wikidata": "Q31648777"
      }
    },
    {
      "type": "node",
      "id": 1225183417,
      "lat": -46.1619054,
      "lon": 167.9672942,
      "timestamp": "2011-03-30T11:40:03Z",
      "version": 1,
      "changeset": 7715319,
      "user": "LINZ Data Upload",
      "uid": 252775,
      "tags": {
        "LINZ:layer": "descrip_text",
        "LINZ:point_size": "6.0",
        "LINZ:size": "4.1",
        "LINZ:source_version": "V16",
        "LINZ:text_placement_justification": "7.0",
        "LINZ:x_offset": "-0.5",
        "attribution": "http://wiki.osm.org/wiki/Attribution#LINZ",
        "source_ref": "http://www.linz.govt.nz/topography/topo-maps/",
        "tourism": "camp_site"
      }
    },
    {
      "type": "node",
      "id": 2252485348,
      "lat": -46.135464,
      "lon": 167.6890121,
      "timestamp": "2015-11-27T07:45:30Z",
      "version": 2,
      "changeset": 35606098,
      "user": "Rudy355",
      "uid": 142831,
      "tags": {
        "name": "Four Square",
        "shop": "supermarket"
      }
    },
    {
      "type": "node",
      "id": 2252891187,
      "lat": -46.2629047,
      "lon": 167.8601946,
      "timestamp": "2020-04-01T09:16:21Z",
      "version": 6,
      "changeset": 82913418,
      "user": "Sarvihepo",
      "uid": 2057798,
      "tags": {
        "capacity": "4",
        "drinking_water": "boil",
        "fee": "no",
        "fireplace": "yes",
        "mattress": "no",
        "name": "Martin's Hut",
        "operator": "DoC",
        "ref:doc": "100072022",
        "reservation": "no",
        "tourism": "wilderness_hut",
        "website": "https://www.doc.govt.nz/parks-and-recreation/places-to-go/southland/places/longwood-forest-conservation-area/things-to-do/martins-hut/"
      }
    },
    {
      "type": "node",
      "id": 2252900421,
      "lat": -46.291583,
      "lon": 167.851878,
      "timestamp": "2018-06-23T19:50:44Z",
      "version": 3,
      "changeset": 60107869,
      "user": "gaddman",
      "uid": 365177,
      "tags": {
        "amenity": "shelter",
        "mattress": "no",
        "name": "Turnbull's (Big Dam) Hut",
        "ref:doc": "100056297",
        "shelter_type": "basic_hut"
      }
    },
    {
      "type": "node",
      "id": 2777072440,
      "lat": -46.3790499,
      "lon": 167.8844429,
      "timestamp": "2014-04-08T12:23:52Z",
      "version": 1,
      "changeset": 21570389,
      "user": "Quelbs",
      "uid": 64159,
      "tags": {
        "tourism": "camp_site"
      }
    },
    {
      "type": "node",
      "id": 3800821147,
      "lat": -46.3665637,
      "lon": 168.0195942,
      "timestamp": "2021-06-22T01:12:42Z",
      "version": 3,
      "changeset": 106742116,
      "user": "kylenz_linz",
      "uid": 8389777,
      "tags": {
        "addr:city": "Riverton",
        "addr:housenumber": "32",
        "addr:postcode": "9822",
        "addr:street": "Taramea Bay Road",
        "addr:suburb": "Riverton/Aparima",
        "name": "Taramea Bay Store Limited",
        "phone": "+64 3 234 8910",
        "ref:linz:address_id": "81376",
        "shop": "supermarket"
      }
    },
    {
      "type": "node",
      "id": 3874219857,
      "lat": -46.3004661,
      "lon": 167.7283667,
      "timestamp": "2016-05-11T01:17:11Z",
      "version": 3,
      "changeset": 39230909,
      "user": "NXJ",
      "uid": 2070398,
      "tags": {
        "addr:street": "Monkey Island Road",
        "name": "Monkey Island",
        "opening_hours": "24/7",
        "tourism": "camp_site"
      }
    },
    {
      "type": "node",
      "id": 3891461779,
      "lat": -46.3628389,
      "lon": 167.8788934,
      "timestamp": "2020-12-06T14:22:33Z",
      "version": 7,
      "changeset": 95367684,
      "user": "pizzaiolo",
      "uid": 1772368,
      "tags": {
        "name": "Colac Bay / Ōraka",
        "name:mi": "Ōraka",
        "place": "hamlet",
        "wikidata": "Q5141862"
      }
    },
    {
      "type": "node",
      "id": 4177429890,
      "lat": -46.3008008,
      "lon": 167.7277331,
      "timestamp": "2016-05-11T01:17:16Z",
      "version": 1,
      "changeset": 39230909,
      "user": "NXJ",
      "uid": 2070398,
      "tags": {
        "amenity": "shelter"
      }
    },
    {
      "type": "node",
      "id": 4367787828,
      "lat": -46.2218968,
      "lon": 167.3615918,
      "timestamp": "2018-06-23T19:50:56Z",
      "version": 2,
      "changeset": 60107869,
      "user": "gaddman",
      "uid": 365177,
      "tags": {
        "name": "Port Craig Lodge",
        "ref:doc": "100058615",
        "tourism": "alpine_hut"
      }
    },
    {
      "type": "node",
      "id": 4367787829,
      "lat": -46.2226094,
      "lon": 167.3615489,
      "timestamp": "2018-09-27T21:22:55Z",
      "version": 2,
      "changeset": 62991041,
      "user": "petenz",
      "uid": 38928,
      "tags": {
        "building": "yes",
        "name": "Port Craig School Hut",
        "operator": "Department of Conservation",
        "tourism": "wilderness_hut"
      }
    },
    {
      "type": "node",
      "id": 5425989523,
      "lat": -46.1266931,
      "lon": 167.6751618,
      "timestamp": "2018-02-21T06:36:48Z",
      "version": 1,
      "changeset": 56540072,
      "user": "Tomasz11",
      "uid": 2682458,
      "tags": {
        "name": "Last Light Lodge Campground",
        "tourism": "camp_site"
      }
    },
    {
      "type": "node",
      "id": 5646781599,
      "lat": -46.1434972,
      "lon": 167.9973843,
      "timestamp": "2020-06-23T04:16:48Z",
      "version": 2,
      "changeset": 87007581,
      "user": "MJCNZ9",
      "uid": 11364448,
      "tags": {
        "addr:housenumber": "157",
        "addr:street": "Main Street",
        "addr:suburb": "Otautau",
        "name": "SuperValue",
        "operator": "SuperValue",
        "ref:linz:address_id": "79755",
        "shop": "supermarket"
      }
    },
    {
      "type": "node",
      "id": 6787250886,
      "lat": -46.3514966,
      "lon": 168.0142808,
      "timestamp": "2019-09-11T04:25:04Z",
      "version": 1,
      "changeset": 74335185,
      "user": "svenpascal",
      "uid": 7416169,
      "tags": {
        "addr:housenumber": "154",
        "addr:street": "Palmerston Street",
        "name": "South Coast Environment Centrewww.sces.org.nz",
        "name:en": "South Coast Environment Centre",
        "shop": "convenience",
        "website": "http://www.sces.org.nz"
      }
    },
    {
      "type": "node",
      "id": 7401381094,
      "lat": -46.1365463,
      "lon": 167.9928942,
      "timestamp": "2020-04-26T00:58:54Z",
      "version": 2,
      "changeset": 84125755,
      "user": "HubMiner",
      "uid": 238419,
      "tags": {
        "name": "Four Square",
        "opening_hours": "Mo-Fr 07:00-21:00; Sa 07:30-19:00; Su 08:00-20:00",
        "phone": "+6432258436",
        "shop": "supermarket",
        "website": "https://www.foursquare.co.nz/south-island/southland-stewart-island/otautau/"
      }
    },
    {
      "type": "node",
      "id": 7748151827,
      "lat": -46.3449147,
      "lon": 167.9540713,
      "timestamp": "2020-07-26T03:51:50Z",
      "version": 1,
      "changeset": 88510375,
      "user": "andrew_dc",
      "uid": 1833351,
      "tags": {
        "name": "Longwood",
        "place": "hamlet"
      }
    },
    {
      "type": "way",
      "id": 215815179,
      "timestamp": "2021-06-21T06:51:33Z",
      "version": 8,
      "changeset": 106695926,
      "user": "kylenz_linz",
      "uid": 8389777,
      "center": {
        "lat": -46.3625624,
        "lon": 168.0077985
      },
      "nodes": [],
      "tags": {
        "addr:city": "Riverton",
        "addr:country": "NZ",
        "addr:housenumber": "43",
        "addr:postcode": "9822",
        "addr:street": "Richard Street",
        "addr:suburb": "Riverton/Aparima",
        "cabins": "yes",
        "caravans": "yes",
        "dryer": "yes",
        "internet_access": "no",
        "kitchen": "yes",
        "name": "Riverton Holiday Park and Camping Ground",
        "payment:cash": "yes",
        "phone": "+64 3 234 8132",
        "power_supply": "yes",
        "ref:linz:address_id": "80490",
        "tents": "yes",
        "tourism": "camp_site",
        "washing_machine": "yes",
        "website": "https://rivertonholidaypark.co.nz/"
      }
    },
    {
      "type": "way",
      "id": 376343032,
      "timestamp": "2021-06-21T06:51:33Z",
      "version": 7,
      "changeset": 106695926,
      "user": "kylenz_linz",
      "uid": 8389777,
      "center": {
        "lat": -46.3523934,
        "lon": 168.0138573
      },
      "nodes": [],
      "tags": {
        "addr:city": "Riverton",
        "addr:housenumber": "163",
        "addr:postcode": "9822",
        "addr:street": "Palmerston Street",
        "addr:suburb": "Riverton/Aparima",
        "building": "yes",
        "name": "SuperValue Riverton",
        "opening_hours": "07:00+",
        "phone": "+64 3 234 8541",
        "ref:linz:address_id": "80243",
        "shop": "supermarket",
        "website": "https://supervalue.co.nz/"
      }
    },
    {
      "type": "way",
      "id": 376686339,
      "timestamp": "2015-11-22T09:27:10Z",
      "version": 2,
      "changeset": 35504260,
      "user": "Rudy355",
      "uid": 142831,
      "center": {
        "lat": -46.3665635,
        "lon": 168.0195521
      },
      "nodes": [],
      "tags": {
        "addr:city": "Riverton",
        "addr:housenumber": "32",
        "addr:postcode": "9822",
        "addr:street": "Taramea Bay Road",
        "building": "yes",
        "name": "Taramea Bay Store Limited",
        "shop": "supermarket"
      }
    },
    {
      "type": "way",
      "id": 785259022,
      "timestamp": "2020-04-01T09:16:21Z",
      "version": 3,
      "changeset": 82913418,
      "user": "Sarvihepo",
      "uid": 2057798,
      "center": {
        "lat": -46.0752634,
        "lon": 167.8520437
      },
      "nodes": [],
      "tags": {
        "addr:housenumber": "2",
        "addr:street": "Merrivale Road",
        "building": "yes",
        "capacity": "5",
        "charge": "10 NZD",
        "drinking_water": "yes",
        "electricity": "no",
        "fee": "yes",
        "fireplace": "no",
        "internet_access": "no",
        "mattress": "yes",
        "name": "Merriview Hut",
        "operator": "Private",
        "payment:cash": "yes",
        "phone": "+6421567105",
        "reservation": "no",
        "shower": "no",
        "tourism": "wilderness_hut"
      }
    },
    {
      "type": "way",
      "id": 785259024,
      "timestamp": "2020-04-01T09:16:21Z",
      "version": 2,
      "changeset": 82913418,
      "user": "Sarvihepo",
      "uid": 2057798,
      "center": {
        "lat": -46.0751652,
        "lon": 167.851985
      },
      "nodes": [],
      "tags": {
        "fee": "yes",
        "operator": "private",
        "payment:cash": "yes",
        "reservation": "no",
        "tourism": "camp_site"
      }
    },
    {
      "type": "way",
      "id": 786476428,
      "timestamp": "2021-04-22T08:01:46Z",
      "version": 4,
      "changeset": 103391826,
      "user": "kylenz_linz",
      "uid": 8389777,
      "center": {
        "lat": -46.3612198,
        "lon": 167.8794186
      },
      "nodes": [],
      "tags": {
        "addr:city": "Orepuki",
        "addr:hamlet": "Colac Bay",
        "addr:housenumber": "15",
        "addr:street": "Colac Bay Road",
        "amenity": "pub",
        "camp_site": "standard",
        "name": "Colac Bay Tavern & Holiday Park",
        "ref:linz:address_id": "78842",
        "sanitary_dump_station": "yes",
        "tourism": "camp_site",
        "website": "https://www.facebook.com/pages/Colac-Bay-Tavern-and-Hoilday-Park/211034475677491"
      }
    }
  ]
}