{
  "osm3s": {
    "timestamp_osm_date": "2022-08-20T23:59:59Z",
    "timestamp_osm_base": "2022-08-21T07:38:54Z",
    "copyright": "The data included in this document is from www.openstreetmap.org. The data is made available under ODbL."
  },
  "elements": [
    {
      "type": "node",
      "id": 128550514,
      "lat": 47.6554079,
      "lon": 24.6639308,
      "timestamp": "2017-09-13T22:22:21Z",
      "version": 17,
      "changeset": 52021961,
      "user": "nyuriks",
      "uid": 339581,
      "tags": {
        "is_in": "Maramureș,România",
        "is_in:country": "România",
        "is_in:county": "Maramureș",
        "name": "Borșa",
        "name:de": "Borscha",
        "name:he": "בורשה",
        "name:hu": "Borsa",
        "name:lt": "Borša",
        "name:uk": "Борша",
        "old_postal_code": "4990",
        "place": "town",
        "population": "26275",
        "population:census:1992": "26275",
        "postal_code": "435200",
        "postal_code:source": "INSSE - SIRUTA",
        "siruta:code": "106755",
        "siruta:code_sup": "106746",
        "siruta:county": "Maramureș",
        "siruta:county_code": "MM",
        "siruta:county_id": "24",
        "siruta:name_sup": "Borșa",
        "siruta:type": "17",
        "wikidata": "Q209782",
        "wikipedia": "ro:Borșa"
      }
    },
    {
      "type": "node",
      "id": 286115305,
      "lat": 47.5971989,
      "lon": 24.6337872,
      "timestamp": "2022-04-03T18:36:14Z",
      "version": 12,
      "changeset": 119274961,
      "user": "user_5359",
      "uid": 5359,
      "tags": {
        "ele": "2303",
        "importance": "national",
        "name": "Pietrosul Rodnei",
        "name:hu": "Nagy-Pietrosz (volt Horthy-csúcs)",
        "name:uk": "П'єтросул",
        "natural": "peak",
        "old_name:hu": "Horthy-csúcs",
        "prominence": "1578",
        "source": "survey",
        "source:prominence": "https://www.ii.uib.no/~petter/mountains/europe_finest.html",
        "wikidata": "Q153170",
        "wikipedia": "ro:Vârful Pietrosul Rodnei, Munții Rodnei"
      }
    },
    {
      "type": "node",
      "id": 294177284,
      "lat": 47.6091126,
      "lon": 24.8558917,
      "timestamp": "2021-11-19T18:49:14Z",
      "version": 15,
      "changeset": 114004019,
      "user": "luin132",
      "uid": 13403972,
      "tags": {
        "ele": "1416",
        "mountain_pass": "yes",
        "name": "Pasul Prislop",
        "name:de": "Prisloppass",
        "name:en": "Prislop Pass",
        "name:fr": "Col de Prislop",
        "name:hu": "Borsai-hágó",
        "natural": "saddle",
        "wikidata": "Q970147",
        "wikipedia": "ro:Pasul Prislop (Maramureș)"
      }
    },
    {
      "type": "node",
      "id": 306912941,
      "lat": 47.7624061,
      "lon": 25.175232,
      "timestamp": "2017-09-08T09:18:24Z",
      "version": 10,
      "changeset": 51837443,
      "user": "nyuriks",
      "uid": 339581,
      "tags": {
        "is_in": "Suceava,România",
        "is_in:country": "România",
        "is_in:county": "Suceava",
        "name": "Izvoarele Sucevei",
        "name:uk": "Ізвори",
        "old_postal_code": "5968",
        "place": "village",
        "population": "953",
        "population:census:1992": "953",
        "postal_code": "727330",
        "postal_code:source": "INSSE - SIRUTA",
        "siruta:code": "149192",
        "siruta:code_sup": "149183",
        "siruta:county": "Suceava",
        "siruta:county_code": "SV",
        "siruta:county_id": "33",
        "siruta:name_sup": "Izvoarele Sucevei",
        "siruta:type": "22",
        "wikidata": "Q1089013",
        "wikipedia": "ro:Izvoarele Sucevei, Suceava"
      }
    },
    {
      "type": "node",
      "id": 306913402,
      "lat": 47.7287009,
      "lon": 25.1367798,
      "timestamp": "2021-05-13T09:32:30Z",
      "version": 10,
      "changeset": 104624929,
      "user": "Armin Gheorghina",
      "uid": 3207276,
      "tags": {
        "is_in:country": "România",
        "is_in:county": "Suceava",
        "name": "Bobeica",
        "name:uk": "Бобейка",
        "old_postal_code": "5968",
        "place": "village",
        "population": "557",
        "population:census:1992": "557",
        "postal_code": "727331",
        "postal_code:source": "INSSE - SIRUTA",
        "siruta:code": "149209",
        "siruta:code_sup": "149183",
        "siruta:county": "Suceava",
        "siruta:county_code": "SV",
        "siruta:county_id": "33",
        "siruta:name_sup": "Izvoarele Sucevei",
        "siruta:type": "23",
        "wikidata": "Q12083013",
        "wikipedia": "ro:Bobeica, Suceava"
      }
    },
    {
      "type": "node",
      "id": 337470500,
      "lat": 47.8715401,
      "lon": 24.6674627,
      "timestamp": "2021-10-16T13:37:15Z",
      "version": 10,
      "changeset": 112579493,
      "user": "muchichka_s",
      "uid": 10857625,
      "tags": {
        "ele": "1678",
        "name": "Budescul Mare / Будичевська Велика",
        "name:pl": "Budyjowska Wielka",
        "name:ro": "Budescul Mare",
        "name:uk": "Будичевська Велика",
        "natural": "peak",
        "source": "wikipedia",
        "wikidata": "Q4098074",
        "wikipedia": "uk:Будичевська Велика"
      }
    },
    {
      "type": "node",
      "id": 337662229,
      "lat": 47.9898032,
      "lon": 24.7041299,
      "timestamp": "2022-01-12T23:36:12Z",
      "version": 11,
      "changeset": 116086080,
      "user": "muchichka_s",
      "uid": 10857625,
      "tags": {
        "katotth": "UA26020050060030710",
        "koatuu": "2620884004",
        "name": "Явірник",
        "name:en": "Yavirnyk",
        "name:pl": "Jawornik",
        "name:prefix": "село",
        "name:ru": "Яворник",
        "name:uk": "Явірник",
        "place": "village",
        "population": "294",
        "postal_code": "78730",
        "wikidata": "Q4536039",
        "wikipedia": "uk:Явірник (село)",
        "wikipedia:ru": "Яворник (село)"
      }
    },
    {
      "type": "node",
      "id": 337663597,
      "lat": 47.972454,
      "lon": 25.128426,
      "timestamp": "2022-01-13T02:33:33Z",
      "version": 10,
      "changeset": 116088375,
      "user": "muchichka_s",
      "uid": 10857625,
      "tags": {
        "katotth": "UA73020130140022489",
        "koatuu": "7323585001",
        "name": "Сергії",
        "name:de": "Serhiji",
        "name:en": "Serhii",
        "name:prefix": "село",
        "name:ru": "Сергии",
        "name:uk": "Сергії",
        "place": "village",
        "population": "1097",
        "postal_code": "59107",
        "wikidata": "Q4417113",
        "wikipedia": "uk:Сергії"
      }
    },
    {
      "type": "node",
      "id": 337663698,
      "lat": 47.988281,
      "lon": 24.931761,
      "timestamp": "2022-01-13T19:53:36Z",
      "version": 7,
      "changeset": 116121634,
      "user": "muchichka_s",
      "uid": 10857625,
      "tags": {
        "katotth": "UA73020110060025227",
        "koatuu": "7323586503",
        "name": "Плай",
        "name:en": "Plai",
        "name:prefix": "село",
        "name:ru": "Плай",
        "name:uk": "Плай",
        "place": "village",
        "population": "232",
        "postal_code": "59126",
        "wikidata": "Q2090251",
        "wikipedia": "uk:Плай (Чернівецька область)"
      }
    },
    {
      "type": "node",
      "id": 337664052,
      "lat": 47.9814622,
      "lon": 24.8728899,
      "timestamp": "2022-01-12T23:36:12Z",
      "version": 9,
      "changeset": 116086080,
      "user": "muchichka_s",
      "uid": 10857625,
      "tags": {
        "katotth": "UA26020010060087392",
        "koatuu": "2620882501",
        "name": "Гринява",
        "name:en": "Hryniava",
        "name:pl": "Hryniawa",
        "name:prefix": "село",
        "name:ru": "Гринява",
        "name:uk": "Гринява",
        "place": "village",
        "population": "904",
        "postal_code": "78734",
        "wikidata": "Q4149716",
        "wikipedia": "uk:Гринява",
        "wikipedia:ru": "Гринява"
      }
    },
    {
      "type": "node",
      "id": 337664171,
      "lat": 47.973862,
      "lon": 25.16659,
      "timestamp": "2022-01-13T02:33:33Z",
      "version": 6,
      "changeset": 116088375,
      "user": "muchichka_s",
      "uid": 10857625,
      "tags": {
        "katotth": "UA73020130160081475",
        "koatuu": "7323585004",
        "name": "Тесницька",
        "name:en": "Tesnytska",
        "name:prefix": "село",
        "name:ru": "Тесницкая",
        "name:uk": "Тесницька",
        "place": "village",
        "population": "146",
        "postal_code": "59107",
        "wikidata": "Q4456417",
        "wikipedia": "uk:Тесницька"
      }
    },
    {
      "type": "node",
      "id": 337664177,
      "lat": 47.9720735,
      "lon": 24.8266966,
      "timestamp": "2022-01-12T23:36:12Z",
      "version": 7,
      "changeset": 116086080,
      "user": "muchichka_s",
      "uid": 10857625,
      "tags": {
        "katotth": "UA26020010100094132",
        "koatuu": "2620886501",
        "name": "Пробійнівка",
        "name:en": "Probiinivka",
        "name:pl": "Szykmany",
        "name:prefix": "село",
        "name:ru": "Пробойновка",
        "name:uk": "Пробійнівка",
        "place": "village",
        "population": "373",
        "postal_code": "78736",
        "wikidata": "Q4379553",
        "wikipedia": "uk:Пробійнівка",
        "wikipedia:ru": "Пробойновка"
      }
    },
    {
      "type": "node",
      "id": 337664695,
      "lat": 47.959782,
      "lon": 25.063589,
      "timestamp": "2022-01-13T02:33:33Z",
      "version": 6,
      "changeset": 116088375,
      "user": "muchichka_s",
      "uid": 10857625,
      "tags": {
        "katotth": "UA73020130120022726",
        "koatuu": "7323555102",
        "name": "Рижа",
        "name:en": "Ryzha",
        "name:prefix": "село",
        "name:ru": "Рыжа",
        "name:uk": "Рижа",
        "place": "village",
        "population": "682",
        "postal_code": "59100",
        "wikidata": "Q4401731",
        "wikipedia": "uk:Рижа"
      }
    },
    {
      "type": "node",
      "id": 337664871,
      "lat": 47.9524925,
      "lon": 24.8719334,
      "timestamp": "2022-01-12T23:36:12Z",
      "version": 9,
      "changeset": 116086080,
      "user": "muchichka_s",
      "uid": 10857625,
      "tags": {
        "katotth": "UA26020010050070744",
        "koatuu": "2620886502",
        "name": "Грамотне",
        "name:en": "Hramotne",
        "name:pl": "Gramotne",
        "name:prefix": "село",
        "name:ru": "Грамотное",
        "name:uk": "Грамотне",
        "place": "village",
        "population": "371",
        "postal_code": "78737",
        "wikidata": "Q4147681",
        "wikipedia": "uk:Грамотне",
        "wikipedia:ru": "Грамотное"
      }
    },
    {
      "type": "node",
      "id": 337664897,
      "lat": 47.954288,
      "lon": 25.20916,
      "timestamp": "2022-01-13T02:33:33Z",
      "version": 6,
      "changeset": 116088375,
      "user": "muchichka_s",
      "uid": 10857625,
      "tags": {
        "katotth": "UA73020130180046381",
        "koatuu": "7323585005",
        "name": "Фошки",
        "name:en": "Foshky",
        "name:prefix": "село",
        "name:ru": "Фошки",
        "name:uk": "Фошки",
        "place": "village",
        "population": "417",
        "postal_code": "59107",
        "wikidata": "Q4492275",
        "wikipedia": "uk:Фошки"
      }
    },
    {
      "type": "node",
      "id": 337665243,
      "lat": 47.943649,
      "lon": 25.08247,
      "timestamp": "2022-01-13T02:33:33Z",
      "version": 6,
      "changeset": 116088375,
      "user": "muchichka_s",
      "uid": 10857625,
      "tags": {
        "katotth": "UA73020130130054969",
        "koatuu": "7323585003",
        "name": "Рипень",
        "name:en": "Rypen",
        "name:prefix": "село",
        "name:ru": "Рипень",
        "name:uk": "Рипень",
        "place": "village",
        "population": "350",
        "postal_code": "59107",
        "wikidata": "Q4394760",
        "wikipedia": "uk:Рипень"
      }
    },
    {
      "type": "node",
      "id": 337665308,
      "lat": 47.943684,
      "lon": 24.695358,
      "timestamp": "2022-08-07T18:52:34Z",
      "version": 8,
      "changeset": 124609330,
      "user": "Myazyk",
      "uid": 899942,
      "tags": {
        "katotth": "UA26020050030019238",
        "koatuu": "2620884002",
        "name": "Буркут",
        "name:en": "Burkut",
        "name:pl": "Burkut",
        "name:prefix": "село",
        "name:ru": "Буркут",
        "name:uk": "Буркут",
        "note": "За деякими даними, у селі з 2008 року ніхто не проживає",
        "place": "hamlet",
        "population": "10",
        "postal_code": "78730",
        "wikidata": "Q4099663",
        "wikipedia": "uk:Буркут",
        "wikipedia:ru": "Буркут (Ивано-Франковская область)"
      }
    },
    {
      "type": "node",
      "id": 337665700,
      "lat": 47.927509,
      "lon": 24.946859,
      "timestamp": "2022-01-14T00:06:00Z",
      "version": 9,
      "changeset": 116129080,
      "user": "muchichka_s",
      "uid": 10857625,
      "tags": {
        "katotth": "UA73020110030057985",
        "koatuu": "7323586502",
        "name": "Голошина",
        "name:en": "Holoshyna",
        "name:prefix": "село",
        "name:ru": "Голошина",
        "name:uk": "Голошина",
        "place": "village",
        "population": "129",
        "postal_code": "59125",
        "wikidata": "Q4142252",
        "wikipedia": "uk:Голошина (Вижницький район)"
      }
    },
    {
      "type": "node",
      "id": 337666175,
      "lat": 47.91378,
      "lon": 25.20023,
      "timestamp": "2022-01-13T19:53:36Z",
      "version": 7,
      "changeset": 116121634,
      "user": "muchichka_s",
      "uid": 10857625,
      "tags": {
        "katotth": "UA73020150050089198",
        "koatuu": "7323583002",
        "name": "Лустун",
        "name:en": "Lustun",
        "name:prefix": "село",
        "name:ru": "Лустун",
        "name:uk": "Лустун",
        "place": "village",
        "population": "234",
        "postal_code": "59130",
        "wikidata": "Q4269788",
        "wikipedia": "uk:Лустун"
      }
    },
    {
      "type": "node",
      "id": 337666495,
      "lat": 47.9014275,
      "lon": 25.048748,
      "timestamp": "2022-01-13T02:33:33Z",
      "version": 8,
      "changeset": 116088375,
      "user": "muchichka_s",
      "uid": 10857625,
      "tags": {
        "katotth": "UA73020130020053269",
        "koatuu": "7323585002",
        "name": "Випчина",
        "name:en": "Vypchyna",
        "name:prefix": "село",
        "name:ru": "Выпчина",
        "name:uk": "Випчина",
        "place": "hamlet",
        "population": "20",
        "postal_code": "59107",
        "wikidata": "Q4129118",
        "wikipedia": "uk:Випчина"
      }
    },
    {
      "type": "node",
      "id": 337666538,
      "lat": 47.9042084,
      "lon": 25.1378756,
      "timestamp": "2022-01-14T00:06:00Z",
      "version": 9,
      "changeset": 116129080,
      "user": "muchichka_s",
      "uid": 10857625,
      "tags": {
        "katotth": "UA73020150070039781",
        "koatuu": "7323583001",
        "name": "Плоска",
        "name:en": "Ploska",
        "name:prefix": "село",
        "name:ru": "Плоская",
        "name:uk": "Плоска",
        "place": "village",
        "population": "827",
        "postal_code": "59130",
        "wikidata": "Q4365205",
        "wikipedia": "uk:Плоска (Вижницький район)"
      }
    },
    {
      "type": "node",
      "id": 337667044,
      "lat": 47.9329287,
      "lon": 24.9349913,
      "timestamp": "2022-01-12T23:36:12Z",
      "version": 9,
      "changeset": 116086080,
      "user": "muchichka_s",
      "uid": 10857625,
      "tags": {
        "katotth": "UA26020010040058979",
        "koatuu": "2620882201",
        "name": "Голошина",
        "name:en": "Holoshyna",
        "name:pl": "Hołoszyna",
        "name:prefix": "село",
        "name:ru": "Голошина",
        "name:uk": "Голошина",
        "place": "village",
        "population": "415",
        "postal_code": "78735",
        "wikidata": "Q4142246",
        "wikipedia": "uk:Голошина (Верховинський район)",
        "wikipedia:ru": "Голошина (Ивано-Франковская область)"
      }
    },
    {
      "type": "node",
      "id": 337667693,
      "lat": 47.864681,
      "lon": 25.20779,
      "timestamp": "2022-01-13T02:33:33Z",
      "version": 8,
      "changeset": 116088375,
      "user": "muchichka_s",
      "uid": 10857625,
      "tags": {
        "katotth": "UA73020150010066428",
        "koatuu": "7323584501",
        "name": "Селятин",
        "name:de": "Seletin",
        "name:en": "Seliatyn",
        "name:prefix": "село",
        "name:ro": "Seletin",
        "name:ru": "Селятин",
        "name:uk": "Селятин",
        "place": "village",
        "population": "1173",
        "postal_code": "59131",
        "wikidata": "Q2091655",
        "wikipedia": "uk:Селятин"
      }
    },
    {
      "type": "node",
      "id": 337668233,
      "lat": 47.853552,
      "lon": 24.9974131,
      "timestamp": "2022-01-13T19:53:36Z",
      "version": 14,
      "changeset": 116121634,
      "user": "muchichka_s",
      "uid": 10857625,
      "tags": {
        "katotth": "UA73020150060060200",
        "koatuu": "7323586004",
        "name": "Нижній Яловець",
        "name:en": "Nyzhnii Yalovets",
        "name:prefix": "село",
        "name:ro": "Ialovățul de Jos",
        "name:ru": "Нижний Яловец",
        "name:uk": "Нижній Яловець",
        "place": "hamlet",
        "population": "117",
        "postal_code": "59134",
        "wikidata": "Q4319220",
        "wikipedia": "uk:Нижній Яловець"
      }
    },
    {
      "type": "node",
      "id": 337668821,
      "lat": 47.8236811,
      "lon": 25.0747242,
      "timestamp": "2022-01-13T19:53:36Z",
      "version": 13,
      "changeset": 116121634,
      "user": "muchichka_s",
      "uid": 10857625,
      "tags": {
        "katotth": "UA73020150030090854",
        "koatuu": "7323586003",
        "name": "Верхній Яловець",
        "name:en": "Verkhnii Yalovets",
        "name:prefix": "село",
        "name:ro": "Ialovățul de Sus",
        "name:ru": "Верхний Яловец",
        "name:uk": "Верхній Яловець",
        "place": "village",
        "population": "178",
        "postal_code": "59133",
        "wikidata": "Q4108768",
        "wikipedia": "uk:Верхній Яловець"
      }
    },
    {
      "type": "node",
      "id": 337669337,
      "lat": 47.8030598,
      "lon": 25.1154906,
      "timestamp": "2022-01-13T19:53:36Z",
      "version": 10,
      "changeset": 116121634,
      "user": "muchichka_s",
      "uid": 10857625,
      "tags": {
        "katotth": "UA73020150020085903",
        "koatuu": "7323586002",
        "name": "Андреківське",
        "name:en": "Andrekivske",
        "name:prefix": "село",
        "name:ro": "Andrechivsche",
        "name:ru": "Андрековское",
        "name:uk": "Андреківське",
        "place": "hamlet",
        "population": "101",
        "postal_code": "59133",
        "wikidata": "Q4065900",
        "wikipedia": "uk:Андреківське"
      }
    },
    {
      "type": "node",
      "id": 337669445,
      "lat": 47.7996229,
      "lon": 25.1543877,
      "timestamp": "2022-07-30T18:21:40Z",
      "version": 14,
      "changeset": 124278472,
      "user": "olehz",
      "uid": 204049,
      "tags": {
        "katotth": "UA73020150100021548",
        "koatuu": "7323586001",
        "name": "Шепіт",
        "name:de": "Schipoth/Suczawa",
        "name:en": "Shepit",
        "name:prefix": "село",
        "name:ro": "Șipotele Sucevei",
        "name:ru": "Шепот",
        "name:uk": "Шепіт",
        "place": "village",
        "population": "683",
        "wikidata": "Q4522980",
        "wikipedia": "uk:Шепіт (Вижницький район)"
      }
    },
    {
      "type": "node",
      "id": 450536461,
      "lat": 47.5428416,
      "lon": 24.9751288,
      "timestamp": "2009-11-09T20:52:03Z",
      "version": 2,
      "changeset": 3076945,
      "user": "Cristian Haulica",
      "uid": 126375,
      "tags": {
        "name": "Izvor",
        "natural": "spring"
      }
    },
    {
      "type": "node",
      "id": 456018794,
      "lat": 47.5258912,
      "lon": 24.8836005,
      "timestamp": "2019-11-07T13:26:23Z",
      "version": 16,
      "changeset": 76758358,
      "user": "mirelon",
      "uid": 1270972,
      "tags": {
        "ele": "2279",
        "name": "Ineu",
        "name:hu": "Ünőkő",
        "name:uk": "Інеу",
        "natural": "peak",
        "prominence": "426",
        "wikidata": "Q6976575"
      }
    },
    {
      "type": "node",
      "id": 456018796,
      "lat": 47.5386195,
      "lon": 24.9514618,
      "timestamp": "2020-02-03T23:09:51Z",
      "version": 2,
      "changeset": 80501312,
      "user": "retrovirus",
      "uid": 10735618,
      "tags": {
        "drinking_water": "yes",
        "intermittent": "no",
        "name": "Izvor",
        "natural": "spring"
      }
    },
    {
      "type": "node",
      "id": 456018797,
      "lat": 47.5428435,
      "lon": 24.9751339,
      "timestamp": "2020-02-03T23:09:51Z",
      "version": 2,
      "changeset": 80501312,
      "user": "retrovirus",
      "uid": 10735618,
      "tags": {
        "drinking_water": "yes",
        "intermittent": "no",
        "name": "Izvor",
        "natural": "spring"
      }
    },
    {
      "type": "node",
      "id": 456019569,
      "lat": 47.5718816,
      "lon": 24.7966468,
      "timestamp": "2019-08-09T13:49:03Z",
      "version": 6,
      "changeset": 73194900,
      "user": "Müszi",
      "uid": 2143353,
      "tags": {
        "name": "Șaua Gărgălău",
        "name:hu": "Gargaló-nyereg",
        "natural": "saddle"
      }
    },
    {
      "type": "node",
      "id": 456019579,
      "lat": 47.5892967,
      "lon": 24.8036065,
      "timestamp": "2022-07-04T11:59:17Z",
      "version": 8,
      "changeset": 123188703,
      "user": "Buraddo",
      "uid": 2287200,
      "tags": {
        "fee": "no",
        "name": "Peștera Din Piatra Rea",
        "natural": "cave_entrance"
      }
    },
    {
      "type": "node",
      "id": 462244048,
      "lat": 47.6841578,
      "lon": 24.7139118,
      "timestamp": "2017-11-08T15:10:37Z",
      "version": 8,
      "changeset": 53613100,
      "user": "Müszi",
      "uid": 2143353,
      "tags": {
        "is_in": "Borșa,Maramureș,România",
        "is_in:country": "România",
        "is_in:county": "Maramureș",
        "name": "Băile Borșa",
        "name:de": "Pfefferfeld",
        "name:hu": "Borsabánya",
        "name:uk": "Беїле-Борша",
        "old_name": "Baia Borșa",
        "old_postal_code": "4991",
        "place": "village",
        "population": "1175",
        "population:census:1992": "1175",
        "postal_code": "435250",
        "postal_code:source": "INSSE - SIRUTA",
        "siruta:code": "106764",
        "siruta:code_sup": "106746",
        "siruta:county": "Maramureș",
        "siruta:county_code": "MM",
        "siruta:county_id": "24",
        "siruta:name_sup": "Borșa",
        "siruta:type": "18",
        "wikidata": "Q754346",
        "wikipedia": "ro:Băile Borșa, Maramureș"
      }
    },
    {
      "type": "node",
      "id": 464352913,
      "lat": 47.6491338,
      "lon": 25.3106173,
      "timestamp": "2021-05-12T07:33:27Z",
      "version": 6,
      "changeset": 104553890,
      "user": "Armin Gheorghina",
      "uid": 3207276,
      "tags": {
        "is_in:country": "România",
        "is_in:county": "Suceava",
        "name": "Breaza de Sus",
        "name:uk": "Бряза-де-Сус",
        "old_postal_code": "5966",
        "place": "village",
        "population": "356",
        "population:census:1992": "356",
        "postal_code": "727056",
        "postal_code:source": "INSSE - SIRUTA",
        "siruta:code": "147223",
        "siruta:code_sup": "147205",
        "siruta:county": "Suceava",
        "siruta:county_code": "SV",
        "siruta:county_id": "33",
        "siruta:name_sup": "Breaza",
        "siruta:type": "23",
        "wikidata": "Q12085093",
        "wikipedia": "ro:Breaza de Sus, Suceava"
      }
    },
    {
      "type": "node",
      "id": 464376667,
      "lat": 47.5758338,
      "lon": 25.1266707,
      "timestamp": "2021-05-11T10:02:56Z",
      "version": 10,
      "changeset": 104503829,
      "user": "Armin Gheorghina",
      "uid": 3207276,
      "tags": {
        "is_in:country": "România",
        "is_in:county": "Suceava",
        "name": "Cârlibaba",
        "name:de": "Mariensee",
        "name:pl": "Kirlibaba",
        "name:uk": "Кирлібаба",
        "old_postal_code": "5979",
        "place": "village",
        "population": "1088",
        "population:census:1992": "1088",
        "postal_code": "727110",
        "postal_code:source": "INSSE - SIRUTA",
        "siruta:code": "147722",
        "siruta:code_sup": "147713",
        "siruta:county": "Suceava",
        "siruta:county_code": "SV",
        "siruta:county_id": "33",
        "siruta:name_sup": "Cârlibaba",
        "siruta:type": "22",
        "wikidata": "Q241980",
        "wikipedia": "ro:Cârlibaba, Suceava"
      }
    },
    {
      "type": "node",
      "id": 464377060,
      "lat": 47.5707684,
      "lon": 25.1269425,
      "timestamp": "2021-07-27T10:10:57Z",
      "version": 10,
      "changeset": 108679047,
      "user": "123cargo_user",
      "uid": 10938823,
      "tags": {
        "is_in:country": "România",
        "is_in:county": "Suceava",
        "name": "Cârlibaba Nouă",
        "name:de": "Ludwigsdorf",
        "name:hu": "Radnalajosfalva",
        "name:uk": "Кирлібаба-Ноуе",
        "old_postal_code": "5979",
        "place": "village",
        "population": "433",
        "population:census:1992": "433",
        "postal_code": "727111",
        "postal_code:source": "INSSE - SIRUTA",
        "siruta:code": "147731",
        "siruta:code_sup": "147713",
        "siruta:county": "Suceava",
        "siruta:county_code": "SV",
        "siruta:county_id": "33",
        "siruta:name_sup": "Cârlibaba",
        "siruta:type": "23",
        "wikidata": "Q12109966",
        "wikipedia": "ro:Cârlibaba Nouă, Suceava"
      }
    },
    {
      "type": "node",
      "id": 464393324,
      "lat": 47.6206174,
      "lon": 25.1079178,
      "timestamp": "2021-06-23T12:03:32Z",
      "version": 7,
      "changeset": 106836790,
      "user": "Armin Gheorghina",
      "uid": 3207276,
      "tags": {
        "is_in:country": "România",
        "is_in:county": "Suceava",
        "name": "Iedu",
        "name:uk": "Єду",
        "old_postal_code": "5979",
        "place": "village",
        "population": "187",
        "population:census:1992": "187",
        "postal_code": "727112",
        "postal_code:source": "INSSE - SIRUTA",
        "siruta:code": "147740",
        "siruta:code_sup": "147713",
        "siruta:county": "Suceava",
        "siruta:county_code": "SV",
        "siruta:county_id": "33",
        "siruta:name_sup": "Cârlibaba",
        "siruta:type": "23",
        "wikidata": "Q12073251",
        "wikipedia": "ro:Iedu, Suceava"
      }
    },
    {
      "type": "node",
      "id": 464393861,
      "lat": 47.5969703,
      "lon": 24.9633651,
      "timestamp": "2021-07-27T10:10:57Z",
      "version": 7,
      "changeset": 108679047,
      "user": "123cargo_user",
      "uid": 10938823,
      "tags": {
        "addr:postcode": "727113",
        "is_in": "Cârlibaba,Suceava,România",
        "is_in:country": "România",
        "is_in:county": "Suceava",
        "name": "Șesuri",
        "old_postal_code": "5980",
        "place": "village",
        "population": "35",
        "population:census:1992": "35",
        "postal_code:source": "INSSE - SIRUTA",
        "siruta:code": "147759",
        "siruta:code_sup": "147713",
        "siruta:county": "Suceava",
        "siruta:county_code": "SV",
        "siruta:county_id": "33",
        "siruta:name_sup": "Cârlibaba",
        "siruta:type": "23",
        "wikidata": "Q12171759",
        "wikipedia": "ro:Șesuri, Suceava"
      }
    },
    {
      "type": "node",
      "id": 464394130,
      "lat": 47.5965111,
      "lon": 25.0750907,
      "timestamp": "2021-06-23T12:03:32Z",
      "version": 6,
      "changeset": 106836790,
      "user": "Armin Gheorghina",
      "uid": 3207276,
      "tags": {
        "is_in:country": "România",
        "is_in:county": "Suceava",
        "name": "Țibău",
        "old_postal_code": "5979",
        "place": "village",
        "population": "212",
        "population:census:1992": "212",
        "postal_code": "727114",
        "postal_code:source": "INSSE - SIRUTA",
        "siruta:code": "147768",
        "siruta:code_sup": "147713",
        "siruta:county": "Suceava",
        "siruta:county_code": "SV",
        "siruta:county_id": "33",
        "siruta:name_sup": "Cârlibaba",
        "siruta:type": "23",
        "wikidata": "Q12168730",
        "wikipedia": "ro:Țibău, Suceava"
      }
    },
    {
      "type": "node",
      "id": 464401012,
      "lat": 47.5531385,
      "lon": 25.1631198,
      "timestamp": "2021-05-11T08:15:16Z",
      "version": 6,
      "changeset": 104496599,
      "user": "Armin Gheorghina",
      "uid": 3207276,
      "tags": {
        "is_in:country": "România",
        "is_in:county": "Suceava",
        "name": "Valea Stânei",
        "name:uk": "Валя-Стиней",
        "old_postal_code": "5979",
        "place": "village",
        "population": "120",
        "population:census:1992": "120",
        "postal_code": "727116",
        "postal_code:source": "INSSE - SIRUTA",
        "siruta:code": "147777",
        "siruta:code_sup": "147713",
        "siruta:county": "Suceava",
        "siruta:county_code": "SV",
        "siruta:county_id": "33",
        "siruta:name_sup": "Cârlibaba",
        "siruta:type": "23",
        "wikidata": "Q12087621",
        "wikipedia": "ro:Valea Stânei, Suceava"
      }
    },
    {
      "type": "node",
      "id": 464450095,
      "lat": 47.5781634,
      "lon": 25.2981859,
      "timestamp": "2017-09-13T22:23:31Z",
      "version": 5,
      "changeset": 52021975,
      "user": "nyuriks",
      "uid": 339581,
      "tags": {
        "is_in": "Fundu Moldovei;Suceava;România",
        "is_in:country": "România",
        "is_in:county": "Suceava",
        "name": "Botușel",
        "name:uk": "Ботушел",
        "old_postal_code": "5965",
        "place": "village",
        "population": "167",
        "population:census:1992": "167",
        "postal_code": "727267",
        "postal_code:source": "INSSE - SIRUTA",
        "siruta:code": "148783",
        "siruta:code_sup": "148765",
        "siruta:county": "Suceava",
        "siruta:county_code": "SV",
        "siruta:county_id": "33",
        "siruta:name_sup": "Fundu Moldovei",
        "siruta:type": "23",
        "wikidata": "Q12084394",
        "wikipedia": "ro:Botușel, Suceava"
      }
    },
    {
      "type": "node",
      "id": 464476372,
      "lat": 47.5373082,
      "lon": 25.3088755,
      "timestamp": "2017-09-13T22:23:32Z",
      "version": 5,
      "changeset": 52021975,
      "user": "nyuriks",
      "uid": 339581,
      "tags": {
        "is_in": "Fundu Moldovei;Suceava;România",
        "is_in:country": "România",
        "is_in:county": "Suceava",
        "name": "Delnița",
        "name:uk": "Делніца",
        "old_postal_code": "5965",
        "place": "village",
        "population": "116",
        "population:census:1992": "116",
        "postal_code": "727271",
        "postal_code:source": "INSSE - SIRUTA",
        "siruta:code": "148827",
        "siruta:code_sup": "148765",
        "siruta:county": "Suceava",
        "siruta:county_code": "SV",
        "siruta:county_id": "33",
        "siruta:name_sup": "Fundu Moldovei",
        "siruta:type": "23",
        "wikidata": "Q12099909",
        "wikipedia": "ro:Delnița, Suceava"
      }
    },
    {
      "type": "node",
      "id": 464476434,
      "lat": 47.5588131,
      "lon": 25.2921643,
      "timestamp": "2017-09-13T22:23:32Z",
      "version": 5,
      "changeset": 52021975,
      "user": "nyuriks",
      "uid": 339581,
      "tags": {
        "is_in": "Fundu Moldovei;Suceava;România",
        "is_in:country": "România",
        "is_in:county": "Suceava",
        "name": "Deluț",
        "name:uk": "Делуц",
        "old_postal_code": "5965",
        "place": "village",
        "population": "105",
        "population:census:1992": "105",
        "postal_code": "727272",
        "postal_code:source": "INSSE - SIRUTA",
        "siruta:code": "148836",
        "siruta:code_sup": "148765",
        "siruta:county": "Suceava",
        "siruta:county_code": "SV",
        "siruta:county_id": "33",
        "siruta:name_sup": "Fundu Moldovei",
        "siruta:type": "23",
        "wikidata": "Q12099914",
        "wikipedia": "ro:Deluț, Suceava"
      }
    },
    {
      "type": "node",
      "id": 464476492,
      "lat": 47.5729958,
      "lon": 25.2668419,
      "timestamp": "2010-10-02T17:38:46Z",
      "version": 3,
      "changeset": 5937914,
      "user": "Strainubot",
      "uid": 352334,
      "tags": {
        "is_in": "Fundu Moldovei,Suceava,România",
        "is_in:country": "România",
        "is_in:county": "Suceava",
        "name": "Obcina",
        "old_postal_code": "5965",
        "place": "hamlet",
        "population": "45",
        "population:census:1992": "45",
        "postal_code": "727273",
        "postal_code:source": "INSSE - SIRUTA",
        "siruta:code": "148845",
        "siruta:code_sup": "148765",
        "siruta:county": "Suceava",
        "siruta:county_code": "SV",
        "siruta:county_id": "33",
        "siruta:name_sup": "Fundu Moldovei",
        "siruta:type": "23"
      }
    },
    {
      "type": "node",
      "id": 464484187,
      "lat": 47.5175196,
      "lon": 25.2218262,
      "timestamp": "2021-05-11T08:15:16Z",
      "version": 7,
      "changeset": 104496599,
      "user": "Armin Gheorghina",
      "uid": 3207276,
      "tags": {
        "is_in:country": "România",
        "is_in:county": "Suceava",
        "name": "Botoș",
        "name:uk": "Ботош",
        "old_postal_code": "5978",
        "place": "village",
        "population": "435",
        "population:census:1992": "435",
        "postal_code": "727121",
        "postal_code:source": "INSSE - SIRUTA",
        "siruta:code": "149156",
        "siruta:code_sup": "151451",
        "siruta:county": "Suceava",
        "siruta:county_code": "SV",
        "siruta:county_id": "33",
        "siruta:name_sup": "Ciocănești",
        "siruta:type": "23",
        "wikidata": "Q12128356",
        "wikipedia": "ro:Botoș, Suceava"
      }
    },
    {
      "type": "node",
      "id": 464485569,
      "lat": 47.781111,
      "lon": 25.2723612,
      "timestamp": "2021-07-22T11:26:52Z",
      "version": 9,
      "changeset": 108424658,
      "user": "Armin Gheorghina",
      "uid": 3207276,
      "tags": {
        "is_in:country": "România",
        "is_in:county": "Suceava",
        "name": "Brodina",
        "name:uk": "Бродіна",
        "old_postal_code": "5893",
        "place": "village",
        "population": "892",
        "population:census:1992": "892",
        "postal_code": "727332",
        "postal_code:source": "INSSE - SIRUTA",
        "siruta:code": "149218",
        "siruta:code_sup": "149183",
        "siruta:county": "Suceava",
        "siruta:county_code": "SV",
        "siruta:county_id": "33",
        "siruta:name_sup": "Izvoarele Sucevei",
        "siruta:type": "23",
        "wikidata": "Q2606112",
        "wikipedia": "ro:Brodina, Suceava"
      }
    },
    {
      "type": "node",
      "id": 464509991,
      "lat": 47.6931655,
      "lon": 25.2417229,
      "timestamp": "2021-05-12T07:33:27Z",
      "version": 10,
      "changeset": 104553890,
      "user": "Armin Gheorghina",
      "uid": 3207276,
      "tags": {
        "addr:postcode": "727380",
        "is_in:country": "România",
        "is_in:county": "Suceava",
        "name": "Moldova-Sulița",
        "name:pl": "Mołdawa Sulica",
        "name:uk": "Молдова-Суліца",
        "old_postal_code": "5967",
        "place": "village",
        "population": "1382",
        "population:census:1992": "1382",
        "postal_code:source": "INSSE - SIRUTA",
        "siruta:code": "149511",
        "siruta:code_sup": "149502",
        "siruta:county": "Suceava",
        "siruta:county_code": "SV",
        "siruta:county_id": "33",
        "siruta:name_sup": "Moldova-Sulița",
        "siruta:type": "22",
        "wikidata": "Q1079473",
        "wikipedia": "ro:Moldova-Sulița, Suceava"
      }
    },
    {
      "type": "node",
      "id": 464510094,
      "lat": 47.6645867,
      "lon": 25.2669694,
      "timestamp": "2021-07-27T10:10:57Z",
      "version": 8,
      "changeset": 108679047,
      "user": "123cargo_user",
      "uid": 10938823,
      "tags": {
        "is_in:country": "România",
        "is_in:county": "Suceava",
        "name": "Benia",
        "name:uk": "Бенія",
        "old_postal_code": "5967",
        "place": "village",
        "population": "785",
        "population:census:1992": "785",
        "postal_code": "727381",
        "postal_code:source": "INSSE - SIRUTA",
        "siruta:code": "149520",
        "siruta:code_sup": "149502",
        "siruta:county": "Suceava",
        "siruta:county_code": "SV",
        "siruta:county_id": "33",
        "siruta:name_sup": "Moldova-Sulița",
        "siruta:type": "23",
        "wikidata": "Q3893338",
        "wikipedia": "ro:Benia, Suceava"
      }
    },
    {
      "type": "node",
      "id": 464533127,
      "lat": 47.8897496,
      "lon": 25.2893928,
      "timestamp": "2020-06-27T11:27:23Z",
      "version": 12,
      "changeset": 87224058,
      "user": "User6 - Lightcyphers",
      "uid": 10493415,
      "tags": {
        "name": "Ulma",
        "name:uk": "Ульма",
        "old_postal_code": "5894",
        "place": "village",
        "population": "440",
        "population:census:1992": "440",
        "postal_code": "727555",
        "postal_code:source": "INSSE - SIRUTA",
        "siruta:code": "150711",
        "siruta:code_sup": "150702",
        "siruta:county": "Suceava",
        "siruta:county_code": "SV",
        "siruta:county_id": "33",
        "siruta:name_sup": "Ulma",
        "siruta:type": "22",
        "wikidata": "Q1065999",
        "wikipedia": "ro:Ulma, Suceava"
      }
    },
    {
      "type": "node",
      "id": 464533290,
      "lat": 47.8809227,
      "lon": 25.2353359,
      "timestamp": "2020-06-27T11:27:23Z",
      "version": 12,
      "changeset": 87224058,
      "user": "User6 - Lightcyphers",
      "uid": 10493415,
      "tags": {
        "name": "Costileva",
        "name:uk": "Костілева",
        "old_postal_code": "5894",
        "place": "hamlet",
        "population": "375",
        "population:census:1992": "375",
        "postal_code": "727556",
        "postal_code:source": "INSSE - SIRUTA",
        "siruta:code": "150720",
        "siruta:code_sup": "150702",
        "siruta:county": "Suceava",
        "siruta:county_code": "SV",
        "siruta:county_id": "33",
        "siruta:name_sup": "Ulma",
        "siruta:type": "23",
        "wikidata": "Q12113666",
        "wikipedia": "ro:Costileva, Suceava"
      }
    },
    {
      "type": "node",
      "id": 464533423,
      "lat": 47.8311207,
      "lon": 25.2474428,
      "timestamp": "2017-09-08T09:18:52Z",
      "version": 9,
      "changeset": 51837443,
      "user": "nyuriks",
      "uid": 339581,
      "tags": {
        "is_in": "Ulma;Suceava;România",
        "is_in:country": "România",
        "is_in:county": "Suceava",
        "name": "Lupcina",
        "name:uk": "Лупчина",
        "old_postal_code": "5894",
        "place": "hamlet",
        "population": "726",
        "population:census:1992": "726",
        "postal_code": "727557",
        "postal_code:source": "INSSE - SIRUTA",
        "siruta:code": "150739",
        "siruta:code_sup": "150702",
        "siruta:county": "Suceava",
        "siruta:county_code": "SV",
        "siruta:county_id": "33",
        "siruta:name_sup": "Ulma",
        "siruta:type": "23",
        "wikidata": "Q12118912",
        "wikipedia": "ro:Lupcina, Suceava"
      }
    },
    {
      "type": "node",
      "id": 464533496,
      "lat": 47.8218701,
      "lon": 25.235647,
      "timestamp": "2017-09-08T09:18:52Z",
      "version": 9,
      "changeset": 51837443,
      "user": "nyuriks",
      "uid": 339581,
      "tags": {
        "is_in": "Ulma,Suceava,România",
        "is_in:country": "România",
        "is_in:county": "Suceava",
        "name": "Măgura",
        "name:uk": "Мегура",
        "old_postal_code": "5894",
        "place": "hamlet",
        "population": "387",
        "population:census:1992": "387",
        "postal_code": "727558",
        "postal_code:source": "INSSE - SIRUTA",
        "siruta:code": "150748",
        "siruta:code_sup": "150702",
        "siruta:county": "Suceava",
        "siruta:county_code": "SV",
        "siruta:county_id": "33",
        "siruta:name_sup": "Ulma",
        "siruta:type": "23",
        "wikidata": "Q12122142",
        "wikipedia": "ro:Măgura, Suceava"
      }
    },
    {
      "type": "node",
      "id": 499444067,
      "lat": 47.5433381,
      "lon": 25.0082002,
      "timestamp": "2017-10-10T14:11:39Z",
      "version": 8,
      "changeset": 52791487,
      "user": "alex-map",
      "uid": 30383,
      "tags": {
        "ele": "1271",
        "mountain_pass": "yes",
        "name": "Pasul Rotunda",
        "natural": "saddle"
      }
    },
    {
      "type": "node",
      "id": 560112272,
      "lat": 47.5437986,
      "lon": 25.0090983,
      "timestamp": "2017-10-10T14:11:38Z",
      "version": 4,
      "changeset": 52791487,
      "user": "alex-map",
      "uid": 30383,
      "tags": {
        "ele": "1320",
        "internet_access": "no",
        "name": "Cabana Rotunda",
        "tourism": "alpine_hut"
      }
    },
    {
      "type": "node",
      "id": 560125804,
      "lat": 47.5646348,
      "lon": 24.6535057,
      "timestamp": "2021-03-30T20:41:20Z",
      "version": 5,
      "changeset": 102008497,
      "user": "Radu I",
      "uid": 12486814,
      "tags": {
        "ele": "2002",
        "name": "Șaua Obârșia Rebrii",
        "natural": "saddle"
      }
    },
    {
      "type": "node",
      "id": 585138859,
      "lat": 47.5223947,
      "lon": 24.886529,
      "timestamp": "2020-02-03T23:09:51Z",
      "version": 2,
      "changeset": 80501312,
      "user": "retrovirus",
      "uid": 10735618,
      "tags": {
        "drinking_water": "yes",
        "intermittent": "no",
        "natural": "spring"
      }
    },
    {
      "type": "node",
      "id": 612922048,
      "lat": 47.6238756,
      "lon": 25.2169622,
      "timestamp": "2010-09-19T06:41:25Z",
      "version": 3,
      "changeset": 5816921,
      "user": "user_5359",
      "uid": 5359,
      "tags": {
        "name": "Cabana Obcioara",
        "tourism": "alpine_hut"
      }
    },
    {
      "type": "node",
      "id": 957297896,
      "lat": 47.547081,
      "lon": 24.81579,
      "timestamp": "2021-10-05T16:26:11Z",
      "version": 4,
      "changeset": 112131251,
      "user": "Flaviu Andrei Csernik",
      "uid": 12383893,
      "tags": {
        "ele": "2134",
        "name": "Omului",
        "name:uk": "Омулуі",
        "natural": "peak",
        "wikidata": "Q12733231",
        "wikipedia": "ro:Lista vârfurilor muntoase din România după înălțime"
      }
    },
    {
      "type": "node",
      "id": 1022583737,
      "lat": 47.80649,
      "lon": 24.82189,
      "timestamp": "2022-08-01T16:18:30Z",
      "version": 6,
      "changeset": 124354419,
      "user": "olehz",
      "uid": 204049,
      "tags": {
        "ele": "1616",
        "name": "Пуруль",
        "name:en": "Purul",
        "name:pl": "Purul",
        "natural": "peak",
        "source": "wikipedia",
        "wikidata": "Q23988",
        "wikipedia": "uk:Пуруль",
        "wikipedia:ru": "Пуруль"
      }
    },
    {
      "type": "node",
      "id": 1022847408,
      "lat": 47.7455365,
      "lon": 24.8805413,
      "timestamp": "2021-02-11T19:56:55Z",
      "version": 7,
      "changeset": 99131873,
      "user": "Myazyk",
      "uid": 899942,
      "tags": {
        "ele": "1766",
        "name": "Гнатася",
        "name:de": "Hnatassja",
        "name:en": "Hnatasia",
        "name:pl": "Hnitessa",
        "name:ru": "Гнатася",
        "name:uk": "Гнатася",
        "natural": "peak",
        "source": "wikipedia",
        "wikidata": "Q23972",
        "wikipedia": "uk:Гнатася",
        "wikipedia:pl": "Hnitessa",
        "wikipedia:ru": "Гнатася"
      }
    },
    {
      "type": "node",
      "id": 1562669635,
      "lat": 47.9322972,
      "lon": 24.9343002,
      "timestamp": "2020-05-25T00:10:06Z",
      "version": 2,
      "changeset": 85697667,
      "user": "1gorok",
      "uid": 1872841,
      "tags": {
        "name": "Продукти",
        "shop": "convenience"
      }
    },
    {
      "type": "node",
      "id": 1683292109,
      "lat": 47.5725278,
      "lon": 24.7724246,
      "timestamp": "2019-07-08T10:07:29Z",
      "version": 6,
      "changeset": 72005906,
      "user": "Michael_H",
      "uid": 323389,
      "tags": {
        "name": "Șaua Galațului",
        "natural": "saddle"
      }
    },
    {
      "type": "node",
      "id": 1749428794,
      "lat": 47.7654827,
      "lon": 24.8566037,
      "timestamp": "2022-08-01T16:18:27Z",
      "version": 8,
      "changeset": 124354416,
      "user": "olehz",
      "uid": 204049,
      "tags": {
        "ele": "1734",
        "name": "Команова",
        "name:en": "Komanova",
        "name:pl": "Komanowa",
        "natural": "peak",
        "source": "wikipedia",
        "wikidata": "Q23974",
        "wikipedia": "uk:Команова",
        "wikipedia:ru": "Команова"
      }
    },
    {
      "type": "node",
      "id": 1757287778,
      "lat": 47.8423743,
      "lon": 24.782582,
      "timestamp": "2022-08-01T16:18:38Z",
      "version": 4,
      "changeset": 124354427,
      "user": "olehz",
      "uid": 204049,
      "tags": {
        "ele": "1653",
        "name": "Лостун",
        "name:en": "Lostun",
        "natural": "peak",
        "source": "wikipedia",
        "wikidata": "Q4267311",
        "wikipedia": "uk:Лостун",
        "wikipedia:ru": "Лостун"
      }
    },
    {
      "type": "node",
      "id": 1757287781,
      "lat": 47.7588417,
      "lon": 24.8723695,
      "timestamp": "2022-08-01T16:18:28Z",
      "version": 6,
      "changeset": 124354418,
      "user": "olehz",
      "uid": 204049,
      "tags": {
        "ele": "1749",
        "name": "Палениця",
        "name:en": "Palenytsia",
        "name:pl": "Palenica",
        "natural": "peak",
        "source": "wikipedia",
        "wikidata": "Q23970",
        "wikipedia": "uk:Палениця",
        "wikipedia:ru": "Паленица"
      }
    },
    {
      "type": "node",
      "id": 1757287782,
      "lat": 47.7803801,
      "lon": 24.8363138,
      "timestamp": "2022-08-01T16:18:32Z",
      "version": 7,
      "changeset": 124354421,
      "user": "olehz",
      "uid": 204049,
      "tags": {
        "ele": "1723",
        "name": "Коман",
        "name:en": "Koman",
        "natural": "peak",
        "source": "wikipedia",
        "wikidata": "Q23981",
        "wikipedia": "uk:Коман (гора)"
      }
    },
    {
      "type": "node",
      "id": 1757295842,
      "lat": 47.8399821,
      "lon": 24.7151792,
      "timestamp": "2021-10-16T13:40:52Z",
      "version": 4,
      "changeset": 112579601,
      "user": "muchichka_s",
      "uid": 10857625,
      "tags": {
        "ele": "1688",
        "name": "Силигул",
        "natural": "peak",
        "source": "wikipedia",
        "wikidata": "Q4419175",
        "wikipedia": "uk:Сулігуль"
      }
    },
    {
      "type": "node",
      "id": 1757295846,
      "lat": 47.8646457,
      "lon": 24.7102769,
      "timestamp": "2022-08-01T16:24:39Z",
      "version": 7,
      "changeset": 124354877,
      "user": "olehz",
      "uid": 204049,
      "tags": {
        "ele": "1766",
        "name": "Чивчин",
        "name:en": "Chyvchyn",
        "name:pl": "Czywczyn",
        "natural": "peak",
        "source": "wikipedia",
        "wikidata": "Q4515640",
        "wikipedia": "uk:Чивчин",
        "wikipedia:ru": "Чивчин"
      }
    },
    {
      "type": "node",
      "id": 1757299430,
      "lat": 47.9480908,
      "lon": 24.6272456,
      "timestamp": "2016-04-06T10:30:51Z",
      "version": 4,
      "changeset": 38346922,
      "user": "Blackbird27",
      "uid": 3477765,
      "tags": {
        "ele": "1589",
        "name": "Керничний",
        "natural": "peak",
        "source": "wikipedia",
        "wikidata": "Q4219655",
        "wikipedia": "uk:Керничний (гора)",
        "wikipedia:ru": "Керничный (гора)"
      }
    },
    {
      "type": "node",
      "id": 1757338826,
      "lat": 47.818749,
      "lon": 24.864298,
      "timestamp": "2022-08-01T16:18:43Z",
      "version": 5,
      "changeset": 124354433,
      "user": "olehz",
      "uid": 204049,
      "tags": {
        "ele": "1568",
        "name": "Ротундул",
        "name:en": "Rotundul",
        "natural": "peak",
        "source": "wikipedia",
        "wikidata": "Q12148947",
        "wikipedia": "uk:Ротундул"
      }
    },
    {
      "type": "node",
      "id": 1757338827,
      "lat": 47.7992105,
      "lon": 24.8968921,
      "timestamp": "2022-08-01T16:18:34Z",
      "version": 4,
      "changeset": 124354423,
      "user": "olehz",
      "uid": 204049,
      "tags": {
        "ele": "1541",
        "name": "Прилучна",
        "name:en": "Pryluchna",
        "name:pl": "Prełuczny",
        "natural": "peak",
        "source": "mapa WIG 1:100000 P57 S40 Hryniawa",
        "wikidata": "Q23986",
        "wikipedia": "uk:Прилучна",
        "wikipedia:ru": "Прилучный (гора)"
      }
    },
    {
      "type": "node",
      "id": 1760645544,
      "lat": 47.8717251,
      "lon": 24.8481655,
      "timestamp": "2022-08-01T15:58:54Z",
      "version": 5,
      "changeset": 124353358,
      "user": "olehz",
      "uid": 204049,
      "tags": {
        "alt_name": "Пневі",
        "ele": "1586",
        "name": "Пнів’є",
        "natural": "peak",
        "source": "wikipedia",
        "wikidata": "Q24422",
        "wikipedia": "uk:Пнів'є (гора)",
        "wikipedia:ru": "Пнивье (гора)"
      }
    },
    {
      "type": "node",
      "id": 1760652659,
      "lat": 47.9251928,
      "lon": 24.7638801,
      "timestamp": "2020-07-29T16:38:51Z",
      "version": 3,
      "changeset": 88689568,
      "user": "Syarol",
      "uid": 3218634,
      "tags": {
        "ele": "1581",
        "name": "Масний Присліп",
        "name:en": "Masnyi Pryslip",
        "name:ru": "Жирный Прислип",
        "name:uk": "Масний Присліп",
        "natural": "peak",
        "source": "wikipedia",
        "wikidata": "Q4180548",
        "wikipedia": "uk:Масний Присліп"
      }
    },
    {
      "type": "node",
      "id": 1760652664,
      "lat": 47.9358464,
      "lon": 24.733097,
      "timestamp": "2020-07-29T16:38:51Z",
      "version": 4,
      "changeset": 88689568,
      "user": "Syarol",
      "uid": 3218634,
      "tags": {
        "alt_name": "Галя Михайлова",
        "alt_name:en": "Halia Mykhailova",
        "alt_name:ru": "Галя Михайлова",
        "alt_name:uk": "Галя Михайлова",
        "ele": "1605",
        "name": "Погребина",
        "name:en": "Pohrebyna",
        "name:uk": "Погребина",
        "natural": "peak",
        "source": "wikipedia",
        "wikidata": "Q24418",
        "wikipedia": "uk:Погребина"
      }
    },
    {
      "type": "node",
      "id": 1760652666,
      "lat": 47.9355531,
      "lon": 24.7892774,
      "timestamp": "2022-08-01T16:24:56Z",
      "version": 5,
      "changeset": 124354893,
      "user": "olehz",
      "uid": 204049,
      "tags": {
        "ele": "1553",
        "name": "Тарниця",
        "name:en": "Tarnytsia",
        "name:ru": "Тарница",
        "natural": "peak",
        "source": "wikipedia",
        "wikidata": "Q4452059",
        "wikipedia": "uk:Тарниця",
        "wikipedia:ru": "Тарница (Украинские Карпаты)"
      }
    },
    {
      "type": "node",
      "id": 1760652672,
      "lat": 47.9254143,
      "lon": 24.7832307,
      "timestamp": "2022-08-01T16:24:51Z",
      "version": 4,
      "changeset": 124354889,
      "user": "olehz",
      "uid": 204049,
      "tags": {
        "ele": "1586",
        "name": "Баба Людова",
        "name:en": "Baba Liudova",
        "name:ru": "Баба Людова",
        "natural": "peak",
        "source": "wikipedia",
        "wikidata": "Q4074111",
        "wikipedia": "uk:Баба Людова"
      }
    },
    {
      "type": "node",
      "id": 1760699946,
      "lat": 47.9338303,
      "lon": 25.3068214,
      "timestamp": "2016-04-06T11:09:30Z",
      "version": 3,
      "changeset": 38347964,
      "user": "Blackbird27",
      "uid": 3477765,
      "tags": {
        "alt_name": "Лунгул",
        "ele": "1377",
        "name": "Лунгуль",
        "natural": "peak",
        "source": "wikipedia",
        "wikidata": "Q114293",
        "wikipedia": "uk:Лунгуль",
        "wikipedia:ru": "Лунгул (гора)"
      }
    },
    {
      "type": "node",
      "id": 1764071566,
      "lat": 47.5873389,
      "lon": 24.8089604,
      "timestamp": "2019-08-09T13:49:03Z",
      "version": 3,
      "changeset": 73194900,
      "user": "Müszi",
      "uid": 2143353,
      "tags": {
        "name": "Șaua Știol",
        "natural": "saddle"
      }
    },
    {
      "type": "node",
      "id": 1779020686,
      "lat": 47.7638815,
      "lon": 25.0342071,
      "timestamp": "2020-10-28T13:47:28Z",
      "version": 4,
      "changeset": 93183565,
      "user": "K2_UNDERGROUND",
      "uid": 561874,
      "tags": {
        "description": "Гора в Українських Карпатах, у масиві Яловичорські гори. Тут знімали кліп на пісню Джамали \"1944\", яка виграла Євробачення-2016.",
        "ele": "1565",
        "name": "Томнатик",
        "name:pl": "Tomnatik",
        "name:uk": "Томнатик",
        "natural": "peak",
        "source": "wikipedia",
        "wikidata": "Q12161893",
        "wikipedia": "uk:Томнатик (Яловичори)",
        "wikipedia:ru": "Томнатик"
      }
    },
    {
      "type": "node",
      "id": 1780107878,
      "lat": 47.8252645,
      "lon": 24.8157242,
      "timestamp": "2021-04-12T11:54:33Z",
      "version": 2,
      "changeset": 102801602,
      "user": "Jarkiy",
      "uid": 208947,
      "tags": {
        "natural": "spring"
      }
    },
    {
      "type": "node",
      "id": 1905906011,
      "lat": 47.7273074,
      "lon": 24.7506445,
      "timestamp": "2020-05-07T06:51:18Z",
      "version": 2,
      "changeset": 84808919,
      "user": "cristi surducan",
      "uid": 11139828,
      "tags": {
        "amenity": "shelter",
        "ele": "1635",
        "name": "Refugiul Montan Lucaciasa",
        "operator": "Parcul National Munții Maramuseșului",
        "shelter_type": "weather_shelter"
      }
    },
    {
      "type": "node",
      "id": 2333021130,
      "lat": 47.5423107,
      "lon": 25.015249,
      "timestamp": "2019-03-26T12:10:55Z",
      "version": 6,
      "changeset": 68544261,
      "user": "b-jazz-bot",
      "uid": 9451067,
      "tags": {
        "ele": "1320",
        "email": "cabanacroitor@yahoo.com",
        "facebook": "https://ro-ro.facebook.com/pages/Cabana-Croitor",
        "name": "Cabana Croitor",
        "phone": "+40786579645",
        "tourism": "alpine_hut",
        "website": "https://rotundapas.webs.com/"
      }
    },
    {
      "type": "node",
      "id": 2347018549,
      "lat": 47.561535,
      "lon": 25.1536689,
      "timestamp": "2013-06-16T08:42:32Z",
      "version": 1,
      "changeset": 16572438,
      "user": "DragonlordCZ",
      "uid": 427725,
      "tags": {
        "amenity": "shelter",
        "fireplace": "yes",
        "shelter_type": "picnic_shelter"
      }
    },
    {
      "type": "node",
      "id": 2375340773,
      "lat": 47.8910296,
      "lon": 25.2252137,
      "timestamp": "2022-01-13T02:33:33Z",
      "version": 6,
      "changeset": 116088375,
      "user": "muchichka_s",
      "uid": 10857625,
      "tags": {
        "katotth": "UA73020150040086276",
        "koatuu": "7323584502",
        "name": "Галицівка",
        "name:en": "Halytsivka",
        "name:prefix": "село",
        "name:ro": "Halițivca",
        "name:ru": "Галицевка",
        "name:uk": "Галицівка",
        "place": "village",
        "population": "677",
        "postal_code": "59132",
        "wikidata": "Q4132510",
        "wikipedia": "uk:Галицівка"
      }
    },
    {
      "type": "node",
      "id": 2375340774,
      "lat": 47.8958852,
      "lon": 25.2537454,
      "timestamp": "2022-01-13T02:33:33Z",
      "version": 6,
      "changeset": 116088375,
      "user": "muchichka_s",
      "uid": 10857625,
      "tags": {
        "katotth": "UA73020150080092287",
        "koatuu": "7323584503",
        "name": "Руська",
        "name:en": "Ruska",
        "name:prefix": "село",
        "name:ro": "Rusca",
        "name:ru": "Русская",
        "name:uk": "Руська",
        "place": "village",
        "population": "474",
        "postal_code": "59131",
        "wikidata": "Q4400417",
        "wikipedia": "uk:Руська (село)"
      }
    },
    {
      "type": "node",
      "id": 2802199967,
      "lat": 47.9653993,
      "lon": 25.2713318,
      "timestamp": "2015-07-13T12:06:29Z",
      "version": 2,
      "changeset": 32601055,
      "user": "Myazyk",
      "uid": 899942,
      "tags": {
        "name": "Ковчег",
        "tourism": "alpine_hut"
      }
    },
    {
      "type": "node",
      "id": 2808896982,
      "lat": 47.9626728,
      "lon": 25.2524975,
      "timestamp": "2020-11-25T22:47:24Z",
      "version": 3,
      "changeset": 94801059,
      "user": "opencarpatia",
      "uid": 10067215,
      "tags": {
        "ele": "1173",
        "name": "Шурдин (найвищий перевал України)",
        "name:ru": "Перевал Шурдин",
        "name:uk": "Перевал Шурдин",
        "natural": "saddle",
        "tourism": "attraction",
        "wikidata": "Q4527951",
        "wikipedia": "uk:Шурдин"
      }
    },
    {
      "type": "node",
      "id": 2998663427,
      "lat": 47.815906,
      "lon": 25.1013792,
      "timestamp": "2021-07-15T16:00:33Z",
      "version": 4,
      "changeset": 108063305,
      "user": "sourserg",
      "uid": 13764093,
      "tags": {
        "alt_name": "Джогіль",
        "ele": "1160",
        "mountain_pass": "yes",
        "name": "Перевал Джогуль",
        "name:en": "Pass Dzhohul",
        "name:pl": "Przełęcz Dżohil",
        "name:ro": "Trecătoare Giogol",
        "name:ru": "Перевал Джголь",
        "name:uk": "Перевал Джогуль",
        "natural": "saddle",
        "wikidata": "Q4160369",
        "wikipedia": "uk:Джогіль (перевал)"
      }
    },
    {
      "type": "node",
      "id": 3022096528,
      "lat": 47.5265969,
      "lon": 24.8918663,
      "timestamp": "2018-09-08T08:03:54Z",
      "version": 3,
      "changeset": 62395928,
      "user": "Florin Vasilache",
      "uid": 8326292,
      "tags": {
        "fee": "no",
        "internet_access:fee": "no",
        "tourism": "camp_site"
      }
    },
    {
      "type": "node",
      "id": 3022096530,
      "lat": 47.5686882,
      "lon": 24.6163116,
      "timestamp": "2014-08-17T12:07:10Z",
      "version": 1,
      "changeset": 24805643,
      "user": "Tombo",
      "uid": 379917,
      "tags": {
        "natural": "spring",
        "source": "bing;survey"
      }
    },
    {
      "type": "node",
      "id": 3032716497,
      "lat": 47.5222404,
      "lon": 24.8827296,
      "timestamp": "2022-05-27T22:42:02Z",
      "version": 8,
      "changeset": 121595641,
      "user": "b-jazz-bot",
      "uid": 9451067,
      "tags": {
        "amenity": "shelter",
        "bench": "no",
        "bin": "no",
        "capacity": "4",
        "ele": "2150",
        "name": "Refugiul de sub Ineu",
        "start_date": "2013",
        "website": "https://www.carpati.org/ghid_montan/muntii/rodnei/refugiul_de_sub_varful_inau-126/"
      }
    },
    {
      "type": "node",
      "id": 3307786274,
      "lat": 47.8161469,
      "lon": 25.2095285,
      "timestamp": "2015-01-24T15:53:10Z",
      "version": 1,
      "changeset": 28375812,
      "user": "Kochtcheï",
      "uid": 1104839,
      "tags": {
        "name": "Ghicea",
        "place": "hamlet"
      }
    },
    {
      "type": "node",
      "id": 3307788046,
      "lat": 47.8111796,
      "lon": 25.2051322,
      "timestamp": "2015-01-24T15:53:55Z",
      "version": 1,
      "changeset": 28375832,
      "user": "Kochtcheï",
      "uid": 1104839,
      "tags": {
        "name": "Ploçca",
        "place": "hamlet"
      }
    },
    {
      "type": "node",
      "id": 3307811795,
      "lat": 47.7834799,
      "lon": 25.1887225,
      "timestamp": "2015-03-29T13:53:36Z",
      "version": 2,
      "changeset": 29826737,
      "user": "Michael_H",
      "uid": 323389,
      "tags": {
        "name": "Arsița",
        "place": "hamlet"
      }
    },
    {
      "type": "node",
      "id": 3583926276,
      "lat": 47.60691,
      "lon": 24.64599,
      "timestamp": "2020-08-21T05:56:59Z",
      "version": 2,
      "changeset": 89724035,
      "user": "emilburzo",
      "uid": 79996,
      "tags": {
        "drinking_water": "yes",
        "intermittent": "no",
        "natural": "spring"
      }
    },
    {
      "type": "node",
      "id": 3584002835,
      "lat": 47.57351,
      "lon": 24.80865,
      "timestamp": "2015-06-09T18:25:14Z",
      "version": 1,
      "changeset": 31849410,
      "user": "Müszi",
      "uid": 2143353,
      "tags": {
        "drinking_water": "yes",
        "natural": "spring",
        "source": "survey"
      }
    },
    {
      "type": "node",
      "id": 3657711744,
      "lat": 47.7256218,
      "lon": 24.7496978,
      "timestamp": "2017-12-24T15:08:01Z",
      "version": 2,
      "changeset": 54889692,
      "user": "izsolt",
      "uid": 24786,
      "tags": {
        "name": "Sondorilor",
        "natural": "spring"
      }
    },
    {
      "type": "node",
      "id": 3657712192,
      "lat": 47.7704982,
      "lon": 24.755023,
      "timestamp": "2015-07-19T14:03:44Z",
      "version": 1,
      "changeset": 32733553,
      "user": "Petr Dlouhý",
      "uid": 17615,
      "tags": {
        "natural": "spring"
      }
    },
    {
      "type": "node",
      "id": 3657788229,
      "lat": 47.543308,
      "lon": 25.0042612,
      "timestamp": "2015-08-08T08:03:10Z",
      "version": 2,
      "changeset": 33196216,
      "user": "vajko1970",
      "uid": 445131,
      "tags": {
        "tourism": "camp_site"
      }
    },
    {
      "type": "node",
      "id": 3657788261,
      "lat": 47.5737075,
      "lon": 24.6415836,
      "timestamp": "2017-08-26T12:32:00Z",
      "version": 3,
      "changeset": 51457926,
      "user": "Ondřej Machulda",
      "uid": 6549129,
      "tags": {
        "camp_site": "basic",
        "ele": "1916",
        "source": "bing;survey",
        "tourism": "camp_site"
      }
    },
    {
      "type": "node",
      "id": 3660650522,
      "lat": 47.846663,
      "lon": 25.2907246,
      "timestamp": "2019-11-06T10:50:18Z",
      "version": 2,
      "changeset": 76692585,
      "user": "inginerum",
      "uid": 9443178,
      "tags": {
        "name": "Chicera",
        "place": "hamlet"
      }
    },
    {
      "type": "node",
      "id": 3686496735,
      "lat": 47.5435958,
      "lon": 25.0096454,
      "timestamp": "2018-09-08T08:03:54Z",
      "version": 3,
      "changeset": 62395928,
      "user": "Florin Vasilache",
      "uid": 8326292,
      "tags": {
        "name": "Cabana Candale",
        "tourism": "alpine_hut",
        "website": "https://cabana-candale.business.site/"
      }
    },
    {
      "type": "node",
      "id": 3698756342,
      "lat": 47.6477374,
      "lon": 24.6689804,
      "timestamp": "2021-01-24T08:24:28Z",
      "version": 3,
      "changeset": 98046017,
      "user": "Balaïtous",
      "uid": 571625,
      "tags": {
        "name": "Borșa Tourism",
        "tourism": "camp_site",
        "website": "http://www.borsa-turism.com/"
      }
    },
    {
      "type": "node",
      "id": 3702715523,
      "lat": 47.5568481,
      "lon": 24.6688887,
      "timestamp": "2020-02-03T23:09:51Z",
      "version": 3,
      "changeset": 80501312,
      "user": "retrovirus",
      "uid": 10735618,
      "tags": {
        "drinking_water": "yes",
        "ele": "1820",
        "intermittent": "no",
        "name": "Izvor \"La Carti\"",
        "natural": "spring"
      }
    },
    {
      "type": "node",
      "id": 3702715524,
      "lat": 47.5594603,
      "lon": 24.6571751,
      "timestamp": "2017-08-26T12:32:00Z",
      "version": 2,
      "changeset": 51457926,
      "user": "Ondřej Machulda",
      "uid": 6549129,
      "tags": {
        "camp_site": "basic",
        "ele": "1834",
        "tourism": "camp_site"
      }
    },
    {
      "type": "node",
      "id": 3702841122,
      "lat": 47.5886057,
      "lon": 24.6366078,
      "timestamp": "2020-04-13T10:54:44Z",
      "version": 3,
      "changeset": 83471174,
      "user": "Michael_H",
      "uid": 323389,
      "tags": {
        "ele": "2110",
        "name": "Curmătura Pietrosului",
        "natural": "saddle"
      }
    },
    {
      "type": "node",
      "id": 3702841123,
      "lat": 47.5713645,
      "lon": 24.6428593,
      "timestamp": "2021-03-30T20:41:20Z",
      "version": 3,
      "changeset": 102008497,
      "user": "Radu I",
      "uid": 12486814,
      "tags": {
        "ele": "1984",
        "name": "Tarnița La Cruce",
        "natural": "saddle"
      }
    },
    {
      "type": "node",
      "id": 3702930209,
      "lat": 47.5774591,
      "lon": 24.6323901,
      "timestamp": "2021-03-30T20:41:20Z",
      "version": 3,
      "changeset": 102008497,
      "user": "Radu I",
      "uid": 12486814,
      "tags": {
        "ele": "2085",
        "name": "Curmătura Buhăescului",
        "natural": "saddle"
      }
    },
    {
      "type": "node",
      "id": 3973798126,
      "lat": 47.9102774,
      "lon": 25.0397124,
      "timestamp": "2016-08-29T17:10:58Z",
      "version": 2,
      "changeset": 41782757,
      "user": "YAKIM",
      "uid": 2282219,
      "tags": {
        "natural": "spring"
      }
    },
    {
      "type": "node",
      "id": 3983624237,
      "lat": 47.5415434,
      "lon": 24.8449057,
      "timestamp": "2016-02-02T09:09:42Z",
      "version": 1,
      "changeset": 36952947,
      "user": "Cristi Gavrea",
      "uid": 1945742,
      "tags": {
        "ele": "1959",
        "name": "Tarnița lui Putredu",
        "natural": "saddle"
      }
    },
    {
      "type": "node",
      "id": 4167221690,
      "lat": 47.9324674,
      "lon": 24.9335709,
      "timestamp": "2020-05-24T23:19:24Z",
      "version": 2,
      "changeset": 85697113,
      "user": "1gorok",
      "uid": 1872841,
      "tags": {
        "name": "Християна",
        "shop": "convenience"
      }
    },
    {
      "type": "node",
      "id": 4167394689,
      "lat": 47.7918428,
      "lon": 25.0376524,
      "timestamp": "2020-10-20T07:17:51Z",
      "version": 2,
      "changeset": 92747563,
      "user": "K2_UNDERGROUND",
      "uid": 561874,
      "tags": {
        "drinking_water": "yes",
        "natural": "spring"
      }
    },
    {
      "type": "node",
      "id": 4235736895,
      "lat": 47.7373206,
      "lon": 24.856445,
      "timestamp": "2016-06-10T15:21:31Z",
      "version": 1,
      "changeset": 39932353,
      "user": "osmplus",
      "uid": 3434220,
      "tags": {
        "amenity": "shelter"
      }
    },
    {
      "type": "node",
      "id": 4349675318,
      "lat": 47.8801494,
      "lon": 24.9552443,
      "timestamp": "2017-06-06T21:17:05Z",
      "version": 2,
      "changeset": 49319228,
      "user": "Myazyk",
      "uid": 899942,
      "tags": {
        "natural": "spring"
      }
    },
    {
      "type": "node",
      "id": 4349675320,
      "lat": 47.8423673,
      "lon": 25.0156708,
      "timestamp": "2016-08-14T12:06:09Z",
      "version": 1,
      "changeset": 41445482,
      "user": "HasT",
      "uid": 484307,
      "tags": {
        "natural": "spring"
      }
    },
    {
      "type": "node",
      "id": 4349675321,
      "lat": 47.8195239,
      "lon": 25.0954711,
      "timestamp": "2016-08-14T12:06:09Z",
      "version": 1,
      "changeset": 41445482,
      "user": "HasT",
      "uid": 484307,
      "tags": {
        "amenity": "shelter"
      }
    },
    {
      "type": "node",
      "id": 4349675323,
      "lat": 47.9700226,
      "lon": 25.1318755,
      "timestamp": "2016-08-14T12:06:09Z",
      "version": 1,
      "changeset": 41445482,
      "user": "HasT",
      "uid": 484307,
      "tags": {
        "name": "Едельвейс",
        "shop": "convenience"
      }
    },
    {
      "type": "node",
      "id": 4351843447,
      "lat": 47.610909,
      "lon": 24.86374,
      "timestamp": "2019-08-07T18:04:05Z",
      "version": 3,
      "changeset": 73123315,
      "user": "Müszi",
      "uid": 2143353,
      "tags": {
        "drinking_water": "yes",
        "natural": "spring"
      }
    },
    {
      "type": "node",
      "id": 4374481403,
      "lat": 47.8544475,
      "lon": 25.0237081,
      "timestamp": "2020-06-26T20:56:24Z",
      "version": 3,
      "changeset": 87212901,
      "user": "User6 - Lightcyphers",
      "uid": 10493415,
      "tags": {
        "drinking_water": "yes",
        "natural": "spring"
      }
    },
    {
      "type": "node",
      "id": 4377938538,
      "lat": 47.9822303,
      "lon": 24.9884593,
      "timestamp": "2016-08-31T20:27:05Z",
      "version": 1,
      "changeset": 41835177,
      "user": "YAKIM",
      "uid": 2282219,
      "tags": {
        "natural": "spring"
      }
    },
    {
      "type": "node",
      "id": 4377943613,
      "lat": 47.9790128,
      "lon": 25.0048524,
      "timestamp": "2016-08-31T20:32:45Z",
      "version": 2,
      "changeset": 41835300,
      "user": "YAKIM",
      "uid": 2282219,
      "tags": {
        "natural": "spring"
      }
    },
    {
      "type": "node",
      "id": 4377947598,
      "lat": 47.9760378,
      "lon": 25.0149075,
      "timestamp": "2016-08-31T20:32:45Z",
      "version": 2,
      "changeset": 41835300,
      "user": "YAKIM",
      "uid": 2282219,
      "tags": {
        "natural": "spring"
      }
    },
    {
      "type": "node",
      "id": 4377952669,
      "lat": 47.9711879,
      "lon": 25.0184565,
      "timestamp": "2016-08-31T20:34:12Z",
      "version": 1,
      "changeset": 41835336,
      "user": "YAKIM",
      "uid": 2282219,
      "tags": {
        "natural": "spring"
      }
    },
    {
      "type": "node",
      "id": 4377952796,
      "lat": 47.9759811,
      "lon": 25.0149567,
      "timestamp": "2016-08-31T20:32:45Z",
      "version": 1,
      "changeset": 41835300,
      "user": "YAKIM",
      "uid": 2282219,
      "tags": {
        "amenity": "shelter",
        "shelter_type": "picnic_shelter"
      }
    },
    {
      "type": "node",
      "id": 4377959128,
      "lat": 47.9702033,
      "lon": 25.0191063,
      "timestamp": "2016-08-31T20:53:08Z",
      "version": 2,
      "changeset": 41835736,
      "user": "YAKIM",
      "uid": 2282219,
      "tags": {
        "amenity": "shelter",
        "shelter_type": "picnic_shelter"
      }
    },
    {
      "type": "node",
      "id": 4377960369,
      "lat": 47.9882621,
      "lon": 25.0660783,
      "timestamp": "2016-08-31T20:39:36Z",
      "version": 1,
      "changeset": 41835466,
      "user": "YAKIM",
      "uid": 2282219,
      "tags": {
        "natural": "spring"
      }
    },
    {
      "type": "node",
      "id": 4377961256,
      "lat": 47.8101746,
      "lon": 25.0062626,
      "timestamp": "2016-08-31T20:45:55Z",
      "version": 1,
      "changeset": 41835603,
      "user": "YAKIM",
      "uid": 2282219,
      "tags": {
        "natural": "spring"
      }
    },
    {
      "type": "node",
      "id": 4377965922,
      "lat": 47.811718,
      "lon": 25.0087596,
      "timestamp": "2020-04-05T11:43:50Z",
      "version": 2,
      "changeset": 83096581,
      "user": "h21",
      "uid": 290442,
      "tags": {
        "drinking_water": "yes",
        "natural": "spring"
      }
    },
    {
      "type": "node",
      "id": 4377966647,
      "lat": 47.8118963,
      "lon": 25.0111072,
      "timestamp": "2016-08-31T20:47:55Z",
      "version": 1,
      "changeset": 41835638,
      "user": "YAKIM",
      "uid": 2282219,
      "tags": {
        "natural": "spring"
      }
    },
    {
      "type": "node",
      "id": 4377967761,
      "lat": 47.8094149,
      "lon": 25.0074336,
      "timestamp": "2016-08-31T20:48:45Z",
      "version": 1,
      "changeset": 41835652,
      "user": "YAKIM",
      "uid": 2282219,
      "tags": {
        "natural": "spring"
      }
    },
    {
      "type": "node",
      "id": 4422675137,
      "lat": 47.5548022,
      "lon": 24.8150442,
      "timestamp": "2016-09-28T20:16:46Z",
      "version": 1,
      "changeset": 42504125,
      "user": "Polciu",
      "uid": 1977936,
      "tags": {
        "natural": "spring"
      }
    },
    {
      "type": "node",
      "id": 4422675138,
      "lat": 47.5599732,
      "lon": 24.6578597,
      "timestamp": "2016-09-28T20:16:46Z",
      "version": 1,
      "changeset": 42504125,
      "user": "Polciu",
      "uid": 1977936,
      "tags": {
        "natural": "spring"
      }
    },
    {
      "type": "node",
      "id": 4422675139,
      "lat": 47.5722415,
      "lon": 24.7938064,
      "timestamp": "2020-02-03T23:09:51Z",
      "version": 2,
      "changeset": 80501312,
      "user": "retrovirus",
      "uid": 10735618,
      "tags": {
        "drinking_water": "yes",
        "intermittent": "no",
        "natural": "spring"
      }
    },
    {
      "type": "node",
      "id": 4422675140,
      "lat": 47.573302,
      "lon": 24.791148,
      "timestamp": "2016-09-28T20:16:46Z",
      "version": 1,
      "changeset": 42504125,
      "user": "Polciu",
      "uid": 1977936,
      "tags": {
        "natural": "spring"
      }
    },
    {
      "type": "node",
      "id": 4422675141,
      "lat": 47.5748,
      "lon": 24.7848568,
      "timestamp": "2016-09-28T20:16:46Z",
      "version": 1,
      "changeset": 42504125,
      "user": "Polciu",
      "uid": 1977936,
      "tags": {
        "natural": "spring"
      }
    },
    {
      "type": "node",
      "id": 4592670809,
      "lat": 47.74494,
      "lon": 25.0614082,
      "timestamp": "2022-01-23T17:40:31Z",
      "version": 3,
      "changeset": 116509019,
      "user": "rumbrummer",
      "uid": 9436824,
      "tags": {
        "ele": "1410",
        "mountain_pass": "yes",
        "name": "Перевал Семенчук",
        "name:en": "Pass Semenchuk",
        "name:pl": "Przełęcz Semenczuk",
        "name:ru": "Перевал Семенчук",
        "name:uk": "Перевал Семенчук",
        "natural": "saddle",
        "wikidata": "Q4415372",
        "wikipedia": "uk:Семенчук (перевал)"
      }
    },
    {
      "type": "node",
      "id": 4682393952,
      "lat": 47.5739227,
      "lon": 25.0973555,
      "timestamp": "2018-06-10T12:13:45Z",
      "version": 2,
      "changeset": 59710012,
      "user": "AshleyDean",
      "uid": 5561726,
      "tags": {
        "name": "Mini Market",
        "opening_hours": "Mo-Sa 08:00-20:00; Su 09:00-20:00",
        "shop": "convenience"
      }
    },
    {
      "type": "node",
      "id": 4795302526,
      "lat": 47.6227962,
      "lon": 24.8189836,
      "timestamp": "2017-04-15T15:41:35Z",
      "version": 1,
      "changeset": 47817330,
      "user": "Joni Helminen",
      "uid": 5226373,
      "tags": {
        "amenity": "drinking_water",
        "name:en": "izvor"
      }
    },
    {
      "type": "node",
      "id": 4898115398,
      "lat": 47.7399006,
      "lon": 25.0008058,
      "timestamp": "2022-01-13T19:53:36Z",
      "version": 6,
      "changeset": 116121634,
      "user": "muchichka_s",
      "uid": 10857625,
      "tags": {
        "katotth": "UA73020150090012506",
        "koatuu": "7323586005",
        "name": "Сарата",
        "name:bg": "Сарата",
        "name:crh": "Sarata",
        "name:de": "Sarata",
        "name:en": "Sarata",
        "name:hy": "Սարատա",
        "name:pl": "Sarata",
        "name:prefix": "село",
        "name:ro": "Sărata",
        "name:uk": "Сарата",
        "name:zh": "薩拉塔",
        "place": "hamlet",
        "population": "15",
        "wikidata": "Q2089956",
        "wikipedia": "uk:Сарата (село)"
      }
    },
    {
      "type": "node",
      "id": 4903466010,
      "lat": 47.5260837,
      "lon": 24.8769995,
      "timestamp": "2017-06-08T08:54:46Z",
      "version": 2,
      "changeset": 49359998,
      "user": "Cristi Gavrea",
      "uid": 1945742,
      "tags": {
        "ele": "2110",
        "name": "Șaua Inelului",
        "natural": "saddle"
      }
    },
    {
      "type": "node",
      "id": 4903467790,
      "lat": 47.5331161,
      "lon": 24.8698784,
      "timestamp": "2017-06-08T08:56:38Z",
      "version": 2,
      "changeset": 49360054,
      "user": "Cristi Gavrea",
      "uid": 1945742,
      "tags": {
        "ele": "1987",
        "name": "Șaua Bilei",
        "natural": "saddle"
      }
    },
    {
      "type": "node",
      "id": 4940685323,
      "lat": 47.5607245,
      "lon": 25.0505187,
      "timestamp": "2017-06-28T16:10:35Z",
      "version": 1,
      "changeset": 49895925,
      "user": "mitchell027",
      "uid": 171555,
      "tags": {
        "amenity": "drinking_water"
      }
    },
    {
      "type": "node",
      "id": 4994601227,
      "lat": 47.5976916,
      "lon": 24.8032712,
      "timestamp": "2017-07-26T11:16:40Z",
      "version": 1,
      "changeset": 50585387,
      "user": "mennoowh",
      "uid": 747516,
      "tags": {
        "natural": "spring"
      }
    },
    {
      "type": "node",
      "id": 5004407424,
      "lat": 47.9541103,
      "lon": 25.2082666,
      "timestamp": "2017-07-31T07:23:07Z",
      "version": 1,
      "changeset": 50710576,
      "user": "timwenzel98",
      "uid": 3117866,
      "tags": {
        "amenity": "shelter"
      }
    },
    {
      "type": "node",
      "id": 5044685854,
      "lat": 47.9444326,
      "lon": 24.6955213,
      "timestamp": "2021-03-14T13:26:46Z",
      "version": 4,
      "changeset": 100989320,
      "user": "muchichka_s",
      "uid": 10857625,
      "tags": {
        "drinking_water": "yes",
        "intermittent": "no",
        "name": "Буркут-2",
        "natural": "spring",
        "water_characteristic": "mineral"
      }
    },
    {
      "type": "node",
      "id": 5096042655,
      "lat": 47.5465385,
      "lon": 24.6608761,
      "timestamp": "2017-09-10T20:24:00Z",
      "version": 1,
      "changeset": 51919690,
      "user": "H@jo",
      "uid": 87038,
      "tags": {
        "natural": "spring"
      }
    },
    {
      "type": "node",
      "id": 5096171980,
      "lat": 47.5390788,
      "lon": 24.8331222,
      "timestamp": "2017-09-10T21:05:54Z",
      "version": 1,
      "changeset": 51920702,
      "user": "H@jo",
      "uid": 87038,
      "tags": {
        "natural": "spring"
      }
    },
    {
      "type": "node",
      "id": 5099557500,
      "lat": 47.5680285,
      "lon": 24.6105058,
      "timestamp": "2017-09-12T00:57:46Z",
      "version": 1,
      "changeset": 51958133,
      "user": "Ondřej Machulda",
      "uid": 6549129,
      "tags": {
        "drinking_water": "yes",
        "drinking_water:legal": "no",
        "ele": "1858",
        "natural": "spring"
      }
    },
    {
      "type": "node",
      "id": 5163373872,
      "lat": 47.5563741,
      "lon": 24.6703584,
      "timestamp": "2022-05-27T22:44:24Z",
      "version": 5,
      "changeset": 121595703,
      "user": "b-jazz-bot",
      "uid": 9451067,
      "tags": {
        "amenity": "shelter",
        "bench": "yes",
        "capacity": "11",
        "ele": "1875",
        "name": "Refugiul \"La Cărți\"",
        "shelter_type": "basic_hut",
        "start_date": "2017",
        "website": "https://www.carpati.org/ghid_montan/muntii/rodnei/refugiul_la_carti_-269/"
      }
    },
    {
      "type": "node",
      "id": 5302217498,
      "lat": 47.7098369,
      "lon": 24.8056983,
      "timestamp": "2017-12-24T15:07:46Z",
      "version": 1,
      "changeset": 54889692,
      "user": "izsolt",
      "uid": 24786,
      "tags": {
        "drinking_water": "yes",
        "natural": "spring"
      }
    },
    {
      "type": "node",
      "id": 5302217500,
      "lat": 47.7130867,
      "lon": 24.8520196,
      "timestamp": "2017-12-24T15:07:46Z",
      "version": 1,
      "changeset": 54889692,
      "user": "izsolt",
      "uid": 24786,
      "tags": {
        "natural": "spring",
        "seasonal": "yes"
      }
    },
    {
      "type": "node",
      "id": 5302218269,
      "lat": 47.7459682,
      "lon": 24.7161754,
      "timestamp": "2017-12-24T15:07:47Z",
      "version": 1,
      "changeset": 54889692,
      "user": "izsolt",
      "uid": 24786,
      "tags": {
        "drinking_water": "yes",
        "natural": "spring"
      }
    },
    {
      "type": "node",
      "id": 5302218274,
      "lat": 47.7466079,
      "lon": 24.7159723,
      "timestamp": "2017-12-24T15:07:47Z",
      "version": 1,
      "changeset": 54889692,
      "user": "izsolt",
      "uid": 24786,
      "tags": {
        "drinking_water": "yes",
        "natural": "spring"
      }
    },
    {
      "type": "node",
      "id": 5302218396,
      "lat": 47.7541942,
      "lon": 24.7437281,
      "timestamp": "2017-12-24T15:07:49Z",
      "version": 1,
      "changeset": 54889692,
      "user": "izsolt",
      "uid": 24786,
      "tags": {
        "drinking_water": "yes",
        "natural": "spring"
      }
    },
    {
      "type": "node",
      "id": 5302218468,
      "lat": 47.7909769,
      "lon": 24.6256629,
      "timestamp": "2017-12-24T15:07:50Z",
      "version": 1,
      "changeset": 54889692,
      "user": "izsolt",
      "uid": 24786,
      "tags": {
        "drinking_water": "yes",
        "natural": "spring"
      }
    },
    {
      "type": "node",
      "id": 5302218469,
      "lat": 47.7997172,
      "lon": 24.631915,
      "timestamp": "2017-12-24T15:07:50Z",
      "version": 1,
      "changeset": 54889692,
      "user": "izsolt",
      "uid": 24786,
      "tags": {
        "drinking_water": "yes",
        "natural": "spring"
      }
    },
    {
      "type": "node",
      "id": 5302218665,
      "lat": 47.8471926,
      "lon": 24.6320377,
      "timestamp": "2017-12-24T15:07:54Z",
      "version": 1,
      "changeset": 54889692,
      "user": "izsolt",
      "uid": 24786,
      "tags": {
        "drinking_water": "yes",
        "natural": "spring"
      }
    },
    {
      "type": "node",
      "id": 5302218806,
      "lat": 47.896049,
      "lon": 24.6249274,
      "timestamp": "2017-12-24T15:07:56Z",
      "version": 1,
      "changeset": 54889692,
      "user": "izsolt",
      "uid": 24786,
      "tags": {
        "drinking_water": "yes",
        "natural": "spring"
      }
    },
    {
      "type": "node",
      "id": 5302218845,
      "lat": 47.8997135,
      "lon": 24.6468141,
      "timestamp": "2017-12-24T15:07:57Z",
      "version": 1,
      "changeset": 54889692,
      "user": "izsolt",
      "uid": 24786,
      "tags": {
        "drinking_water": "yes",
        "natural": "spring"
      }
    },
    {
      "type": "node",
      "id": 5515030585,
      "lat": 47.5716038,
      "lon": 24.7135949,
      "timestamp": "2018-08-19T12:16:53Z",
      "version": 2,
      "changeset": 61791757,
      "user": "Michael_H",
      "uid": 323389,
      "tags": {
        "name": "Șaua Tarnița Bârsanului",
        "natural": "saddle"
      }
    },
    {
      "type": "node",
      "id": 5515030586,
      "lat": 47.566334,
      "lon": 24.7045398,
      "timestamp": "2018-03-29T20:13:11Z",
      "version": 1,
      "changeset": 57644834,
      "user": "hanoj",
      "uid": 4788,
      "tags": {
        "name": "Șaua Laptelui",
        "natural": "saddle"
      }
    },
    {
      "type": "node",
      "id": 5515030587,
      "lat": 47.5713559,
      "lon": 24.7507288,
      "timestamp": "2018-03-29T20:13:11Z",
      "version": 1,
      "changeset": 57644834,
      "user": "hanoj",
      "uid": 4788,
      "tags": {
        "name": "Șaua Laptelui",
        "natural": "saddle"
      }
    },
    {
      "type": "node",
      "id": 5515030628,
      "lat": 47.6024492,
      "lon": 24.6493706,
      "timestamp": "2021-03-30T20:26:06Z",
      "version": 3,
      "changeset": 102007926,
      "user": "Radu I",
      "uid": 12486814,
      "tags": {
        "name": "Salvamont",
        "tourism": "alpine_hut"
      }
    },
    {
      "type": "node",
      "id": 5515030629,
      "lat": 47.5566399,
      "lon": 24.6708405,
      "timestamp": "2018-03-29T20:13:12Z",
      "version": 1,
      "changeset": 57644834,
      "user": "hanoj",
      "uid": 4788,
      "tags": {
        "name": "Șaua Intre Izvoare",
        "natural": "saddle"
      }
    },
    {
      "type": "node",
      "id": 5679555112,
      "lat": 47.6122584,
      "lon": 24.83732,
      "timestamp": "2018-08-28T07:16:41Z",
      "version": 2,
      "changeset": 62060782,
      "user": "razor74",
      "uid": 128281,
      "tags": {
        "amenity": "shelter",
        "material": "wood",
        "shelter_type": "picnic_shelter"
      }
    },
    {
      "type": "node",
      "id": 5679555114,
      "lat": 47.6095357,
      "lon": 24.8562956,
      "timestamp": "2018-06-10T12:13:44Z",
      "version": 1,
      "changeset": 59710012,
      "user": "AshleyDean",
      "uid": 5561726,
      "tags": {
        "name": "Cabana Alpina",
        "tourism": "alpine_hut"
      }
    },
    {
      "type": "node",
      "id": 5679555115,
      "lat": 47.5977349,
      "lon": 24.8742298,
      "timestamp": "2018-06-10T12:13:44Z",
      "version": 1,
      "changeset": 59710012,
      "user": "AshleyDean",
      "uid": 5561726,
      "tags": {
        "amenity": "shelter",
        "material": "wood",
        "shelter_type": "picnic_shelter"
      }
    },
    {
      "type": "node",
      "id": 5679555116,
      "lat": 47.6090041,
      "lon": 24.8564047,
      "timestamp": "2018-06-10T12:13:44Z",
      "version": 1,
      "changeset": 59710012,
      "user": "AshleyDean",
      "uid": 5561726,
      "tags": {
        "name": "Cabana Dacilor",
        "tourism": "alpine_hut"
      }
    },
    {
      "type": "node",
      "id": 5679555117,
      "lat": 47.5970326,
      "lon": 24.949118,
      "timestamp": "2018-06-10T12:13:44Z",
      "version": 1,
      "changeset": 59710012,
      "user": "AshleyDean",
      "uid": 5561726,
      "tags": {
        "amenity": "drinking_water"
      }
    },
    {
      "type": "node",
      "id": 5679555118,
      "lat": 47.5670752,
      "lon": 25.142059,
      "timestamp": "2018-06-10T12:13:45Z",
      "version": 1,
      "changeset": 59710012,
      "user": "AshleyDean",
      "uid": 5561726,
      "tags": {
        "amenity": "drinking_water"
      }
    },
    {
      "type": "node",
      "id": 5679555796,
      "lat": 47.656105,
      "lon": 24.6635806,
      "timestamp": "2022-04-06T09:55:32Z",
      "version": 4,
      "changeset": 119378242,
      "user": "kate_rocketdata",
      "uid": 12100948,
      "tags": {
        "contact:email": "contact@profi.ro",
        "contact:facebook": "https://www.facebook.com/Profi.ro",
        "contact:instagram": "https://www.instagram.com/profi.ro",
        "contact:phone": "+40 728 729 259;+40 728 729 261",
        "contact:website": "https://www.profi.ro/",
        "contact:youtube": "https://www.youtube.com/user/magazineleprofi",
        "name": "Profi",
        "opening_hours": "24/7",
        "operator": "Profi Rom Food",
        "shop": "supermarket"
      }
    },
    {
      "type": "node",
      "id": 5679556317,
      "lat": 47.5330579,
      "lon": 25.1849088,
      "timestamp": "2018-06-10T12:13:46Z",
      "version": 1,
      "changeset": 59710012,
      "user": "AshleyDean",
      "uid": 5561726,
      "tags": {
        "amenity": "shelter",
        "shelter_type": "picnic_shelter"
      }
    },
    {
      "type": "node",
      "id": 5690828923,
      "lat": 47.6199884,
      "lon": 24.6495093,
      "timestamp": "2018-06-14T13:49:39Z",
      "version": 1,
      "changeset": 59845959,
      "user": "Сергей Кучер",
      "uid": 3995089,
      "tags": {
        "tourism": "camp_site"
      }
    },
    {
      "type": "node",
      "id": 5690828924,
      "lat": 47.6016318,
      "lon": 24.6489701,
      "timestamp": "2018-06-14T13:49:40Z",
      "version": 2,
      "changeset": 59845959,
      "user": "Сергей Кучер",
      "uid": 3995089,
      "tags": {
        "natural": "spring",
        "tourism": "camp_site"
      }
    },
    {
      "type": "node",
      "id": 5748777531,
      "lat": 47.8984001,
      "lon": 24.8250005,
      "timestamp": "2018-07-09T08:19:49Z",
      "version": 1,
      "changeset": 60529561,
      "user": "Kaskad13",
      "uid": 1230692,
      "tags": {
        "natural": "spring"
      }
    },
    {
      "type": "node",
      "id": 5748777718,
      "lat": 47.9270388,
      "lon": 24.7874388,
      "timestamp": "2018-07-09T08:19:52Z",
      "version": 1,
      "changeset": 60529561,
      "user": "Kaskad13",
      "uid": 1230692,
      "tags": {
        "natural": "spring"
      }
    },
    {
      "type": "node",
      "id": 5748777799,
      "lat": 47.9376992,
      "lon": 24.7388908,
      "timestamp": "2018-07-09T08:19:53Z",
      "version": 1,
      "changeset": 60529561,
      "user": "Kaskad13",
      "uid": 1230692,
      "tags": {
        "natural": "spring"
      }
    },
    {
      "type": "node",
      "id": 5748777804,
      "lat": 47.9830783,
      "lon": 24.7034562,
      "timestamp": "2018-07-09T08:19:53Z",
      "version": 1,
      "changeset": 60529561,
      "user": "Kaskad13",
      "uid": 1230692,
      "tags": {
        "natural": "spring"
      }
    },
    {
      "type": "node",
      "id": 5748862670,
      "lat": 47.760245,
      "lon": 25.0320429,
      "timestamp": "2020-10-20T06:47:41Z",
      "version": 2,
      "changeset": 92745515,
      "user": "K2_UNDERGROUND",
      "uid": 561874,
      "tags": {
        "drinking_water": "yes",
        "intermittent": "no",
        "natural": "spring"
      }
    },
    {
      "type": "node",
      "id": 5748862680,
      "lat": 47.7439003,
      "lon": 24.9916448,
      "timestamp": "2018-07-09T08:55:33Z",
      "version": 1,
      "changeset": 60530794,
      "user": "Kaskad13",
      "uid": 1230692,
      "tags": {
        "natural": "spring"
      }
    },
    {
      "type": "node",
      "id": 5748862681,
      "lat": 47.7633688,
      "lon": 24.9608906,
      "timestamp": "2018-07-09T08:55:33Z",
      "version": 1,
      "changeset": 60530794,
      "user": "Kaskad13",
      "uid": 1230692,
      "tags": {
        "natural": "spring"
      }
    },
    {
      "type": "node",
      "id": 5748863768,
      "lat": 47.7802715,
      "lon": 24.9419743,
      "timestamp": "2018-07-09T08:55:34Z",
      "version": 1,
      "changeset": 60530794,
      "user": "Kaskad13",
      "uid": 1230692,
      "tags": {
        "natural": "spring"
      }
    },
    {
      "type": "node",
      "id": 5748863770,
      "lat": 47.7859721,
      "lon": 24.9396823,
      "timestamp": "2018-07-09T08:55:34Z",
      "version": 1,
      "changeset": 60530794,
      "user": "Kaskad13",
      "uid": 1230692,
      "tags": {
        "name": "Мінеральне джерело (сірководневе)",
        "natural": "spring"
      }
    },
    {
      "type": "node",
      "id": 5748863771,
      "lat": 47.7856378,
      "lon": 24.9367735,
      "timestamp": "2018-07-09T08:55:35Z",
      "version": 1,
      "changeset": 60530794,
      "user": "Kaskad13",
      "uid": 1230692,
      "tags": {
        "natural": "spring"
      }
    },
    {
      "type": "node",
      "id": 5748863772,
      "lat": 47.7853035,
      "lon": 24.932541,
      "timestamp": "2018-07-09T08:55:35Z",
      "version": 1,
      "changeset": 60530794,
      "user": "Kaskad13",
      "uid": 1230692,
      "tags": {
        "natural": "spring"
      }
    },
    {
      "type": "node",
      "id": 5748863854,
      "lat": 47.7920406,
      "lon": 24.9258663,
      "timestamp": "2018-07-09T08:55:36Z",
      "version": 1,
      "changeset": 60530794,
      "user": "Kaskad13",
      "uid": 1230692,
      "tags": {
        "natural": "spring"
      }
    },
    {
      "type": "node",
      "id": 5748939787,
      "lat": 47.9410252,
      "lon": 25.2243251,
      "timestamp": "2018-07-09T09:18:25Z",
      "version": 1,
      "changeset": 60531717,
      "user": "Kaskad13",
      "uid": 1230692,
      "tags": {
        "natural": "spring"
      }
    },
    {
      "type": "node",
      "id": 5748939788,
      "lat": 47.9365366,
      "lon": 25.2313793,
      "timestamp": "2020-11-25T22:47:24Z",
      "version": 2,
      "changeset": 94801059,
      "user": "opencarpatia",
      "uid": 10067215,
      "tags": {
        "bottle": "yes",
        "man_made": "spring_box",
        "natural": "spring"
      }
    },
    {
      "type": "node",
      "id": 5748939789,
      "lat": 47.9226371,
      "lon": 25.2497926,
      "timestamp": "2020-11-25T22:47:24Z",
      "version": 2,
      "changeset": 94801059,
      "user": "opencarpatia",
      "uid": 10067215,
      "tags": {
        "bottle": "yes",
        "man_made": "spring_box",
        "natural": "spring"
      }
    },
    {
      "type": "node",
      "id": 5748940088,
      "lat": 47.8544252,
      "lon": 25.0161883,
      "timestamp": "2018-07-09T09:18:27Z",
      "version": 1,
      "changeset": 60531717,
      "user": "Kaskad13",
      "uid": 1230692,
      "tags": {
        "natural": "spring"
      }
    },
    {
      "type": "node",
      "id": 5748940089,
      "lat": 47.8313943,
      "lon": 25.0591251,
      "timestamp": "2020-04-05T13:47:50Z",
      "version": 2,
      "changeset": 83099842,
      "user": "h21",
      "uid": 290442,
      "tags": {
        "drinking_water": "yes",
        "natural": "spring"
      }
    },
    {
      "type": "node",
      "id": 5748940090,
      "lat": 47.8119153,
      "lon": 25.1172996,
      "timestamp": "2018-07-09T09:18:27Z",
      "version": 1,
      "changeset": 60531717,
      "user": "Kaskad13",
      "uid": 1230692,
      "tags": {
        "natural": "spring"
      }
    },
    {
      "type": "node",
      "id": 5814693614,
      "lat": 47.5620685,
      "lon": 24.6890759,
      "timestamp": "2020-02-03T23:09:51Z",
      "version": 2,
      "changeset": 80501312,
      "user": "retrovirus",
      "uid": 10735618,
      "tags": {
        "intermittent": "yes",
        "natural": "spring"
      }
    },
    {
      "type": "node",
      "id": 5859485986,
      "lat": 47.8353454,
      "lon": 25.0409838,
      "timestamp": "2018-08-26T19:36:09Z",
      "version": 1,
      "changeset": 62014502,
      "user": "Павел Семенченко",
      "uid": 5015888,
      "tags": {
        "amenity": "shelter"
      }
    },
    {
      "type": "node",
      "id": 5878215485,
      "lat": 47.5266249,
      "lon": 24.8992998,
      "timestamp": "2019-07-01T09:06:19Z",
      "version": 2,
      "changeset": 71776878,
      "user": "MuntiiNostri",
      "uid": 9554626,
      "tags": {
        "natural": "spring"
      }
    },
    {
      "type": "node",
      "id": 5892453600,
      "lat": 47.6013883,
      "lon": 24.6488906,
      "timestamp": "2020-08-21T06:00:40Z",
      "version": 2,
      "changeset": 89724232,
      "user": "emilburzo",
      "uid": 79996,
      "tags": {
        "access": "yes",
        "camp_site": "basic",
        "tourism": "camp_site"
      }
    },
    {
      "type": "node",
      "id": 5892453601,
      "lat": 47.5432145,
      "lon": 25.0075828,
      "timestamp": "2018-09-08T08:03:54Z",
      "version": 1,
      "changeset": 62395928,
      "user": "Florin Vasilache",
      "uid": 8326292,
      "tags": {
        "name": "Official campground in Pasul Rotunda",
        "tourism": "camp_site"
      }
    },
    {
      "type": "node",
      "id": 5984818385,
      "lat": 47.6203711,
      "lon": 24.649443,
      "timestamp": "2018-10-15T07:31:36Z",
      "version": 1,
      "changeset": 63529340,
      "user": "Set187",
      "uid": 6539792,
      "tags": {
        "amenity": "shelter"
      }
    },
    {
      "type": "node",
      "id": 5984818386,
      "lat": 47.5405299,
      "lon": 24.9224365,
      "timestamp": "2018-10-15T07:31:42Z",
      "version": 1,
      "changeset": 63529340,
      "user": "Set187",
      "uid": 6539792,
      "tags": {
        "amenity": "shelter"
      }
    },
    {
      "type": "node",
      "id": 5984818388,
      "lat": 47.592056,
      "lon": 24.8003376,
      "timestamp": "2018-10-15T07:32:16Z",
      "version": 1,
      "changeset": 63529340,
      "user": "Set187",
      "uid": 6539792,
      "tags": {
        "tourism": "camp_site"
      }
    },
    {
      "type": "node",
      "id": 5985124587,
      "lat": 47.5507581,
      "lon": 24.936298,
      "timestamp": "2018-10-15T10:31:37Z",
      "version": 1,
      "changeset": 63535346,
      "user": "Set187",
      "uid": 6539792,
      "tags": {
        "natural": "spring"
      }
    },
    {
      "type": "node",
      "id": 6040129859,
      "lat": 47.9086054,
      "lon": 24.8087675,
      "timestamp": "2020-05-31T18:32:46Z",
      "version": 3,
      "changeset": 86017557,
      "user": "1gorok",
      "uid": 1872841,
      "tags": {
        "name": "Джерело",
        "name:ru": "Родник",
        "name:uk": "Джерело",
        "natural": "spring"
      }
    },
    {
      "type": "node",
      "id": 6040132385,
      "lat": 47.9123698,
      "lon": 24.8057773,
      "timestamp": "2018-11-05T19:57:36Z",
      "version": 1,
      "changeset": 64209420,
      "user": "Zabiyashka",
      "uid": 1580740,
      "tags": {
        "name": "Джерело",
        "natural": "spring"
      }
    },
    {
      "type": "node",
      "id": 6040132575,
      "lat": 47.9575641,
      "lon": 24.7226669,
      "timestamp": "2018-11-05T19:59:45Z",
      "version": 1,
      "changeset": 64209469,
      "user": "Zabiyashka",
      "uid": 1580740,
      "tags": {
        "name": "Місце для табору",
        "tourism": "camp_site"
      }
    },
    {
      "type": "node",
      "id": 6040134238,
      "lat": 47.9626576,
      "lon": 24.7078628,
      "timestamp": "2018-11-05T21:01:32Z",
      "version": 2,
      "changeset": 64211010,
      "user": "Zabiyashka",
      "uid": 1580740,
      "tags": {
        "internet_access": "no",
        "tourism": "camp_site"
      }
    },
    {
      "type": "node",
      "id": 6040134363,
      "lat": 47.9123201,
      "lon": 24.8052382,
      "timestamp": "2018-11-05T20:00:51Z",
      "version": 1,
      "changeset": 64209492,
      "user": "Zabiyashka",
      "uid": 1580740,
      "tags": {
        "name": "Місце для табору",
        "tourism": "camp_site"
      }
    },
    {
      "type": "node",
      "id": 6040225502,
      "lat": 47.8922335,
      "lon": 24.8205853,
      "timestamp": "2018-11-05T21:12:04Z",
      "version": 1,
      "changeset": 64211350,
      "user": "Zabiyashka",
      "uid": 1580740,
      "tags": {
        "natural": "spring"
      }
    },
    {
      "type": "node",
      "id": 6411369521,
      "lat": 47.7826498,
      "lon": 25.0289926,
      "timestamp": "2020-10-20T07:17:51Z",
      "version": 2,
      "changeset": 92747563,
      "user": "K2_UNDERGROUND",
      "uid": 561874,
      "tags": {
        "drinking_water": "yes",
        "intermittent": "no",
        "natural": "spring"
      }
    },
    {
      "type": "node",
      "id": 6411392771,
      "lat": 47.8002344,
      "lon": 24.9527197,
      "timestamp": "2019-04-17T09:38:06Z",
      "version": 1,
      "changeset": 69301965,
      "user": "Kolyan_ilia",
      "uid": 4521425,
      "tags": {
        "amenity": "shelter",
        "bench": "yes",
        "lit": "no",
        "name": "Альтанка",
        "shelter_type": "gazebo"
      }
    },
    {
      "type": "node",
      "id": 6543541677,
      "lat": 47.8731879,
      "lon": 24.9723022,
      "timestamp": "2019-06-12T22:04:17Z",
      "version": 1,
      "changeset": 71196402,
      "user": "opencarpatia",
      "uid": 10067215,
      "tags": {
        "natural": "spring"
      }
    },
    {
      "type": "node",
      "id": 6543584341,
      "lat": 47.9585527,
      "lon": 24.9625866,
      "timestamp": "2019-06-12T22:28:14Z",
      "version": 1,
      "changeset": 71196796,
      "user": "opencarpatia",
      "uid": 10067215,
      "tags": {
        "natural": "spring"
      }
    },
    {
      "type": "node",
      "id": 6581277176,
      "lat": 47.5334545,
      "lon": 24.9231241,
      "timestamp": "2019-07-01T08:49:19Z",
      "version": 1,
      "changeset": 71776331,
      "user": "MuntiiNostri",
      "uid": 9554626,
      "tags": {
        "name": "Șaua Gajei",
        "natural": "saddle"
      }
    },
    {
      "type": "node",
      "id": 6609886587,
      "lat": 47.5233606,
      "lon": 24.8813288,
      "timestamp": "2020-02-03T23:09:51Z",
      "version": 3,
      "changeset": 80501312,
      "user": "retrovirus",
      "uid": 10735618,
      "tags": {
        "intermittent": "yes",
        "name": "Джерело",
        "name:en": "Well, spring",
        "natural": "spring"
      }
    },
    {
      "type": "node",
      "id": 6609886588,
      "lat": 47.5713676,
      "lon": 24.7957079,
      "timestamp": "2020-07-14T10:58:53Z",
      "version": 3,
      "changeset": 87972909,
      "user": "alxbalmus",
      "uid": 1497516,
      "tags": {
        "amenity": "shelter",
        "bench": "yes",
        "capacity": "12",
        "ele": "1850",
        "name": "Refugiul Gărgălău",
        "shelter_type": "basic_hut",
        "start_date": "2019",
        "website": "https://www.carpati.org/ghid_montan/muntii/rodnei/refugiul_536_aua_gargalau-284/"
      }
    },
    {
      "type": "node",
      "id": 6697057686,
      "lat": 47.6557573,
      "lon": 24.6581529,
      "timestamp": "2021-12-05T20:40:07Z",
      "version": 2,
      "changeset": 114594247,
      "user": "razor74",
      "uid": 128281,
      "tags": {
        "brand": "PENNY",
        "brand:wikidata": "Q284688",
        "brand:wikipedia": "en:Penny (supermarket)",
        "name": "PENNY",
        "shop": "supermarket"
      }
    },
    {
      "type": "node",
      "id": 6697210512,
      "lat": 47.581669,
      "lon": 24.806859,
      "timestamp": "2019-08-09T13:49:03Z",
      "version": 1,
      "changeset": 73194900,
      "user": "Müszi",
      "uid": 2143353,
      "tags": {
        "drinking_water": "conditional",
        "natural": "spring"
      }
    },
    {
      "type": "node",
      "id": 6711714986,
      "lat": 47.6714363,
      "lon": 25.2101733,
      "timestamp": "2019-08-15T08:59:20Z",
      "version": 1,
      "changeset": 73374012,
      "user": "Gnutom",
      "uid": 10224285,
      "tags": {
        "name:fr": "Source",
        "natural": "spring"
      }
    },
    {
      "type": "node",
      "id": 6711714987,
      "lat": 47.6757723,
      "lon": 25.21531,
      "timestamp": "2019-08-15T08:59:20Z",
      "version": 1,
      "changeset": 73374012,
      "user": "Gnutom",
      "uid": 10224285,
      "tags": {
        "name": "Sursa apa potabil",
        "natural": "spring"
      }
    },
    {
      "type": "node",
      "id": 6711813403,
      "lat": 47.6205956,
      "lon": 24.6530599,
      "timestamp": "2019-08-15T09:59:35Z",
      "version": 1,
      "changeset": 73375536,
      "user": "Viterall",
      "uid": 7272786,
      "tags": {
        "amenity": "drinking_water"
      }
    },
    {
      "type": "node",
      "id": 6713551887,
      "lat": 47.8816386,
      "lon": 24.6704746,
      "timestamp": "2019-08-16T00:55:45Z",
      "version": 1,
      "changeset": 73395582,
      "user": "Oleksandr Hrudetskyi",
      "uid": 10228219,
      "tags": {
        "name": "Джерело",
        "natural": "spring"
      }
    },
    {
      "type": "node",
      "id": 6713551985,
      "lat": 47.8754408,
      "lon": 24.7195162,
      "timestamp": "2019-08-16T00:53:36Z",
      "version": 1,
      "changeset": 73395555,
      "user": "Oleksandr Hrudetskyi",
      "uid": 10228219,
      "tags": {
        "name": "В сезон афин і грибів",
        "shop": "convenience"
      }
    },
    {
      "type": "node",
      "id": 6713553285,
      "lat": 47.8753186,
      "lon": 24.7192904,
      "timestamp": "2020-10-16T17:44:36Z",
      "version": 2,
      "changeset": 92597565,
      "user": "zlyisalat",
      "uid": 357342,
      "tags": {
        "natural": "spring"
      }
    },
    {
      "type": "node",
      "id": 6749405604,
      "lat": 47.5615188,
      "lon": 24.6585431,
      "timestamp": "2019-08-27T09:23:01Z",
      "version": 1,
      "changeset": 73786485,
      "user": "Misha Sadovij",
      "uid": 3138095,
      "tags": {
        "intermittent": "no",
        "natural": "spring"
      }
    },
    {
      "type": "node",
      "id": 6817963680,
      "lat": 47.6726274,
      "lon": 24.6418654,
      "timestamp": "2019-09-23T17:03:26Z",
      "version": 1,
      "changeset": 74819615,
      "user": "SC offRoadventure srl",
      "uid": 10322176,
      "tags": {
        "access": "private",
        "addr:city": "Borșa",
        "addr:housenumber": "10A",
        "addr:postcode": "435200",
        "addr:street": "Obcinei",
        "capacity": "35",
        "description": "offRoadventure is a camping specially appropriate for offroad tourists who would like to stay in nature in the mountains away from the hectic of the town but also with the comfort of good camping facilities.",
        "ele": "800",
        "email": "info@offroadventure.eu",
        "fee": "yes",
        "internet_access": "wlan",
        "internet_access:fee": "no",
        "name": "SC offRoadventure srl",
        "payment:cash": "yes",
        "phone": "+40 751 396 098",
        "power_supply": "yes",
        "reservation": "recommended",
        "source": "local knowledge",
        "tourism": "camp_site",
        "website": "http://www.offroadventure.eu/"
      }
    },
    {
      "type": "node",
      "id": 7182750726,
      "lat": 47.5416315,
      "lon": 24.9807008,
      "timestamp": "2020-02-03T23:09:51Z",
      "version": 1,
      "changeset": 80501312,
      "user": "retrovirus",
      "uid": 10735618,
      "tags": {
        "drinking_water": "yes",
        "intermittent": "no",
        "natural": "spring"
      }
    },
    {
      "type": "node",
      "id": 7182750743,
      "lat": 47.5720348,
      "lon": 24.7930766,
      "timestamp": "2020-02-03T23:09:51Z",
      "version": 1,
      "changeset": 80501312,
      "user": "retrovirus",
      "uid": 10735618,
      "tags": {
        "fee": "no",
        "tourism": "camp_site"
      }
    },
    {
      "type": "node",
      "id": 7182750744,
      "lat": 47.5733587,
      "lon": 24.6400621,
      "timestamp": "2020-02-03T23:09:51Z",
      "version": 1,
      "changeset": 80501312,
      "user": "retrovirus",
      "uid": 10735618,
      "tags": {
        "drinking_water": "yes",
        "intermittent": "no",
        "natural": "spring"
      }
    },
    {
      "type": "node",
      "id": 7213756153,
      "lat": 47.7909618,
      "lon": 25.0335576,
      "timestamp": "2020-10-20T07:17:51Z",
      "version": 2,
      "changeset": 92747563,
      "user": "K2_UNDERGROUND",
      "uid": 561874,
      "tags": {
        "drinking_water": "yes",
        "natural": "spring"
      }
    },
    {
      "type": "node",
      "id": 7360327212,
      "lat": 47.9897151,
      "lon": 24.8109484,
      "timestamp": "2020-04-02T23:29:14Z",
      "version": 1,
      "changeset": 83002721,
      "user": "zlyisalat",
      "uid": 357342,
      "tags": {
        "natural": "spring"
      }
    },
    {
      "type": "node",
      "id": 7360327213,
      "lat": 47.986412,
      "lon": 24.8128152,
      "timestamp": "2020-04-02T23:29:14Z",
      "version": 1,
      "changeset": 83002721,
      "user": "zlyisalat",
      "uid": 357342,
      "tags": {
        "backcountry": "yes",
        "tourism": "camp_site"
      }
    },
    {
      "type": "node",
      "id": 7360327214,
      "lat": 47.981342,
      "lon": 24.8112703,
      "timestamp": "2020-04-02T23:29:14Z",
      "version": 1,
      "changeset": 83002721,
      "user": "zlyisalat",
      "uid": 357342,
      "tags": {
        "natural": "spring"
      }
    },
    {
      "type": "node",
      "id": 7369013673,
      "lat": 47.8315876,
      "lon": 25.0603739,
      "timestamp": "2020-04-05T13:47:50Z",
      "version": 1,
      "changeset": 83099842,
      "user": "h21",
      "uid": 290442,
      "tags": {
        "access": "yes",
        "backcountry": "yes",
        "drinking_water": "yes",
        "fee": "no",
        "motor_vehicle": "yes",
        "openfire": "yes",
        "tourism": "camp_site"
      }
    },
    {
      "type": "node",
      "id": 7369021622,
      "lat": 47.8161892,
      "lon": 25.1034691,
      "timestamp": "2020-04-05T13:25:21Z",
      "version": 1,
      "changeset": 83099151,
      "user": "h21",
      "uid": 290442,
      "tags": {
        "access": "yes",
        "backcountry": "yes",
        "fee": "no",
        "tents": "yes",
        "tourism": "camp_site"
      }
    },
    {
      "type": "node",
      "id": 7369046178,
      "lat": 47.8544502,
      "lon": 25.0224877,
      "timestamp": "2020-04-05T13:58:37Z",
      "version": 1,
      "changeset": 83100125,
      "user": "h21",
      "uid": 290442,
      "tags": {
        "access": "yes",
        "backcountry": "yes",
        "drinking_water": "yes",
        "fee": "no",
        "motor_vehicle": "yes",
        "openfire": "yes",
        "tourism": "camp_site"
      }
    },
    {
      "type": "node",
      "id": 7369062752,
      "lat": 47.79246,
      "lon": 25.13805,
      "timestamp": "2020-04-05T15:00:55Z",
      "version": 1,
      "changeset": 83101916,
      "user": "h21",
      "uid": 290442,
      "tags": {
        "drinking_water": "yes",
        "intermittent": "yes",
        "natural": "spring"
      }
    },
    {
      "type": "node",
      "id": 7369150373,
      "lat": 47.76037,
      "lon": 25.02993,
      "timestamp": "2020-04-05T14:39:51Z",
      "version": 1,
      "changeset": 83101282,
      "user": "h21",
      "uid": 290442,
      "tags": {
        "backcountry": "yes",
        "fee": "no",
        "motor_vehicle": "yes",
        "openfire": "yes",
        "tents": "yes",
        "tourism": "camp_site"
      }
    },
    {
      "type": "node",
      "id": 7369209245,
      "lat": 47.75327,
      "lon": 25.05185,
      "timestamp": "2020-04-05T14:48:10Z",
      "version": 1,
      "changeset": 83101545,
      "user": "h21",
      "uid": 290442,
      "tags": {
        "drinking_water": "yes",
        "natural": "spring"
      }
    },
    {
      "type": "node",
      "id": 7711478928,
      "lat": 47.8301197,
      "lon": 25.0115094,
      "timestamp": "2020-07-13T18:19:31Z",
      "version": 1,
      "changeset": 87937714,
      "user": "OleLeb",
      "uid": 2338533,
      "tags": {
        "tourism": "wilderness_hut"
      }
    },
    {
      "type": "node",
      "id": 7711478929,
      "lat": 47.9049735,
      "lon": 24.819931,
      "timestamp": "2021-10-29T07:29:43Z",
      "version": 2,
      "changeset": 113110307,
      "user": "Agronom1983",
      "uid": 10483128,
      "tags": {
        "name": "Закрыто!",
        "tourism": "wilderness_hut"
      }
    },
    {
      "type": "node",
      "id": 7711478930,
      "lat": 47.9020097,
      "lon": 24.8243153,
      "timestamp": "2021-10-29T07:29:42Z",
      "version": 2,
      "changeset": 113110307,
      "user": "Agronom1983",
      "uid": 10483128,
      "tags": {
        "Fixme": "Проверить и описать колыбу",
        "name": "Проверить и описать колыбу",
        "tourism": "wilderness_hut"
      }
    },
    {
      "type": "node",
      "id": 7711478935,
      "lat": 47.775368,
      "lon": 24.9843661,
      "timestamp": "2020-07-13T18:19:31Z",
      "version": 1,
      "changeset": 87937714,
      "user": "OleLeb",
      "uid": 2338533,
      "tags": {
        "amenity": "shelter"
      }
    },
    {
      "type": "node",
      "id": 7711478936,
      "lat": 47.7753788,
      "lon": 24.984299,
      "timestamp": "2020-07-13T18:19:31Z",
      "version": 1,
      "changeset": 87937714,
      "user": "OleLeb",
      "uid": 2338533,
      "tags": {
        "backcountry": "yes",
        "tourism": "camp_site"
      }
    },
    {
      "type": "node",
      "id": 7721884158,
      "lat": 47.5944267,
      "lon": 25.0908342,
      "timestamp": "2020-07-16T18:24:16Z",
      "version": 1,
      "changeset": 88101800,
      "user": "TWMICHAL",
      "uid": 8396056,
      "tags": {
        "amenity": "drinking_water"
      }
    },
    {
      "type": "node",
      "id": 7985931511,
      "lat": 47.8017146,
      "lon": 25.1533212,
      "timestamp": "2020-10-07T19:28:22Z",
      "version": 1,
      "changeset": 92129544,
      "user": "wzooff",
      "uid": 482223,
      "tags": {
        "amenity": "shelter",
        "shelter_type": "public_transport"
      }
    },
    {
      "type": "node",
      "id": 8009122087,
      "lat": 47.9725486,
      "lon": 25.2592117,
      "timestamp": "2020-11-25T22:47:24Z",
      "version": 2,
      "changeset": 94801059,
      "user": "opencarpatia",
      "uid": 10067215,
      "tags": {
        "bottle": "yes",
        "man_made": "spring_box",
        "name": "Окультурене (хороший напір)",
        "natural": "spring"
      }
    },
    {
      "type": "node",
      "id": 8014116777,
      "lat": 47.8397774,
      "lon": 24.8657826,
      "timestamp": "2020-10-16T17:44:36Z",
      "version": 1,
      "changeset": 92597565,
      "user": "zlyisalat",
      "uid": 357342,
      "tags": {
        "name": "Будинок природного парку",
        "tourism": "wilderness_hut"
      }
    },
    {
      "type": "node",
      "id": 8014128813,
      "lat": 47.9010757,
      "lon": 24.7450749,
      "timestamp": "2020-10-16T17:44:36Z",
      "version": 1,
      "changeset": 92597565,
      "user": "zlyisalat",
      "uid": 357342,
      "tags": {
        "natural": "spring"
      }
    },
    {
      "type": "node",
      "id": 8014128814,
      "lat": 47.9007353,
      "lon": 24.7458024,
      "timestamp": "2020-10-16T17:44:36Z",
      "version": 1,
      "changeset": 92597565,
      "user": "zlyisalat",
      "uid": 357342,
      "tags": {
        "backcountry": "yes",
        "tourism": "camp_site"
      }
    },
    {
      "type": "node",
      "id": 8014128815,
      "lat": 47.9004231,
      "lon": 24.7570692,
      "timestamp": "2020-10-16T17:44:36Z",
      "version": 1,
      "changeset": 92597565,
      "user": "zlyisalat",
      "uid": 357342,
      "tags": {
        "backcountry": "yes",
        "tourism": "camp_site"
      }
    },
    {
      "type": "node",
      "id": 8014128817,
      "lat": 47.9011919,
      "lon": 24.7587056,
      "timestamp": "2020-10-16T17:44:36Z",
      "version": 1,
      "changeset": 92597565,
      "user": "zlyisalat",
      "uid": 357342,
      "tags": {
        "name": "струмок",
        "natural": "spring"
      }
    },
    {
      "type": "node",
      "id": 8014128863,
      "lat": 47.9282191,
      "lon": 24.7676133,
      "timestamp": "2020-10-16T17:44:36Z",
      "version": 1,
      "changeset": 92597565,
      "user": "zlyisalat",
      "uid": 357342,
      "tags": {
        "natural": "spring"
      }
    },
    {
      "type": "node",
      "id": 8014128864,
      "lat": 47.9298858,
      "lon": 24.7592161,
      "timestamp": "2020-10-16T17:44:36Z",
      "version": 1,
      "changeset": 92597565,
      "user": "zlyisalat",
      "uid": 357342,
      "tags": {
        "backcountry": "yes",
        "tourism": "camp_site"
      }
    },
    {
      "type": "node",
      "id": 8014128866,
      "lat": 47.9784358,
      "lon": 24.7064239,
      "timestamp": "2020-10-16T17:44:36Z",
      "version": 1,
      "changeset": 92597565,
      "user": "zlyisalat",
      "uid": 357342,
      "tags": {
        "natural": "spring"
      }
    },
    {
      "type": "node",
      "id": 8014128867,
      "lat": 47.9430105,
      "lon": 24.6955589,
      "timestamp": "2020-10-16T17:44:36Z",
      "version": 1,
      "changeset": 92597565,
      "user": "zlyisalat",
      "uid": 357342,
      "tags": {
        "backcountry": "yes",
        "tourism": "camp_site"
      }
    },
    {
      "type": "node",
      "id": 8014128868,
      "lat": 47.9278453,
      "lon": 24.6852254,
      "timestamp": "2020-10-16T17:44:36Z",
      "version": 1,
      "changeset": 92597565,
      "user": "zlyisalat",
      "uid": 357342,
      "tags": {
        "natural": "spring"
      }
    },
    {
      "type": "node",
      "id": 8014128869,
      "lat": 47.8943882,
      "lon": 24.6800682,
      "timestamp": "2020-10-16T17:44:36Z",
      "version": 1,
      "changeset": 92597565,
      "user": "zlyisalat",
      "uid": 357342,
      "tags": {
        "natural": "spring"
      }
    },
    {
      "type": "node",
      "id": 8014128870,
      "lat": 47.8946639,
      "lon": 24.6787399,
      "timestamp": "2020-10-16T17:44:36Z",
      "version": 1,
      "changeset": 92597565,
      "user": "zlyisalat",
      "uid": 357342,
      "tags": {
        "natural": "spring"
      }
    },
    {
      "type": "node",
      "id": 8014128871,
      "lat": 47.8883709,
      "lon": 24.6753348,
      "timestamp": "2020-10-16T17:44:36Z",
      "version": 1,
      "changeset": 92597565,
      "user": "zlyisalat",
      "uid": 357342,
      "tags": {
        "backcountry": "yes",
        "tourism": "camp_site"
      }
    },
    {
      "type": "node",
      "id": 8014128872,
      "lat": 47.8570792,
      "lon": 24.7043383,
      "timestamp": "2020-10-16T17:44:36Z",
      "version": 1,
      "changeset": 92597565,
      "user": "zlyisalat",
      "uid": 357342,
      "tags": {
        "natural": "spring"
      }
    },
    {
      "type": "node",
      "id": 8014128873,
      "lat": 47.8568551,
      "lon": 24.705389,
      "timestamp": "2020-10-16T17:44:36Z",
      "version": 1,
      "changeset": 92597565,
      "user": "zlyisalat",
      "uid": 357342,
      "tags": {
        "natural": "spring"
      }
    },
    {
      "type": "node",
      "id": 8014128874,
      "lat": 47.8591624,
      "lon": 24.7144791,
      "timestamp": "2020-10-16T17:44:36Z",
      "version": 1,
      "changeset": 92597565,
      "user": "zlyisalat",
      "uid": 357342,
      "tags": {
        "natural": "spring"
      }
    },
    {
      "type": "node",
      "id": 8014128910,
      "lat": 47.8740192,
      "lon": 24.7174057,
      "timestamp": "2020-10-16T17:44:36Z",
      "version": 1,
      "changeset": 92597565,
      "user": "zlyisalat",
      "uid": 357342,
      "tags": {
        "natural": "spring"
      }
    },
    {
      "type": "node",
      "id": 8014128911,
      "lat": 47.8745523,
      "lon": 24.7191948,
      "timestamp": "2020-10-16T17:44:36Z",
      "version": 1,
      "changeset": 92597565,
      "user": "zlyisalat",
      "uid": 357342,
      "tags": {
        "backcountry": "yes",
        "tourism": "camp_site"
      }
    },
    {
      "type": "node",
      "id": 8021378719,
      "lat": 47.8639085,
      "lon": 25.1933305,
      "timestamp": "2020-10-19T09:10:35Z",
      "version": 1,
      "changeset": 92694454,
      "user": "K2_UNDERGROUND",
      "uid": 561874,
      "tags": {
        "amenity": "shelter",
        "shelter_type": "gazebo"
      }
    },
    {
      "type": "node",
      "id": 8021406186,
      "lat": 47.864603,
      "lon": 25.2079981,
      "timestamp": "2020-10-19T09:15:56Z",
      "version": 1,
      "changeset": 92694840,
      "user": "K2_UNDERGROUND",
      "uid": 561874,
      "tags": {
        "name": "Корона",
        "shop": "convenience"
      }
    },
    {
      "type": "node",
      "id": 8022198477,
      "lat": 47.7450333,
      "lon": 25.0616507,
      "timestamp": "2020-10-20T05:27:38Z",
      "version": 2,
      "changeset": 92740638,
      "user": "K2_UNDERGROUND",
      "uid": 561874,
      "tags": {
        "amenity": "shelter",
        "bench": "yes",
        "bin": "yes",
        "description": "Навколо бесідки",
        "name": "Бесідка велика"
      }
    },
    {
      "type": "node",
      "id": 8024014747,
      "lat": 47.7542897,
      "lon": 25.0965265,
      "timestamp": "2020-10-20T06:03:56Z",
      "version": 1,
      "changeset": 92742703,
      "user": "K2_UNDERGROUND",
      "uid": 561874,
      "tags": {
        "amenity": "shelter",
        "bench": "yes"
      }
    },
    {
      "type": "node",
      "id": 8024014748,
      "lat": 47.7463233,
      "lon": 25.0819212,
      "timestamp": "2020-10-20T06:03:56Z",
      "version": 1,
      "changeset": 92742703,
      "user": "K2_UNDERGROUND",
      "uid": 561874,
      "tags": {
        "natural": "spring"
      }
    },
    {
      "type": "node",
      "id": 8024014749,
      "lat": 47.7464204,
      "lon": 25.0818473,
      "timestamp": "2020-10-20T06:03:56Z",
      "version": 1,
      "changeset": 92742703,
      "user": "K2_UNDERGROUND",
      "uid": 561874,
      "tags": {
        "amenity": "shelter",
        "bench": "yes"
      }
    },
    {
      "type": "node",
      "id": 8024125313,
      "lat": 47.7450406,
      "lon": 25.0616857,
      "timestamp": "2020-10-20T06:49:00Z",
      "version": 1,
      "changeset": 92745602,
      "user": "K2_UNDERGROUND",
      "uid": 561874,
      "tags": {
        "backcountry": "yes",
        "tourism": "camp_site"
      }
    },
    {
      "type": "node",
      "id": 8024127487,
      "lat": 47.7493173,
      "lon": 25.0596973,
      "timestamp": "2020-10-20T06:47:41Z",
      "version": 1,
      "changeset": 92745515,
      "user": "K2_UNDERGROUND",
      "uid": 561874,
      "tags": {
        "amenity": "shelter",
        "bench": "yes"
      }
    },
    {
      "type": "node",
      "id": 8024127511,
      "lat": 47.7561446,
      "lon": 25.0327969,
      "timestamp": "2020-10-20T06:47:41Z",
      "version": 1,
      "changeset": 92745515,
      "user": "K2_UNDERGROUND",
      "uid": 561874,
      "tags": {
        "amenity": "shelter",
        "bench": "yes"
      }
    },
    {
      "type": "node",
      "id": 8024127525,
      "lat": 47.7541871,
      "lon": 25.0533697,
      "timestamp": "2020-10-20T06:47:41Z",
      "version": 1,
      "changeset": 92745515,
      "user": "K2_UNDERGROUND",
      "uid": 561874,
      "tags": {
        "backcountry": "yes",
        "fee": "no",
        "tourism": "camp_site"
      }
    },
    {
      "type": "node",
      "id": 8024127526,
      "lat": 47.7493095,
      "lon": 25.0598049,
      "timestamp": "2021-05-14T14:25:44Z",
      "version": 2,
      "changeset": 104690367,
      "user": "Viterall",
      "uid": 7272786,
      "tags": {
        "backcountry": "yes",
        "fee": "no",
        "tourism": "camp_site"
      }
    },
    {
      "type": "node",
      "id": 8024127547,
      "lat": 47.7600306,
      "lon": 25.0305006,
      "timestamp": "2020-10-20T06:47:41Z",
      "version": 1,
      "changeset": 92745515,
      "user": "K2_UNDERGROUND",
      "uid": 561874,
      "tags": {
        "amenity": "shelter",
        "name": "Будка прихисток"
      }
    },
    {
      "type": "node",
      "id": 8024208734,
      "lat": 47.8115444,
      "lon": 25.0634967,
      "timestamp": "2020-10-20T07:20:30Z",
      "version": 1,
      "changeset": 92747754,
      "user": "K2_UNDERGROUND",
      "uid": 561874,
      "tags": {
        "backcountry": "yes",
        "tourism": "camp_site"
      }
    },
    {
      "type": "node",
      "id": 8024208735,
      "lat": 47.8115228,
      "lon": 25.0635021,
      "timestamp": "2020-10-20T07:20:30Z",
      "version": 1,
      "changeset": 92747754,
      "user": "K2_UNDERGROUND",
      "uid": 561874,
      "tags": {
        "amenity": "shelter"
      }
    },
    {
      "type": "node",
      "id": 8024269681,
      "lat": 47.9603326,
      "lon": 25.2495432,
      "timestamp": "2020-11-25T22:47:24Z",
      "version": 2,
      "changeset": 94801059,
      "user": "opencarpatia",
      "uid": 10067215,
      "tags": {
        "bottle": "yes",
        "man_made": "spring_box",
        "natural": "spring"
      }
    },
    {
      "type": "node",
      "id": 8024279461,
      "lat": 47.9522967,
      "lon": 25.2277851,
      "timestamp": "2020-10-20T07:42:31Z",
      "version": 1,
      "changeset": 92749304,
      "user": "K2_UNDERGROUND",
      "uid": 561874,
      "tags": {
        "natural": "spring"
      }
    },
    {
      "type": "node",
      "id": 8024987988,
      "lat": 47.811746,
      "lon": 25.1661082,
      "timestamp": "2020-10-20T11:24:27Z",
      "version": 1,
      "changeset": 92764529,
      "user": "K2_UNDERGROUND",
      "uid": 561874,
      "tags": {
        "name": "Надія",
        "shop": "convenience"
      }
    },
    {
      "type": "node",
      "id": 8033249095,
      "lat": 47.8656507,
      "lon": 25.2099109,
      "timestamp": "2020-10-21T19:34:26Z",
      "version": 1,
      "changeset": 92851293,
      "user": "K2_UNDERGROUND",
      "uid": 561874,
      "tags": {
        "name": "Гуртово-роздрібна торгівля",
        "shop": "convenience"
      }
    },
    {
      "type": "node",
      "id": 8033257014,
      "lat": 47.9669884,
      "lon": 25.2540804,
      "timestamp": "2020-10-21T19:35:44Z",
      "version": 1,
      "changeset": 92851348,
      "user": "K2_UNDERGROUND",
      "uid": 561874,
      "tags": {
        "natural": "spring"
      }
    },
    {
      "type": "node",
      "id": 8040987774,
      "lat": 47.9586881,
      "lon": 24.7280034,
      "timestamp": "2020-12-28T20:04:16Z",
      "version": 2,
      "changeset": 96557010,
      "user": "zlyisalat",
      "uid": 357342,
      "tags": {
        "description": "Гарний новий будиночок, є пічка, дві кімнати, може розмістити 10-15 людей",
        "tourism": "wilderness_hut"
      }
    },
    {
      "type": "node",
      "id": 8041711568,
      "lat": 47.9003155,
      "lon": 25.1529837,
      "timestamp": "2020-10-24T08:47:29Z",
      "version": 1,
      "changeset": 92981707,
      "user": "K2_UNDERGROUND",
      "uid": 561874,
      "tags": {
        "natural": "spring"
      }
    },
    {
      "type": "node",
      "id": 8041749764,
      "lat": 47.9650126,
      "lon": 25.1344695,
      "timestamp": "2020-10-24T09:14:07Z",
      "version": 1,
      "changeset": 92982291,
      "user": "K2_UNDERGROUND",
      "uid": 561874,
      "tags": {
        "name": "Люкс",
        "shop": "convenience"
      }
    },
    {
      "type": "node",
      "id": 8041788861,
      "lat": 47.9593049,
      "lon": 25.1388011,
      "timestamp": "2020-10-24T09:13:26Z",
      "version": 1,
      "changeset": 92982273,
      "user": "K2_UNDERGROUND",
      "uid": 561874,
      "tags": {
        "name": "Сам прийшов",
        "shop": "convenience"
      }
    },
    {
      "type": "node",
      "id": 8165869075,
      "lat": 47.9309801,
      "lon": 25.2408206,
      "timestamp": "2020-11-25T22:47:24Z",
      "version": 1,
      "changeset": 94801059,
      "user": "opencarpatia",
      "uid": 10067215,
      "tags": {
        "amenity": "shelter",
        "shelter_type": "picnic_shelter"
      }
    },
    {
      "type": "node",
      "id": 8165869077,
      "lat": 47.9360244,
      "lon": 25.2370119,
      "timestamp": "2020-11-25T22:47:24Z",
      "version": 1,
      "changeset": 94801059,
      "user": "opencarpatia",
      "uid": 10067215,
      "tags": {
        "amenity": "shelter",
        "shelter_type": "picnic_shelter"
      }
    },
    {
      "type": "node",
      "id": 8165869090,
      "lat": 47.9526509,
      "lon": 25.2208154,
      "timestamp": "2020-11-25T22:47:24Z",
      "version": 1,
      "changeset": 94801059,
      "user": "opencarpatia",
      "uid": 10067215,
      "tags": {
        "amenity": "shelter",
        "bench": "yes",
        "shelter_type": "picnic_shelter"
      }
    },
    {
      "type": "node",
      "id": 8165869093,
      "lat": 47.9604701,
      "lon": 25.2489611,
      "timestamp": "2020-11-25T22:47:24Z",
      "version": 1,
      "changeset": 94801059,
      "user": "opencarpatia",
      "uid": 10067215,
      "tags": {
        "amenity": "shelter",
        "shelter_type": "picnic_shelter"
      }
    },
    {
      "type": "node",
      "id": 8165869094,
      "lat": 47.96254,
      "lon": 25.2521999,
      "timestamp": "2020-12-31T21:58:04Z",
      "version": 2,
      "changeset": 96752231,
      "user": "opencarpatia",
      "uid": 10067215,
      "tags": {
        "amenity": "shelter",
        "bench": "yes",
        "fireplace": "yes",
        "picnic_table": "yes",
        "shelter_type": "picnic_shelter"
      }
    },
    {
      "type": "node",
      "id": 8356706642,
      "lat": 47.6338533,
      "lon": 24.6621448,
      "timestamp": "2021-01-24T08:24:28Z",
      "version": 1,
      "changeset": 98046017,
      "user": "Balaïtous",
      "uid": 571625,
      "tags": {
        "name": "Camping Pietrosu Rodnei",
        "tourism": "camp_site"
      }
    },
    {
      "type": "node",
      "id": 8576883299,
      "lat": 47.6009293,
      "lon": 24.7276135,
      "timestamp": "2021-03-30T21:24:01Z",
      "version": 1,
      "changeset": 102010044,
      "user": "Radu I",
      "uid": 12486814,
      "tags": {
        "natural": "spring"
      }
    },
    {
      "type": "node",
      "id": 8598303458,
      "lat": 47.8248936,
      "lon": 24.8021273,
      "timestamp": "2021-04-12T11:52:29Z",
      "version": 2,
      "changeset": 102801440,
      "user": "Jarkiy",
      "uid": 208947,
      "tags": {
        "natural": "spring"
      }
    },
    {
      "type": "node",
      "id": 8722822557,
      "lat": 47.7549911,
      "lon": 25.1093465,
      "timestamp": "2021-05-11T19:54:47Z",
      "version": 1,
      "changeset": 104533081,
      "user": "Jarkiy",
      "uid": 208947,
      "tags": {
        "group_only": "yes",
        "tourism": "camp_site"
      }
    },
    {
      "type": "node",
      "id": 8722987193,
      "lat": 47.7914835,
      "lon": 25.0007942,
      "timestamp": "2021-05-11T20:54:21Z",
      "version": 1,
      "changeset": 104535092,
      "user": "Jarkiy",
      "uid": 208947,
      "tags": {
        "natural": "spring"
      }
    },
    {
      "type": "node",
      "id": 8727849006,
      "lat": 47.6866655,
      "lon": 24.7270972,
      "timestamp": "2022-07-05T14:05:04Z",
      "version": 4,
      "changeset": 123237310,
      "user": "kate_rocketdata",
      "uid": 12100948,
      "tags": {
        "contact:email": "contact@profi.ro",
        "contact:facebook": "https://www.facebook.com/Profi.ro",
        "contact:instagram": "https://www.instagram.com/profi.ro",
        "contact:phone": "+40 723 664 405;+40 723 665 200",
        "contact:website": "https://www.profi.ro/",
        "contact:youtube": "https://www.youtube.com/user/magazineleprofi",
        "name": "Profi",
        "opening_hours": "Mo-Sa 07:00-22:00;Su 08:00-22:00",
        "operator": "Profi Rom Food",
        "shop": "supermarket"
      }
    },
    {
      "type": "node",
      "id": 8728986992,
      "lat": 47.8321364,
      "lon": 24.9124935,
      "timestamp": "2021-05-13T17:09:03Z",
      "version": 1,
      "changeset": 104650440,
      "user": "Jarkiy",
      "uid": 208947,
      "tags": {
        "natural": "spring"
      }
    },
    {
      "type": "node",
      "id": 8729026191,
      "lat": 47.9573236,
      "lon": 24.726777,
      "timestamp": "2021-05-13T17:20:33Z",
      "version": 1,
      "changeset": 104650926,
      "user": "Jarkiy",
      "uid": 208947,
      "tags": {
        "natural": "spring"
      }
    },
    {
      "type": "node",
      "id": 8730938613,
      "lat": 47.961031,
      "lon": 24.6850881,
      "timestamp": "2021-05-14T12:24:08Z",
      "version": 1,
      "changeset": 104684415,
      "user": "Viterall",
      "uid": 7272786,
      "tags": {
        "name": "Буркут - 1",
        "natural": "spring"
      }
    },
    {
      "type": "node",
      "id": 8731192170,
      "lat": 47.7461551,
      "lon": 24.9895446,
      "timestamp": "2021-05-14T14:25:44Z",
      "version": 1,
      "changeset": 104690367,
      "user": "Viterall",
      "uid": 7272786,
      "tags": {
        "tourism": "camp_site"
      }
    },
    {
      "type": "node",
      "id": 8731192187,
      "lat": 47.7695052,
      "lon": 25.1167727,
      "timestamp": "2021-05-14T14:25:44Z",
      "version": 1,
      "changeset": 104690367,
      "user": "Viterall",
      "uid": 7272786,
      "tags": {
        "amenity": "shelter",
        "shelter_type": "gazebo"
      }
    },
    {
      "type": "node",
      "id": 8731192211,
      "lat": 47.7542666,
      "lon": 25.0960599,
      "timestamp": "2021-05-14T14:25:44Z",
      "version": 1,
      "changeset": 104690367,
      "user": "Viterall",
      "uid": 7272786,
      "tags": {
        "tourism": "camp_site"
      }
    },
    {
      "type": "node",
      "id": 8731192278,
      "lat": 47.7909576,
      "lon": 24.9218856,
      "timestamp": "2021-05-14T14:25:44Z",
      "version": 1,
      "changeset": 104690367,
      "user": "Viterall",
      "uid": 7272786,
      "tags": {
        "natural": "spring"
      }
    },
    {
      "type": "node",
      "id": 8740995418,
      "lat": 47.8327927,
      "lon": 24.8819065,
      "timestamp": "2021-05-18T03:16:10Z",
      "version": 1,
      "changeset": 104855096,
      "user": "Vladyslav Suprunenko",
      "uid": 13341093,
      "tags": {
        "name": "Гуцул",
        "name:en": "Hutsul",
        "natural": "spring"
      }
    },
    {
      "type": "node",
      "id": 9008207490,
      "lat": 47.881286,
      "lon": 24.7714324,
      "timestamp": "2021-08-15T16:50:55Z",
      "version": 1,
      "changeset": 109708383,
      "user": "ig44572",
      "uid": 8249615,
      "tags": {
        "name": "Струмок",
        "natural": "spring"
      }
    },
    {
      "type": "node",
      "id": 9008222656,
      "lat": 47.8424211,
      "lon": 24.7107552,
      "timestamp": "2021-08-15T16:50:50Z",
      "version": 1,
      "changeset": 109708380,
      "user": "ig44572",
      "uid": 8249615,
      "tags": {
        "name": "Джерело",
        "natural": "spring"
      }
    },
    {
      "type": "node",
      "id": 9008271939,
      "lat": 47.8027416,
      "lon": 24.8981344,
      "timestamp": "2021-08-15T16:50:45Z",
      "version": 1,
      "changeset": 109708375,
      "user": "ig44572",
      "uid": 8249615,
      "tags": {
        "name": "Джерело",
        "natural": "spring"
      }
    },
    {
      "type": "node",
      "id": 9008313770,
      "lat": 47.8815272,
      "lon": 24.7708021,
      "timestamp": "2021-08-15T16:51:04Z",
      "version": 1,
      "changeset": 109708386,
      "user": "ig44572",
      "uid": 8249615,
      "tags": {
        "name": "Джерело слабке",
        "natural": "spring"
      }
    },
    {
      "type": "node",
      "id": 9009999917,
      "lat": 47.5976155,
      "lon": 24.6451036,
      "timestamp": "2021-08-16T11:06:22Z",
      "version": 1,
      "changeset": 109744395,
      "user": "THEFLYINGBACKPACKER",
      "uid": 12259224,
      "tags": {
        "natural": "spring"
      }
    },
    {
      "type": "node",
      "id": 9051404410,
      "lat": 47.7118389,
      "lon": 24.8685837,
      "timestamp": "2021-08-31T16:56:27Z",
      "version": 1,
      "changeset": 110524214,
      "user": "pawel_zielony",
      "uid": 556390,
      "tags": {
        "ele": "1603",
        "name": "Prislopul Cataramei",
        "natural": "saddle"
      }
    },
    {
      "type": "node",
      "id": 9077561382,
      "lat": 47.7904235,
      "lon": 24.9446497,
      "timestamp": "2021-09-09T19:09:18Z",
      "version": 1,
      "changeset": 110991442,
      "user": "ohhai",
      "uid": 4356572,
      "tags": {
        "name": "Джерело",
        "natural": "spring"
      }
    },
    {
      "type": "node",
      "id": 9189836716,
      "lat": 47.9832288,
      "lon": 24.6558366,
      "timestamp": "2021-10-21T09:28:14Z",
      "version": 1,
      "changeset": 112782000,
      "user": "Agronom1983",
      "uid": 10483128,
      "tags": {
        "natural": "spring"
      }
    },
    {
      "type": "node",
      "id": 9189842781,
      "lat": 47.9831925,
      "lon": 24.6559513,
      "timestamp": "2021-10-21T09:28:14Z",
      "version": 1,
      "changeset": 112782000,
      "user": "Agronom1983",
      "uid": 10483128,
      "tags": {
        "natural": "spring"
      }
    },
    {
      "type": "node",
      "id": 9189842820,
      "lat": 47.9111958,
      "lon": 24.6542169,
      "timestamp": "2021-10-21T09:30:06Z",
      "version": 1,
      "changeset": 112782111,
      "user": "Agronom1983",
      "uid": 10483128,
      "tags": {
        "natural": "spring"
      }
    },
    {
      "type": "node",
      "id": 9209226995,
      "lat": 47.8803279,
      "lon": 24.8589559,
      "timestamp": "2021-10-29T07:29:42Z",
      "version": 1,
      "changeset": 113110307,
      "user": "Agronom1983",
      "uid": 10483128,
      "tags": {
        "Fixme": "Проверить и описать колыбу",
        "name": "Проверить и описать колыбу",
        "tourism": "wilderness_hut"
      }
    },
    {
      "type": "node",
      "id": 9209247736,
      "lat": 47.9271431,
      "lon": 24.7879238,
      "timestamp": "2021-10-29T07:29:43Z",
      "version": 1,
      "changeset": 113110307,
      "user": "Agronom1983",
      "uid": 10483128,
      "tags": {
        "name": "Закрыт!",
        "tourism": "wilderness_hut"
      }
    },
    {
      "type": "node",
      "id": 9209247854,
      "lat": 47.8351931,
      "lon": 24.94997,
      "timestamp": "2021-10-29T07:29:41Z",
      "version": 1,
      "changeset": 113110307,
      "user": "Agronom1983",
      "uid": 10483128,
      "tags": {
        "Fixme": "Проверить и описать колыбу",
        "name": "Проверить и описать колыбу",
        "tourism": "wilderness_hut"
      }
    },
    {
      "type": "node",
      "id": 9209251774,
      "lat": 47.9586782,
      "lon": 24.7281529,
      "timestamp": "2021-10-29T07:29:44Z",
      "version": 1,
      "changeset": 113110307,
      "user": "Agronom1983",
      "uid": 10483128,
      "tags": {
        "name": "Закрыт!",
        "tourism": "wilderness_hut"
      }
    },
    {
      "type": "node",
      "id": 9209257931,
      "lat": 47.8505341,
      "lon": 24.8889351,
      "timestamp": "2021-10-29T07:29:42Z",
      "version": 1,
      "changeset": 113110307,
      "user": "Agronom1983",
      "uid": 10483128,
      "tags": {
        "Fixme": "Проверить и описать колыбу",
        "name": "Проверить и описать колыбу",
        "tourism": "wilderness_hut"
      }
    },
    {
      "type": "way",
      "id": 75510990,
      "timestamp": "2020-07-06T06:24:00Z",
      "version": 3,
      "changeset": 87579992,
      "user": "Garmin-User",
      "uid": 177389,
      "center": {
        "lat": 47.649328,
        "lon": 25.309419
      },
      "nodes": [],
      "tags": {
        "name": "Breaza de Sus",
        "place": "village",
        "siruta:code": "147223",
        "source": "Mircea Angelescu, geo-spatial.org"
      }
    },
    {
      "type": "way",
      "id": 142868472,
      "timestamp": "2011-12-27T06:57:56Z",
      "version": 1,
      "changeset": 10213125,
      "user": "Z440",
      "uid": 236129,
      "center": {
        "lat": 47.8999932,
        "lon": 24.943736
      },
      "nodes": [],
      "tags": {
        "amenity": "shelter"
      }
    },
    {
      "type": "way",
      "id": 345043658,
      "timestamp": "2020-12-28T20:04:16Z",
      "version": 2,
      "changeset": 96557010,
      "user": "zlyisalat",
      "uid": 357342,
      "center": {
        "lat": 47.8646069,
        "lon": 24.7021788
      },
      "nodes": [],
      "tags": {
        "building": "yes",
        "description": "Це колишня колиба пастухів, зараз - мисливський будинок. В будинку багато кімнат, він двоповерховий, кімнати в досить нормальному стані. Загалом на двох поверхах будинку може розміститися до 20 осіб. На першому поверсі є пічка.",
        "tourism": "wilderness_hut"
      }
    },
    {
      "type": "way",
      "id": 345043659,
      "timestamp": "2021-10-29T07:29:43Z",
      "version": 3,
      "changeset": 113110307,
      "user": "Agronom1983",
      "uid": 10483128,
      "center": {
        "lat": 47.9385018,
        "lon": 24.7386581
      },
      "nodes": [],
      "tags": {
        "building": "yes",
        "description": "Топиться на черную",
        "name": "Курная хата",
        "tourism": "wilderness_hut"
      }
    },
    {
      "type": "way",
      "id": 345043683,
      "timestamp": "2020-12-28T20:04:16Z",
      "version": 2,
      "changeset": 96557010,
      "user": "zlyisalat",
      "uid": 357342,
      "center": {
        "lat": 47.8946666,
        "lon": 24.6779181
      },
      "nodes": [],
      "tags": {
        "building": "yes",
        "description": "Є три будинки, взимку два закриті, один не великий відкритий, є буржуйка і нари на 6-7 людей, достатньо тепла і нова",
        "tourism": "wilderness_hut"
      }
    },
    {
      "type": "way",
      "id": 391907722,
      "timestamp": "2020-12-28T20:04:16Z",
      "version": 2,
      "changeset": 96557010,
      "user": "zlyisalat",
      "uid": 357342,
      "center": {
        "lat": 47.9015714,
        "lon": 25.0495523
      },
      "nodes": [],
      "tags": {
        "building": "yes",
        "tourism": "wilderness_hut"
      }
    },
    {
      "type": "way",
      "id": 441437508,
      "timestamp": "2016-09-08T13:08:44Z",
      "version": 1,
      "changeset": 42003778,
      "user": "UPegasus",
      "uid": 3442717,
      "center": {
        "lat": 47.9589486,
        "lon": 25.1408124
      },
      "nodes": [],
      "tags": {
        "amenity": "shelter",
        "building": "roof"
      }
    },
    {
      "type": "way",
      "id": 441437514,
      "timestamp": "2016-09-08T13:08:45Z",
      "version": 1,
      "changeset": 42003778,
      "user": "UPegasus",
      "uid": 3442717,
      "center": {
        "lat": 47.9588765,
        "lon": 25.1417475
      },
      "nodes": [],
      "tags": {
        "amenity": "shelter",
        "building": "roof"
      }
    },
    {
      "type": "way",
      "id": 441437520,
      "timestamp": "2016-09-08T13:08:45Z",
      "version": 1,
      "changeset": 42003778,
      "user": "UPegasus",
      "uid": 3442717,
      "center": {
        "lat": 47.9604134,
        "lon": 25.1816496
      },
      "nodes": [],
      "tags": {
        "amenity": "shelter",
        "building": "roof"
      }
    },
    {
      "type": "way",
      "id": 606305300,
      "timestamp": "2020-12-28T20:04:16Z",
      "version": 2,
      "changeset": 96557010,
      "user": "zlyisalat",
      "uid": 357342,
      "center": {
        "lat": 47.758462,
        "lon": 25.0313428
      },
      "nodes": [],
      "tags": {
        "building": "yes",
        "description": "Колиба зимою, весною відкрита; літом в ній проживають пастухи. На даний час нари відсутні, наявне 1 ліжко; на підлозі може переночувати 10-12 осіб. Пічка в ідеальному стані. Джерело поруч з хатою.",
        "name": "Колиба",
        "tourism": "wilderness_hut"
      }
    },
    {
      "type": "way",
      "id": 807523354,
      "timestamp": "2020-12-28T20:04:16Z",
      "version": 2,
      "changeset": 96557010,
      "user": "zlyisalat",
      "uid": 357342,
      "center": {
        "lat": 47.9370138,
        "lon": 24.784393
      },
      "nodes": [],
      "tags": {
        "building": "yes",
        "tourism": "wilderness_hut"
      }
    },
    {
      "type": "way",
      "id": 825934877,
      "timestamp": "2020-07-13T18:19:31Z",
      "version": 1,
      "changeset": 87937714,
      "user": "OleLeb",
      "uid": 2338533,
      "center": {
        "lat": 47.8301188,
        "lon": 25.0115033
      },
      "nodes": [],
      "tags": {
        "building": "yes",
        "tourism": "wilderness_hut"
      }
    },
    {
      "type": "way",
      "id": 827099227,
      "timestamp": "2020-07-16T18:24:16Z",
      "version": 1,
      "changeset": 88101800,
      "user": "TWMICHAL",
      "uid": 8396056,
      "center": {
        "lat": 47.594635,
        "lon": 25.0907897
      },
      "nodes": [],
      "tags": {
        "addr:city": "Cârlibaba",
        "addr:housenumber": "30",
        "addr:postcode": "727110",
        "addr:street": "Tibau St",
        "booking": "https://www.booking.com/hotel/ro/cabana-fluturica",
        "building": "yes",
        "contact:facebook": "https://www.facebook.com/cabana.fluturica.3",
        "contact:website": "https://www.booking.com/hotel/ro/cabana-fluturica",
        "facebook": "https://www.facebook.com/cabana.fluturica.3",
        "fee": "yes",
        "name": "Cabana Fluturica",
        "payment:cash": "yes",
        "tourism": "alpine_hut",
        "website": "https://www.booking.com/hotel/ro/cabana-fluturica"
      }
    },
    {
      "type": "way",
      "id": 856512305,
      "timestamp": "2020-10-07T19:28:22Z",
      "version": 1,
      "changeset": 92129544,
      "user": "wzooff",
      "uid": 482223,
      "center": {
        "lat": 47.8019316,
        "lon": 25.1534748
      },
      "nodes": [],
      "tags": {
        "addr:street": "Головна вулиця",
        "building": "yes",
        "name": "Гірський",
        "payment:cards": "yes",
        "payment:cash": "yes",
        "payment:contactless": "yes",
        "shop": "convenience"
      }
    },
    {
      "type": "way",
      "id": 856512306,
      "timestamp": "2020-10-07T19:28:22Z",
      "version": 1,
      "changeset": 92129544,
      "user": "wzooff",
      "uid": 482223,
      "center": {
        "lat": 47.8029866,
        "lon": 25.1543893
      },
      "nodes": [],
      "tags": {
        "addr:street": "Головна вулиця",
        "building": "yes",
        "name": "ПродПром Товари",
        "shop": "convenience"
      }
    },
    {
      "type": "way",
      "id": 864670296,
      "timestamp": "2020-12-28T20:04:16Z",
      "version": 2,
      "changeset": 96557010,
      "user": "zlyisalat",
      "uid": 357342,
      "center": {
        "lat": 47.9595074,
        "lon": 24.9770114
      },
      "nodes": [],
      "tags": {
        "building": "yes",
        "tourism": "wilderness_hut"
      }
    },
    {
      "type": "way",
      "id": 941965273,
      "timestamp": "2021-05-11T21:04:54Z",
      "version": 1,
      "changeset": 104535400,
      "user": "Jarkiy",
      "uid": 208947,
      "center": {
        "lat": 47.7908417,
        "lon": 24.9231244
      },
      "nodes": [],
      "tags": {
        "building": "yes",
        "tourism": "wilderness_hut"
      }
    }
  ]
}