{
  "osm3s": {
    "timestamp_osm_date": "2021-10-25T23:59:59Z",
    "timestamp_osm_base": "2021-10-26T05:24:44Z",
    "copyright": "The data included in this document is from www.openstreetmap.org. The data is made available under ODbL."
  },
  "elements": [
    {
      "type": "node",
      "id": 130160765,
      "lat": 68.8615136,
      "lon": 18.3463924,
      "timestamp": "2020-10-07T14:45:54Z",
      "version": 10,
      "changeset": 92119551,
      "user": "NKA",
      "uid": 3497659,
      "tags": {
        "alt_name": "Bardu",
        "name": "Setermoen",
        "place": "village",
        "population": "2508",
        "population:date": "2020-01-01",
        "ref:ssb_tettsted": "8061",
        "source": "knowledge",
        "source:population": "SSB - befolkning i tettstedet",
        "wikidata": "Q1994507"
      }
    },
    {
      "type": "node",
      "id": 3663314258,
      "lat": 68.8764674,
      "lon": 18.3610331,
      "timestamp": "2017-08-12T12:26:08Z",
      "version": 3,
      "changeset": 51057291,
      "user": "gormur",
      "uid": 103253,
      "tags": {
        "addr:city": "Bardu",
        "addr:country": "NO",
        "addr:housenumber": "2",
        "addr:postcode": "9360",
        "addr:street": "Idrettsveien",
        "int_name": "Acc5285",
        "name": "Bardu Camping & Turistsenter",
        "phone": "+47 77 61 23 00;+47 913 16 090",
        "tourism": "camp_site",
        "website": "http://www.barducamping.no"
      }
    },
    {
      "type": "node",
      "id": 6026076388,
      "lat": 68.862,
      "lon": 18.3474,
      "timestamp": "2019-05-09T19:29:34Z",
      "version": 4,
      "changeset": 70087066,
      "user": "NKA",
      "uid": 3497659,
      "tags": {
        "branch": "Setermoen",
        "brand": "Extra",
        "email": "bardu.extra@coop.no",
        "name": "Extra Setermoen",
        "opening_hours": "Mo-Sa 07:00-23:00",
        "phone": "+47 94833754",
        "ref:coop": "1986",
        "service:charging": "yes",
        "service:posten": "yes",
        "service:tipping": "yes",
        "shop": "supermarket"
      }
    },
    {
      "type": "node",
      "id": 6952663188,
      "lat": 68.863257,
      "lon": 18.349009,
      "timestamp": "2020-04-19T07:23:03Z",
      "version": 3,
      "changeset": 83762959,
      "user": "NKA",
      "uid": 3497659,
      "tags": {
        "branch": "Bardu",
        "brand": "Rema 1000",
        "email": "bardu@rema.no",
        "name": "Rema 1000 Bardu",
        "opening_hours": "Mo-Sa 07:00-23:00",
        "phone": "+47 77181911",
        "ref:rema": "2089156",
        "shop": "supermarket"
      }
    },
    {
      "type": "way",
      "id": 686091821,
      "timestamp": "2021-06-02T19:02:08Z",
      "version": 2,
      "changeset": 105736488,
      "user": "NKA",
      "uid": 3497659,
      "center": {
        "lat": 68.6633331,
        "lon": 18.8907497
      },
      "nodes": [],
      "tags": {
        "building": "cabin",
        "capacity": "17",
        "dnt:classification": "ubetjent",
        "dnt:iid": "1111",
        "dnt:lock": "yes",
        "ele": "540",
        "idrettsanleggregisteret:iid": "1922004301",
        "name": "Altevasshytta",
        "network": "Den Norske Turistforening",
        "operator": "Troms Turlag",
        "ref:bygningsnr": "19820343",
        "tourism": "wilderness_hut",
        "website": "http://ut.no/hytte/altevasshytta"
      }
    }
  ]
}