{
  "osm3s": {
    "timestamp_osm_date": "2021-09-04T23:59:59Z",
    "timestamp_osm_base": "2021-09-05T06:01:44Z",
    "copyright": "The data included in this document is from www.openstreetmap.org. The data is made available under ODbL."
  },
  "elements": [
    {
      "type": "node",
      "id": 274016404,
      "lat": 27.8041662,
      "lon": 86.7097956,
      "timestamp": "2018-01-06T10:49:01Z",
      "version": 12,
      "changeset": 55208020,
      "user": "paleshukgeo",
      "uid": 3878864,
      "tags": {
        "ele": "3440",
        "int_name": "Namche Bazaar",
        "is_in": "Nepal, Khumbu",
        "name": "Namche Bazar",
        "name:be": "Намча Базар",
        "name:en": "Namche Bazaar",
        "name:fr": "Namche Bazar",
        "name:lt": "Namče Bazaras",
        "name:pl": "Namcze Bazar",
        "name:ru": "Намче Базар",
        "name:sa": "नाम्चे बजार",
        "place": "village",
        "wikidata": "Q376123",
        "wikipedia": "en:Namche Bazaar"
      }
    },
    {
      "type": "node",
      "id": 274018195,
      "lat": 27.8358088,
      "lon": 86.7646093,
      "timestamp": "2018-08-26T07:35:08Z",
      "version": 7,
      "changeset": 62000428,
      "user": "Yeti-17",
      "uid": 6969191,
      "tags": {
        "ele": "3867",
        "is_in": "Nepal, Khumbu",
        "name": "Tengboche",
        "name:en": "Tengboche",
        "name:ru": "Тенгбоче",
        "place": "village",
        "wikidata": "Q1660709",
        "wikipedia": "en:Tengboche"
      }
    },
    {
      "type": "node",
      "id": 274019561,
      "lat": 27.8019697,
      "lon": 86.6149573,
      "timestamp": "2020-09-20T11:04:49Z",
      "version": 6,
      "changeset": 91172144,
      "user": "pizzaiolo",
      "uid": 1772368,
      "tags": {
        "ele": "6187",
        "is_in": "Khumbu, Nepal",
        "name": "कोङ्दे री चुचुरो",
        "name:en": "Mount Kongde Ri",
        "name:ne": "कोङ्दे री चुचुरो",
        "name:ru": "гора Конгде-Ри",
        "natural": "peak",
        "wikidata": "Q6429186"
      }
    },
    {
      "type": "node",
      "id": 274028194,
      "lat": 27.7898577,
      "lon": 86.785298,
      "timestamp": "2020-09-20T09:49:15Z",
      "version": 5,
      "changeset": 91170108,
      "user": "pizzaiolo",
      "uid": 1772368,
      "tags": {
        "ele": "6623",
        "is_in": "Khumbu, Nepal",
        "name": "Thamserku",
        "natural": "peak",
        "wikidata": "Q1410514"
      }
    },
    {
      "type": "node",
      "id": 274029669,
      "lat": 27.7313983,
      "lon": 86.7889545,
      "timestamp": "2020-12-14T20:27:36Z",
      "version": 5,
      "changeset": 95832120,
      "user": "seichter",
      "uid": 66497,
      "tags": {
        "ele": "6367",
        "name": "Kusum Kangguru",
        "natural": "peak",
        "wikidata": "Q6448208"
      }
    },
    {
      "type": "node",
      "id": 288180659,
      "lat": 28.0967613,
      "lon": 86.659654,
      "timestamp": "2021-05-31T08:39:15Z",
      "version": 20,
      "changeset": 105608514,
      "user": "seichter",
      "uid": 66497,
      "tags": {
        "ele": "8201",
        "image": "http://www.flickr.com/photos/coolbiere/6452943807/sizes/o/in/photostream/",
        "int_name": "Cho Oyu",
        "name": "चोयु ཇོ་བོ་དབུ་ཡ 卓奧有山 Cho Oyu",
        "name:bo": "ཇོ་བོ་དབུ་ཡ",
        "name:cs": "Čo Oju",
        "name:de": "Cho Oyu",
        "name:en": "Cho Oyu",
        "name:it": "Cho Oyu",
        "name:ne": "चोयु",
        "name:ru": "Чо-Ойю",
        "name:zh": "卓奧有山",
        "name:zh_pinyin": "Zhuó'àoyǒu Shān",
        "natural": "peak",
        "prominence": "2340",
        "source:prominence": "peaklist.org",
        "wikidata": "Q170089",
        "wikipedia": "en:Cho Oyu"
      }
    },
    {
      "type": "node",
      "id": 288181001,
      "lat": 28.0980314,
      "lon": 86.7448435,
      "timestamp": "2020-09-20T09:40:31Z",
      "version": 6,
      "changeset": 91170108,
      "user": "pizzaiolo",
      "uid": 1772368,
      "tags": {
        "ele": "7952",
        "int_name": "Gyachung Kang",
        "name": "ग्याचुङ काङ 格重康峰 Gyachung Kang",
        "name:en": "Gyachung Kang",
        "name:ne": "ग्याचुङ काङ",
        "name:zh": "格重康峰",
        "natural": "peak",
        "wikidata": "Q582128"
      }
    },
    {
      "type": "node",
      "id": 303021945,
      "lat": 27.688947,
      "lon": 86.7307482,
      "timestamp": "2018-08-27T17:42:45Z",
      "version": 8,
      "changeset": 62047251,
      "user": "Yeti-17",
      "uid": 6969191,
      "tags": {
        "ele": "2850",
        "is_in": "Nepal",
        "name": "Lukla",
        "name:ne": "नेपाल",
        "place": "village",
        "wikidata": "Q389190",
        "wikipedia": "en:Lukla"
      }
    },
    {
      "type": "node",
      "id": 335376854,
      "lat": 27.9616389,
      "lon": 86.9326734,
      "timestamp": "2021-05-29T20:22:54Z",
      "version": 17,
      "changeset": 105547324,
      "user": "seichter",
      "uid": 66497,
      "tags": {
        "alt_name": "Lhozê",
        "ele": "8516",
        "name": "洛子峰 - Mount Lhotse",
        "name:be": "Лходзэ",
        "name:bo": "ལྷོ་རྩེ",
        "name:en": "Mount Lhotse",
        "name:ne": "ल्होत्से",
        "name:ru": "гора Лхоцзе",
        "name:sk": "Lhoce",
        "name:zh": "洛子峰",
        "name:zh_pinyin": "Luòzǐ Fēng",
        "natural": "peak",
        "sorting_name:ru": "Лхоцзе гора",
        "source:position": "SRTM-Version 3.0-SRTMGL1-Void Filled-10m",
        "wikidata": "Q168702",
        "wikipedia": "en:Lhotse"
      }
    },
    {
      "type": "node",
      "id": 354739766,
      "lat": 27.7142117,
      "lon": 86.7150573,
      "timestamp": "2009-07-15T17:49:27Z",
      "version": 2,
      "changeset": 1837909,
      "user": "Shabazi",
      "uid": 129788,
      "tags": {
        "created_by": "Potlatch 0.10f",
        "is_in": "Nepal",
        "name": "Thadokosi",
        "place": "village"
      }
    },
    {
      "type": "node",
      "id": 354739912,
      "lat": 27.740133,
      "lon": 86.712692,
      "timestamp": "2019-11-05T08:44:38Z",
      "version": 6,
      "changeset": 76632535,
      "user": "bcd4e6",
      "uid": 8407331,
      "tags": {
        "ele": "2610",
        "is_in": "Nepal",
        "name": "Phakding",
        "place": "village",
        "wikidata": "Q3901248",
        "wikipedia": "en:Phakding"
      }
    },
    {
      "type": "node",
      "id": 354739950,
      "lat": 27.7507424,
      "lon": 86.711588,
      "timestamp": "2018-08-28T19:20:58Z",
      "version": 2,
      "changeset": 62082251,
      "user": "Yeti-17",
      "uid": 6969191,
      "tags": {
        "alt_name": "Zam Fute",
        "is_in": "Nepal",
        "name": "Zamphuti",
        "place": "village"
      }
    },
    {
      "type": "node",
      "id": 354740557,
      "lat": 27.7628778,
      "lon": 86.7177859,
      "timestamp": "2019-12-07T16:21:25Z",
      "version": 4,
      "changeset": 78090888,
      "user": "n76",
      "uid": 318696,
      "tags": {
        "ele": "2630",
        "name": "Benkar",
        "name:en": "Benkar",
        "place": "village"
      }
    },
    {
      "type": "node",
      "id": 354740613,
      "lat": 27.7674294,
      "lon": 86.7231773,
      "timestamp": "2018-08-27T17:14:39Z",
      "version": 3,
      "changeset": 62046523,
      "user": "Yeti-17",
      "uid": 6969191,
      "tags": {
        "is_in": "Nepal",
        "name": "Chumoa",
        "place": "village"
      }
    },
    {
      "type": "node",
      "id": 354740657,
      "lat": 27.7719229,
      "lon": 86.7229961,
      "timestamp": "2020-09-20T11:05:49Z",
      "version": 5,
      "changeset": 91172144,
      "user": "pizzaiolo",
      "uid": 1772368,
      "tags": {
        "ele": "2835",
        "is_in": "Nepal",
        "name": "Monjo",
        "place": "village",
        "wikidata": "Q6900560"
      }
    },
    {
      "type": "node",
      "id": 419103128,
      "lat": 27.954088,
      "lon": 86.694588,
      "timestamp": "2021-05-29T20:22:54Z",
      "version": 7,
      "changeset": 105547324,
      "user": "seichter",
      "uid": 66497,
      "tags": {
        "ele": "4750",
        "name": "Gokyo",
        "name:be": "Гокіа",
        "name:ru": "Гокио",
        "place": "hamlet",
        "wikidata": "Q1534489",
        "wikipedia": "en:Gokyo"
      }
    },
    {
      "type": "node",
      "id": 425189331,
      "lat": 27.8677535,
      "lon": 86.7298787,
      "timestamp": "2009-06-19T10:02:27Z",
      "version": 1,
      "changeset": 1562595,
      "user": "Shabazi",
      "uid": 129788,
      "tags": {
        "name": "Yeti Inn",
        "tourism": "alpine_hut"
      }
    },
    {
      "type": "node",
      "id": 425189336,
      "lat": 27.8934083,
      "lon": 86.7191261,
      "timestamp": "2013-04-06T19:44:52Z",
      "version": 3,
      "changeset": 15631213,
      "user": "andreas-42",
      "uid": 471322,
      "tags": {
        "ele": "4360",
        "name": "Luza",
        "place": "hamlet"
      }
    },
    {
      "type": "node",
      "id": 425189343,
      "lat": 27.9615441,
      "lon": 86.6831271,
      "timestamp": "2020-09-20T10:30:20Z",
      "version": 4,
      "changeset": 91170989,
      "user": "pizzaiolo",
      "uid": 1772368,
      "tags": {
        "ele": "5360",
        "name": "Gokyo Ri",
        "name:be": "Гокіа Ры",
        "name:ru": "Гокио Ри",
        "natural": "peak",
        "wikidata": "Q4141286"
      }
    },
    {
      "type": "node",
      "id": 425189494,
      "lat": 27.8233052,
      "lon": 86.705812,
      "timestamp": "2019-11-05T08:44:38Z",
      "version": 6,
      "changeset": 76632535,
      "user": "bcd4e6",
      "uid": 8407331,
      "tags": {
        "ele": "3840",
        "name": "Khunde",
        "place": "village",
        "wikidata": "Q1739904",
        "wikipedia": "en:Kunde, Nepal"
      }
    },
    {
      "type": "node",
      "id": 425189495,
      "lat": 27.8236229,
      "lon": 86.7172973,
      "timestamp": "2019-11-05T08:44:38Z",
      "version": 5,
      "changeset": 76632535,
      "user": "bcd4e6",
      "uid": 8407331,
      "tags": {
        "ele": "3780",
        "name": "Khumjung",
        "place": "village",
        "wikidata": "Q583316",
        "wikipedia": "en:Khumjung"
      }
    },
    {
      "type": "node",
      "id": 428553230,
      "lat": 27.855783,
      "lon": 86.790169,
      "timestamp": "2019-11-05T09:56:53Z",
      "version": 7,
      "changeset": 76636282,
      "user": "bcd4e6",
      "uid": 8407331,
      "tags": {
        "ele": "3930",
        "name": "Pangboche",
        "place": "village",
        "wikidata": "Q7130918",
        "wikipedia": "en:Pangboche"
      }
    },
    {
      "type": "node",
      "id": 428553269,
      "lat": 27.8463454,
      "lon": 86.7493322,
      "timestamp": "2018-08-27T17:02:15Z",
      "version": 4,
      "changeset": 62046229,
      "user": "Yeti-17",
      "uid": 6969191,
      "tags": {
        "ele": "3800",
        "name": "Phortse",
        "place": "village"
      }
    },
    {
      "type": "node",
      "id": 428704317,
      "lat": 27.8394645,
      "lon": 86.7359522,
      "timestamp": "2018-08-27T16:44:36Z",
      "version": 4,
      "changeset": 62045752,
      "user": "Yeti-17",
      "uid": 6969191,
      "tags": {
        "ele": "3985",
        "mountain_pass": "yes",
        "name": "Mong La",
        "natural": "saddle"
      }
    },
    {
      "type": "node",
      "id": 442197755,
      "lat": 27.7185502,
      "lon": 86.7160043,
      "timestamp": "2018-08-27T17:14:39Z",
      "version": 2,
      "changeset": 62046523,
      "user": "Yeti-17",
      "uid": 6969191,
      "tags": {
        "name": "Nurning Ghat",
        "place": "hamlet"
      }
    },
    {
      "type": "node",
      "id": 442197769,
      "lat": 27.7509301,
      "lon": 86.7114421,
      "timestamp": "2017-11-12T10:04:15Z",
      "version": 3,
      "changeset": 53708461,
      "user": "Yeti-17",
      "uid": 6969191,
      "tags": {
        "name": "Kongde Peak Guest House",
        "tourism": "alpine_hut"
      }
    },
    {
      "type": "node",
      "id": 442260679,
      "lat": 27.7785498,
      "lon": 86.7220859,
      "timestamp": "2018-08-28T19:20:58Z",
      "version": 5,
      "changeset": 62082251,
      "user": "Yeti-17",
      "uid": 6969191,
      "tags": {
        "name": "Jorsalle",
        "place": "hamlet",
        "wikidata": "Q581758",
        "wikipedia": "en:Jorsale"
      }
    },
    {
      "type": "node",
      "id": 442260810,
      "lat": 27.8933288,
      "lon": 86.7192321,
      "timestamp": "2009-07-15T18:34:43Z",
      "version": 1,
      "changeset": 1838306,
      "user": "Shabazi",
      "uid": 129788,
      "tags": {
        "ele": "4390",
        "name": "Paradise Lodge",
        "tourism": "alpine_hut"
      }
    },
    {
      "type": "node",
      "id": 442260822,
      "lat": 27.9090478,
      "lon": 86.6697903,
      "timestamp": "2020-09-20T11:07:59Z",
      "version": 3,
      "changeset": 91172144,
      "user": "pizzaiolo",
      "uid": 1772368,
      "tags": {
        "ele": "6151",
        "name": "Kyajori",
        "natural": "peak",
        "wikidata": "Q20190980"
      }
    },
    {
      "type": "node",
      "id": 477904053,
      "lat": 27.9200801,
      "lon": 86.9346925,
      "timestamp": "2017-11-24T14:34:48Z",
      "version": 8,
      "changeset": 54051836,
      "user": "gregiboy",
      "uid": 189340,
      "tags": {
        "alt_name": "Imja Tse",
        "ele": "6189",
        "name": "Island Peak",
        "name:zh": "島峰",
        "natural": "peak",
        "wikidata": "Q619781"
      }
    },
    {
      "type": "node",
      "id": 477904058,
      "lat": 27.8621001,
      "lon": 86.8604289,
      "timestamp": "2017-05-23T19:47:00Z",
      "version": 3,
      "changeset": 48926757,
      "user": "elfenlied",
      "uid": 2558109,
      "tags": {
        "ele": "6856",
        "image": "http://www.flickr.com/photos/zolashine/6969195644/sizes/l/in/photostream/",
        "name": "Ama Dablam",
        "natural": "peak",
        "wikidata": "Q451697",
        "wikipedia": "en:Ama Dablam"
      }
    },
    {
      "type": "node",
      "id": 477904804,
      "lat": 27.9309956,
      "lon": 86.8045634,
      "timestamp": "2020-01-05T19:34:18Z",
      "version": 4,
      "changeset": 79221280,
      "user": "Антін Сартенченко",
      "uid": 571410,
      "tags": {
        "ele": "4830",
        "mountain_pass": "yes",
        "name": "ठोक ला",
        "name:en": "Thok La Pass",
        "name:ne": "ठोक ला",
        "name:ru": "перевал Тхок-Ла",
        "natural": "saddle"
      }
    },
    {
      "type": "node",
      "id": 564109888,
      "lat": 27.8565776,
      "lon": 86.7880999,
      "timestamp": "2021-08-02T06:29:21Z",
      "version": 3,
      "changeset": 109004226,
      "user": "Cascafico",
      "uid": 361003,
      "tags": {
        "ele": "4027",
        "name": "Pangboche",
        "tourism": "alpine_hut",
        "wpt_symbol": "Lodge"
      }
    },
    {
      "type": "node",
      "id": 564117338,
      "lat": 27.980675,
      "lon": 86.828926,
      "timestamp": "2021-05-23T09:06:29Z",
      "version": 9,
      "changeset": 105157528,
      "user": "joanvb",
      "uid": 8848161,
      "tags": {
        "alt_name": "Gorakshep",
        "ele": "5175",
        "name": "गोरक शेप",
        "name:en": "Gorak Shep",
        "name:ne": "गोरक शेप",
        "name:ru": "Горак Шеп",
        "place": "hamlet",
        "wikidata": "Q373182",
        "wikipedia": "en:Gorakshep",
        "wpt_symbol": "Lodge"
      }
    },
    {
      "type": "node",
      "id": 564117511,
      "lat": 27.9958,
      "lon": 86.8284407,
      "timestamp": "2018-08-28T19:20:59Z",
      "version": 8,
      "changeset": 62082251,
      "user": "Yeti-17",
      "uid": 6969191,
      "tags": {
        "alt_name": "Kalapatthar",
        "ele": "5648",
        "name": "Kala Patthar",
        "name:bn": "কালা পাথার",
        "name:en": "Kala Patthar",
        "name:mr": "कालापत्थर",
        "name:ru": "Кала-Патхар",
        "name:zh": "卡拉帕塔",
        "natural": "peak",
        "wikidata": "Q1511454",
        "wikipedia": "en:Kala Patthar",
        "wpt_symbol": "Summit"
      }
    },
    {
      "type": "node",
      "id": 564119053,
      "lat": 27.8418673,
      "lon": 86.773517,
      "timestamp": "2018-08-26T07:55:34Z",
      "version": 2,
      "changeset": 62000713,
      "user": "Yeti-17",
      "uid": 6969191,
      "tags": {
        "ele": "3745",
        "name": "Deboche",
        "place": "village",
        "wpt_symbol": "Lodge"
      }
    },
    {
      "type": "node",
      "id": 564120040,
      "lat": 27.7714538,
      "lon": 86.7229885,
      "timestamp": "2018-10-29T07:34:27Z",
      "version": 2,
      "changeset": 63968378,
      "user": "ngt",
      "uid": 455576,
      "tags": {
        "ele": "2835",
        "name": "Monjo",
        "tourism": "alpine_hut",
        "wpt_description": "08-NOV-09 7:36:08",
        "wpt_symbol": "Lodge"
      }
    },
    {
      "type": "node",
      "id": 564120295,
      "lat": 27.7435332,
      "lon": 86.7128347,
      "timestamp": "2009-11-14T19:56:17Z",
      "version": 1,
      "changeset": 3116289,
      "user": "rosch0815",
      "uid": 80338,
      "tags": {
        "ele": "2639",
        "name": "Phakding",
        "tourism": "alpine_hut",
        "wpt_description": "08-NOV-09 10:52:36",
        "wpt_symbol": "Lodge"
      }
    },
    {
      "type": "node",
      "id": 564122715,
      "lat": 27.6934465,
      "lon": 86.7279924,
      "timestamp": "2020-12-23T22:11:26Z",
      "version": 3,
      "changeset": 96348029,
      "user": "mustermannxx",
      "uid": 166143,
      "tags": {
        "ele": "2826",
        "name": "Lukla Lodge",
        "tourism": "alpine_hut",
        "wheelchair": "no",
        "wpt_description": "25-OKT-09 5:34:38",
        "wpt_symbol": "Lodge"
      }
    },
    {
      "type": "node",
      "id": 565159946,
      "lat": 27.8911991,
      "lon": 87.0886361,
      "timestamp": "2018-11-11T14:26:47Z",
      "version": 10,
      "changeset": 64375900,
      "user": "ManelG",
      "uid": 2491053,
      "tags": {
        "alt_name": "Makaru",
        "ele": "8485",
        "name": "मकालु 马卡鲁山 Makalu",
        "name:cs": "Makalu",
        "name:de": "Makalu",
        "name:en": "Mount Makalu",
        "name:ne": "मकालु",
        "name:ru": "Макалу",
        "name:sk": "Makalu",
        "name:zh": "马卡鲁山",
        "name:zh_pinyin": "Mǎkǎlǔ Shān",
        "natural": "peak",
        "prominence": "2378",
        "source:prominence": "peaklist.org",
        "tourism": "viewpoint",
        "westra_ref": "10003",
        "wikidata": "Q169986",
        "wikipedia": "en:Makalu"
      }
    },
    {
      "type": "node",
      "id": 576713400,
      "lat": 27.9741155,
      "lon": 86.9306712,
      "timestamp": "2021-01-18T10:14:14Z",
      "version": 11,
      "changeset": 97689273,
      "user": "frspp",
      "uid": 76015,
      "tags": {
        "ele": "7920",
        "fee": "no",
        "name": "Camp 4S South Col",
        "source:position": "SRTM-Version 3.0-SRTMGL1-Void Filled-10m",
        "tourism": "camp_site"
      }
    },
    {
      "type": "node",
      "id": 670261389,
      "lat": 28.1946353,
      "lon": 86.8269215,
      "timestamp": "2017-08-25T18:37:57Z",
      "version": 7,
      "changeset": 51441998,
      "user": "FreedSky",
      "uid": 1236135,
      "tags": {
        "int_name": "Rongbuk",
        "name": "绒穷",
        "name:en": "Rongbuk",
        "name:zh": "绒穷",
        "place": "hamlet"
      }
    },
    {
      "type": "node",
      "id": 703894844,
      "lat": 27.7038149,
      "lon": 86.7177746,
      "timestamp": "2019-11-05T08:44:38Z",
      "version": 6,
      "changeset": 76632535,
      "user": "bcd4e6",
      "uid": 8407331,
      "tags": {
        "ele": "2660",
        "name": "Cheplung",
        "place": "village"
      }
    },
    {
      "type": "node",
      "id": 703894847,
      "lat": 27.7235555,
      "lon": 86.714248,
      "timestamp": "2018-08-27T17:14:39Z",
      "version": 2,
      "changeset": 62046523,
      "user": "Yeti-17",
      "uid": 6969191,
      "tags": {
        "name": "Chhuthawa",
        "place": "village"
      }
    },
    {
      "type": "node",
      "id": 703895008,
      "lat": 27.811865,
      "lon": 86.710861,
      "timestamp": "2017-02-09T14:13:45Z",
      "version": 5,
      "changeset": 45947878,
      "user": "iWowik",
      "uid": 481934,
      "tags": {
        "name": "Syangboche",
        "place": "village",
        "wikidata": "Q689079",
        "wikipedia": "en:Syangboche Airport"
      }
    },
    {
      "type": "node",
      "id": 703895035,
      "lat": 27.8156868,
      "lon": 86.7146522,
      "timestamp": "2017-11-12T08:42:35Z",
      "version": 5,
      "changeset": 53706830,
      "user": "Yeti-17",
      "uid": 6969191,
      "tags": {
        "ele": "3868",
        "mountain_pass": "yes",
        "name": "Khumjung La",
        "natural": "saddle"
      }
    },
    {
      "type": "node",
      "id": 703971587,
      "lat": 27.8371188,
      "lon": 86.6471787,
      "timestamp": "2018-08-26T09:17:45Z",
      "version": 2,
      "changeset": 62002058,
      "user": "Yeti-17",
      "uid": 6969191,
      "tags": {
        "name": "Thametang",
        "place": "hamlet"
      }
    },
    {
      "type": "node",
      "id": 703971621,
      "lat": 27.8318868,
      "lon": 86.6504789,
      "timestamp": "2019-11-05T08:44:38Z",
      "version": 4,
      "changeset": 76632535,
      "user": "bcd4e6",
      "uid": 8407331,
      "tags": {
        "ele": "3820",
        "name": "Thame",
        "place": "village",
        "wikidata": "Q7709836",
        "wikipedia": "en:Thame, Nepal"
      }
    },
    {
      "type": "node",
      "id": 703971741,
      "lat": 27.8470534,
      "lon": 86.6425453,
      "timestamp": "2010-04-22T20:58:39Z",
      "version": 1,
      "changeset": 4498899,
      "user": "wergeis",
      "uid": 81894,
      "tags": {
        "name": "Hungmo",
        "place": "hamlet"
      }
    },
    {
      "type": "node",
      "id": 703971805,
      "lat": 27.8668897,
      "lon": 86.6405322,
      "timestamp": "2021-05-30T19:49:30Z",
      "version": 2,
      "changeset": 105582041,
      "user": "seichter",
      "uid": 66497,
      "tags": {
        "name": "Tarangar",
        "place": "hamlet"
      }
    },
    {
      "type": "node",
      "id": 703971918,
      "lat": 27.9052515,
      "lon": 86.6368762,
      "timestamp": "2019-11-05T08:44:38Z",
      "version": 3,
      "changeset": 76632535,
      "user": "bcd4e6",
      "uid": 8407331,
      "tags": {
        "alt_name": "Lungden",
        "ele": "4380",
        "name": "Lungdhen",
        "place": "hamlet"
      }
    },
    {
      "type": "node",
      "id": 703971924,
      "lat": 27.8882186,
      "lon": 86.6383691,
      "timestamp": "2010-04-22T20:58:43Z",
      "version": 1,
      "changeset": 4498899,
      "user": "wergeis",
      "uid": 81894,
      "tags": {
        "name": "Marulung",
        "place": "hamlet"
      }
    },
    {
      "type": "node",
      "id": 703972266,
      "lat": 27.9473697,
      "lon": 86.6584966,
      "timestamp": "2019-11-05T08:44:38Z",
      "version": 4,
      "changeset": 76632535,
      "user": "bcd4e6",
      "uid": 8407331,
      "tags": {
        "ele": "5360",
        "mountain_pass": "yes",
        "name": "Renjo La",
        "natural": "saddle",
        "tourism": "viewpoint",
        "wpt_symbol": "Summit"
      }
    },
    {
      "type": "node",
      "id": 703972336,
      "lat": 27.8152613,
      "lon": 86.6879968,
      "timestamp": "2010-04-22T20:58:51Z",
      "version": 1,
      "changeset": 4498899,
      "user": "wergeis",
      "uid": 81894,
      "tags": {
        "name": "Samshing",
        "place": "village"
      }
    },
    {
      "type": "node",
      "id": 703972503,
      "lat": 27.8223915,
      "lon": 86.6783161,
      "timestamp": "2018-01-07T13:43:18Z",
      "version": 2,
      "changeset": 55236055,
      "user": "paleshukgeo",
      "uid": 3878864,
      "tags": {
        "name": "Thamo",
        "place": "village"
      }
    },
    {
      "type": "node",
      "id": 703972526,
      "lat": 27.8288282,
      "lon": 86.6655183,
      "timestamp": "2010-04-22T20:58:55Z",
      "version": 1,
      "changeset": 4498899,
      "user": "wergeis",
      "uid": 81894,
      "tags": {
        "name": "Samde",
        "place": "village"
      }
    },
    {
      "type": "node",
      "id": 703972561,
      "lat": 27.8184595,
      "lon": 86.686222,
      "timestamp": "2010-04-22T20:58:56Z",
      "version": 1,
      "changeset": 4498899,
      "user": "wergeis",
      "uid": 81894,
      "tags": {
        "name": "Theso",
        "place": "hamlet"
      }
    },
    {
      "type": "node",
      "id": 704001308,
      "lat": 27.8610896,
      "lon": 86.7483842,
      "timestamp": "2015-05-09T08:51:42Z",
      "version": 2,
      "changeset": 30931274,
      "user": "e_buhl",
      "uid": 2901832,
      "tags": {
        "name": "Thulang",
        "place": "village"
      }
    },
    {
      "type": "node",
      "id": 704001710,
      "lat": 27.8940142,
      "lon": 86.727308,
      "timestamp": "2015-05-20T11:36:41Z",
      "version": 2,
      "changeset": 31312246,
      "user": "LLAQWA",
      "uid": 77114,
      "tags": {
        "fixme": "position",
        "name": "Thare",
        "place": "village"
      }
    },
    {
      "type": "node",
      "id": 704038308,
      "lat": 27.8230283,
      "lon": 86.731111,
      "timestamp": "2021-08-03T11:59:52Z",
      "version": 4,
      "changeset": 109091485,
      "user": "Cascafico",
      "uid": 361003,
      "tags": {
        "ele": "3610",
        "name": "Kyangjuma",
        "place": "hamlet"
      }
    },
    {
      "type": "node",
      "id": 704038309,
      "lat": 27.8312685,
      "lon": 86.7407826,
      "timestamp": "2018-08-28T19:20:59Z",
      "version": 3,
      "changeset": 62082251,
      "user": "Yeti-17",
      "uid": 6969191,
      "tags": {
        "ele": "3455",
        "name": "Tashinga",
        "place": "hamlet"
      }
    },
    {
      "type": "node",
      "id": 704038426,
      "lat": 27.8677387,
      "lon": 86.8053944,
      "timestamp": "2021-07-26T12:29:46Z",
      "version": 4,
      "changeset": 108625085,
      "user": "Cascafico",
      "uid": 361003,
      "tags": {
        "ele": "4060",
        "name": "Shomare",
        "place": "village"
      }
    },
    {
      "type": "node",
      "id": 704038463,
      "lat": 27.904665,
      "lon": 86.8713664,
      "timestamp": "2018-10-29T07:53:23Z",
      "version": 6,
      "changeset": 63968761,
      "user": "ngt",
      "uid": 455576,
      "tags": {
        "ele": "4730",
        "name": "Chukhung",
        "name:be": "Чукхунг",
        "name:ru": "Чукхунг",
        "place": "village",
        "wikidata": "Q5116018",
        "wikipedia": "en:Chukhung"
      }
    },
    {
      "type": "node",
      "id": 736957340,
      "lat": 27.9480989,
      "lon": 86.8101734,
      "timestamp": "2020-01-05T19:26:34Z",
      "version": 5,
      "changeset": 79221155,
      "user": "Антін Сартенченко",
      "uid": 571410,
      "tags": {
        "ele": "4930",
        "name": "लोबुचे",
        "name:en": "Lobuche",
        "name:ne": "लोबुचे",
        "name:ru": "Лобуче",
        "place": "hamlet",
        "population": "20",
        "wikidata": "Q1291226",
        "wikipedia": "en:Lobuche"
      }
    },
    {
      "type": "node",
      "id": 736963685,
      "lat": 27.8254045,
      "lon": 86.7303885,
      "timestamp": "2018-08-26T09:11:39Z",
      "version": 3,
      "changeset": 62001933,
      "user": "Yeti-17",
      "uid": 6969191,
      "tags": {
        "ele": "3530",
        "name": "Sanasa",
        "place": "hamlet"
      }
    },
    {
      "type": "node",
      "id": 736963686,
      "lat": 27.8318289,
      "lon": 86.7464264,
      "timestamp": "2018-08-26T07:35:09Z",
      "version": 3,
      "changeset": 62000428,
      "user": "Yeti-17",
      "uid": 6969191,
      "tags": {
        "ele": "3305",
        "name": "Phunki Thanga",
        "place": "hamlet"
      }
    },
    {
      "type": "node",
      "id": 736963687,
      "lat": 27.8459167,
      "lon": 86.7780684,
      "timestamp": "2013-09-16T12:43:02Z",
      "version": 3,
      "changeset": 17867344,
      "user": "Newebc",
      "uid": 1746753,
      "tags": {
        "ele": "3746",
        "name": "Millingo",
        "place": "village"
      }
    },
    {
      "type": "node",
      "id": 1303891304,
      "lat": 27.8933858,
      "lon": 86.819991,
      "timestamp": "2021-05-29T20:22:54Z",
      "version": 10,
      "changeset": 105547324,
      "user": "seichter",
      "uid": 66497,
      "tags": {
        "name": "Pheriche",
        "name:en": "Pheriche",
        "name:ru": "Периче",
        "place": "hamlet",
        "wikidata": "Q1497128",
        "wikipedia": "en:Pheriche"
      }
    },
    {
      "type": "node",
      "id": 1326607409,
      "lat": 27.9850364,
      "lon": 86.9251585,
      "timestamp": "2021-06-22T14:35:11Z",
      "version": 20,
      "changeset": 106783337,
      "user": "bharatdahal",
      "uid": 9755391,
      "tags": {
        "ele": "8765",
        "importance": "local",
        "int_name": "South Summit",
        "name": "珠穆朗玛南峰/सगरमाथा दक्षिण",
        "name:be": "Паўднёвы пік",
        "name:bo": "ཇོ་མོ་གླང་མ ལྷོ",
        "name:en": "Everest South Peak",
        "name:ne": "सगरमाथा दक्षिण",
        "name:ru": "гора Джомолунгма (Южный пик)",
        "name:uk": "Південний пік",
        "name:zh": "南峰",
        "natural": "peak",
        "wikidata": "Q21298740",
        "wikipedia": "en:South Summit (Mount Everest)"
      }
    },
    {
      "type": "node",
      "id": 1348498366,
      "lat": 27.999041,
      "lon": 86.9321859,
      "timestamp": "2019-08-07T05:24:02Z",
      "version": 12,
      "changeset": 73092643,
      "user": "wheelmap_visitor",
      "uid": 290680,
      "tags": {
        "ele": "8200",
        "name": "六号营地",
        "name:en": "Camp 6N North wall",
        "name:uk": "Шостий табір північна стіна",
        "source": "http://outdoor.travel.sohu.com/20070215/n248262654.shtml",
        "tourism": "camp_site",
        "wheelchair": "no"
      }
    },
    {
      "type": "node",
      "id": 1348498378,
      "lat": 28.0110028,
      "lon": 86.9273588,
      "timestamp": "2021-05-03T04:24:23Z",
      "version": 7,
      "changeset": 104021902,
      "user": "TJR2005",
      "uid": 12631778,
      "tags": {
        "ele": "7790",
        "name": "五号营地",
        "name:en": "Camp 5N North ridge",
        "source": "http://outdoor.travel.sohu.com/20070215/n248262654.shtml",
        "tourism": "camp_site"
      }
    },
    {
      "type": "node",
      "id": 1348498379,
      "lat": 28.0183525,
      "lon": 86.9218862,
      "timestamp": "2020-06-12T06:30:29Z",
      "version": 8,
      "changeset": 86547804,
      "user": "Baeurodo",
      "uid": 7130456,
      "tags": {
        "ele": "7028",
        "name": "三号营地",
        "name:en": "Camp 3N, North col",
        "source": "http://outdoor.travel.sohu.com/20070215/n248262654.shtml",
        "source:position": "SRTM-Version 3.0-SRTMGL1-Void Filled-10m",
        "tourism": "camp_site"
      }
    },
    {
      "type": "node",
      "id": 1348498380,
      "lat": 28.0317147,
      "lon": 86.9415562,
      "timestamp": "2021-05-03T04:24:23Z",
      "version": 7,
      "changeset": 104021902,
      "user": "TJR2005",
      "uid": 12631778,
      "tags": {
        "ele": "6500",
        "name": "前进营地",
        "name:en": "Camp 2N, ABC Advanced base camp, East Rongbuk glacier",
        "source": "http://sports.cctv.com/20080414/107134.shtml",
        "source2": "http://outdoor.travel.sohu.com/20070215/n248262654.shtml",
        "tourism": "camp_site"
      }
    },
    {
      "type": "node",
      "id": 1348498381,
      "lat": 28.0810005,
      "lon": 86.920989,
      "timestamp": "2018-01-29T00:31:41Z",
      "version": 5,
      "changeset": 55845193,
      "user": "smaprs",
      "uid": 1852029,
      "tags": {
        "ele": "5500",
        "name": "一号营地",
        "name:en": "Camp 1 N, East Rongbuk glacier",
        "source": "http://outdoor.travel.sohu.com/20070215/n248262654.shtml",
        "tourism": "camp_site"
      }
    },
    {
      "type": "node",
      "id": 1492311486,
      "lat": 27.7539007,
      "lon": 86.7106824,
      "timestamp": "2018-08-28T19:20:59Z",
      "version": 2,
      "changeset": 62082251,
      "user": "Yeti-17",
      "uid": 6969191,
      "tags": {
        "name": "Toc Toc",
        "place": "village"
      }
    },
    {
      "type": "node",
      "id": 1518688054,
      "lat": 27.8456396,
      "lon": 86.5501924,
      "timestamp": "2017-11-12T05:39:46Z",
      "version": 4,
      "changeset": 53704836,
      "user": "Yeti-17",
      "uid": 6969191,
      "tags": {
        "ele": "5753",
        "mountain_pass": "yes",
        "name": "Tashi Laptsa La",
        "natural": "saddle"
      }
    },
    {
      "type": "node",
      "id": 1679173380,
      "lat": 27.9301528,
      "lon": 86.8364444,
      "timestamp": "2021-07-27T10:13:13Z",
      "version": 6,
      "changeset": 108679201,
      "user": "Cascafico",
      "uid": 361003,
      "tags": {
        "ele": "5535",
        "mountain_pass": "yes",
        "name": "Kongma La Pass",
        "natural": "saddle",
        "tourism": "viewpoint"
      }
    },
    {
      "type": "node",
      "id": 1679173453,
      "lat": 27.9617246,
      "lon": 86.7516374,
      "timestamp": "2019-11-05T08:44:38Z",
      "version": 9,
      "changeset": 76632535,
      "user": "bcd4e6",
      "uid": 8407331,
      "tags": {
        "ele": "5420",
        "mountain_pass": "yes",
        "name": "Cho La Pass",
        "natural": "saddle",
        "tourism": "viewpoint",
        "wikidata": "Q5103370",
        "wikipedia": "en:Cho La, Nepal"
      }
    },
    {
      "type": "node",
      "id": 1679219308,
      "lat": 27.9399244,
      "lon": 86.7737491,
      "timestamp": "2017-01-05T13:57:25Z",
      "version": 2,
      "changeset": 44925355,
      "user": "ngt",
      "uid": 455576,
      "tags": {
        "ele": "4830",
        "name": "Dzonglha",
        "place": "hamlet"
      }
    },
    {
      "type": "node",
      "id": 1691951158,
      "lat": 28.1077559,
      "lon": 86.5883152,
      "timestamp": "2019-05-31T00:29:52Z",
      "version": 6,
      "changeset": 70789430,
      "user": "b-jazz",
      "uid": 5800005,
      "tags": {
        "ele": "5730",
        "image": "File:NangpaLa.jpg",
        "mountain_pass": "yes",
        "name": "Nangpa La",
        "natural": "saddle",
        "tourism": "viewpoint",
        "wikidata": "Q867063",
        "wikipedia": "en:Nangpa La"
      }
    },
    {
      "type": "node",
      "id": 2119333575,
      "lat": 28.0281332,
      "lon": 86.8544934,
      "timestamp": "2020-07-31T18:43:40Z",
      "version": 3,
      "changeset": 88794887,
      "user": "Tiroler",
      "uid": 414617,
      "tags": {
        "ele": "6714",
        "name": "凌川峰 - Mount Lingtren",
        "name:en": "Mount Lingtren",
        "name:ne": "लिंगट्रेन",
        "name:ru": "гора Лингтрен",
        "name:zh": "凌川峰",
        "name:zh-Hans": "凌川峰",
        "name:zh-Hant": "凌川峰",
        "name:zh_pinyin": "Língchuān fēng",
        "natural": "peak",
        "wikidata": "Q1826566",
        "wikipedia": "de:Lingtren"
      }
    },
    {
      "type": "node",
      "id": 2252556001,
      "lat": 27.8502788,
      "lon": 86.7442215,
      "timestamp": "2018-08-27T17:02:16Z",
      "version": 3,
      "changeset": 62046229,
      "user": "Yeti-17",
      "uid": 6969191,
      "tags": {
        "name": "Phortse Tenga",
        "place": "hamlet"
      }
    },
    {
      "type": "node",
      "id": 2526429858,
      "lat": 27.9190402,
      "lon": 86.7648644,
      "timestamp": "2017-09-10T05:58:02Z",
      "version": 3,
      "changeset": 51897872,
      "user": "nyuriks",
      "uid": 339581,
      "tags": {
        "alt_name": "Cholotse,Jobo Lhaptshan",
        "ele": "6440",
        "name": "Cholatse",
        "name:zh": "喬拉傑峰",
        "natural": "peak",
        "wikidata": "Q389456",
        "wikipedia": "en:Cholatse"
      }
    },
    {
      "type": "node",
      "id": 2526437540,
      "lat": 27.8973138,
      "lon": 86.7793702,
      "timestamp": "2017-09-10T05:58:03Z",
      "version": 3,
      "changeset": 51897872,
      "user": "nyuriks",
      "uid": 339581,
      "tags": {
        "alt_name": "Tawoche, Tobuche, Tāuje, Taweche, Tawache, Tawetse",
        "ele": "6495",
        "name": "Taboche",
        "name:zh": "塔波崎峰",
        "natural": "peak",
        "wikidata": "Q2386627",
        "wikipedia": "en:Taboche"
      }
    },
    {
      "type": "node",
      "id": 2540248530,
      "lat": 27.9741973,
      "lon": 86.9319071,
      "timestamp": "2021-01-26T14:07:26Z",
      "version": 15,
      "changeset": 98168442,
      "user": "Антін Сартенченко",
      "uid": 571410,
      "tags": {
        "ele": "7985",
        "mountain_pass": "yes",
        "name": "南坳 - दक्षिण स्तम्भ",
        "name:be": "Паўднёвая седлавіна",
        "name:cs": "Jižní sedlo",
        "name:de": "Südsattel",
        "name:en": "South Col",
        "name:ne": "दक्षिण स्तम्भ",
        "name:ru": "Южное седло",
        "name:zh": "南坳",
        "natural": "saddle",
        "source": "bing",
        "source:position": "SRTM-Version 3.0-SRTMGL1-Void Filled-10m",
        "wikidata": "Q2598195",
        "wikipedia": "en:South Col"
      }
    },
    {
      "type": "node",
      "id": 2677892526,
      "lat": 28.024329,
      "lon": 86.9151856,
      "timestamp": "2020-01-09T11:55:48Z",
      "version": 8,
      "changeset": 79375622,
      "user": "Антін Сартенченко",
      "uid": 571410,
      "tags": {
        "ele": "7543",
        "name": "章子峰",
        "name:en": "Changtse Peak",
        "name:ru": "пик Чангцзе",
        "name:zh": "章子峰",
        "natural": "peak",
        "source:position": "SRTM-Version 3.0-SRTMGL1-Void Filled-10m",
        "wikidata": "Q595929",
        "wikipedia": "en:Changtse"
      }
    },
    {
      "type": "node",
      "id": 2677892527,
      "lat": 27.9194539,
      "lon": 86.9819868,
      "timestamp": "2017-09-10T05:58:03Z",
      "version": 2,
      "changeset": 51897872,
      "user": "nyuriks",
      "uid": 339581,
      "tags": {
        "ele": "6735",
        "name": "Cho Polu",
        "natural": "peak",
        "wikidata": "Q448932",
        "wikipedia": "en:Cho Polu"
      }
    },
    {
      "type": "node",
      "id": 2677892528,
      "lat": 28.0219052,
      "lon": 86.872193,
      "timestamp": "2020-01-09T11:46:15Z",
      "version": 6,
      "changeset": 79375314,
      "user": "Антін Сартенченко",
      "uid": 571410,
      "tags": {
        "ele": "6636",
        "name": "坤布崎峰 - Khumbutse Peak",
        "name:bo": "ཁུམ་བུ།་རྩེ",
        "name:de": "Khumbutse",
        "name:en": "Khumbutse Peak",
        "name:ne": "खुम्बुत्से",
        "name:ru": "пик Кхумбуцзе",
        "name:zh": "坤布崎峰",
        "name:zh-Hans": "坤布崎峰",
        "name:zh-Hant": "坤布崎峰",
        "name:zh_pinyin": "Kūnbùqí fēng",
        "natural": "peak",
        "wikidata": "Q1740698",
        "wikipedia": "en:Khumbutse"
      }
    },
    {
      "type": "node",
      "id": 2677892529,
      "lat": 27.9589362,
      "lon": 86.943634,
      "timestamp": "2021-01-26T14:07:26Z",
      "version": 8,
      "changeset": 98168442,
      "user": "Антін Сартенченко",
      "uid": 571410,
      "tags": {
        "ele": "8382",
        "name": "洛子夏尔峰 - Lhotse Shar Peak",
        "name:bo": "ལྷོ་རྩེ་ཤར",
        "name:en": "Lhotse Shar Peak",
        "name:ne": "ल्होत्से शार",
        "name:ru": "пик Лхоцзе-Шар",
        "name:zh": "洛子夏尔峰",
        "name:zh-Hans": "洛子夏尔峰",
        "name:zh-Hant": "洛子夏爾峰",
        "name:zh_pinyin": "Luòzi Xiàr fēng",
        "natural": "peak",
        "source:position": "SRTM-Version 3.0-SRTMGL1-Void Filled-10m",
        "wikidata": "Q11237699",
        "wikipedia": "en:Lhotse Shar"
      }
    },
    {
      "type": "node",
      "id": 2677892532,
      "lat": 27.9556165,
      "lon": 86.9646815,
      "timestamp": "2017-09-10T05:58:03Z",
      "version": 2,
      "changeset": 51897872,
      "user": "nyuriks",
      "uid": 339581,
      "tags": {
        "alt_name": "Shar Tse II",
        "ele": "7590",
        "name": "Peak 38",
        "natural": "peak",
        "wikidata": "Q1526943",
        "wikipedia": "de:Peak 38"
      }
    },
    {
      "type": "node",
      "id": 2677892533,
      "lat": 28.0160417,
      "lon": 86.8273988,
      "timestamp": "2017-05-23T18:54:43Z",
      "version": 2,
      "changeset": 48925496,
      "user": "elfenlied",
      "uid": 2558109,
      "tags": {
        "ele": "7161",
        "name": "Pumori",
        "natural": "peak",
        "wikidata": "Q1137644",
        "wikipedia": "en:Pumori"
      }
    },
    {
      "type": "node",
      "id": 2677892534,
      "lat": 27.9494404,
      "lon": 86.9829938,
      "timestamp": "2018-10-30T07:30:48Z",
      "version": 4,
      "changeset": 64002052,
      "user": "radek-drlicka",
      "uid": 693098,
      "tags": {
        "ele": "7457",
        "name": "Shartse",
        "name:cs": "Šarce",
        "natural": "peak",
        "wikidata": "Q20748056"
      }
    },
    {
      "type": "node",
      "id": 2679535324,
      "lat": 27.8354941,
      "lon": 87.0759013,
      "timestamp": "2014-02-18T22:32:20Z",
      "version": 1,
      "changeset": 20646818,
      "user": "4rch",
      "uid": 1772211,
      "tags": {
        "name": "Makalu Basecamp",
        "tourism": "camp_site"
      }
    },
    {
      "type": "node",
      "id": 2681546080,
      "lat": 28.0419301,
      "lon": 86.9638908,
      "timestamp": "2015-02-27T11:02:25Z",
      "version": 5,
      "changeset": 29132925,
      "user": "4rch",
      "uid": 1772211,
      "tags": {
        "ele": "6766",
        "mountain_pass": "yes",
        "name": "Lhakpa La",
        "natural": "saddle"
      }
    },
    {
      "type": "node",
      "id": 2681546081,
      "lat": 28.0103933,
      "lon": 86.8764352,
      "timestamp": "2020-09-20T11:07:55Z",
      "version": 8,
      "changeset": 91172144,
      "user": "pizzaiolo",
      "uid": 1772368,
      "tags": {
        "ele": "6006",
        "mountain_pass": "yes",
        "name": "洛拉坳 - Lho-La Pass",
        "name:bo": "ལྷོ་ལ",
        "name:en": "Lho-La Pass",
        "name:ne": "ल्हो ला",
        "name:ru": "перевал Лхо-Ла",
        "name:zh": "洛拉坳",
        "name:zh-Hans": "洛拉坳",
        "name:zh-Hant": "洛拉坳",
        "name:zh_pinyin": "Luò-Lā ào",
        "natural": "saddle",
        "source:position": "SRTM-Version 3.0-SRTMGL1-Void Filled-10m",
        "wikidata": "Q18011310"
      }
    },
    {
      "type": "node",
      "id": 2681546435,
      "lat": 28.0579247,
      "lon": 86.7523939,
      "timestamp": "2015-01-12T22:22:44Z",
      "version": 3,
      "changeset": 28099463,
      "user": "geow",
      "uid": 223093,
      "tags": {
        "mountain_pass": "yes",
        "name": "Nup La",
        "natural": "saddle"
      }
    },
    {
      "type": "node",
      "id": 2681941089,
      "lat": 28.0183806,
      "lon": 86.9646712,
      "timestamp": "2015-02-27T11:01:29Z",
      "version": 5,
      "changeset": 29132911,
      "user": "4rch",
      "uid": 1772211,
      "tags": {
        "ele": "6540",
        "mountain_pass": "yes",
        "name": "Rapiu La",
        "natural": "saddle"
      }
    },
    {
      "type": "node",
      "id": 2681946526,
      "lat": 28.0175427,
      "lon": 86.9222993,
      "timestamp": "2020-01-09T11:48:24Z",
      "version": 6,
      "changeset": 79375397,
      "user": "Антін Сартенченко",
      "uid": 571410,
      "tags": {
        "ele": "6990",
        "mountain_pass": "yes",
        "name": "北坳",
        "name:de": "Nordsattel",
        "name:en": "North Col",
        "name:ru": "Северное Седло",
        "name:zh": "北坳",
        "natural": "saddle",
        "source:position": "SRTM-Version 3.0-SRTMGL1-Void Filled-10m",
        "wikidata": "Q2611798",
        "wikipedia": "en:North Col"
      }
    },
    {
      "type": "node",
      "id": 2685914344,
      "lat": 27.8680981,
      "lon": 86.918614,
      "timestamp": "2015-01-12T22:22:42Z",
      "version": 2,
      "changeset": 28099463,
      "user": "geow",
      "uid": 223093,
      "tags": {
        "ele": "5845",
        "mountain_pass": "yes",
        "name": "Amphu Laptsa",
        "natural": "saddle"
      }
    },
    {
      "type": "node",
      "id": 2686686024,
      "lat": 28.0346849,
      "lon": 86.7597051,
      "timestamp": "2020-09-20T11:08:01Z",
      "version": 2,
      "changeset": 91172144,
      "user": "pizzaiolo",
      "uid": 1772368,
      "tags": {
        "ele": "7036",
        "name": "Hungchi",
        "natural": "peak",
        "wikidata": "Q20757621"
      }
    },
    {
      "type": "node",
      "id": 2687648806,
      "lat": 27.9607748,
      "lon": 86.9386871,
      "timestamp": "2021-01-26T14:07:26Z",
      "version": 8,
      "changeset": 98168442,
      "user": "Антін Сартенченко",
      "uid": 571410,
      "tags": {
        "ele": "8372",
        "name": "洛子中央峰 - Lhotse Middle Peak",
        "name:bo": "ལྷོ་རྩེ་དཀྱིལ་ལ",
        "name:en": "Lhotse Middle Peak",
        "name:ne": "ल्होत्से मध्य",
        "name:ru": "пик Лхоцзе-Кьилла",
        "name:zh": "洛子中央峰",
        "name:zh-Hans": "洛子中央峰",
        "name:zh-Hant": "洛子中央峰",
        "name:zh_pinyin": "Luòzi Zhōngyāng fēng",
        "natural": "peak",
        "source:position": "SRTM-Version 3.0-SRTMGL1-Void Filled-10m",
        "wikidata": "Q21838044",
        "wikipedia": "en:Lhotse Middle"
      }
    },
    {
      "type": "node",
      "id": 2689043824,
      "lat": 28.1058708,
      "lon": 86.7054038,
      "timestamp": "2020-10-17T13:44:59Z",
      "version": 3,
      "changeset": 92629170,
      "user": "peter-hoffmann",
      "uid": 10238213,
      "tags": {
        "alt_name": "Ngojumba Kang II",
        "ele": "7743",
        "int_name": "Ngojumba Kang II",
        "name": "Ngozumpa Kang II",
        "natural": "peak",
        "wikidata": "Q31653000"
      }
    },
    {
      "type": "node",
      "id": 2689711644,
      "lat": 28.0278289,
      "lon": 86.6567635,
      "timestamp": "2015-01-12T22:22:42Z",
      "version": 3,
      "changeset": 28099463,
      "user": "geow",
      "uid": 223093,
      "tags": {
        "ele": "5500",
        "mountain_pass": "yes",
        "name": "Gyazumpa La",
        "natural": "saddle"
      }
    },
    {
      "type": "node",
      "id": 2689747549,
      "lat": 27.8486014,
      "lon": 86.9902213,
      "timestamp": "2017-11-02T13:50:44Z",
      "version": 3,
      "changeset": 53452327,
      "user": "ngt",
      "uid": 455576,
      "tags": {
        "ele": "6135",
        "mountain_pass": "yes",
        "name": "West Col",
        "natural": "saddle"
      }
    },
    {
      "type": "node",
      "id": 2689752706,
      "lat": 27.784654,
      "lon": 87.0673771,
      "timestamp": "2015-01-14T20:05:30Z",
      "version": 2,
      "changeset": 28146581,
      "user": "geow",
      "uid": 223093,
      "tags": {
        "ele": "5340",
        "mountain_pass": "yes",
        "name": "Isawa La",
        "natural": "saddle"
      }
    },
    {
      "type": "node",
      "id": 2689780337,
      "lat": 27.7407556,
      "lon": 86.8951493,
      "timestamp": "2015-01-12T22:22:43Z",
      "version": 2,
      "changeset": 28099463,
      "user": "geow",
      "uid": 223093,
      "tags": {
        "ele": "5415",
        "mountain_pass": "yes",
        "name": "Mera La",
        "natural": "saddle"
      }
    },
    {
      "type": "node",
      "id": 2689806446,
      "lat": 27.7098398,
      "lon": 86.8686622,
      "timestamp": "2018-05-29T09:10:16Z",
      "version": 2,
      "changeset": 59361683,
      "user": "elfenlied",
      "uid": 2558109,
      "tags": {
        "ele": "6476",
        "name": "Mera Peak",
        "natural": "peak",
        "wikidata": "Q1441337",
        "wikipedia": "en:Mera Peak"
      }
    },
    {
      "type": "node",
      "id": 2804767847,
      "lat": 27.7361014,
      "lon": 86.8424363,
      "timestamp": "2014-04-20T20:48:42Z",
      "version": 1,
      "changeset": 21823650,
      "user": "scimmiettarossa",
      "uid": 1158640,
      "tags": {
        "name": "Thangnag",
        "tourism": "camp_site"
      }
    },
    {
      "type": "node",
      "id": 2881473815,
      "lat": 28.0343778,
      "lon": 87.01643,
      "timestamp": "2018-03-20T19:39:06Z",
      "version": 2,
      "changeset": 57363429,
      "user": "Jorkar",
      "uid": 125276,
      "tags": {
        "mountain_pass": "yes",
        "name": "Karpo La",
        "natural": "saddle"
      }
    },
    {
      "type": "node",
      "id": 2881620364,
      "lat": 27.7772801,
      "lon": 86.98151,
      "timestamp": "2020-09-20T09:49:12Z",
      "version": 2,
      "changeset": 91170108,
      "user": "pizzaiolo",
      "uid": 1772368,
      "tags": {
        "ele": "7319",
        "name": "Chamlang",
        "natural": "peak",
        "wikidata": "Q1060898"
      }
    },
    {
      "type": "node",
      "id": 2885239977,
      "lat": 27.8456676,
      "lon": 86.8862958,
      "timestamp": "2015-01-12T22:22:43Z",
      "version": 2,
      "changeset": 28099463,
      "user": "geow",
      "uid": 223093,
      "tags": {
        "ele": "5817",
        "mountain_pass": "yes",
        "name": "Mingbo La",
        "natural": "saddle"
      }
    },
    {
      "type": "node",
      "id": 2902740258,
      "lat": 27.6875828,
      "lon": 86.9024898,
      "timestamp": "2020-09-20T11:08:01Z",
      "version": 2,
      "changeset": 91172144,
      "user": "pizzaiolo",
      "uid": 1772368,
      "tags": {
        "ele": "6363",
        "name": "Naulekh",
        "natural": "peak",
        "wikidata": "Q20757631"
      }
    },
    {
      "type": "node",
      "id": 2904495699,
      "lat": 27.957236,
      "lon": 87.0152042,
      "timestamp": "2020-08-25T04:46:32Z",
      "version": 2,
      "changeset": 89888024,
      "user": "pizzaiolo",
      "uid": 1772368,
      "tags": {
        "ele": "6738",
        "name": "Pethangtse",
        "natural": "peak",
        "wikidata": "Q20757640"
      }
    },
    {
      "type": "node",
      "id": 2904629928,
      "lat": 27.9300846,
      "lon": 87.1075096,
      "timestamp": "2021-04-18T02:36:29Z",
      "version": 4,
      "changeset": 103122539,
      "user": "hemind",
      "uid": 10853824,
      "tags": {
        "ele": "7804",
        "name": "珠穆隆索峰",
        "name:en": "Chomo Lonzo",
        "name:fr": "Chomo Lonzo",
        "name:zh": "珠穆隆索峰",
        "name:zh-Hans": "珠穆隆索峰",
        "natural": "peak",
        "wikidata": "Q541641"
      }
    },
    {
      "type": "node",
      "id": 2906971419,
      "lat": 27.7542227,
      "lon": 86.572647,
      "timestamp": "2020-09-20T11:08:00Z",
      "version": 2,
      "changeset": 91172144,
      "user": "pizzaiolo",
      "uid": 1772368,
      "tags": {
        "ele": "6959",
        "name": "Numbur",
        "natural": "peak",
        "wikidata": "Q20746995"
      }
    },
    {
      "type": "node",
      "id": 2913982375,
      "lat": 27.7675654,
      "lon": 86.4943198,
      "timestamp": "2017-12-24T11:28:25Z",
      "version": 4,
      "changeset": 54884246,
      "user": "Andreeeee",
      "uid": 64876,
      "tags": {
        "alt_name": "Gyaje La",
        "ele": "4880",
        "mountain_pass": "yes",
        "name": "Gyajo La",
        "natural": "saddle"
      }
    },
    {
      "type": "node",
      "id": 2950781582,
      "lat": 27.9247682,
      "lon": 86.8331902,
      "timestamp": "2014-07-06T12:15:31Z",
      "version": 1,
      "changeset": 23982692,
      "user": "4rch",
      "uid": 1772211,
      "tags": {
        "ele": "5806",
        "name": "Pokalde",
        "natural": "peak",
        "wikidata": "Q968606"
      }
    },
    {
      "type": "node",
      "id": 2951708100,
      "lat": 28.2614069,
      "lon": 87.0751407,
      "timestamp": "2014-07-07T00:30:25Z",
      "version": 1,
      "changeset": 23995216,
      "user": "4rch",
      "uid": 1772211,
      "tags": {
        "name": "坡那",
        "name:en": "Pona",
        "place": "hamlet"
      }
    },
    {
      "type": "node",
      "id": 2951708109,
      "lat": 28.2805359,
      "lon": 87.0109569,
      "timestamp": "2016-06-30T01:41:26Z",
      "version": 2,
      "changeset": 40379891,
      "user": "stop edit",
      "uid": 1919824,
      "tags": {
        "name": "热普村",
        "name:en": "Repu",
        "place": "village"
      }
    },
    {
      "type": "node",
      "id": 3120550380,
      "lat": 27.7334185,
      "lon": 86.5166062,
      "timestamp": "2014-11-28T07:16:31Z",
      "version": 2,
      "changeset": 27083201,
      "user": "codavr",
      "uid": 403962,
      "tags": {
        "name": "Ngeju Kharka",
        "place": "village"
      }
    },
    {
      "type": "node",
      "id": 3186647123,
      "lat": 27.8635642,
      "lon": 86.918372,
      "timestamp": "2014-11-14T14:23:08Z",
      "version": 1,
      "changeset": 26778022,
      "user": "palimpadum",
      "uid": 155936,
      "tags": {
        "name": "Amphu Laptsa La BC",
        "tourism": "camp_site"
      }
    },
    {
      "type": "node",
      "id": 3203616639,
      "lat": 27.7320841,
      "lon": 86.8341745,
      "timestamp": "2016-12-28T14:58:59Z",
      "version": 3,
      "changeset": 44733087,
      "user": "Ketchup99",
      "uid": 1769257,
      "tags": {
        "ele": "4270",
        "name": "Thangnak",
        "place": "hamlet"
      }
    },
    {
      "type": "node",
      "id": 3203680261,
      "lat": 27.7416715,
      "lon": 86.9230294,
      "timestamp": "2014-11-24T20:59:55Z",
      "version": 1,
      "changeset": 27008534,
      "user": "palimpadum",
      "uid": 155936,
      "tags": {
        "name": "Kongme Dingma",
        "tourism": "camp_site"
      }
    },
    {
      "type": "node",
      "id": 3209327452,
      "lat": 27.6964,
      "lon": 86.719139,
      "timestamp": "2017-02-09T14:17:50Z",
      "version": 4,
      "changeset": 45947878,
      "user": "iWowik",
      "uid": 481934,
      "tags": {
        "name": "Chaurikharka",
        "place": "village",
        "wikidata": "Q3413296",
        "wikipedia": "en:Chaurikharka"
      }
    },
    {
      "type": "node",
      "id": 3215562631,
      "lat": 27.696371,
      "lon": 86.7818301,
      "timestamp": "2020-12-14T20:27:36Z",
      "version": 2,
      "changeset": 95832120,
      "user": "seichter",
      "uid": 66497,
      "tags": {
        "ele": "5340",
        "name": "Gonglha",
        "natural": "saddle",
        "source:elevation": "estimated from DEM (OpenTopoMap)"
      }
    },
    {
      "type": "node",
      "id": 3221495327,
      "lat": 27.8935203,
      "lon": 86.8309364,
      "timestamp": "2021-05-29T20:22:54Z",
      "version": 4,
      "changeset": 105547324,
      "user": "seichter",
      "uid": 66497,
      "tags": {
        "ele": "4410",
        "name": "Dingboche",
        "name:en": "Dingboche",
        "name:ru": "Дингбоче",
        "place": "hamlet",
        "wikidata": "Q574307",
        "wikipedia": "en:Dingboche",
        "wpt_symbol": "Lodge"
      }
    },
    {
      "type": "node",
      "id": 3365463678,
      "lat": 28.1409263,
      "lon": 86.851692,
      "timestamp": "2021-05-03T04:24:23Z",
      "version": 11,
      "changeset": 104021902,
      "user": "TJR2005",
      "uid": 12631778,
      "tags": {
        "name": "珠峰大本营（中国侧）",
        "name:en": "Everest Base Camp (Tibet side)",
        "tourism": "camp_site"
      }
    },
    {
      "type": "node",
      "id": 3504556905,
      "lat": 27.9033927,
      "lon": 86.715226,
      "timestamp": "2019-12-19T22:34:30Z",
      "version": 7,
      "changeset": 78657108,
      "user": "seichter",
      "uid": 66497,
      "tags": {
        "addr:postcode": "56000",
        "addr:street": "Gokyo Lake Marg, Machermo",
        "description": "Namgyal Lodge, established in the year 1996, has come a long way serving trekkers every single year since then. It is one of the best known lodges in the region in terms of food quality, hospitality, hygiene & infrastructure.",
        "ele": "4470",
        "email": "namgyal.lodge@gmail.com",
        "internet_access": "wifi",
        "name": "Namgyal Lodge Machermo",
        "name:en": "Namgyal Lodge Machermo",
        "note": "• Welcoming and homely environment • Traditional Tibetan Interior and Exterior • Hygienic food with a variety of cuisines to choose from • Regular Rooms & Rooms with attached toilet (Twin/Double) • Wind Shielded hallways & rooms • Cozy sunroom",
        "opening_hours": "Mo-Su 06:30-21:00",
        "operator": "Namgyal Wangdi Sherpa & Pasang Lhamu Sherpa",
        "payment:cash": "yes",
        "phone": "9810118840",
        "place": "village",
        "power": "Solar Energy",
        "rooms": "20",
        "smoking": "outside",
        "source": "local knowledge",
        "start_date": "1996",
        "tourism": "hotel",
        "website": "https://machermo.business.site/",
        "wikidata": "Q3842085",
        "wikipedia": "en:Machhermo"
      }
    },
    {
      "type": "node",
      "id": 3696097627,
      "lat": 27.960213,
      "lon": 86.9134353,
      "timestamp": "2020-01-09T11:46:15Z",
      "version": 3,
      "changeset": 79375314,
      "user": "Антін Сартенченко",
      "uid": 571410,
      "tags": {
        "ele": "7681",
        "name": "Hillary Peak",
        "name:en": "Hillary Peak",
        "name:ru": "пик Хиллари",
        "name:uk": "пік Гіларі",
        "natural": "peak",
        "wikidata": "Q15224052"
      }
    },
    {
      "type": "node",
      "id": 3696097628,
      "lat": 27.9673711,
      "lon": 86.886963,
      "timestamp": "2020-01-09T11:46:15Z",
      "version": 5,
      "changeset": 79375314,
      "user": "Антін Сартенченко",
      "uid": 571410,
      "tags": {
        "ele": "7861",
        "name": "Nuptse I Peak",
        "name:en": "Nuptse I Peak",
        "name:ne": "नुप्त्से १",
        "name:ru": "пик Нупцзе I",
        "natural": "peak",
        "wikidata": "Q1139538",
        "wikipedia": "en:Nuptse"
      }
    },
    {
      "type": "node",
      "id": 3821730023,
      "lat": 27.8047445,
      "lon": 86.7137,
      "timestamp": "2015-11-06T21:49:33Z",
      "version": 1,
      "changeset": 35136137,
      "user": "sherpashaky",
      "uid": 499666,
      "tags": {
        "tourism": "camp_site"
      }
    },
    {
      "type": "node",
      "id": 4079817699,
      "lat": 28.0729512,
      "lon": 86.6124231,
      "timestamp": "2017-09-10T05:58:08Z",
      "version": 2,
      "changeset": 51897872,
      "user": "nyuriks",
      "uid": 339581,
      "tags": {
        "alt_name": "Pasang Lhamu Chuli",
        "ele": "7350",
        "name": "Nangpai Gosum",
        "name:de": "Jasemba",
        "natural": "peak",
        "old_name": "Nangpai Gosum",
        "wikidata": "Q4312814",
        "wikipedia": "en:Nangpai Gosum"
      }
    },
    {
      "type": "node",
      "id": 4079817701,
      "lat": 28.1478873,
      "lon": 86.684561,
      "timestamp": "2017-09-10T05:58:08Z",
      "version": 2,
      "changeset": 51897872,
      "user": "nyuriks",
      "uid": 339581,
      "tags": {
        "ele": "7308",
        "name": "Siguang Ri",
        "name:en": "Siguang Ri",
        "natural": "peak",
        "wikidata": "Q4418682",
        "wikipedia": "de:Siguang Ri"
      }
    },
    {
      "type": "node",
      "id": 4239681885,
      "lat": 27.7548759,
      "lon": 86.8223253,
      "timestamp": "2020-09-20T11:07:47Z",
      "version": 3,
      "changeset": 91172144,
      "user": "pizzaiolo",
      "uid": 1772368,
      "tags": {
        "ele": "6769",
        "name": "Kyashar",
        "natural": "peak",
        "wikidata": "Q11873899"
      }
    },
    {
      "type": "node",
      "id": 4272496863,
      "lat": 28.3027183,
      "lon": 86.8322469,
      "timestamp": "2016-06-30T01:41:26Z",
      "version": 1,
      "changeset": 40379891,
      "user": "stop edit",
      "uid": 1919824,
      "tags": {
        "name": "路口",
        "place": "hamlet"
      }
    },
    {
      "type": "node",
      "id": 4331941410,
      "lat": 27.7805256,
      "lon": 86.7000754,
      "timestamp": "2019-05-24T13:29:03Z",
      "version": 2,
      "changeset": 70586748,
      "user": "palimpadum",
      "uid": 155936,
      "tags": {
        "name": "Kongde",
        "tourism": "alpine_hut",
        "website": "https://yetimountainhome.com/ymh-lodges/ymh-kongde"
      }
    },
    {
      "type": "node",
      "id": 4331941412,
      "lat": 27.7955038,
      "lon": 86.6964485,
      "timestamp": "2016-08-02T07:38:16Z",
      "version": 1,
      "changeset": 41185108,
      "user": "jechang lee",
      "uid": 4354971,
      "tags": {
        "name": "r",
        "tourism": "alpine_hut"
      }
    },
    {
      "type": "node",
      "id": 4507799489,
      "lat": 27.8901083,
      "lon": 86.8265745,
      "timestamp": "2016-11-18T06:38:16Z",
      "version": 1,
      "changeset": 43755290,
      "user": "NotSupposedTo",
      "uid": 4817364,
      "tags": {
        "addr:street": "Dingboche Village",
        "name:en": "Tent City",
        "tourism": "camp_site"
      }
    },
    {
      "type": "node",
      "id": 4577539452,
      "lat": 27.7446116,
      "lon": 86.8768707,
      "timestamp": "2016-12-28T14:58:59Z",
      "version": 1,
      "changeset": 44733087,
      "user": "Ketchup99",
      "uid": 1769257,
      "tags": {
        "ele": "4900",
        "name": "Khare",
        "place": "hamlet"
      }
    },
    {
      "type": "node",
      "id": 4757530330,
      "lat": 28.0304646,
      "lon": 86.6829689,
      "timestamp": "2017-03-27T08:20:07Z",
      "version": 1,
      "changeset": 47194459,
      "user": "diemendes",
      "uid": 5564999,
      "tags": {
        "name:en": "Cho Oyu Base Camp",
        "tourism": "camp_site"
      }
    },
    {
      "type": "node",
      "id": 4858082177,
      "lat": 27.8864054,
      "lon": 86.7327498,
      "timestamp": "2021-07-30T09:30:50Z",
      "version": 2,
      "changeset": 108878469,
      "user": "Cascafico",
      "uid": 361003,
      "tags": {
        "name": "Lodge",
        "tourism": "alpine_hut"
      }
    },
    {
      "type": "node",
      "id": 4869775621,
      "lat": 27.8346045,
      "lon": 86.5718895,
      "timestamp": "2017-11-12T12:26:48Z",
      "version": 3,
      "changeset": 53711376,
      "user": "Yeti-17",
      "uid": 6969191,
      "tags": {
        "ele": "4860",
        "name": "Ngole",
        "tourism": "camp_site"
      }
    },
    {
      "type": "node",
      "id": 4869775622,
      "lat": 27.839932,
      "lon": 86.5642077,
      "timestamp": "2017-11-12T12:26:49Z",
      "version": 3,
      "changeset": 53711376,
      "user": "Yeti-17",
      "uid": 6969191,
      "tags": {
        "ele": "5150",
        "name": "High Camp",
        "tourism": "camp_site"
      }
    },
    {
      "type": "node",
      "id": 4880806685,
      "lat": 27.9805084,
      "lon": 86.9015672,
      "timestamp": "2021-06-12T08:21:31Z",
      "version": 7,
      "changeset": 106244151,
      "user": "Bombanero",
      "uid": 12517548,
      "tags": {
        "ele": "6400",
        "fee": "no",
        "name": "Camp 2S",
        "source:location": "SRTM-Version 3.0-SRTMGL1-Void Filled",
        "tourism": "camp_site",
        "website": "https://en.m.wikivoyage.org/wiki/Everest_Base_Camp_Trek"
      }
    },
    {
      "type": "node",
      "id": 4880806686,
      "lat": 27.9866697,
      "lon": 86.8811769,
      "timestamp": "2021-04-10T22:04:06Z",
      "version": 5,
      "changeset": 102717034,
      "user": "ArjanO",
      "uid": 38066,
      "tags": {
        "ele": "6060",
        "fee": "no",
        "name": "Camp 1S",
        "source:location": "SRTM-Version 3.0-SRTMGL1-Void Filled",
        "tourism": "camp_site",
        "website": "https://en.m.wikivoyage.org/wiki/Everest_Base_Camp_Trek"
      }
    },
    {
      "type": "node",
      "id": 5058632244,
      "lat": 27.9678789,
      "lon": 86.9250449,
      "timestamp": "2021-06-12T08:21:31Z",
      "version": 11,
      "changeset": 106244151,
      "user": "Bombanero",
      "uid": 12517548,
      "tags": {
        "ele": "7200",
        "fee": "no",
        "name": "Camp 3S",
        "source:location": "SRTM-Version 3.0-SRTMGL1-Void Filled",
        "tourism": "camp_site",
        "website": "https://en.m.wikivoyage.org/wiki/Everest_Base_Camp_Trek",
        "wheelchair": "no"
      }
    },
    {
      "type": "node",
      "id": 5058708672,
      "lat": 27.9961746,
      "lon": 86.9325312,
      "timestamp": "2021-01-18T10:14:14Z",
      "version": 4,
      "changeset": 97689273,
      "user": "frspp",
      "uid": 76015,
      "tags": {
        "ele": "8680",
        "fee": "no",
        "fixme": "Advanced camp here?",
        "name": "突击营地 (Assault camp)",
        "source": "http://outdoor.travel.sohu.com/20070215/n248262654.shtml",
        "tourism": "camp_site"
      }
    },
    {
      "type": "node",
      "id": 5058721930,
      "lat": 28.0499866,
      "lon": 86.9387,
      "timestamp": "2018-01-29T00:31:50Z",
      "version": 2,
      "changeset": 55845193,
      "user": "smaprs",
      "uid": 1852029,
      "tags": {
        "ele": "5900",
        "name": "二号营地",
        "name:en": "Camp 2 N, East Rongbuk glacier",
        "source": "http://outdoor.travel.sohu.com/20070215/n248262654.shtml",
        "tourism": "camp_site"
      }
    },
    {
      "type": "node",
      "id": 5058778987,
      "lat": 28.2942162,
      "lon": 86.9616794,
      "timestamp": "2017-08-25T18:36:50Z",
      "version": 1,
      "changeset": 51441970,
      "user": "FreedSky",
      "uid": 1236135,
      "tags": {
        "name": "拉龙村",
        "place": "village"
      }
    },
    {
      "type": "node",
      "id": 5197675428,
      "lat": 27.8113717,
      "lon": 86.6809505,
      "timestamp": "2017-10-29T08:48:33Z",
      "version": 1,
      "changeset": 53335328,
      "user": "Will Shaylor",
      "uid": 6762013,
      "tags": {
        "amenity": "shelter"
      }
    },
    {
      "type": "node",
      "id": 5206509968,
      "lat": 27.8558657,
      "lon": 87.0042228,
      "timestamp": "2017-11-02T16:57:43Z",
      "version": 2,
      "changeset": 53457255,
      "user": "ngt",
      "uid": 455576,
      "tags": {
        "ele": "6110",
        "mountain_pass": "yes",
        "name": "Sherpani Col",
        "natural": "saddle"
      }
    },
    {
      "type": "node",
      "id": 5206829089,
      "lat": 27.8488996,
      "lon": 87.0200604,
      "timestamp": "2017-11-02T16:57:43Z",
      "version": 1,
      "changeset": 53457255,
      "user": "ngt",
      "uid": 455576,
      "tags": {
        "ele": "6100",
        "mountain_pass": "yes",
        "name": "East Col",
        "natural": "saddle"
      }
    },
    {
      "type": "node",
      "id": 5223535427,
      "lat": 27.8320673,
      "lon": 86.5201463,
      "timestamp": "2017-11-11T17:33:19Z",
      "version": 1,
      "changeset": 53696207,
      "user": "Yeti-17",
      "uid": 6969191,
      "tags": {
        "name": "Glacier Camp",
        "tourism": "camp_site"
      }
    },
    {
      "type": "node",
      "id": 5224183913,
      "lat": 27.8473663,
      "lon": 86.5527527,
      "timestamp": "2017-11-12T05:59:53Z",
      "version": 2,
      "changeset": 53705020,
      "user": "Yeti-17",
      "uid": 6969191,
      "tags": {
        "description": "beware of falling rocks",
        "name": "Tashi Labtsa Camp",
        "tourism": "camp_site"
      }
    },
    {
      "type": "node",
      "id": 5224230327,
      "lat": 27.825058,
      "lon": 86.6033041,
      "timestamp": "2017-11-12T06:46:58Z",
      "version": 1,
      "changeset": 53705417,
      "user": "Yeti-17",
      "uid": 6969191,
      "tags": {
        "name": "Thyangbo",
        "place": "hamlet"
      }
    },
    {
      "type": "node",
      "id": 5225912921,
      "lat": 27.9996646,
      "lon": 86.8487946,
      "timestamp": "2021-06-15T12:42:55Z",
      "version": 5,
      "changeset": 106402077,
      "user": "Futur3r",
      "uid": 12121621,
      "tags": {
        "ele": "5364",
        "name": "Everest Base Camp",
        "name:en": "Everest Base Camp",
        "name:fr": "Everest Camp de base",
        "name:ko": "EBC(Everest Base Came)",
        "tourism": "camp_site",
        "wikidata": "Q99671286"
      }
    },
    {
      "type": "node",
      "id": 5491797412,
      "lat": 27.9407366,
      "lon": 86.720281,
      "timestamp": "2021-05-29T20:22:54Z",
      "version": 3,
      "changeset": 105547324,
      "user": "seichter",
      "uid": 66497,
      "tags": {
        "alt_name": "Tangna",
        "alt_name_1": "Tagnak",
        "ele": "4700",
        "name": "Dragnag",
        "place": "hamlet"
      }
    },
    {
      "type": "node",
      "id": 5491969374,
      "lat": 28.2395257,
      "lon": 87.1187454,
      "timestamp": "2018-03-20T19:39:06Z",
      "version": 1,
      "changeset": 57363429,
      "user": "Jorkar",
      "uid": 125276,
      "tags": {
        "name": "Doya La",
        "natural": "saddle"
      }
    },
    {
      "type": "node",
      "id": 5491969376,
      "lat": 28.0641783,
      "lon": 86.977291,
      "timestamp": "2020-08-25T04:46:05Z",
      "version": 2,
      "changeset": 89888024,
      "user": "pizzaiolo",
      "uid": 1772368,
      "tags": {
        "ele": "7283",
        "name": "Khartaphu",
        "name_1": "Kardapu",
        "natural": "peak",
        "wikidata": "Q4134792"
      }
    },
    {
      "type": "node",
      "id": 5491969380,
      "lat": 28.1129808,
      "lon": 86.9164907,
      "timestamp": "2020-08-25T04:46:32Z",
      "version": 2,
      "changeset": 89888024,
      "user": "pizzaiolo",
      "uid": 1772368,
      "tags": {
        "ele": "7113",
        "name": "Lixin",
        "name_1": "Kellas Rock",
        "natural": "peak",
        "source": "http://www.geocities.co.jp/Technopolis/2719/hima/hm_nh2.htm",
        "wikidata": "Q20771142"
      }
    },
    {
      "type": "node",
      "id": 5679349866,
      "lat": 27.7204587,
      "lon": 86.7144798,
      "timestamp": "2018-06-10T10:14:19Z",
      "version": 1,
      "changeset": 59707957,
      "user": "Insensitive_Clod",
      "uid": 8395734,
      "tags": {
        "name": "Shop",
        "shop": "convenience"
      }
    },
    {
      "type": "node",
      "id": 5679349869,
      "lat": 27.7277502,
      "lon": 86.71416,
      "timestamp": "2018-06-10T10:14:19Z",
      "version": 1,
      "changeset": 59707957,
      "user": "Insensitive_Clod",
      "uid": 8395734,
      "tags": {
        "amenity": "shelter",
        "amenity_1": "waste_disposal"
      }
    },
    {
      "type": "node",
      "id": 5786165781,
      "lat": 27.9089791,
      "lon": 86.9347668,
      "timestamp": "2020-02-02T00:04:35Z",
      "version": 2,
      "changeset": 80423702,
      "user": "marc__marc",
      "uid": 7272314,
      "tags": {
        "name": "Island Peak High Camp",
        "tourism": "camp_site"
      }
    },
    {
      "type": "node",
      "id": 5858448982,
      "lat": 27.8320661,
      "lon": 86.7450026,
      "timestamp": "2018-08-26T07:35:03Z",
      "version": 1,
      "changeset": 62000428,
      "user": "Yeti-17",
      "uid": 6969191,
      "tags": {
        "ele": "3305",
        "name": "Phunki Thanga",
        "place": "hamlet"
      }
    },
    {
      "type": "node",
      "id": 5858520230,
      "lat": 27.8396524,
      "lon": 86.7704487,
      "timestamp": "2018-08-26T07:55:29Z",
      "version": 1,
      "changeset": 62000713,
      "user": "Yeti-17",
      "uid": 6969191,
      "tags": {
        "ele": "3745",
        "name": "Deboche",
        "place": "village",
        "wpt_symbol": "Lodge"
      }
    },
    {
      "type": "node",
      "id": 5861473755,
      "lat": 27.8518995,
      "lon": 86.7446834,
      "timestamp": "2018-08-27T17:02:14Z",
      "version": 1,
      "changeset": 62046229,
      "user": "Yeti-17",
      "uid": 6969191,
      "tags": {
        "name": "Phortse Tenga",
        "place": "hamlet"
      }
    },
    {
      "type": "node",
      "id": 5864146463,
      "lat": 27.8296075,
      "lon": 86.7387637,
      "timestamp": "2018-08-28T19:20:50Z",
      "version": 1,
      "changeset": 62082251,
      "user": "Yeti-17",
      "uid": 6969191,
      "tags": {
        "alt_name": "Leushyasa",
        "name": "Lawi Schyasa",
        "place": "hamlet"
      }
    },
    {
      "type": "node",
      "id": 5971401498,
      "lat": 27.9934754,
      "lon": 87.0316771,
      "timestamp": "2018-10-10T07:53:30Z",
      "version": 1,
      "changeset": 63370675,
      "user": "来自青山下",
      "uid": 2063851,
      "tags": {
        "natural": "spring"
      }
    },
    {
      "type": "node",
      "id": 5971401502,
      "lat": 28.032355,
      "lon": 87.1813604,
      "timestamp": "2018-10-10T07:53:30Z",
      "version": 1,
      "changeset": 63370675,
      "user": "来自青山下",
      "uid": 2063851,
      "tags": {
        "tourism": "camp_site"
      }
    },
    {
      "type": "node",
      "id": 5971401505,
      "lat": 27.9875021,
      "lon": 87.089189,
      "timestamp": "2018-10-10T07:53:31Z",
      "version": 1,
      "changeset": 63370675,
      "user": "来自青山下",
      "uid": 2063851,
      "tags": {
        "tourism": "camp_site"
      }
    },
    {
      "type": "node",
      "id": 5971401507,
      "lat": 27.9896883,
      "lon": 87.1125564,
      "timestamp": "2018-10-10T07:53:31Z",
      "version": 1,
      "changeset": 63370675,
      "user": "来自青山下",
      "uid": 2063851,
      "tags": {
        "tourism": "camp_site"
      }
    },
    {
      "type": "node",
      "id": 5971401509,
      "lat": 27.9923125,
      "lon": 87.1491069,
      "timestamp": "2018-10-10T07:53:31Z",
      "version": 1,
      "changeset": 63370675,
      "user": "来自青山下",
      "uid": 2063851,
      "tags": {
        "tourism": "camp_site"
      }
    },
    {
      "type": "node",
      "id": 5971401522,
      "lat": 27.9968219,
      "lon": 87.1711922,
      "timestamp": "2018-10-10T07:53:31Z",
      "version": 1,
      "changeset": 63370675,
      "user": "来自青山下",
      "uid": 2063851,
      "tags": {
        "tourism": "camp_site"
      }
    },
    {
      "type": "node",
      "id": 5971408320,
      "lat": 27.9987876,
      "lon": 87.1613967,
      "timestamp": "2018-10-10T07:56:16Z",
      "version": 1,
      "changeset": 63370765,
      "user": "来自青山下",
      "uid": 2063851,
      "tags": {
        "tourism": "camp_site"
      }
    },
    {
      "type": "node",
      "id": 6024730682,
      "lat": 27.8462753,
      "lon": 86.4849772,
      "timestamp": "2018-10-30T12:15:30Z",
      "version": 1,
      "changeset": 64009450,
      "user": "jum51",
      "uid": 2147370,
      "tags": {
        "access": "permit",
        "capacity": "3",
        "internet_access": "no",
        "name": "No Water",
        "tourism": "camp_site"
      }
    },
    {
      "type": "node",
      "id": 6048575394,
      "lat": 27.8552447,
      "lon": 86.7376434,
      "timestamp": "2018-11-09T09:50:25Z",
      "version": 1,
      "changeset": 64319292,
      "user": "Insensitive_Clod",
      "uid": 8395734,
      "tags": {
        "natural": "cave_entrance"
      }
    },
    {
      "type": "node",
      "id": 6135785847,
      "lat": 27.9822699,
      "lon": 86.8288283,
      "timestamp": "2018-12-13T20:38:14Z",
      "version": 1,
      "changeset": 65454034,
      "user": "<0174",
      "uid": 172147,
      "tags": {
        "amenity": "drinking_water"
      }
    },
    {
      "type": "node",
      "id": 6135785848,
      "lat": 27.982328,
      "lon": 86.8287344,
      "timestamp": "2018-12-13T20:38:14Z",
      "version": 1,
      "changeset": 65454034,
      "user": "<0174",
      "uid": 172147,
      "tags": {
        "amenity": "drinking_water"
      }
    },
    {
      "type": "node",
      "id": 6415692718,
      "lat": 28.0434251,
      "lon": 86.5664238,
      "timestamp": "2019-04-19T08:10:27Z",
      "version": 1,
      "changeset": 69368719,
      "user": "gosausee",
      "uid": 110450,
      "tags": {
        "ele": "6778",
        "name": "Jobo Rinjang",
        "natural": "peak",
        "wikidata": "Q20757611",
        "wikipedia": "de:Jobo Rinjang"
      }
    },
    {
      "type": "node",
      "id": 6415692719,
      "lat": 28.0535945,
      "lon": 86.5500784,
      "timestamp": "2019-04-19T08:10:27Z",
      "version": 1,
      "changeset": 69368719,
      "user": "gosausee",
      "uid": 110450,
      "tags": {
        "ele": "6895",
        "name": "Lunag Ri",
        "natural": "peak",
        "wikidata": "Q20757628",
        "wikipedia": "de:Lunag Ri"
      }
    },
    {
      "type": "node",
      "id": 6468145105,
      "lat": 27.8101228,
      "lon": 87.0808545,
      "timestamp": "2019-05-12T14:29:35Z",
      "version": 1,
      "changeset": 70162064,
      "user": "cschab",
      "uid": 7004132,
      "tags": {
        "amenity": "shelter"
      }
    },
    {
      "type": "node",
      "id": 6468145106,
      "lat": 27.8099939,
      "lon": 87.0807481,
      "timestamp": "2019-05-12T14:29:36Z",
      "version": 1,
      "changeset": 70162064,
      "user": "cschab",
      "uid": 7004132,
      "tags": {
        "name:en": "Shersong",
        "tourism": "camp_site"
      }
    },
    {
      "type": "node",
      "id": 6468145112,
      "lat": 27.7876699,
      "lon": 87.1558736,
      "timestamp": "2019-05-12T14:29:48Z",
      "version": 1,
      "changeset": 70162064,
      "user": "cschab",
      "uid": 7004132,
      "tags": {
        "amenity": "shelter"
      }
    },
    {
      "type": "node",
      "id": 6468145299,
      "lat": 27.7729484,
      "lon": 87.1535556,
      "timestamp": "2019-05-12T14:29:33Z",
      "version": 1,
      "changeset": 70162064,
      "user": "cschab",
      "uid": 7004132,
      "tags": {
        "name:en": "Shepherd's Hut Nghe Kharka",
        "tourism": "wilderness_hut"
      }
    },
    {
      "type": "node",
      "id": 6865012686,
      "lat": 27.9807787,
      "lon": 86.8293134,
      "timestamp": "2021-07-27T12:11:13Z",
      "version": 3,
      "changeset": 108688776,
      "user": "Cascafico",
      "uid": 361003,
      "tags": {
        "name": "सगरमाथा इन",
        "name:en": "Everest Inn",
        "name:ne": "सगरमाथा इन",
        "tourism": "alpine_hut"
      }
    },
    {
      "type": "node",
      "id": 7040373086,
      "lat": 27.8335918,
      "lon": 86.6514309,
      "timestamp": "2019-12-07T12:58:37Z",
      "version": 1,
      "changeset": 78086336,
      "user": "nickjohnston",
      "uid": 2014259,
      "tags": {
        "amenity": "shelter"
      }
    },
    {
      "type": "node",
      "id": 8365456320,
      "lat": 27.8556084,
      "lon": 87.059778,
      "timestamp": "2021-01-26T21:24:51Z",
      "version": 1,
      "changeset": 98184647,
      "user": "Vladimir  Gasenko",
      "uid": 6636271,
      "tags": {
        "name:en": "Swiss Base Camp",
        "tourism": "camp_site"
      }
    },
    {
      "type": "node",
      "id": 8827029797,
      "lat": 27.9882393,
      "lon": 86.925017,
      "timestamp": "2021-07-25T07:34:35Z",
      "version": 4,
      "changeset": 108554967,
      "user": "BartekChom",
      "uid": 10743925,
      "tags": {
        "alt_name": "Chomolungma",
        "alt_name:be": "гара Эверэст;гара Сагарматха",
        "alt_name:ja": "聖母峰",
        "alt_name:ko": "주무랑마봉;성모봉",
        "alt_name:pl": "Czomolungma",
        "alt_name:ru": "гора Эверест;гора Сагарматха",
        "alt_name:uk": "гора Еверест;гора Саґарматха",
        "alt_name:vi": "Thánh Mẫu Phong",
        "alt_name:zh": "圣母峰",
        "alt_name:zh-Hans": "圣母峰",
        "alt_name:zh-Hant": "聖母峰",
        "alt_name:zh_pinyin": "Shèngmǔfēng",
        "ele": "8848.86",
        "importance": "international",
        "int_name": "Everest",
        "isolation": "20000",
        "name": "珠穆朗玛峰/सगरमाथा",
        "name:am": "ኤቨረስት ተራራ",
        "name:an": "Everest",
        "name:ar": "جبل إفرست",
        "name:ast": "Everest",
        "name:az": "Everest dağı",
        "name:ba": "Джомолунгма",
        "name:be": "Джамалунгма (Сагарматха)",
        "name:bg": "Еверест",
        "name:bh": "सगरमाथा",
        "name:bn": "মাউন্ট এভারেস্ট",
        "name:bo": "ཇོ་མོ་གླང་མ",
        "name:br": "Menez Everest",
        "name:ca": "Everest",
        "name:cs": "Everest",
        "name:cy": "Mynydd Everest",
        "name:de": "Mount Everest",
        "name:dv": "އެވަރެސްޓް ފަރުބަދަ",
        "name:el": "Έβερεστ",
        "name:en": "Mount Everest",
        "name:eo": "Ĉomolungmo",
        "name:es": "Monte Everest",
        "name:et": "Džomolungma",
        "name:eu": "Everest",
        "name:fa": "قله اورست",
        "name:ga": "Sliabh Everest (Teomólungma)",
        "name:gd": "Beinn Everest",
        "name:gl": "Everest",
        "name:gn": "Éverest",
        "name:gu": "માઉન્ટ એવરેસ્ટ",
        "name:he": "אוורסט",
        "name:hi": "एवरेस्ट पर्वत",
        "name:hu": "Csomolungma",
        "name:hy": "Էվերեստ",
        "name:id": "Gunung Everest",
        "name:io": "Monto Everest",
        "name:is": "Everestfjall",
        "name:it": "Everest",
        "name:ja": "エベレスト",
        "name:ka": "ევერესტი",
        "name:kk": "Джомолунгма",
        "name:kn": "ಮೌಂಟ್ ಎವರೆಸ್ಟ್",
        "name:ko": "에베레스트산",
        "name:ku": "Çiyayê Everest",
        "name:kw": "Menydh Everest",
        "name:la": "Everestius mons",
        "name:lt": "Džomolungma",
        "name:lv": "Everests",
        "name:mk": "Монт Еверест",
        "name:ml": "എവറസ്റ്റ്‌ കൊടുമുടി",
        "name:mn": "Жомолунгма",
        "name:mr": "एव्हरेस्ट",
        "name:ms": "Gunung Everest",
        "name:my": "ဧဝရတ်တောင်",
        "name:ne": "सगरमाथा चुचुरो",
        "name:oc": "Mont Everest",
        "name:or": "ମାଉଣ୍ଟ ଏଭରେଷ୍ଟ",
        "name:os": "Джомолунгмæ",
        "name:pa": "ਮਾਊਂਟ ਐਵਰੈਸਟ",
        "name:pt": "Monte Everest",
        "name:qu": "Chomolungma",
        "name:ro": "Everest",
        "name:ru": "гора Джомолунгма (Сагарматха)",
        "name:sa": "देवगिरि पर्वतः",
        "name:si": "එවරස්ට් කන්ද",
        "name:sr": "Монт Еверест",
        "name:sw": "Everest (mlima)",
        "name:ta": "எவரெசுட்டு சிகரம்",
        "name:te": "ఎవరెస్టు పర్వతం",
        "name:th": "ยอดเขาเอเวอเรสต์",
        "name:tk": "Jomolungma",
        "name:tl": "Bundok Everest",
        "name:tr": "Everest Dağı",
        "name:tt": "Джомолунгма",
        "name:ug": "ئېۋېرېست",
        "name:uk": "гора Джомолунґма (Саґарматха)",
        "name:ur": "ماؤنٹ ایورسٹ",
        "name:vi": "Everest",
        "name:yi": "עווערעסט",
        "name:zh": "珠穆朗玛峰",
        "name:zh-Hans": "珠穆朗玛峰",
        "name:zh_pinyin": "Zhūmùlǎngmǎ Fēng",
        "natural": "peak",
        "note": "2020-12-08 Height recently recalculated as 8848.86 meters. Rounded up to 8849.",
        "prominence": "8848,86",
        "sorting_name:ru": "Джомолунгма (Сагарматха) гора",
        "source": "Ev-K2-CNR 2004",
        "source:position": "Strava",
        "wikidata": "Q513",
        "wikipedia": "zh:珠穆朗瑪峰"
      }
    },
    {
      "type": "way",
      "id": 36479489,
      "timestamp": "2021-08-03T12:41:34Z",
      "version": 8,
      "changeset": 109094108,
      "user": "Cascafico",
      "uid": 361003,
      "center": {
        "lat": 27.8548203,
        "lon": 86.8256301
      },
      "nodes": [],
      "tags": {
        "ele": "4600",
        "name": "Base Camp Amadablam",
        "name:en": "Ama Dablam Base Camp",
        "tourism": "camp_site"
      }
    },
    {
      "type": "way",
      "id": 245649980,
      "timestamp": "2018-03-22T04:43:09Z",
      "version": 2,
      "changeset": 57408556,
      "user": "hengcuo",
      "uid": 7896761,
      "center": {
        "lat": 28.1696246,
        "lon": 86.8405884
      },
      "nodes": [],
      "tags": {
        "name": "新大本营",
        "tourism": "camp_site"
      }
    },
    {
      "type": "way",
      "id": 312775875,
      "timestamp": "2014-11-14T14:14:40Z",
      "version": 1,
      "changeset": 26777865,
      "user": "palimpadum",
      "uid": 155936,
      "center": {
        "lat": 27.8045802,
        "lon": 86.7133623
      },
      "nodes": [],
      "tags": {
        "tourism": "camp_site"
      }
    },
    {
      "type": "way",
      "id": 316033105,
      "timestamp": "2018-01-06T10:28:30Z",
      "version": 2,
      "changeset": 55207643,
      "user": "paleshukgeo",
      "uid": 3878864,
      "center": {
        "lat": 27.9045141,
        "lon": 86.8724171
      },
      "nodes": [],
      "tags": {
        "tourism": "camp_site"
      }
    },
    {
      "type": "way",
      "id": 319370055,
      "timestamp": "2018-11-08T15:47:16Z",
      "version": 2,
      "changeset": 64296822,
      "user": "Insensitive_Clod",
      "uid": 8395734,
      "center": {
        "lat": 27.7518467,
        "lon": 86.7105849
      },
      "nodes": [],
      "tags": {
        "amenity": "shop",
        "building": "yes",
        "name": "General store",
        "shop": "convenience"
      }
    },
    {
      "type": "way",
      "id": 343642684,
      "timestamp": "2018-06-10T10:14:22Z",
      "version": 2,
      "changeset": 59707957,
      "user": "Insensitive_Clod",
      "uid": 8395734,
      "center": {
        "lat": 27.7180214,
        "lon": 86.7160758
      },
      "nodes": [],
      "tags": {
        "building": "yes",
        "name": "Shop & Go",
        "shop": "convenience"
      }
    },
    {
      "type": "way",
      "id": 345405957,
      "timestamp": "2018-11-08T15:47:15Z",
      "version": 2,
      "changeset": 64296822,
      "user": "Insensitive_Clod",
      "uid": 8395734,
      "center": {
        "lat": 27.7416652,
        "lon": 86.7129503
      },
      "nodes": [],
      "tags": {
        "building": "yes",
        "name": "General shop",
        "shop": "convenience"
      }
    },
    {
      "type": "way",
      "id": 345577972,
      "timestamp": "2019-11-05T08:44:38Z",
      "version": 4,
      "changeset": 76632535,
      "user": "bcd4e6",
      "uid": 8407331,
      "center": {
        "lat": 27.9479678,
        "lon": 86.8103093
      },
      "nodes": [],
      "tags": {
        "ele": "4910",
        "landuse": "residential",
        "name": "Lobuche",
        "place": "village",
        "population": "32",
        "wikidata": "Q3294611",
        "wikipedia": "en:Lobuche, Nepal"
      }
    },
    {
      "type": "way",
      "id": 346552249,
      "timestamp": "2018-06-10T10:14:21Z",
      "version": 2,
      "changeset": 59707957,
      "user": "Insensitive_Clod",
      "uid": 8395734,
      "center": {
        "lat": 27.71172,
        "lon": 86.7139417
      },
      "nodes": [],
      "tags": {
        "building": "yes",
        "name": "Shop",
        "shop": "convenience"
      }
    },
    {
      "type": "way",
      "id": 346552300,
      "timestamp": "2018-06-10T10:14:22Z",
      "version": 2,
      "changeset": 59707957,
      "user": "Insensitive_Clod",
      "uid": 8395734,
      "center": {
        "lat": 27.7161519,
        "lon": 86.7146864
      },
      "nodes": [],
      "tags": {
        "building": "yes",
        "name": "Shop",
        "shop": "convenience"
      }
    },
    {
      "type": "way",
      "id": 352917786,
      "timestamp": "2018-06-10T10:14:21Z",
      "version": 2,
      "changeset": 59707957,
      "user": "Insensitive_Clod",
      "uid": 8395734,
      "center": {
        "lat": 27.7100018,
        "lon": 86.7146362
      },
      "nodes": [],
      "tags": {
        "building": "yes",
        "name": "Shop",
        "shop": "convenience"
      }
    },
    {
      "type": "way",
      "id": 494843641,
      "timestamp": "2017-05-20T11:44:30Z",
      "version": 1,
      "changeset": 48841152,
      "user": "bernykov",
      "uid": 2344961,
      "center": {
        "lat": 27.9027831,
        "lon": 86.9317735
      },
      "nodes": [],
      "tags": {
        "internet_access:fee": "no",
        "name": "Island Peak Base Camp",
        "tourism": "camp_site"
      }
    },
    {
      "type": "way",
      "id": 539950959,
      "timestamp": "2017-11-12T06:47:10Z",
      "version": 1,
      "changeset": 53705417,
      "user": "Yeti-17",
      "uid": 6969191,
      "center": {
        "lat": 27.8346899,
        "lon": 86.5719314
      },
      "nodes": [],
      "tags": {
        "amenity": "shelter",
        "building": "yes",
        "description": "build by: Yambu Thamichho Kydug; sponsored by: N.M.A.",
        "shelter_type": "basic_hut"
      }
    },
    {
      "type": "way",
      "id": 632426006,
      "timestamp": "2018-10-10T07:54:19Z",
      "version": 1,
      "changeset": 63370675,
      "user": "来自青山下",
      "uid": 2063851,
      "center": {
        "lat": 27.9926132,
        "lon": 87.1491417
      },
      "nodes": [],
      "tags": {
        "tourism": "wilderness_hut"
      }
    },
    {
      "type": "way",
      "id": 632426010,
      "timestamp": "2018-10-10T07:54:20Z",
      "version": 1,
      "changeset": 63370675,
      "user": "来自青山下",
      "uid": 2063851,
      "center": {
        "lat": 27.9969048,
        "lon": 87.1709601
      },
      "nodes": [],
      "tags": {
        "tourism": "wilderness_hut"
      }
    },
    {
      "type": "way",
      "id": 945972576,
      "timestamp": "2021-05-23T08:11:46Z",
      "version": 1,
      "changeset": 105155925,
      "user": "D-ECHO",
      "uid": 1585932,
      "center": {
        "lat": 27.7032425,
        "lon": 86.7179491
      },
      "nodes": [],
      "tags": {
        "landuse": "residential",
        "name": "Cheplung",
        "place": "village"
      }
    }
  ]
}