{
  "osm3s": {
    "timestamp_osm_date": "2022-02-23T23:59:59Z",
    "timestamp_osm_base": "2022-02-24T05:00:17Z",
    "copyright": "The data included in this document is from www.openstreetmap.org. The data is made available under ODbL."
  },
  "elements": [
    {
      "type": "node",
      "id": 29909361,
      "lat": 45.0809754,
      "lon": 13.6424024,
      "timestamp": "2018-07-30T23:16:03Z",
      "version": 54,
      "changeset": 61210834,
      "user": "Janjko",
      "uid": 244754,
      "tags": {
        "addr:postcode": "52210",
        "alt_name:la": "Ruvinium",
        "long_name:it": "Rovigno d'Istria",
        "name": "Rovinj",
        "name:de": "Rovinj",
        "name:hr": "Rovinj",
        "name:hu": "Rovinj",
        "name:it": "Rovigno d'Istria",
        "name:la": "Ruginium",
        "name:lt": "Rovinis",
        "name:ru": "Ровинь",
        "name:sr": "Ровињ",
        "official_name": "Rovinj - Rovigno",
        "old_name:de": "Ruwein",
        "old_name:la": "Arupinum",
        "place": "town",
        "population": "13056",
        "population:date": "2011-03-31",
        "source:population": "DZS 2011",
        "website": "http://www.rovinj.hr/rovinj/index.php",
        "wikidata": "Q5316",
        "wikipedia": "hr:Rovinj"
      }
    },
    {
      "type": "node",
      "id": 274887358,
      "lat": 44.9273327,
      "lon": 13.8050769,
      "timestamp": "2019-03-17T13:29:24Z",
      "version": 33,
      "changeset": 68228330,
      "user": "b-jazz-bot",
      "uid": 9451067,
      "tags": {
        "name": "Fažana",
        "name:hr": "Fažana",
        "name:it": "Fasana",
        "name:pl": "Fazana",
        "name:ru": "Фажана",
        "name:sr": "Фажана",
        "official_name": "Fažana - Fasana",
        "old_name:de": "Wazan",
        "place": "village",
        "population": "2009",
        "url": "http://www.adriagate.com/Chorwacja-pl/Fazana",
        "website": "https://www.fazana.hr/",
        "wikidata": "Q1024726",
        "wikipedia": "hr:Fažana"
      }
    },
    {
      "type": "node",
      "id": 274887648,
      "lat": 44.821786,
      "lon": 13.9367142,
      "timestamp": "2021-09-25T12:52:18Z",
      "version": 18,
      "changeset": 111686768,
      "user": "Badojo",
      "uid": 8189075,
      "tags": {
        "addr:postcode": "52203",
        "name": "Medulin",
        "name:hr": "Medulin",
        "name:it": "Medolino",
        "name:ru": "Медулин",
        "place": "village",
        "population": "2777",
        "population:date": "2011-03-31",
        "source:population": "DZS 2011",
        "website": "http://medulin.hr/",
        "wikidata": "Q1007517",
        "wikipedia": "hr:Medulin"
      }
    },
    {
      "type": "node",
      "id": 275677480,
      "lat": 45.041053,
      "lon": 13.786641,
      "timestamp": "2018-12-06T08:37:14Z",
      "version": 22,
      "changeset": 65230764,
      "user": "Badojo",
      "uid": 8189075,
      "tags": {
        "alt_name:it": "Valle d'Istria",
        "name": "Bale",
        "name:hr": "Bale",
        "name:it": "Valle",
        "name:la": "Castrum Vallis",
        "name:ru": "Бале",
        "official_name": "Bale - Valle",
        "place": "village",
        "population": "936",
        "website": "http://www.bale-valle.hr",
        "wikidata": "Q519226",
        "wikipedia": "hr:Bale"
      }
    },
    {
      "type": "node",
      "id": 307485222,
      "lat": 44.9098349,
      "lon": 13.9970004,
      "timestamp": "2021-08-07T07:36:09Z",
      "version": 7,
      "changeset": 109297406,
      "user": "Ramying",
      "uid": 668137,
      "tags": {
        "name": "Kavran",
        "name:it": "Cavrano",
        "place": "village",
        "population": "99",
        "population:date": "2011-03-31",
        "source:population": "DZS 2011",
        "wikidata": "Q1272399"
      }
    },
    {
      "type": "node",
      "id": 308376388,
      "lat": 44.9523608,
      "lon": 13.7981636,
      "timestamp": "2017-09-13T14:55:57Z",
      "version": 16,
      "changeset": 52009703,
      "user": "nyuriks",
      "uid": 339581,
      "tags": {
        "addr:postcode": "52215",
        "name": "Peroj",
        "name:hr": "Peroj",
        "name:it": "Peroi",
        "official_name": "Peroj - Peroi",
        "place": "village",
        "population": "833",
        "wikidata": "Q1938608",
        "wikipedia": "hr:Peroj"
      }
    },
    {
      "type": "node",
      "id": 318768726,
      "lat": 44.9276531,
      "lon": 14.0251487,
      "timestamp": "2013-06-14T12:41:19Z",
      "version": 3,
      "changeset": 16549871,
      "user": "filip55",
      "uid": 320873,
      "tags": {
        "name": "Duga Uvala",
        "place": "hamlet"
      }
    },
    {
      "type": "node",
      "id": 344145625,
      "lat": 44.8504628,
      "lon": 13.8441126,
      "timestamp": "2015-08-19T20:21:01Z",
      "version": 6,
      "changeset": 33449313,
      "user": "Chemist72",
      "uid": 2191019,
      "tags": {
        "name": "Grga",
        "opening_hours": "Mo-Sa 07:00-21:00; Su 07:00-14:00",
        "shop": "convenience"
      }
    },
    {
      "type": "node",
      "id": 395509226,
      "lat": 44.8248515,
      "lon": 13.8684859,
      "timestamp": "2021-09-25T11:00:16Z",
      "version": 9,
      "changeset": 111683360,
      "user": "Badojo",
      "uid": 8189075,
      "tags": {
        "addr:postcode": "52100",
        "name": "Banjole",
        "place": "village",
        "population": "983",
        "population:date": "2011-03-31",
        "source:population": "DZS 2011",
        "wikidata": "Q539317",
        "wikipedia": "hr:Banjole"
      }
    },
    {
      "type": "node",
      "id": 443061557,
      "lat": 45.0207972,
      "lon": 14.0567828,
      "timestamp": "2019-11-26T08:25:43Z",
      "version": 7,
      "changeset": 77560671,
      "user": "PavelPS",
      "uid": 25561,
      "tags": {
        "is_in": "Istria, Croatia, Europe",
        "name": "Trget",
        "place": "village",
        "population": "35",
        "population:date": "2011-03-31",
        "source:population": "DZS 2011",
        "wikidata": "Q1873387"
      }
    },
    {
      "type": "node",
      "id": 443703749,
      "lat": 44.8347832,
      "lon": 13.8683262,
      "timestamp": "2017-12-03T18:53:49Z",
      "version": 10,
      "changeset": 54305888,
      "user": "antal",
      "uid": 98294,
      "tags": {
        "addr:postcode": "52100",
        "name": "Vinkuran",
        "name:hr": "Vinkuran",
        "name:it": "Vincuran",
        "place": "village",
        "population": "672",
        "population:date": "2011-03-31",
        "source:population": "DZS 2011",
        "wikidata": "Q2368538",
        "wikipedia": "hr:Vinkuran"
      }
    },
    {
      "type": "node",
      "id": 443703750,
      "lat": 44.8359625,
      "lon": 13.86437,
      "timestamp": "2021-07-29T07:27:21Z",
      "version": 3,
      "changeset": 108801749,
      "user": "Martinummo",
      "uid": 6698832,
      "tags": {
        "name": "Tina Comerc",
        "shop": "supermarket"
      }
    },
    {
      "type": "node",
      "id": 464187462,
      "lat": 44.8368953,
      "lon": 13.8372207,
      "timestamp": "2015-08-23T20:09:35Z",
      "version": 6,
      "changeset": 33532345,
      "user": "Chemist72",
      "uid": 2191019,
      "tags": {
        "name": "Puljanka 134",
        "note": "opening hours may depend on number of tourists",
        "opening_hours": "Aug: Mo-Su 07:00-22:00; Sep-Jul: Mo-Su 07:00-20:30",
        "shop": "supermarket",
        "website": "http://www.puljanka.com/prodajna-mjesta/prodavaonica-134"
      }
    },
    {
      "type": "node",
      "id": 477372329,
      "lat": 44.9058492,
      "lon": 13.9576765,
      "timestamp": "2020-12-18T13:50:35Z",
      "version": 14,
      "changeset": 96074608,
      "user": "kdkeller",
      "uid": 43207,
      "tags": {
        "name": "Valtura",
        "name:hr": "Valtura",
        "name:it": "Altura",
        "official_name": "Valtura - Altura",
        "place": "village",
        "population": "875",
        "wikidata": "Q3057022"
      }
    },
    {
      "type": "node",
      "id": 477372331,
      "lat": 44.9244857,
      "lon": 13.9461881,
      "timestamp": "2020-12-18T13:50:29Z",
      "version": 13,
      "changeset": 96074608,
      "user": "kdkeller",
      "uid": 43207,
      "tags": {
        "name": "Muntić",
        "name:hr": "Muntić",
        "name:it": "Monticchio",
        "official_name": "Muntić - Monticchio",
        "place": "village",
        "population": "400",
        "wikidata": "Q2702694"
      }
    },
    {
      "type": "node",
      "id": 497527298,
      "lat": 44.8021166,
      "lon": 13.9111814,
      "timestamp": "2017-12-03T18:54:14Z",
      "version": 11,
      "changeset": 54305888,
      "user": "antal",
      "uid": 98294,
      "tags": {
        "addr:postcode": "52100",
        "name": "Premantura",
        "name:hr": "Premantura",
        "name:it": "Promontore",
        "place": "village",
        "population": "768",
        "population:date": "2011-03-31",
        "source:population": "DZS 2011",
        "wikidata": "Q974815",
        "wikipedia": "hr:Premantura"
      }
    },
    {
      "type": "node",
      "id": 517810457,
      "lat": 44.822974,
      "lon": 13.8772997,
      "timestamp": "2009-10-02T16:51:55Z",
      "version": 1,
      "changeset": 2714309,
      "user": "ontong1",
      "uid": 50056,
      "tags": {
        "name": "Mušoga",
        "place": "hamlet"
      }
    },
    {
      "type": "node",
      "id": 517839215,
      "lat": 44.819231,
      "lon": 13.8763925,
      "timestamp": "2014-02-18T12:48:43Z",
      "version": 3,
      "changeset": 20635726,
      "user": "Zeno Kugy",
      "uid": 1666292,
      "tags": {
        "name": "Volme",
        "name:it": "Olmi",
        "place": "hamlet"
      }
    },
    {
      "type": "node",
      "id": 517875503,
      "lat": 44.823321,
      "lon": 13.8957804,
      "timestamp": "2019-07-03T09:01:14Z",
      "version": 8,
      "changeset": 71850178,
      "user": "Johannes M",
      "uid": 4453208,
      "tags": {
        "addr:postcode": "52100",
        "name": "Pomer",
        "place": "village",
        "population": "462",
        "population:date": "2011-03-31",
        "source:population": "DZS 2011",
        "wikidata": "Q1012999",
        "wikipedia": "hr:Pomer"
      }
    },
    {
      "type": "node",
      "id": 517971298,
      "lat": 44.820075,
      "lon": 13.9022776,
      "timestamp": "2010-09-13T09:22:03Z",
      "version": 2,
      "changeset": 5767790,
      "user": "gscholz",
      "uid": 109705,
      "tags": {
        "tourism": "camp_site"
      }
    },
    {
      "type": "node",
      "id": 534726194,
      "lat": 44.9383687,
      "lon": 13.7952797,
      "timestamp": "2021-01-26T09:32:50Z",
      "version": 3,
      "changeset": 98159164,
      "user": "Badojo",
      "uid": 8189075,
      "tags": {
        "access": "customers",
        "addr:city": "Fažana",
        "addr:housenumber": "41",
        "addr:postcode": "52212",
        "addr:street": "Perojska cesta",
        "capacity": "600",
        "fee": "no",
        "internet_access": "wlan",
        "name": "Camp Pineta",
        "tourism": "camp_site"
      }
    },
    {
      "type": "node",
      "id": 560745349,
      "lat": 44.951659,
      "lon": 13.7981318,
      "timestamp": "2016-08-07T15:08:54Z",
      "version": 3,
      "changeset": 41306272,
      "user": "filip55",
      "uid": 320873,
      "tags": {
        "name": "Supermarket",
        "shop": "convenience"
      }
    },
    {
      "type": "node",
      "id": 564932190,
      "lat": 44.9537056,
      "lon": 13.8533466,
      "timestamp": "2019-03-23T19:57:32Z",
      "version": 11,
      "changeset": 68453907,
      "user": "b-jazz-bot",
      "uid": 9451067,
      "tags": {
        "addr:city": "Vodnjan",
        "addr:housenumber": "64",
        "addr:street": "Istarska",
        "name": "Konzum",
        "operator": "Konzum",
        "phone": "+385 800 400 000",
        "ref:vatin": "HR29955634590",
        "shop": "supermarket",
        "website": "https://www.konzum.hr/"
      }
    },
    {
      "type": "node",
      "id": 673411620,
      "lat": 44.9261122,
      "lon": 13.8049231,
      "timestamp": "2016-08-14T17:06:13Z",
      "version": 6,
      "changeset": 41450616,
      "user": "PrzemekP",
      "uid": 1244141,
      "tags": {
        "addr:city": "Fažana",
        "addr:housenumber": "15",
        "addr:postcode": "52212",
        "addr:street": "43. istarske divizije",
        "name": "Plus Market",
        "operator": "Miracolo Market",
        "payment:cash": "yes",
        "payment:mastercard": "yes",
        "payment:visa": "yes",
        "shop": "supermarket"
      }
    },
    {
      "type": "node",
      "id": 691747293,
      "lat": 44.828458,
      "lon": 13.9586273,
      "timestamp": "2017-09-13T14:55:59Z",
      "version": 13,
      "changeset": 52009703,
      "user": "nyuriks",
      "uid": 339581,
      "tags": {
        "addr:postcode": "52204",
        "name": "Ližnjan",
        "name:hr": "Ližnjan",
        "name:it": "Lisignano",
        "official_name": "Ližnjan - Lisignano",
        "place": "village",
        "population": "1340",
        "website": "www.liznjan.hr",
        "wikidata": "Q1077824",
        "wikipedia": "en:Ližnjan"
      }
    },
    {
      "type": "node",
      "id": 691747485,
      "lat": 44.8507468,
      "lon": 13.9426065,
      "timestamp": "2020-12-18T13:48:43Z",
      "version": 14,
      "changeset": 96074608,
      "user": "kdkeller",
      "uid": 43207,
      "tags": {
        "name": "Šišan",
        "name:hr": "Šišan",
        "name:it": "Sissano",
        "official_name": "Šišan - Sissano",
        "place": "village",
        "population": "849",
        "wikidata": "Q650882"
      }
    },
    {
      "type": "node",
      "id": 691747639,
      "lat": 44.8281201,
      "lon": 13.9597421,
      "timestamp": "2017-07-17T18:53:48Z",
      "version": 4,
      "changeset": 50359830,
      "user": "AlesKubr",
      "uid": 2125262,
      "tags": {
        "addr:city": "Ližnjan",
        "addr:housenumber": "2",
        "addr:postcode": "52204",
        "addr:street": "Put za Paleru",
        "name": "Market P-909 Ližnjan",
        "opening_hours": "07:00-21:00",
        "operator": "Istarski Supermarketi d.o.o.",
        "shop": "supermarket"
      }
    },
    {
      "type": "node",
      "id": 747786135,
      "lat": 45.0842967,
      "lon": 13.6473541,
      "timestamp": "2013-03-02T10:39:52Z",
      "version": 2,
      "changeset": 15219791,
      "user": "Janjko",
      "uid": 244754,
      "tags": {
        "name": "Diona",
        "ref:vatin": "HR41112127430",
        "shop": "supermarket"
      }
    },
    {
      "type": "node",
      "id": 770474649,
      "lat": 45.0849537,
      "lon": 13.8565724,
      "timestamp": "2021-02-02T21:24:43Z",
      "version": 9,
      "changeset": 98602586,
      "user": "Arisuaq",
      "uid": 8660990,
      "tags": {
        "name": "Raponji",
        "place": "village",
        "population": "66",
        "population:date": "2011-03-31",
        "source:population": "DZS 2011"
      }
    },
    {
      "type": "node",
      "id": 841811174,
      "lat": 45.0402298,
      "lon": 13.7836204,
      "timestamp": "2019-04-04T14:23:18Z",
      "version": 9,
      "changeset": 68884839,
      "user": "morlautrer",
      "uid": 38844,
      "tags": {
        "name": "Butiga Ultra",
        "opening_hours": "Mo-Sa 06:30-20:00, Su 07:00-14:00",
        "shop": "supermarket",
        "website": "http://butigaultra.hr/de/stores/bale/"
      }
    },
    {
      "type": "node",
      "id": 848254149,
      "lat": 44.8380234,
      "lon": 13.8480592,
      "timestamp": "2017-12-03T18:55:21Z",
      "version": 10,
      "changeset": 54305888,
      "user": "antal",
      "uid": 98294,
      "tags": {
        "addr:postcode": "52100",
        "name": "Pješčana Uvala",
        "name:hr": "Pješčana Uvala",
        "name:it": "Valsabbion",
        "place": "village",
        "population": "606",
        "population:date": "2011-03-31",
        "source:population": "DZS 2011",
        "wikidata": "Q2554394",
        "wikipedia": "hr:Pješčana Uvala"
      }
    },
    {
      "type": "node",
      "id": 877004016,
      "lat": 44.8288256,
      "lon": 13.8430066,
      "timestamp": "2017-01-23T08:07:58Z",
      "version": 3,
      "changeset": 45388913,
      "user": "pavlina88",
      "uid": 3666419,
      "tags": {
        "name": "Fratarski",
        "tourism": "camp_site"
      }
    },
    {
      "type": "node",
      "id": 877012325,
      "lat": 44.8265301,
      "lon": 13.8603376,
      "timestamp": "2015-04-22T08:02:55Z",
      "version": 5,
      "changeset": 30398028,
      "user": "morlautrer",
      "uid": 38844,
      "tags": {
        "name": "Kaštanjež",
        "place": "hamlet"
      }
    },
    {
      "type": "node",
      "id": 877059636,
      "lat": 44.8239839,
      "lon": 13.8518849,
      "timestamp": "2021-08-02T18:30:39Z",
      "version": 3,
      "changeset": 109047479,
      "user": "Martinummo",
      "uid": 6698832,
      "tags": {
        "name": "Oliva",
        "tourism": "camp_site"
      }
    },
    {
      "type": "node",
      "id": 898066834,
      "lat": 44.8105954,
      "lon": 13.9293952,
      "timestamp": "2018-09-02T09:11:22Z",
      "version": 5,
      "changeset": 62214339,
      "user": "vice",
      "uid": 151346,
      "tags": {
        "name": "Istrian Supermarkets",
        "opening_hours": "Mo-Su 07:30-21:00",
        "shop": "supermarket",
        "wheelchair": "no"
      }
    },
    {
      "type": "node",
      "id": 899598095,
      "lat": 44.8195074,
      "lon": 13.9328505,
      "timestamp": "2021-08-03T16:41:48Z",
      "version": 4,
      "changeset": 109104868,
      "user": "PrzemekP",
      "uid": 1244141,
      "tags": {
        "addr:city": "Medulin",
        "addr:housenumber": "114",
        "addr:postcode": "52203",
        "addr:street": "Brajdine",
        "brand": "Konzum",
        "brand:wikidata": "Q518563",
        "brand:wikipedia": "hr:Konzum",
        "name": "Konzum",
        "ref:vatin": "HR29955634590",
        "shop": "convenience",
        "wheelchair": "yes"
      }
    },
    {
      "type": "node",
      "id": 899598210,
      "lat": 44.8197362,
      "lon": 13.9371017,
      "timestamp": "2020-03-12T17:41:07Z",
      "version": 2,
      "changeset": 82123708,
      "user": "xymaru",
      "uid": 10549651,
      "tags": {
        "name": "Studenac",
        "shop": "convenience"
      }
    },
    {
      "type": "node",
      "id": 900699426,
      "lat": 44.8113563,
      "lon": 13.9145384,
      "timestamp": "2021-10-01T15:17:36Z",
      "version": 3,
      "changeset": 111968851,
      "user": "joost schouppe",
      "uid": 67832,
      "tags": {
        "name": "Camping Arena Tasalera",
        "tourism": "camp_site"
      }
    },
    {
      "type": "node",
      "id": 902327233,
      "lat": 44.8023643,
      "lon": 13.9101682,
      "timestamp": "2021-08-03T06:55:10Z",
      "version": 4,
      "changeset": 109070312,
      "user": "PrzemekP",
      "uid": 1244141,
      "tags": {
        "addr:city": "Premantura",
        "name": "Butiga ultra",
        "shop": "supermarket"
      }
    },
    {
      "type": "node",
      "id": 910384283,
      "lat": 44.825527,
      "lon": 13.8775185,
      "timestamp": "2010-09-13T09:08:20Z",
      "version": 1,
      "changeset": 5767652,
      "user": "gscholz",
      "uid": 109705,
      "tags": {
        "name": "Kamik",
        "place": "hamlet"
      }
    },
    {
      "type": "node",
      "id": 910427029,
      "lat": 44.9283661,
      "lon": 13.9992594,
      "timestamp": "2020-06-17T13:02:38Z",
      "version": 6,
      "changeset": 86775773,
      "user": "PavelPS",
      "uid": 25561,
      "tags": {
        "name": "Pavićini",
        "place": "village",
        "population": "68",
        "population:date": "2011-03-31",
        "source:population": "DZS 2011",
        "wikidata": "Q429929"
      }
    },
    {
      "type": "node",
      "id": 932214470,
      "lat": 45.0686879,
      "lon": 13.8593843,
      "timestamp": "2018-10-27T10:16:13Z",
      "version": 8,
      "changeset": 63924004,
      "user": "Badojo",
      "uid": 8189075,
      "tags": {
        "name": "Kranjčići",
        "place": "village",
        "population": "80",
        "population:date": "2011-03-31",
        "source:population": "DZS 2011"
      }
    },
    {
      "type": "node",
      "id": 932214505,
      "lat": 45.0783825,
      "lon": 13.8725907,
      "timestamp": "2015-10-10T17:22:29Z",
      "version": 2,
      "changeset": 34553854,
      "user": "skrtaca",
      "uid": 776457,
      "tags": {
        "name": "Šikuti",
        "place": "hamlet"
      }
    },
    {
      "type": "node",
      "id": 983949796,
      "lat": 45.077401,
      "lon": 13.6423925,
      "timestamp": "2016-03-10T12:44:58Z",
      "version": 3,
      "changeset": 37733157,
      "user": "morlautrer",
      "uid": 38844,
      "tags": {
        "name": "Konzum",
        "ref:vatin": "HR29955634590",
        "shop": "convenience"
      }
    },
    {
      "type": "node",
      "id": 1158593822,
      "lat": 44.824481,
      "lon": 13.8964509,
      "timestamp": "2013-03-01T22:13:12Z",
      "version": 3,
      "changeset": 15215524,
      "user": "Janjko",
      "uid": 244754,
      "tags": {
        "name": "Konzum",
        "ref:vatin": "HR29955634590",
        "shop": "supermarket",
        "wheelchair": "yes"
      }
    },
    {
      "type": "node",
      "id": 1324009279,
      "lat": 44.8217576,
      "lon": 13.9013744,
      "timestamp": "2011-06-13T16:52:06Z",
      "version": 1,
      "changeset": 8428693,
      "user": "domdfa",
      "uid": 453518,
      "tags": {
        "name": "MARKET",
        "shop": "convenience"
      }
    },
    {
      "type": "node",
      "id": 1359593614,
      "lat": 44.9107074,
      "lon": 13.8222849,
      "timestamp": "2011-07-12T16:20:28Z",
      "version": 1,
      "changeset": 8704707,
      "user": "SYNERGY",
      "uid": 487168,
      "tags": {
        "name": "Miracolo",
        "shop": "supermarket"
      }
    },
    {
      "type": "node",
      "id": 1385072398,
      "lat": 45.0743127,
      "lon": 13.6496166,
      "timestamp": "2019-07-28T11:02:11Z",
      "version": 9,
      "changeset": 72735212,
      "user": "Fuss-im-Ohr",
      "uid": 59819,
      "tags": {
        "addr:city": "Rovinj",
        "addr:country": "CR",
        "addr:housenumber": "24",
        "addr:street": "Ulica Marka Marulića",
        "name": "Konzum",
        "name:hr": "konzum Curto",
        "opening_hours": "Mo-Sa 07:00-20:00; Su 08:00-15:00",
        "ref:vatin": "HR29955634590",
        "shop": "supermarket",
        "source": "survey"
      }
    },
    {
      "type": "node",
      "id": 1400090462,
      "lat": 44.8013636,
      "lon": 13.9092305,
      "timestamp": "2012-01-31T23:37:54Z",
      "version": 2,
      "changeset": 10554917,
      "user": "SilverSpace",
      "uid": 176920,
      "tags": {
        "amenity": "drinking_water"
      }
    },
    {
      "type": "node",
      "id": 1401136873,
      "lat": 44.9621421,
      "lon": 13.8455615,
      "timestamp": "2011-09-24T20:14:01Z",
      "version": 3,
      "changeset": 9387559,
      "user": "filip55",
      "uid": 320873,
      "tags": {
        "name": "Stanić",
        "shop": "convenience"
      }
    },
    {
      "type": "node",
      "id": 1401136889,
      "lat": 44.8753888,
      "lon": 13.8502275,
      "timestamp": "2015-08-15T11:46:27Z",
      "version": 7,
      "changeset": 33351008,
      "user": "skrtaca",
      "uid": 776457,
      "tags": {
        "amenity": "fuel",
        "brand": "Lukoil",
        "fuel:diesel": "yes",
        "fuel:octane_95": "yes",
        "name": "Lukoil",
        "opening_hours": "Mo-Su 06:00-24:00",
        "operator": "LUKOIL Croatia d.o.o.",
        "shop": "convenience",
        "source": "local knowledge",
        "wheelchair": "limited"
      }
    },
    {
      "type": "node",
      "id": 1419598299,
      "lat": 44.8239311,
      "lon": 13.9320698,
      "timestamp": "2018-07-13T17:16:13Z",
      "version": 4,
      "changeset": 60694559,
      "user": "Janjko",
      "uid": 244754,
      "tags": {
        "addr:city": "Medulin",
        "addr:housenumber": "bb",
        "addr:postcode": "52203",
        "addr:street": "Munida",
        "name": "Diskont Stanić",
        "opening_hours": "Mo-Su 08:00-20:00",
        "operator": "Stanić d.o.o.",
        "shop": "supermarket",
        "website": "http://stanic.hr"
      }
    },
    {
      "type": "node",
      "id": 1440379244,
      "lat": 44.8523513,
      "lon": 13.941536,
      "timestamp": "2018-08-24T09:50:09Z",
      "version": 3,
      "changeset": 61948326,
      "user": "Jokus13",
      "uid": 716470,
      "tags": {
        "name": "Butiga Šišan",
        "opening_hours": "Mo-Sa 07:00-20:00; Su 07:00-13:00",
        "payment:cash": "yes",
        "payment:visa": "yes",
        "shop": "supermarket"
      }
    },
    {
      "type": "node",
      "id": 1449551588,
      "lat": 44.8831889,
      "lon": 13.9642205,
      "timestamp": "2020-06-19T06:03:06Z",
      "version": 4,
      "changeset": 86856131,
      "user": "Arisuaq",
      "uid": 8660990,
      "tags": {
        "name": "Ušićevi Dvori",
        "place": "hamlet"
      }
    },
    {
      "type": "node",
      "id": 1459076078,
      "lat": 45.0798218,
      "lon": 13.7714085,
      "timestamp": "2021-02-02T15:15:29Z",
      "version": 7,
      "changeset": 98586590,
      "user": "Arisuaq",
      "uid": 8660990,
      "tags": {
        "name": "Golaš",
        "place": "village",
        "population": "114",
        "population:date": "2011-03-31",
        "source:population": "DZS 2011"
      }
    },
    {
      "type": "node",
      "id": 1460323528,
      "lat": 45.0783652,
      "lon": 13.8975045,
      "timestamp": "2021-02-02T15:15:29Z",
      "version": 9,
      "changeset": 98586590,
      "user": "Arisuaq",
      "uid": 8660990,
      "tags": {
        "name": "Peresiji",
        "place": "village",
        "population": "37",
        "population:date": "2011-03-31",
        "source:population": "DZS 2011"
      }
    },
    {
      "type": "node",
      "id": 1468418854,
      "lat": 45.0811374,
      "lon": 13.8209566,
      "timestamp": "2021-02-02T15:15:29Z",
      "version": 9,
      "changeset": 98586590,
      "user": "Arisuaq",
      "uid": 8660990,
      "tags": {
        "name": "Krmed",
        "name:it": "Carmedo",
        "place": "village",
        "population": "77",
        "population:date": "2011-03-31",
        "source": "http://www.places-in-the-world.com",
        "source:population": "DZS 2011"
      }
    },
    {
      "type": "node",
      "id": 1468479444,
      "lat": 45.0678702,
      "lon": 13.946077,
      "timestamp": "2021-02-02T18:01:44Z",
      "version": 6,
      "changeset": 98594268,
      "user": "Arisuaq",
      "uid": 8660990,
      "tags": {
        "name": "Orihi",
        "place": "village",
        "population": "116",
        "population:date": "2011-03-31",
        "source": "http://www.places-in-the-world.com",
        "source:population": "DZS 2011"
      }
    },
    {
      "type": "node",
      "id": 1468480796,
      "lat": 45.075927,
      "lon": 13.8943625,
      "timestamp": "2021-03-19T12:27:34Z",
      "version": 9,
      "changeset": 101329577,
      "user": "Alessandro Sgambati",
      "uid": 38061,
      "tags": {
        "name": "Pusti",
        "old_name:it": "Radigosa",
        "place": "village",
        "population": "38",
        "population:date": "2011-03-31",
        "source:population": "DZS 2011"
      }
    },
    {
      "type": "node",
      "id": 1468819190,
      "lat": 45.017124,
      "lon": 13.8829035,
      "timestamp": "2013-03-27T19:35:12Z",
      "version": 3,
      "changeset": 15519423,
      "user": "skrtaca",
      "uid": 776457,
      "tags": {
        "name": "Bankovići",
        "place": "hamlet"
      }
    },
    {
      "type": "node",
      "id": 1468819191,
      "lat": 45.0206396,
      "lon": 13.8932818,
      "timestamp": "2013-03-05T17:24:50Z",
      "version": 2,
      "changeset": 15261033,
      "user": "skrtaca",
      "uid": 776457,
      "tags": {
        "name": "Bonašini",
        "place": "hamlet"
      }
    },
    {
      "type": "node",
      "id": 1468819192,
      "lat": 45.0112724,
      "lon": 13.9092819,
      "timestamp": "2017-12-03T18:56:59Z",
      "version": 6,
      "changeset": 54305888,
      "user": "antal",
      "uid": 98294,
      "tags": {
        "name": "Butkovići",
        "place": "village",
        "population": "186",
        "population:date": "2011-03-31",
        "source:population": "DZS 2011"
      }
    },
    {
      "type": "node",
      "id": 1468819193,
      "lat": 44.9994452,
      "lon": 13.9555256,
      "timestamp": "2021-02-02T21:24:43Z",
      "version": 8,
      "changeset": 98602586,
      "user": "Arisuaq",
      "uid": 8660990,
      "tags": {
        "name": "Filipana",
        "old_name:it": "Filippano",
        "place": "village",
        "population": "97",
        "population:date": "2011-03-31",
        "source:population": "DZS 2011"
      }
    },
    {
      "type": "node",
      "id": 1468819194,
      "lat": 45.0210232,
      "lon": 13.8769618,
      "timestamp": "2021-02-02T21:24:43Z",
      "version": 9,
      "changeset": 98602586,
      "user": "Arisuaq",
      "uid": 8660990,
      "tags": {
        "name": "Juršići",
        "place": "village",
        "population": "181",
        "population:date": "2011-03-31",
        "source:population": "DZS 2011"
      }
    },
    {
      "type": "node",
      "id": 1468821929,
      "lat": 45.0494087,
      "lon": 13.9782287,
      "timestamp": "2021-02-02T21:24:43Z",
      "version": 7,
      "changeset": 98602586,
      "user": "Arisuaq",
      "uid": 8660990,
      "tags": {
        "name": "Želiski",
        "place": "village",
        "population": "171",
        "population:date": "2011-03-31",
        "source": "http://www.places-in-the-world.com/3186594-hr-place-zeliski.html",
        "source:population": "DZS 2011"
      }
    },
    {
      "type": "node",
      "id": 1469152254,
      "lat": 45.0073822,
      "lon": 13.8317988,
      "timestamp": "2021-02-02T15:15:29Z",
      "version": 17,
      "changeset": 98586590,
      "user": "Arisuaq",
      "uid": 8660990,
      "tags": {
        "addr:postcode": "52215",
        "name": "Gajana",
        "name:hr": "Gajana",
        "name:it": "Gaiana",
        "official_name": "Gajana - Gaiana",
        "place": "village",
        "population": "172",
        "wikidata": "Q2854330",
        "wikipedia": "hr:Gajana"
      }
    },
    {
      "type": "node",
      "id": 1469183723,
      "lat": 44.9596839,
      "lon": 13.9849106,
      "timestamp": "2021-05-05T16:25:05Z",
      "version": 9,
      "changeset": 104196962,
      "user": "kvjk",
      "uid": 485392,
      "tags": {
        "name": "Mutvoran",
        "name:it": "Momorano",
        "place": "village",
        "population": "25",
        "population:date": "2011-03-31",
        "source:population": "DZS 2011"
      }
    },
    {
      "type": "node",
      "id": 1469185949,
      "lat": 44.9830267,
      "lon": 13.940149,
      "timestamp": "2017-12-03T18:56:59Z",
      "version": 5,
      "changeset": 54305888,
      "user": "antal",
      "uid": 98294,
      "tags": {
        "name": "Šarići",
        "place": "village",
        "population": "77",
        "population:date": "2011-03-31",
        "source:population": "DZS 2011"
      }
    },
    {
      "type": "node",
      "id": 1475763649,
      "lat": 45.0642211,
      "lon": 13.9105874,
      "timestamp": "2021-03-15T07:38:44Z",
      "version": 8,
      "changeset": 101030345,
      "user": "Alessandro Sgambati",
      "uid": 38061,
      "tags": {
        "name": "Bokordići",
        "note": "http://www.geographic.org/geographic_names/name.php?uni=-110808&fid=2300&c=croatia",
        "old_name:it": "Boccordich",
        "place": "village",
        "population": "76",
        "population:date": "2011-03-31",
        "source:population": "DZS 2011"
      }
    },
    {
      "type": "node",
      "id": 1475764046,
      "lat": 45.0454464,
      "lon": 13.908089,
      "timestamp": "2021-02-02T15:15:29Z",
      "version": 9,
      "changeset": 98586590,
      "user": "Arisuaq",
      "uid": 8660990,
      "tags": {
        "name": "Režanci",
        "note": "http://www.geographic.org/geographic_names/name.php?uni=-137621&fid=2307&c=croatia",
        "place": "village",
        "population": "219",
        "population:date": "2011-03-31",
        "source:population": "DZS 2011",
        "wikidata": "Q3428982"
      }
    },
    {
      "type": "node",
      "id": 1475764047,
      "lat": 45.0501185,
      "lon": 13.8923751,
      "timestamp": "2021-02-02T15:15:29Z",
      "version": 8,
      "changeset": 98586590,
      "user": "Arisuaq",
      "uid": 8660990,
      "tags": {
        "name": "Štokovci",
        "place": "village",
        "population": "164",
        "population:date": "2011-03-31",
        "source:population": "DZS 2011"
      }
    },
    {
      "type": "node",
      "id": 1475880978,
      "lat": 45.0252629,
      "lon": 13.9311417,
      "timestamp": "2017-12-03T18:56:59Z",
      "version": 6,
      "changeset": 54305888,
      "user": "antal",
      "uid": 98294,
      "tags": {
        "name": "Bičići",
        "note": "http://www.geographic.org/geographic_names/name.php?uni=-109920&fid=2316&c=croatia",
        "place": "village",
        "population": "69",
        "population:date": "2011-03-31",
        "source:population": "DZS 2011"
      }
    },
    {
      "type": "node",
      "id": 1475880979,
      "lat": 45.0205897,
      "lon": 13.9566648,
      "timestamp": "2021-02-02T18:01:44Z",
      "version": 6,
      "changeset": 98594268,
      "user": "Arisuaq",
      "uid": 8660990,
      "tags": {
        "name": "Glavani",
        "note": "http://www.geographic.org/geographic_names/name.php?uni=-118176&fid=2311&c=croatia",
        "place": "village",
        "population": "77",
        "population:date": "2011-03-31",
        "source:population": "DZS 2011"
      }
    },
    {
      "type": "node",
      "id": 1475883031,
      "lat": 45.0326478,
      "lon": 13.942477,
      "timestamp": "2021-02-02T18:01:44Z",
      "version": 9,
      "changeset": 98594268,
      "user": "Arisuaq",
      "uid": 8660990,
      "tags": {
        "name": "Šajini",
        "note": "http://www.geographic.org/geographic_names/name.php?uni=-138431&fid=2296&c=croatia",
        "place": "village",
        "population": "190",
        "population:date": "2011-03-31",
        "source:population": "DZS 2011",
        "wikidata": "Q2621631"
      }
    },
    {
      "type": "node",
      "id": 1475925809,
      "lat": 44.9922201,
      "lon": 13.9307655,
      "timestamp": "2017-12-03T18:57:00Z",
      "version": 8,
      "changeset": 54305888,
      "user": "antal",
      "uid": 98294,
      "tags": {
        "name": "Divšići",
        "place": "village",
        "population": "177",
        "population:date": "2011-03-31",
        "source:population": "DZS 2011"
      }
    },
    {
      "type": "node",
      "id": 1475925819,
      "lat": 45.0089,
      "lon": 13.9751754,
      "timestamp": "2021-02-02T21:24:43Z",
      "version": 9,
      "changeset": 98602586,
      "user": "Arisuaq",
      "uid": 8660990,
      "tags": {
        "name": "Manjadvorci",
        "place": "village",
        "population": "187",
        "population:date": "2011-03-31",
        "source:population": "DZS 2011"
      }
    },
    {
      "type": "node",
      "id": 1475925820,
      "lat": 44.9995524,
      "lon": 13.9261073,
      "timestamp": "2012-12-23T17:17:06Z",
      "version": 2,
      "changeset": 14380576,
      "user": "skrtaca",
      "uid": 776457,
      "tags": {
        "name": "Matelići",
        "place": "hamlet"
      }
    },
    {
      "type": "node",
      "id": 1484702677,
      "lat": 45.0252319,
      "lon": 13.8597071,
      "timestamp": "2021-02-02T19:22:54Z",
      "version": 7,
      "changeset": 98597269,
      "user": "Arisuaq",
      "uid": 8660990,
      "tags": {
        "name": "Cukrići",
        "place": "village",
        "population": "154",
        "population:date": "2011-03-31",
        "source:population": "DZS 2011"
      }
    },
    {
      "type": "node",
      "id": 1484702681,
      "lat": 45.012422,
      "lon": 13.9967713,
      "timestamp": "2021-02-02T21:24:43Z",
      "version": 10,
      "changeset": 98602586,
      "user": "Arisuaq",
      "uid": 8660990,
      "tags": {
        "name": "Hreljići",
        "place": "village",
        "population": "90",
        "population:date": "2011-03-31",
        "source:population": "DZS 2011"
      }
    },
    {
      "type": "node",
      "id": 1484702686,
      "lat": 45.0047966,
      "lon": 13.9170112,
      "timestamp": "2016-07-29T06:07:37Z",
      "version": 3,
      "changeset": 41100486,
      "user": "filip55",
      "uid": 320873,
      "tags": {
        "name": "Orbanići",
        "place": "village",
        "population": "164"
      }
    },
    {
      "type": "node",
      "id": 1484704091,
      "lat": 45.0306148,
      "lon": 13.864239,
      "timestamp": "2021-03-19T14:01:25Z",
      "version": 9,
      "changeset": 101334622,
      "user": "Alessandro Sgambati",
      "uid": 38061,
      "tags": {
        "name": "Čabrunići",
        "old_name:it": "Zabronich",
        "place": "village",
        "population": "155",
        "population:date": "2011-03-31",
        "source:population": "DZS 2011"
      }
    },
    {
      "type": "node",
      "id": 1484732813,
      "lat": 44.9655487,
      "lon": 13.9376,
      "timestamp": "2018-06-07T06:49:03Z",
      "version": 6,
      "changeset": 59623353,
      "user": "PavelPS",
      "uid": 25561,
      "tags": {
        "name": "Pinezići",
        "place": "village",
        "population": "47",
        "population:date": "2011-03-31",
        "source:population": "DZS 2011",
        "wikidata": "Q2791247"
      }
    },
    {
      "type": "node",
      "id": 1485865682,
      "lat": 45.0806076,
      "lon": 13.9624697,
      "timestamp": "2021-02-02T21:24:43Z",
      "version": 4,
      "changeset": 98602586,
      "user": "Arisuaq",
      "uid": 8660990,
      "tags": {
        "name": "Petehi",
        "note": "http://www.geographic.org/geographic_names/name.php?uni=-133815&fid=2314&c=croatia",
        "place": "village",
        "population": "103"
      }
    },
    {
      "type": "node",
      "id": 1488314311,
      "lat": 45.0552187,
      "lon": 13.9450542,
      "timestamp": "2013-01-25T18:34:58Z",
      "version": 3,
      "changeset": 14784220,
      "user": "skrtaca",
      "uid": 776457,
      "tags": {
        "name": "Trlji",
        "place": "hamlet"
      }
    },
    {
      "type": "node",
      "id": 1488314710,
      "lat": 45.0463636,
      "lon": 13.9470999,
      "timestamp": "2016-07-31T14:37:15Z",
      "version": 3,
      "changeset": 41147022,
      "user": "filip55",
      "uid": 320873,
      "tags": {
        "name": "Škitača",
        "place": "hamlet"
      }
    },
    {
      "type": "node",
      "id": 1492188989,
      "lat": 45.0345611,
      "lon": 13.8933714,
      "timestamp": "2021-02-02T15:15:29Z",
      "version": 4,
      "changeset": 98586590,
      "user": "Arisuaq",
      "uid": 8660990,
      "tags": {
        "name": "Boškari",
        "place": "village",
        "population": "33"
      }
    },
    {
      "type": "node",
      "id": 1492191887,
      "lat": 44.9880913,
      "lon": 13.9014792,
      "timestamp": "2012-08-03T13:26:46Z",
      "version": 3,
      "changeset": 12598276,
      "user": "filip55",
      "uid": 320873,
      "tags": {
        "name": "Boduleri",
        "place": "hamlet"
      }
    },
    {
      "type": "node",
      "id": 1492191888,
      "lat": 45.0120663,
      "lon": 13.893897,
      "timestamp": "2011-12-14T18:54:51Z",
      "version": 2,
      "changeset": 10118421,
      "user": "filip55",
      "uid": 320873,
      "tags": {
        "name": "Dokići",
        "place": "hamlet"
      }
    },
    {
      "type": "node",
      "id": 1492191889,
      "lat": 44.983489,
      "lon": 13.8769006,
      "timestamp": "2016-07-21T05:48:03Z",
      "version": 5,
      "changeset": 40911888,
      "user": "filip55",
      "uid": 320873,
      "tags": {
        "name": "Kacana",
        "name:it": "Cassana",
        "place": "hamlet"
      }
    },
    {
      "type": "node",
      "id": 1492191890,
      "lat": 45.0100252,
      "lon": 13.8820162,
      "timestamp": "2011-12-14T18:54:51Z",
      "version": 2,
      "changeset": 10118421,
      "user": "filip55",
      "uid": 320873,
      "tags": {
        "name": "Klarići",
        "place": "hamlet"
      }
    },
    {
      "type": "node",
      "id": 1492191891,
      "lat": 44.9934556,
      "lon": 13.9175545,
      "timestamp": "2011-12-14T18:54:52Z",
      "version": 2,
      "changeset": 10118421,
      "user": "filip55",
      "uid": 320873,
      "tags": {
        "name": "Kužinići",
        "place": "hamlet"
      }
    },
    {
      "type": "node",
      "id": 1492191892,
      "lat": 44.9925705,
      "lon": 13.889561,
      "timestamp": "2016-07-21T05:48:03Z",
      "version": 6,
      "changeset": 40911888,
      "user": "filip55",
      "uid": 320873,
      "tags": {
        "name": "Majmajola",
        "name:it": "Val Maiora",
        "place": "hamlet"
      }
    },
    {
      "type": "node",
      "id": 1492191893,
      "lat": 45.0130553,
      "lon": 13.8945371,
      "timestamp": "2013-03-05T17:24:50Z",
      "version": 3,
      "changeset": 15261033,
      "user": "skrtaca",
      "uid": 776457,
      "tags": {
        "name": "Mandelići",
        "place": "hamlet"
      }
    },
    {
      "type": "node",
      "id": 1492191894,
      "lat": 45.0160856,
      "lon": 13.8891217,
      "timestamp": "2013-03-05T17:24:50Z",
      "version": 3,
      "changeset": 15261033,
      "user": "skrtaca",
      "uid": 776457,
      "tags": {
        "name": "Muškovići",
        "place": "hamlet"
      }
    },
    {
      "type": "node",
      "id": 1492191895,
      "lat": 45.0143234,
      "lon": 13.890327,
      "timestamp": "2013-03-05T17:24:50Z",
      "version": 3,
      "changeset": 15261033,
      "user": "skrtaca",
      "uid": 776457,
      "tags": {
        "name": "Orlići",
        "place": "hamlet"
      }
    },
    {
      "type": "node",
      "id": 1492191896,
      "lat": 44.9998668,
      "lon": 13.8811844,
      "timestamp": "2013-03-04T22:25:59Z",
      "version": 3,
      "changeset": 15252566,
      "user": "skrtaca",
      "uid": 776457,
      "tags": {
        "name": "Paradiž",
        "place": "hamlet"
      }
    },
    {
      "type": "node",
      "id": 1492191897,
      "lat": 44.9938512,
      "lon": 13.8655688,
      "timestamp": "2011-12-14T18:54:53Z",
      "version": 2,
      "changeset": 10118421,
      "user": "filip55",
      "uid": 320873,
      "tags": {
        "name": "Sveti Kirin",
        "place": "hamlet"
      }
    },
    {
      "type": "node",
      "id": 1492191898,
      "lat": 45.0099458,
      "lon": 13.8734671,
      "timestamp": "2011-12-14T18:54:54Z",
      "version": 2,
      "changeset": 10118421,
      "user": "filip55",
      "uid": 320873,
      "tags": {
        "name": "Škicini",
        "place": "hamlet"
      }
    },
    {
      "type": "node",
      "id": 1492191963,
      "lat": 45.0728713,
      "lon": 13.8991089,
      "timestamp": "2021-02-02T15:15:29Z",
      "version": 6,
      "changeset": 98586590,
      "user": "Arisuaq",
      "uid": 8660990,
      "tags": {
        "name": "Pajkovići",
        "place": "village",
        "population": "76",
        "population:date": "2011-03-31",
        "source:population": "DZS 2011"
      }
    },
    {
      "type": "node",
      "id": 1492191964,
      "lat": 45.0680597,
      "lon": 13.9138395,
      "timestamp": "2017-05-05T20:03:15Z",
      "version": 4,
      "changeset": 48436556,
      "user": "filip55",
      "uid": 320873,
      "tags": {
        "name": "Pustijanci",
        "place": "hamlet"
      }
    },
    {
      "type": "node",
      "id": 1519330996,
      "lat": 45.0307774,
      "lon": 13.9806104,
      "timestamp": "2021-02-02T18:38:30Z",
      "version": 6,
      "changeset": 98595683,
      "user": "Arisuaq",
      "uid": 8660990,
      "tags": {
        "name": "Borinići",
        "place": "village",
        "population": "10",
        "population:date": "2011-03-31",
        "source:population": "DZS 2011"
      }
    },
    {
      "type": "node",
      "id": 1519330997,
      "lat": 45.0026749,
      "lon": 13.9914859,
      "timestamp": "2021-02-02T19:22:54Z",
      "version": 7,
      "changeset": 98597269,
      "user": "Arisuaq",
      "uid": 8660990,
      "tags": {
        "name": "Bratulići",
        "place": "village",
        "population": "47",
        "population:date": "2011-03-31",
        "source:population": "DZS 2011"
      }
    },
    {
      "type": "node",
      "id": 1519330999,
      "lat": 45.0280716,
      "lon": 14.0183378,
      "timestamp": "2021-02-02T18:38:30Z",
      "version": 7,
      "changeset": 98595683,
      "user": "Arisuaq",
      "uid": 8660990,
      "tags": {
        "name": "Hrboki",
        "place": "village",
        "population": "179",
        "population:date": "2011-03-31",
        "source:population": "DZS 2011"
      }
    },
    {
      "type": "node",
      "id": 1519331013,
      "lat": 45.0048377,
      "lon": 14.0578059,
      "timestamp": "2020-12-18T15:00:17Z",
      "version": 3,
      "changeset": 96077867,
      "user": "kdkeller",
      "uid": 43207,
      "tags": {
        "ele": "152.8",
        "name": "Mutalat",
        "natural": "peak",
        "wikidata": "Q25291589"
      }
    },
    {
      "type": "node",
      "id": 1519331026,
      "lat": 44.9985615,
      "lon": 13.9740129,
      "timestamp": "2017-12-03T18:57:06Z",
      "version": 4,
      "changeset": 54305888,
      "user": "antal",
      "uid": 98294,
      "tags": {
        "name": "Prodol",
        "place": "village",
        "population": "97",
        "population:date": "2011-03-31",
        "source:population": "DZS 2011"
      }
    },
    {
      "type": "node",
      "id": 1519331027,
      "lat": 44.982763,
      "lon": 14.044754,
      "timestamp": "2022-02-13T17:37:06Z",
      "version": 14,
      "changeset": 117363292,
      "user": "picchio4ever",
      "uid": 361599,
      "tags": {
        "name": "Rakalj",
        "name:it": "Castelnuovo",
        "name:ru": "Ракаль",
        "old_name": "Castelnuovo",
        "place": "village",
        "population": "440",
        "population:date": "2011-03-31",
        "source:population": "DZS 2011",
        "wikidata": "Q3418035"
      }
    },
    {
      "type": "node",
      "id": 1519331033,
      "lat": 45.0154729,
      "lon": 14.0258068,
      "timestamp": "2017-12-03T18:57:07Z",
      "version": 6,
      "changeset": 54305888,
      "user": "antal",
      "uid": 98294,
      "tags": {
        "name": "Rebići",
        "place": "village",
        "population": "133",
        "population:date": "2011-03-31",
        "source:population": "DZS 2011"
      }
    },
    {
      "type": "node",
      "id": 1546159215,
      "lat": 45.0011268,
      "lon": 14.002829,
      "timestamp": "2021-02-02T19:22:54Z",
      "version": 6,
      "changeset": 98597269,
      "user": "Arisuaq",
      "uid": 8660990,
      "tags": {
        "name": "Belavići",
        "place": "village",
        "population": "37",
        "population:date": "2011-03-31",
        "source:population": "DZS 2011"
      }
    },
    {
      "type": "node",
      "id": 1546159216,
      "lat": 44.9551014,
      "lon": 13.9914737,
      "timestamp": "2017-12-03T18:57:10Z",
      "version": 4,
      "changeset": 54305888,
      "user": "antal",
      "uid": 98294,
      "tags": {
        "name": "Cokuni",
        "place": "village",
        "population": "71",
        "population:date": "2011-03-31",
        "source:population": "DZS 2011"
      }
    },
    {
      "type": "node",
      "id": 1546159217,
      "lat": 44.9447721,
      "lon": 14.0025314,
      "timestamp": "2017-12-03T18:57:10Z",
      "version": 6,
      "changeset": 54305888,
      "user": "antal",
      "uid": 98294,
      "tags": {
        "name": "Mali Vareški",
        "place": "village",
        "population": "94",
        "population:date": "2011-03-31",
        "source:population": "DZS 2011"
      }
    },
    {
      "type": "node",
      "id": 1546159218,
      "lat": 44.9465336,
      "lon": 14.0129749,
      "timestamp": "2017-12-03T18:57:10Z",
      "version": 6,
      "changeset": 54305888,
      "user": "antal",
      "uid": 98294,
      "tags": {
        "name": "Peruški",
        "place": "village",
        "population": "252",
        "population:date": "2011-03-31",
        "source:population": "DZS 2011"
      }
    },
    {
      "type": "node",
      "id": 1546159221,
      "lat": 44.9405616,
      "lon": 13.9904863,
      "timestamp": "2017-12-03T18:57:10Z",
      "version": 5,
      "changeset": 54305888,
      "user": "antal",
      "uid": 98294,
      "tags": {
        "name": "Veliki Vareški",
        "place": "village",
        "population": "25",
        "population:date": "2011-03-31",
        "source:population": "DZS 2011"
      }
    },
    {
      "type": "node",
      "id": 1546159222,
      "lat": 44.9374336,
      "lon": 14.0000317,
      "timestamp": "2021-07-10T21:50:57Z",
      "version": 5,
      "changeset": 107763616,
      "user": "maem",
      "uid": 507640,
      "tags": {
        "name": "Šegotići",
        "place": "village",
        "population": "74",
        "population:date": "2011-03-31",
        "source:population": "DZS 2011"
      }
    },
    {
      "type": "node",
      "id": 1546182794,
      "lat": 45.0007192,
      "lon": 13.9245241,
      "timestamp": "2013-03-03T18:45:40Z",
      "version": 3,
      "changeset": 15237650,
      "user": "skrtaca",
      "uid": 776457,
      "tags": {
        "name": "Cetinići",
        "place": "hamlet"
      }
    },
    {
      "type": "node",
      "id": 1546228020,
      "lat": 45.0839682,
      "lon": 13.9767086,
      "timestamp": "2021-03-29T11:08:00Z",
      "version": 4,
      "changeset": 101913683,
      "user": "Matija18",
      "uid": 3538495,
      "tags": {
        "name": "Draguzeti",
        "place": "village",
        "population": "83"
      }
    },
    {
      "type": "node",
      "id": 1546228029,
      "lat": 45.0660561,
      "lon": 13.9748113,
      "timestamp": "2021-02-02T21:24:43Z",
      "version": 6,
      "changeset": 98602586,
      "user": "Arisuaq",
      "uid": 8660990,
      "tags": {
        "name": "Grandići",
        "place": "village",
        "population": "140",
        "population:date": "2011-03-31",
        "source:population": "DZS 2011"
      }
    },
    {
      "type": "node",
      "id": 1546228038,
      "lat": 45.0682773,
      "lon": 13.989294,
      "timestamp": "2021-02-02T21:24:43Z",
      "version": 6,
      "changeset": 98602586,
      "user": "Arisuaq",
      "uid": 8660990,
      "tags": {
        "name": "Kožljani",
        "place": "village",
        "population": "63",
        "population:date": "2011-03-31",
        "source:population": "DZS 2011"
      }
    },
    {
      "type": "node",
      "id": 1546228044,
      "lat": 45.0698528,
      "lon": 14.0016966,
      "timestamp": "2021-02-02T21:24:43Z",
      "version": 7,
      "changeset": 98602586,
      "user": "Arisuaq",
      "uid": 8660990,
      "tags": {
        "name": "Melnica",
        "place": "village",
        "population": "161",
        "population:date": "2011-03-31",
        "source:population": "DZS 2011"
      }
    },
    {
      "type": "node",
      "id": 1546228049,
      "lat": 45.0869627,
      "lon": 13.9967491,
      "timestamp": "2018-05-05T17:49:02Z",
      "version": 6,
      "changeset": 58712792,
      "user": "skrtaca",
      "uid": 776457,
      "tags": {
        "name": "Prhati",
        "place": "village",
        "population": "53"
      }
    },
    {
      "type": "node",
      "id": 1546228056,
      "lat": 45.0522844,
      "lon": 14.0231225,
      "timestamp": "2021-02-02T21:24:43Z",
      "version": 8,
      "changeset": 98602586,
      "user": "Arisuaq",
      "uid": 8660990,
      "tags": {
        "name": "Puntera",
        "place": "village",
        "population": "108",
        "population:date": "2011-03-31",
        "source:population": "DZS 2011"
      }
    },
    {
      "type": "node",
      "id": 1546228060,
      "lat": 45.0875863,
      "lon": 13.9607359,
      "timestamp": "2021-02-02T21:24:43Z",
      "version": 5,
      "changeset": 98602586,
      "user": "Arisuaq",
      "uid": 8660990,
      "tags": {
        "name": "Rajki",
        "place": "village",
        "population": "8"
      }
    },
    {
      "type": "node",
      "id": 1546228068,
      "lat": 45.0816169,
      "lon": 13.9893019,
      "timestamp": "2021-02-02T21:24:43Z",
      "version": 7,
      "changeset": 98602586,
      "user": "Arisuaq",
      "uid": 8660990,
      "tags": {
        "name": "Vadreš",
        "place": "village",
        "population": "58",
        "population:date": "2011-03-31",
        "source:population": "DZS 2011"
      }
    },
    {
      "type": "node",
      "id": 1547878861,
      "lat": 45.0640476,
      "lon": 13.881612,
      "timestamp": "2021-02-02T15:15:29Z",
      "version": 5,
      "changeset": 98586590,
      "user": "Arisuaq",
      "uid": 8660990,
      "tags": {
        "name": "Bibići",
        "place": "village",
        "population": "146",
        "population:date": "2011-03-31",
        "source:population": "DZS 2011"
      }
    },
    {
      "type": "node",
      "id": 1547878863,
      "lat": 45.0447348,
      "lon": 13.8800702,
      "timestamp": "2016-07-29T15:35:25Z",
      "version": 3,
      "changeset": 41112359,
      "user": "ReinerMeyer",
      "uid": 111529,
      "tags": {
        "name": "Bijažići",
        "place": "hamlet"
      }
    },
    {
      "type": "node",
      "id": 1547878905,
      "lat": 45.0248374,
      "lon": 13.8957742,
      "timestamp": "2013-01-13T16:31:32Z",
      "version": 3,
      "changeset": 14636780,
      "user": "skrtaca",
      "uid": 776457,
      "tags": {
        "name": "Gilešići",
        "place": "hamlet"
      }
    },
    {
      "type": "node",
      "id": 1547878917,
      "lat": 44.9810212,
      "lon": 13.9348947,
      "timestamp": "2011-12-15T20:24:07Z",
      "version": 1,
      "changeset": 10126793,
      "user": "filip55",
      "uid": 320873,
      "tags": {
        "name": "Krvavići",
        "place": "hamlet"
      }
    },
    {
      "type": "node",
      "id": 1547878920,
      "lat": 45.0687001,
      "lon": 13.8858038,
      "timestamp": "2021-04-12T11:53:41Z",
      "version": 2,
      "changeset": 102801529,
      "user": "Matija18",
      "uid": 3538495,
      "tags": {
        "name": "Kersani",
        "place": "hamlet"
      }
    },
    {
      "type": "node",
      "id": 1549022607,
      "lat": 45.0170906,
      "lon": 13.9953705,
      "timestamp": "2017-12-19T19:49:24Z",
      "version": 3,
      "changeset": 54769191,
      "user": "ReinerMeyer",
      "uid": 111529,
      "tags": {
        "name": "Biletići",
        "place": "hamlet"
      }
    },
    {
      "type": "node",
      "id": 1549022611,
      "lat": 45.0144909,
      "lon": 14.0144909,
      "timestamp": "2016-07-16T20:15:02Z",
      "version": 3,
      "changeset": 40786998,
      "user": "ReinerMeyer",
      "uid": 111529,
      "tags": {
        "name": "Dobrani",
        "place": "hamlet"
      }
    },
    {
      "type": "node",
      "id": 1549022616,
      "lat": 45.0287605,
      "lon": 14.0037293,
      "timestamp": "2016-07-17T06:47:14Z",
      "version": 2,
      "changeset": 40792167,
      "user": "ReinerMeyer",
      "uid": 111529,
      "tags": {
        "name": "Palijon",
        "place": "hamlet"
      }
    },
    {
      "type": "node",
      "id": 1549022619,
      "lat": 45.0143973,
      "lon": 13.9729364,
      "timestamp": "2011-12-16T17:42:48Z",
      "version": 1,
      "changeset": 10132718,
      "user": "filip55",
      "uid": 320873,
      "tags": {
        "name": "Prdajci",
        "place": "hamlet"
      }
    },
    {
      "type": "node",
      "id": 1549022620,
      "lat": 44.9737348,
      "lon": 14.0514226,
      "timestamp": "2016-07-16T08:19:23Z",
      "version": 3,
      "changeset": 40774816,
      "user": "ReinerMeyer",
      "uid": 111529,
      "tags": {
        "name": "Prnaž",
        "place": "hamlet"
      }
    },
    {
      "type": "node",
      "id": 1549022621,
      "lat": 44.9719838,
      "lon": 13.9047397,
      "timestamp": "2011-12-30T21:42:40Z",
      "version": 2,
      "changeset": 10250028,
      "user": "SilverSpace",
      "uid": 176920,
      "tags": {
        "name": "Stancija Celija",
        "place": "hamlet"
      }
    },
    {
      "type": "node",
      "id": 1549022645,
      "lat": 44.9836971,
      "lon": 14.0559083,
      "timestamp": "2011-12-17T16:36:03Z",
      "version": 2,
      "changeset": 10139585,
      "user": "filip55",
      "uid": 320873,
      "tags": {
        "name": "Štrnina",
        "place": "hamlet"
      }
    },
    {
      "type": "node",
      "id": 1549105529,
      "lat": 45.0165214,
      "lon": 14.0613045,
      "timestamp": "2017-12-03T21:05:13Z",
      "version": 2,
      "changeset": 54309644,
      "user": "antal",
      "uid": 98294,
      "tags": {
        "name": "Kapelica",
        "place": "hamlet",
        "population": "617",
        "population:date": "2011-03-31",
        "source:population": "DZS 2011"
      }
    },
    {
      "type": "node",
      "id": 1552116388,
      "lat": 44.9165197,
      "lon": 13.9065914,
      "timestamp": "2020-12-18T13:50:38Z",
      "version": 7,
      "changeset": 96074608,
      "user": "kdkeller",
      "uid": 43207,
      "tags": {
        "name": "Loborika",
        "place": "village",
        "population": "844",
        "population:date": "2011-03-31",
        "source:population": "DZS 2011",
        "wikidata": "Q3257636"
      }
    },
    {
      "type": "node",
      "id": 1552349072,
      "lat": 44.9512615,
      "lon": 13.9886827,
      "timestamp": "2011-12-18T17:43:28Z",
      "version": 1,
      "changeset": 10148924,
      "user": "filip55",
      "uid": 320873,
      "tags": {
        "name": "Cveki",
        "place": "hamlet"
      }
    },
    {
      "type": "node",
      "id": 1552349083,
      "lat": 44.945571,
      "lon": 14.0232652,
      "timestamp": "2014-01-02T14:35:21Z",
      "version": 2,
      "changeset": 19767553,
      "user": "skrtaca",
      "uid": 776457,
      "tags": {
        "name": "Išići",
        "place": "hamlet"
      }
    },
    {
      "type": "node",
      "id": 1552349098,
      "lat": 44.9437319,
      "lon": 14.0069846,
      "timestamp": "2011-12-18T17:43:28Z",
      "version": 1,
      "changeset": 10148924,
      "user": "filip55",
      "uid": 320873,
      "tags": {
        "name": "Jovići",
        "place": "hamlet"
      }
    },
    {
      "type": "node",
      "id": 1552349104,
      "lat": 44.9741605,
      "lon": 14.0486137,
      "timestamp": "2012-08-03T15:13:18Z",
      "version": 2,
      "changeset": 12599422,
      "user": "filip55",
      "uid": 320873,
      "tags": {
        "name": "Krčina",
        "place": "hamlet"
      }
    },
    {
      "type": "node",
      "id": 1552349113,
      "lat": 44.9621897,
      "lon": 13.9993968,
      "timestamp": "2021-04-08T08:56:45Z",
      "version": 3,
      "changeset": 102545348,
      "user": "Matija18",
      "uid": 3538495,
      "tags": {
        "name": "Kumparička",
        "place": "hamlet"
      }
    },
    {
      "type": "node",
      "id": 1552349118,
      "lat": 44.9679457,
      "lon": 14.044113,
      "timestamp": "2016-05-27T16:25:19Z",
      "version": 2,
      "changeset": 39608020,
      "user": "ReinerMeyer",
      "uid": 111529,
      "tags": {
        "name": "Prisedi",
        "place": "hamlet"
      }
    },
    {
      "type": "node",
      "id": 1560164065,
      "lat": 45.0864982,
      "lon": 14.0527113,
      "timestamp": "2021-02-02T18:01:44Z",
      "version": 5,
      "changeset": 98594268,
      "user": "Arisuaq",
      "uid": 8660990,
      "tags": {
        "name": "Barbići",
        "place": "village",
        "population": "66"
      }
    },
    {
      "type": "node",
      "id": 1560164070,
      "lat": 45.0822541,
      "lon": 14.0418346,
      "timestamp": "2021-02-02T18:01:44Z",
      "version": 6,
      "changeset": 98594268,
      "user": "Arisuaq",
      "uid": 8660990,
      "tags": {
        "name": "Kunj",
        "place": "village",
        "population": "70",
        "population:date": "2011-03-31",
        "source:population": "DZS 2011"
      }
    },
    {
      "type": "node",
      "id": 1560164071,
      "lat": 45.0796786,
      "lon": 14.0607039,
      "timestamp": "2021-02-02T21:24:43Z",
      "version": 6,
      "changeset": 98602586,
      "user": "Arisuaq",
      "uid": 8660990,
      "tags": {
        "name": "Letajac",
        "place": "village",
        "population": "33",
        "population:date": "2011-03-31",
        "source:population": "DZS 2011"
      }
    },
    {
      "type": "node",
      "id": 1560164072,
      "lat": 45.0600292,
      "lon": 14.0444189,
      "timestamp": "2018-10-23T08:38:50Z",
      "version": 9,
      "changeset": 63786097,
      "user": "Badojo",
      "uid": 8189075,
      "tags": {
        "name": "Most-Raša",
        "place": "village",
        "population": "78",
        "wikidata": "Q2804025",
        "wikipedia": "hr:Most-Raša"
      }
    },
    {
      "type": "node",
      "id": 1568420255,
      "lat": 44.8613071,
      "lon": 13.8045664,
      "timestamp": "2021-08-07T00:23:15Z",
      "version": 4,
      "changeset": 109288795,
      "user": "Martinummo",
      "uid": 6698832,
      "tags": {
        "name": "Jama Galebianna",
        "name:en": "Galebianna Cave",
        "natural": "cave_entrance"
      }
    },
    {
      "type": "node",
      "id": 1568964893,
      "lat": 44.8422154,
      "lon": 13.8701024,
      "timestamp": "2017-12-03T18:57:16Z",
      "version": 7,
      "changeset": 54305888,
      "user": "antal",
      "uid": 98294,
      "tags": {
        "addr:postcode": "52100",
        "name": "Valbonaša",
        "name:hr": "Valbonaša",
        "name:it": "Valbonassa",
        "place": "village",
        "population": "41",
        "population:date": "2011-03-31",
        "source:population": "DZS 2011",
        "wikidata": "Q2317583",
        "wikipedia": "hr:Valbonaša"
      }
    },
    {
      "type": "node",
      "id": 1568964897,
      "lat": 44.8454286,
      "lon": 13.8596455,
      "timestamp": "2021-09-25T11:01:24Z",
      "version": 9,
      "changeset": 111683400,
      "user": "Badojo",
      "uid": 8189075,
      "tags": {
        "addr:postcode": "52100",
        "name": "Vintijan",
        "name:hr": "Vintijan",
        "name:it": "Vintian",
        "place": "village",
        "population": "172",
        "population:date": "2011-03-31",
        "source:population": "DZS 2011",
        "wikidata": "Q2875634",
        "wikipedia": "hr:Vintijan"
      }
    },
    {
      "type": "node",
      "id": 1568984832,
      "lat": 44.9328531,
      "lon": 13.8698215,
      "timestamp": "2017-09-13T14:56:06Z",
      "version": 15,
      "changeset": 52009703,
      "user": "nyuriks",
      "uid": 339581,
      "tags": {
        "addr:postcode": "52216",
        "name": "Galižana",
        "name:hr": "Galižana",
        "name:it": "Gallesano",
        "official_name": "Galižana - Gallesano",
        "place": "village",
        "population": "1501",
        "wikidata": "Q763761",
        "wikipedia": "hr:Galižana"
      }
    },
    {
      "type": "node",
      "id": 1568984842,
      "lat": 44.9142399,
      "lon": 13.8193819,
      "timestamp": "2019-07-09T06:08:14Z",
      "version": 10,
      "changeset": 72039006,
      "user": "PavelPS",
      "uid": 25561,
      "tags": {
        "name": "Valbandon",
        "place": "village",
        "population": "1626",
        "population:date": "2011-03-31",
        "source:population": "DZS 2011",
        "wikidata": "Q3553486"
      }
    },
    {
      "type": "node",
      "id": 1570001622,
      "lat": 44.9557461,
      "lon": 13.9540164,
      "timestamp": "2021-08-07T07:36:09Z",
      "version": 13,
      "changeset": 109297406,
      "user": "Ramying",
      "uid": 668137,
      "tags": {
        "name": "Marčana",
        "name:it": "Marzana",
        "place": "village",
        "population": "1070",
        "population:date": "2011-03-31",
        "source:population": "DZS 2011",
        "wikidata": "Q941197"
      }
    },
    {
      "type": "node",
      "id": 1572197773,
      "lat": 44.9589555,
      "lon": 13.8513371,
      "timestamp": "2021-02-23T11:23:29Z",
      "version": 31,
      "changeset": 99821012,
      "user": "morlautrer",
      "uid": 38844,
      "tags": {
        "addr:postcode": "52215",
        "name": "Vodnjan",
        "name:hr": "Vodnjan",
        "name:it": "Dignano",
        "name:la": "Altinisium",
        "name:ru": "Воднян",
        "name:sr": "Водњан",
        "official_name": "Vodnjan - Dignano",
        "old_name:la": "Praedium Athenianum",
        "place": "town",
        "population": "3613",
        "population:date": "2011-03-31",
        "source:population": "DZS 2011",
        "website": "http://www.vodnjan.hr/web/app/",
        "wikidata": "Q396683",
        "wikipedia": "hr:Vodnjan"
      }
    },
    {
      "type": "node",
      "id": 1572244949,
      "lat": 45.064724,
      "lon": 14.0161952,
      "timestamp": "2019-07-18T09:11:54Z",
      "version": 12,
      "changeset": 72380158,
      "user": "PavelPS",
      "uid": 25561,
      "tags": {
        "name": "Barban",
        "name:ru": "Барбан",
        "place": "village",
        "population": "221",
        "population:date": "2011-03-31",
        "source:population": "DZS 2011",
        "wikidata": "Q807316"
      }
    },
    {
      "type": "node",
      "id": 1572244953,
      "lat": 44.9732953,
      "lon": 14.0162274,
      "timestamp": "2020-06-19T06:38:40Z",
      "version": 8,
      "changeset": 86858265,
      "user": "PavelPS",
      "uid": 25561,
      "tags": {
        "name": "Krnica",
        "place": "village",
        "population": "286",
        "population:date": "2011-03-31",
        "source:population": "DZS 2011",
        "wikidata": "Q3199870"
      }
    },
    {
      "type": "node",
      "id": 1768668772,
      "lat": 44.877686,
      "lon": 13.857979,
      "timestamp": "2012-12-08T10:46:00Z",
      "version": 2,
      "changeset": 14197947,
      "user": "Walter Schlögl",
      "uid": 78656,
      "tags": {
        "addr:housenumber": "8",
        "addr:postcode": "52100",
        "addr:street": "43.Istarske brigade",
        "designation": "Klima shop",
        "name": "KLIMA SHOP Frigus doo",
        "shop": "convenience",
        "source": "open",
        "website": "http://www.frigus-pula.hr"
      }
    },
    {
      "type": "node",
      "id": 1770711039,
      "lat": 45.0077219,
      "lon": 13.938545,
      "timestamp": "2012-05-30T19:44:49Z",
      "version": 1,
      "changeset": 11751831,
      "user": "filip55",
      "uid": 320873,
      "tags": {
        "name": "Balići",
        "place": "hamlet"
      }
    },
    {
      "type": "node",
      "id": 1770711041,
      "lat": 44.9416509,
      "lon": 13.9429132,
      "timestamp": "2012-05-30T19:44:49Z",
      "version": 1,
      "changeset": 11751831,
      "user": "filip55",
      "uid": 320873,
      "tags": {
        "name": "Belasi",
        "place": "hamlet"
      }
    },
    {
      "type": "node",
      "id": 1770711042,
      "lat": 44.9501475,
      "lon": 13.9622747,
      "timestamp": "2012-05-30T19:44:49Z",
      "version": 1,
      "changeset": 11751831,
      "user": "filip55",
      "uid": 320873,
      "tags": {
        "name": "Catela",
        "place": "hamlet"
      }
    },
    {
      "type": "node",
      "id": 1770711043,
      "lat": 44.9608662,
      "lon": 13.9424345,
      "timestamp": "2012-05-30T19:44:49Z",
      "version": 1,
      "changeset": 11751831,
      "user": "filip55",
      "uid": 320873,
      "tags": {
        "name": "Drakarovi Dvori",
        "place": "hamlet"
      }
    },
    {
      "type": "node",
      "id": 1770711045,
      "lat": 44.9919771,
      "lon": 13.9049689,
      "timestamp": "2012-05-30T19:44:49Z",
      "version": 1,
      "changeset": 11751831,
      "user": "filip55",
      "uid": 320873,
      "tags": {
        "name": "Ferlini",
        "place": "hamlet"
      }
    },
    {
      "type": "node",
      "id": 1770711047,
      "lat": 44.9498765,
      "lon": 13.9441141,
      "timestamp": "2016-05-16T16:31:52Z",
      "version": 2,
      "changeset": 39356643,
      "user": "ReinerMeyer",
      "uid": 111529,
      "tags": {
        "name": "Galantovi Dvori",
        "place": "hamlet"
      }
    },
    {
      "type": "node",
      "id": 1770711048,
      "lat": 44.9402138,
      "lon": 13.934708,
      "timestamp": "2012-05-30T19:44:49Z",
      "version": 1,
      "changeset": 11751831,
      "user": "filip55",
      "uid": 320873,
      "tags": {
        "name": "Kabolovi Dvori",
        "place": "hamlet"
      }
    },
    {
      "type": "node",
      "id": 1770711049,
      "lat": 44.9378504,
      "lon": 13.9295427,
      "timestamp": "2012-05-30T19:44:49Z",
      "version": 1,
      "changeset": 11751831,
      "user": "filip55",
      "uid": 320873,
      "tags": {
        "name": "Kavrenčevi Dvori",
        "place": "hamlet"
      }
    },
    {
      "type": "node",
      "id": 1770711050,
      "lat": 44.9337522,
      "lon": 13.9605159,
      "timestamp": "2016-05-25T19:28:54Z",
      "version": 2,
      "changeset": 39564867,
      "user": "ReinerMeyer",
      "uid": 111529,
      "tags": {
        "name": "Križanićevi Dvori",
        "place": "hamlet"
      }
    },
    {
      "type": "node",
      "id": 1770711051,
      "lat": 45.0146435,
      "lon": 13.9295675,
      "timestamp": "2012-05-30T19:44:49Z",
      "version": 1,
      "changeset": 11751831,
      "user": "filip55",
      "uid": 320873,
      "tags": {
        "name": "Kuftići",
        "place": "hamlet"
      }
    },
    {
      "type": "node",
      "id": 1770711052,
      "lat": 45.0117512,
      "lon": 13.9344145,
      "timestamp": "2012-05-30T19:44:49Z",
      "version": 1,
      "changeset": 11751831,
      "user": "filip55",
      "uid": 320873,
      "tags": {
        "name": "Livovići",
        "place": "hamlet"
      }
    },
    {
      "type": "node",
      "id": 1770711056,
      "lat": 44.9417157,
      "lon": 13.9515077,
      "timestamp": "2012-05-30T19:44:49Z",
      "version": 1,
      "changeset": 11751831,
      "user": "filip55",
      "uid": 320873,
      "tags": {
        "name": "Mitrovi Dvori",
        "place": "hamlet"
      }
    },
    {
      "type": "node",
      "id": 1770711057,
      "lat": 44.9883847,
      "lon": 13.9102831,
      "timestamp": "2016-07-23T15:08:54Z",
      "version": 2,
      "changeset": 40973556,
      "user": "ReinerMeyer",
      "uid": 111529,
      "tags": {
        "name": "Negričani",
        "place": "hamlet"
      }
    },
    {
      "type": "node",
      "id": 1770711059,
      "lat": 44.9431933,
      "lon": 13.9570042,
      "timestamp": "2012-05-30T19:44:50Z",
      "version": 1,
      "changeset": 11751831,
      "user": "filip55",
      "uid": 320873,
      "tags": {
        "name": "Paužinka",
        "place": "hamlet"
      }
    },
    {
      "type": "node",
      "id": 1770711061,
      "lat": 44.9624007,
      "lon": 13.9475059,
      "timestamp": "2012-05-30T19:44:50Z",
      "version": 1,
      "changeset": 11751831,
      "user": "filip55",
      "uid": 320873,
      "tags": {
        "name": "Pavini Dvori",
        "place": "hamlet"
      }
    },
    {
      "type": "node",
      "id": 1770711062,
      "lat": 44.9605925,
      "lon": 13.9465937,
      "timestamp": "2012-05-30T19:44:50Z",
      "version": 1,
      "changeset": 11751831,
      "user": "filip55",
      "uid": 320873,
      "tags": {
        "name": "Pavini",
        "place": "hamlet"
      }
    },
    {
      "type": "node",
      "id": 1770711063,
      "lat": 44.9437316,
      "lon": 13.9281942,
      "timestamp": "2012-05-30T19:44:50Z",
      "version": 1,
      "changeset": 11751831,
      "user": "filip55",
      "uid": 320873,
      "tags": {
        "name": "Pecinovi Dvori",
        "place": "hamlet"
      }
    },
    {
      "type": "node",
      "id": 1770711064,
      "lat": 44.9356147,
      "lon": 13.9642964,
      "timestamp": "2012-05-30T19:44:50Z",
      "version": 1,
      "changeset": 11751831,
      "user": "filip55",
      "uid": 320873,
      "tags": {
        "name": "Pločevi Dvori",
        "place": "hamlet"
      }
    },
    {
      "type": "node",
      "id": 1770711067,
      "lat": 44.9372448,
      "lon": 13.9351797,
      "timestamp": "2012-08-03T15:13:18Z",
      "version": 2,
      "changeset": 12599422,
      "user": "filip55",
      "uid": 320873,
      "tags": {
        "name": "Pušar",
        "place": "hamlet"
      }
    },
    {
      "type": "node",
      "id": 1770711068,
      "lat": 44.9235404,
      "lon": 13.9249605,
      "timestamp": "2012-05-30T19:44:50Z",
      "version": 1,
      "changeset": 11751831,
      "user": "filip55",
      "uid": 320873,
      "tags": {
        "name": "Radeki Glavica",
        "place": "hamlet"
      }
    },
    {
      "type": "node",
      "id": 1770711069,
      "lat": 44.9151478,
      "lon": 13.9239343,
      "timestamp": "2012-05-30T19:44:50Z",
      "version": 1,
      "changeset": 11751831,
      "user": "filip55",
      "uid": 320873,
      "tags": {
        "name": "Radeki Polje",
        "place": "hamlet"
      }
    },
    {
      "type": "node",
      "id": 1770711071,
      "lat": 44.9449163,
      "lon": 13.9610489,
      "timestamp": "2012-05-30T19:44:50Z",
      "version": 1,
      "changeset": 11751831,
      "user": "filip55",
      "uid": 320873,
      "tags": {
        "name": "Sansonovi Dvori",
        "place": "hamlet"
      }
    },
    {
      "type": "node",
      "id": 1770711073,
      "lat": 44.8960544,
      "lon": 13.9001371,
      "timestamp": "2012-05-30T19:44:50Z",
      "version": 1,
      "changeset": 11751831,
      "user": "filip55",
      "uid": 320873,
      "tags": {
        "name": "Stancija Kampi",
        "place": "hamlet"
      }
    },
    {
      "type": "node",
      "id": 1770711075,
      "lat": 44.9592446,
      "lon": 13.946189,
      "timestamp": "2012-08-03T15:13:18Z",
      "version": 2,
      "changeset": 12599422,
      "user": "filip55",
      "uid": 320873,
      "tags": {
        "name": "Stancija Karbunera",
        "place": "hamlet"
      }
    },
    {
      "type": "node",
      "id": 1770711076,
      "lat": 44.9012686,
      "lon": 13.8916047,
      "timestamp": "2012-05-30T19:44:50Z",
      "version": 1,
      "changeset": 11751831,
      "user": "filip55",
      "uid": 320873,
      "tags": {
        "name": "Stancija Peličeti",
        "place": "hamlet"
      }
    },
    {
      "type": "node",
      "id": 1770711078,
      "lat": 44.89473,
      "lon": 13.8980107,
      "timestamp": "2012-05-30T19:44:50Z",
      "version": 1,
      "changeset": 11751831,
      "user": "filip55",
      "uid": 320873,
      "tags": {
        "name": "Stancija Žmak",
        "place": "hamlet"
      }
    },
    {
      "type": "node",
      "id": 1770711079,
      "lat": 44.9931622,
      "lon": 13.9530553,
      "timestamp": "2012-05-30T19:44:50Z",
      "version": 1,
      "changeset": 11751831,
      "user": "filip55",
      "uid": 320873,
      "tags": {
        "name": "Taškerovi Dvori",
        "place": "hamlet"
      }
    },
    {
      "type": "node",
      "id": 1770711080,
      "lat": 44.9430716,
      "lon": 13.9312,
      "timestamp": "2012-05-30T19:44:50Z",
      "version": 1,
      "changeset": 11751831,
      "user": "filip55",
      "uid": 320873,
      "tags": {
        "name": "Tronovi Dvori",
        "place": "hamlet"
      }
    },
    {
      "type": "node",
      "id": 1770711081,
      "lat": 44.9523431,
      "lon": 13.9616018,
      "timestamp": "2016-07-15T19:17:35Z",
      "version": 2,
      "changeset": 40767177,
      "user": "ReinerMeyer",
      "uid": 111529,
      "tags": {
        "name": "Vidasovi Dvori",
        "place": "hamlet"
      }
    },
    {
      "type": "node",
      "id": 1770711085,
      "lat": 44.9474555,
      "lon": 13.9453442,
      "timestamp": "2012-05-30T19:44:51Z",
      "version": 1,
      "changeset": 11751831,
      "user": "filip55",
      "uid": 320873,
      "tags": {
        "name": "Šantini Dvori",
        "place": "hamlet"
      }
    },
    {
      "type": "node",
      "id": 1770711086,
      "lat": 44.9387974,
      "lon": 13.9680564,
      "timestamp": "2012-05-30T19:44:51Z",
      "version": 1,
      "changeset": 11751831,
      "user": "filip55",
      "uid": 320873,
      "tags": {
        "name": "Štepanovi Dvori",
        "place": "hamlet"
      }
    },
    {
      "type": "node",
      "id": 1817824500,
      "lat": 45.080453,
      "lon": 13.6549235,
      "timestamp": "2021-09-08T11:47:14Z",
      "version": 7,
      "changeset": 110914573,
      "user": "jeka p",
      "uid": 2385757,
      "tags": {
        "addr:city": "Rovinj",
        "addr:country": "HR",
        "addr:housenumber": "4c",
        "addr:postcode": "52210",
        "addr:street": "Ulica Braće Božić",
        "name": "Konzum",
        "opening_hours": "Mo-Sa 08:00-21:00; Su 08:00-15:00",
        "shop": "supermarket"
      }
    },
    {
      "type": "node",
      "id": 1830216900,
      "lat": 44.9970378,
      "lon": 13.8937374,
      "timestamp": "2016-01-24T07:54:11Z",
      "version": 3,
      "changeset": 36771045,
      "user": "filip55",
      "uid": 320873,
      "tags": {
        "name": "Stancija Falaš",
        "place": "hamlet"
      }
    },
    {
      "type": "node",
      "id": 1830216906,
      "lat": 44.8702281,
      "lon": 13.8455311,
      "timestamp": "2020-04-03T16:48:35Z",
      "version": 54,
      "changeset": 83046236,
      "user": "Badojo",
      "uid": 8189075,
      "tags": {
        "addr:postcode": "52100",
        "is_in:continent": "Europe",
        "is_in:country": "Croatia",
        "is_in:country_code": "HR",
        "is_in:county": "Istria",
        "name": "Pula",
        "name:ar": "بولا",
        "name:de": "Pula",
        "name:hr": "Pula",
        "name:hu": "Póla",
        "name:it": "Pola",
        "name:ko": "풀라",
        "name:la": "Pietas Iulia",
        "name:lt": "Pola",
        "name:pl": "Pula",
        "name:ro": "Pola",
        "name:ru": "Пула",
        "name:sl": "Pulj",
        "name:sr": "Пула",
        "official_name": "Pula - Pola",
        "old_name:de": "Polei",
        "place": "city",
        "population": "57460",
        "population:date": "2011-03-31",
        "source:population": "DZS 2011",
        "website": "http://www.pula.hr",
        "wikidata": "Q4656",
        "wikipedia": "hr:Pula"
      }
    },
    {
      "type": "node",
      "id": 1836833377,
      "lat": 44.9811557,
      "lon": 14.046889,
      "timestamp": "2019-09-03T02:01:21Z",
      "version": 6,
      "changeset": 74017184,
      "user": "Max Maurer",
      "uid": 3025466,
      "tags": {
        "changing_table": "no",
        "name": "MirAcolo Market",
        "shop": "supermarket",
        "toilets": "no",
        "wheelchair": "limited"
      }
    },
    {
      "type": "node",
      "id": 1850033602,
      "lat": 44.9540523,
      "lon": 14.0347768,
      "timestamp": "2012-08-03T15:13:17Z",
      "version": 1,
      "changeset": 12599422,
      "user": "filip55",
      "uid": 320873,
      "tags": {
        "name": "Krnički Porat",
        "place": "hamlet"
      }
    },
    {
      "type": "node",
      "id": 1850033608,
      "lat": 45.0120923,
      "lon": 13.9865748,
      "timestamp": "2021-02-02T21:24:43Z",
      "version": 7,
      "changeset": 98602586,
      "user": "Arisuaq",
      "uid": 8660990,
      "tags": {
        "name": "Kujići",
        "place": "village",
        "population": "72",
        "population:date": "2011-03-31",
        "source:population": "DZS 2011"
      }
    },
    {
      "type": "node",
      "id": 1850033613,
      "lat": 44.9717753,
      "lon": 14.022533,
      "timestamp": "2014-01-02T14:35:21Z",
      "version": 2,
      "changeset": 19767553,
      "user": "skrtaca",
      "uid": 776457,
      "tags": {
        "name": "Laništa",
        "place": "hamlet"
      }
    },
    {
      "type": "node",
      "id": 1850033618,
      "lat": 44.9511783,
      "lon": 14.0155714,
      "timestamp": "2013-06-14T11:58:48Z",
      "version": 2,
      "changeset": 16549355,
      "user": "filip55",
      "uid": 320873,
      "tags": {
        "name": "Marusi",
        "place": "hamlet"
      }
    },
    {
      "type": "node",
      "id": 1850033622,
      "lat": 44.9762727,
      "lon": 14.0110798,
      "timestamp": "2012-08-03T15:13:17Z",
      "version": 1,
      "changeset": 12599422,
      "user": "filip55",
      "uid": 320873,
      "tags": {
        "name": "Raskriž",
        "place": "hamlet"
      }
    },
    {
      "type": "node",
      "id": 1850033636,
      "lat": 44.9418336,
      "lon": 14.0029567,
      "timestamp": "2013-06-14T11:58:48Z",
      "version": 2,
      "changeset": 16549355,
      "user": "filip55",
      "uid": 320873,
      "tags": {
        "name": "Verlići",
        "place": "hamlet"
      }
    },
    {
      "type": "node",
      "id": 1857021232,
      "lat": 44.8688261,
      "lon": 13.9184899,
      "timestamp": "2016-07-28T15:03:55Z",
      "version": 10,
      "changeset": 41088044,
      "user": "filip55",
      "uid": 320873,
      "tags": {
        "name": "Jadreški",
        "name:hr": "Jadreški",
        "name:it": "Giadreschi",
        "official_name": "Jadreški - Giadreschi",
        "place": "village",
        "population": "501"
      }
    },
    {
      "type": "node",
      "id": 1857436211,
      "lat": 44.9622896,
      "lon": 13.8556536,
      "timestamp": "2012-08-08T16:52:04Z",
      "version": 1,
      "changeset": 12659220,
      "user": "filip55",
      "uid": 320873,
      "tags": {
        "name": "Puljanka",
        "shop": "convenience"
      }
    },
    {
      "type": "node",
      "id": 1874390437,
      "lat": 45.0740554,
      "lon": 13.6106199,
      "timestamp": "2012-08-20T12:59:41Z",
      "version": 1,
      "changeset": 12795667,
      "user": "SpieleHolger",
      "uid": 30700,
      "tags": {
        "name": "Banjol",
        "natural": "cave_entrance",
        "source": "www.dive-links.com",
        "sport": "scuba_diving",
        "website": "http://www.dive-links.com/tauchplatz.php?id=521"
      }
    },
    {
      "type": "node",
      "id": 1880150102,
      "lat": 45.0202225,
      "lon": 13.8725062,
      "timestamp": "2015-07-05T12:55:13Z",
      "version": 5,
      "changeset": 32425439,
      "user": "skrtaca",
      "uid": 776457,
      "tags": {
        "name": "Naš dom",
        "shop": "convenience"
      }
    },
    {
      "type": "node",
      "id": 1880813066,
      "lat": 45.0285219,
      "lon": 13.9225452,
      "timestamp": "2012-08-24T20:00:05Z",
      "version": 3,
      "changeset": 12848992,
      "user": "skrtaca",
      "uid": 776457,
      "tags": {
        "name": "Pačići",
        "place": "hamlet"
      }
    },
    {
      "type": "node",
      "id": 1895103283,
      "lat": 45.0132887,
      "lon": 13.8486194,
      "timestamp": "2013-05-17T14:39:31Z",
      "version": 3,
      "changeset": 16168261,
      "user": "skrtaca",
      "uid": 776457,
      "tags": {
        "name": "Stancija Čipuli",
        "place": "hamlet"
      }
    },
    {
      "type": "node",
      "id": 1895484578,
      "lat": 44.9994439,
      "lon": 13.7687387,
      "timestamp": "2016-06-05T12:03:30Z",
      "version": 2,
      "changeset": 39814875,
      "user": "ReinerMeyer",
      "uid": 111529,
      "tags": {
        "name": "Mandriol",
        "place": "hamlet"
      }
    },
    {
      "type": "node",
      "id": 1896284128,
      "lat": 45.0091618,
      "lon": 13.8597312,
      "timestamp": "2012-09-03T13:23:44Z",
      "version": 1,
      "changeset": 12967392,
      "user": "skrtaca",
      "uid": 776457,
      "tags": {
        "name": "Grgurova Stancija",
        "place": "hamlet"
      }
    },
    {
      "type": "node",
      "id": 1916038684,
      "lat": 44.973383,
      "lon": 14.0155067,
      "timestamp": "2017-06-15T10:22:51Z",
      "version": 4,
      "changeset": 49555227,
      "user": "Matija18",
      "uid": 3538495,
      "tags": {
        "name": "Miracolo",
        "shop": "convenience"
      }
    },
    {
      "type": "node",
      "id": 1940014954,
      "lat": 45.0619,
      "lon": 13.9837406,
      "timestamp": "2012-09-30T16:28:25Z",
      "version": 1,
      "changeset": 13311749,
      "user": "skrtaca",
      "uid": 776457,
      "tags": {
        "name": "Fumeti",
        "place": "hamlet"
      }
    },
    {
      "type": "node",
      "id": 2042524979,
      "lat": 45.0879105,
      "lon": 13.881995,
      "timestamp": "2020-09-16T05:28:05Z",
      "version": 6,
      "changeset": 90959635,
      "user": "PavelPS",
      "uid": 25561,
      "tags": {
        "loc_name": "Savičenta",
        "name": "Svetvinčenat",
        "name:hr": "Svetvinčenat",
        "name:it": "Sanvincenti",
        "place": "village",
        "population": "267",
        "population:date": "2011-03-31",
        "source:population": "DZS 2011",
        "wikidata": "Q568984"
      }
    },
    {
      "type": "node",
      "id": 2084776550,
      "lat": 44.9659043,
      "lon": 13.891113,
      "timestamp": "2012-12-27T16:46:48Z",
      "version": 1,
      "changeset": 14427792,
      "user": "skrtaca",
      "uid": 776457,
      "tags": {
        "name": "Guran",
        "place": "hamlet"
      }
    },
    {
      "type": "node",
      "id": 2098664367,
      "lat": 45.0089389,
      "lon": 13.8059665,
      "timestamp": "2013-04-14T12:30:37Z",
      "version": 2,
      "changeset": 15724144,
      "user": "filip55",
      "uid": 320873,
      "tags": {
        "name": "Baretini",
        "place": "hamlet"
      }
    },
    {
      "type": "node",
      "id": 2098664374,
      "lat": 45.0061082,
      "lon": 13.7962367,
      "timestamp": "2013-01-06T19:13:20Z",
      "version": 1,
      "changeset": 14554085,
      "user": "skrtaca",
      "uid": 776457,
      "tags": {
        "name": "Krnjaloža",
        "place": "hamlet"
      }
    },
    {
      "type": "node",
      "id": 2098664377,
      "lat": 45.0040622,
      "lon": 13.7817925,
      "timestamp": "2013-01-06T19:13:21Z",
      "version": 1,
      "changeset": 14554085,
      "user": "skrtaca",
      "uid": 776457,
      "tags": {
        "name": "Negrin",
        "place": "hamlet"
      }
    },
    {
      "type": "node",
      "id": 2098664469,
      "lat": 44.9733516,
      "lon": 13.8404912,
      "timestamp": "2013-01-06T19:13:22Z",
      "version": 1,
      "changeset": 14554085,
      "user": "skrtaca",
      "uid": 776457,
      "tags": {
        "name": "Šalvela",
        "place": "hamlet"
      }
    },
    {
      "type": "node",
      "id": 2104552437,
      "lat": 45.0487153,
      "lon": 13.7153596,
      "timestamp": "2013-01-10T18:18:36Z",
      "version": 1,
      "changeset": 14600981,
      "user": "skrtaca",
      "uid": 776457,
      "tags": {
        "name": "Buršići",
        "place": "hamlet"
      }
    },
    {
      "type": "node",
      "id": 2104552438,
      "lat": 45.0411581,
      "lon": 13.7301189,
      "timestamp": "2013-05-03T19:09:05Z",
      "version": 2,
      "changeset": 15964437,
      "user": "skrtaca",
      "uid": 776457,
      "tags": {
        "name": "Črnibek",
        "place": "hamlet"
      }
    },
    {
      "type": "node",
      "id": 2104552439,
      "lat": 45.0526675,
      "lon": 13.7103696,
      "timestamp": "2013-01-10T18:18:36Z",
      "version": 1,
      "changeset": 14600981,
      "user": "skrtaca",
      "uid": 776457,
      "tags": {
        "name": "Hrvatin",
        "place": "hamlet"
      }
    },
    {
      "type": "node",
      "id": 2104552444,
      "lat": 45.0398244,
      "lon": 13.7038558,
      "timestamp": "2019-05-03T08:09:15Z",
      "version": 2,
      "changeset": 69831960,
      "user": "morlautrer",
      "uid": 38844,
      "tags": {
        "name": "Kalandra",
        "place": "hamlet"
      }
    },
    {
      "type": "node",
      "id": 2104552448,
      "lat": 45.0742734,
      "lon": 13.7611801,
      "timestamp": "2013-01-10T18:18:36Z",
      "version": 1,
      "changeset": 14600981,
      "user": "skrtaca",
      "uid": 776457,
      "tags": {
        "name": "Pižanovac",
        "place": "hamlet"
      }
    },
    {
      "type": "node",
      "id": 2104552450,
      "lat": 45.0571433,
      "lon": 13.6933755,
      "timestamp": "2013-01-10T18:18:37Z",
      "version": 1,
      "changeset": 14600981,
      "user": "skrtaca",
      "uid": 776457,
      "tags": {
        "name": "Rojnić",
        "place": "hamlet"
      }
    },
    {
      "type": "node",
      "id": 2104552467,
      "lat": 45.0492978,
      "lon": 13.7455267,
      "timestamp": "2013-01-10T18:18:37Z",
      "version": 1,
      "changeset": 14600981,
      "user": "skrtaca",
      "uid": 776457,
      "tags": {
        "name": "St Čehić",
        "place": "hamlet"
      }
    },
    {
      "type": "node",
      "id": 2104552469,
      "lat": 45.0735465,
      "lon": 13.7521968,
      "timestamp": "2013-04-16T20:54:05Z",
      "version": 2,
      "changeset": 15755513,
      "user": "skrtaca",
      "uid": 776457,
      "tags": {
        "name": "St. Bembo",
        "place": "hamlet"
      }
    },
    {
      "type": "node",
      "id": 2104552471,
      "lat": 45.048279,
      "lon": 13.7222279,
      "timestamp": "2013-05-03T19:09:05Z",
      "version": 2,
      "changeset": 15964437,
      "user": "skrtaca",
      "uid": 776457,
      "tags": {
        "name": "Stancija Gati",
        "place": "hamlet"
      }
    },
    {
      "type": "node",
      "id": 2104552474,
      "lat": 45.0512477,
      "lon": 13.7287579,
      "timestamp": "2013-01-10T18:18:37Z",
      "version": 1,
      "changeset": 14600981,
      "user": "skrtaca",
      "uid": 776457,
      "tags": {
        "name": "Sv. Marko",
        "place": "hamlet"
      }
    },
    {
      "type": "node",
      "id": 2104552475,
      "lat": 45.0521176,
      "lon": 13.6950452,
      "timestamp": "2013-01-10T18:18:37Z",
      "version": 1,
      "changeset": 14600981,
      "user": "skrtaca",
      "uid": 776457,
      "tags": {
        "name": "Tedeji",
        "place": "hamlet"
      }
    },
    {
      "type": "node",
      "id": 2104552480,
      "lat": 45.0514361,
      "lon": 13.7480812,
      "timestamp": "2013-01-10T18:18:37Z",
      "version": 1,
      "changeset": 14600981,
      "user": "skrtaca",
      "uid": 776457,
      "tags": {
        "name": "Vrtalji",
        "place": "hamlet"
      }
    },
    {
      "type": "node",
      "id": 2104552492,
      "lat": 45.0839664,
      "lon": 13.7662031,
      "timestamp": "2013-01-10T18:18:37Z",
      "version": 1,
      "changeset": 14600981,
      "user": "skrtaca",
      "uid": 776457,
      "tags": {
        "name": "Črnjova stancija",
        "place": "hamlet"
      }
    },
    {
      "type": "node",
      "id": 2104552494,
      "lat": 45.0477089,
      "lon": 13.7464138,
      "timestamp": "2013-01-10T18:18:37Z",
      "version": 1,
      "changeset": 14600981,
      "user": "skrtaca",
      "uid": 776457,
      "tags": {
        "name": "Čubani",
        "place": "hamlet"
      }
    },
    {
      "type": "node",
      "id": 2116878947,
      "lat": 44.9843399,
      "lon": 13.7937444,
      "timestamp": "2021-06-13T13:24:07Z",
      "version": 3,
      "changeset": 106283881,
      "user": "vbertola",
      "uid": 4347030,
      "tags": {
        "name": "Batvači",
        "name:it": "Valmadorso",
        "place": "hamlet"
      }
    },
    {
      "type": "node",
      "id": 2116878951,
      "lat": 44.9210385,
      "lon": 13.8483291,
      "timestamp": "2013-04-14T12:30:38Z",
      "version": 2,
      "changeset": 15724144,
      "user": "filip55",
      "uid": 320873,
      "tags": {
        "name": "Fondole",
        "place": "hamlet"
      }
    },
    {
      "type": "node",
      "id": 2116878955,
      "lat": 44.9870297,
      "lon": 13.7963268,
      "timestamp": "2013-04-14T12:30:38Z",
      "version": 2,
      "changeset": 15724144,
      "user": "filip55",
      "uid": 320873,
      "tags": {
        "name": "Golubovo",
        "place": "hamlet"
      }
    },
    {
      "type": "node",
      "id": 2116878958,
      "lat": 44.9934042,
      "lon": 13.8041937,
      "timestamp": "2017-07-08T23:02:27Z",
      "version": 2,
      "changeset": 50141297,
      "user": "Matija18",
      "uid": 3538495,
      "tags": {
        "name": "Mednjan",
        "place": "hamlet"
      }
    },
    {
      "type": "node",
      "id": 2127960271,
      "lat": 45.0469596,
      "lon": 13.9921874,
      "timestamp": "2021-03-29T11:43:02Z",
      "version": 3,
      "changeset": 101915350,
      "user": "Matija18",
      "uid": 3538495,
      "tags": {
        "name": "Bateli kod Želiski",
        "place": "hamlet"
      }
    },
    {
      "type": "node",
      "id": 2127960273,
      "lat": 45.0267064,
      "lon": 13.9431761,
      "timestamp": "2018-02-21T19:07:42Z",
      "version": 2,
      "changeset": 56559102,
      "user": "ReinerMeyer",
      "uid": 111529,
      "tags": {
        "name": "Bulići",
        "place": "hamlet",
        "source": "US Defence"
      }
    },
    {
      "type": "node",
      "id": 2127960274,
      "lat": 45.0636063,
      "lon": 13.9914011,
      "timestamp": "2013-01-25T18:34:35Z",
      "version": 1,
      "changeset": 14784220,
      "user": "skrtaca",
      "uid": 776457,
      "tags": {
        "name": "Celići",
        "place": "hamlet"
      }
    },
    {
      "type": "node",
      "id": 2127960275,
      "lat": 45.0538431,
      "lon": 13.9782108,
      "timestamp": "2013-12-30T17:21:28Z",
      "version": 2,
      "changeset": 19718223,
      "user": "skrtaca",
      "uid": 776457,
      "tags": {
        "name": "Ivanušići",
        "place": "hamlet"
      }
    },
    {
      "type": "node",
      "id": 2127960276,
      "lat": 45.0676358,
      "lon": 13.9789375,
      "timestamp": "2013-01-25T18:34:35Z",
      "version": 1,
      "changeset": 14784220,
      "user": "skrtaca",
      "uid": 776457,
      "tags": {
        "name": "Pavlići",
        "place": "hamlet"
      }
    },
    {
      "type": "node",
      "id": 2127960471,
      "lat": 45.0491673,
      "lon": 13.9969717,
      "timestamp": "2021-03-29T11:42:01Z",
      "version": 2,
      "changeset": 101915297,
      "user": "Matija18",
      "uid": 3538495,
      "tags": {
        "name": "Goleševo",
        "place": "hamlet"
      }
    },
    {
      "type": "node",
      "id": 2199938863,
      "lat": 45.0757441,
      "lon": 14.0038777,
      "timestamp": "2013-03-13T17:45:46Z",
      "version": 1,
      "changeset": 15354378,
      "user": "skrtaca",
      "uid": 776457,
      "tags": {
        "name": "Špadići",
        "place": "hamlet"
      }
    },
    {
      "type": "node",
      "id": 2226028391,
      "lat": 45.0541713,
      "lon": 13.8741131,
      "timestamp": "2013-03-26T20:12:21Z",
      "version": 1,
      "changeset": 15508092,
      "user": "skrtaca",
      "uid": 776457,
      "tags": {
        "name": "Pekici",
        "place": "hamlet",
        "source": "US Defence"
      }
    },
    {
      "type": "node",
      "id": 2226028392,
      "lat": 45.0763127,
      "lon": 13.8530212,
      "timestamp": "2017-12-03T21:05:33Z",
      "version": 2,
      "changeset": 54309644,
      "user": "antal",
      "uid": 98294,
      "tags": {
        "name": "Vidulini",
        "place": "hamlet",
        "population": "36",
        "population:date": "2011-03-31",
        "source": "US Defence",
        "source:population": "DZS 2011"
      }
    },
    {
      "type": "node",
      "id": 2229384965,
      "lat": 45.0188402,
      "lon": 13.8841936,
      "timestamp": "2013-03-27T19:35:12Z",
      "version": 1,
      "changeset": 15519423,
      "user": "skrtaca",
      "uid": 776457,
      "tags": {
        "name": "Brščići",
        "place": "hamlet"
      }
    },
    {
      "type": "node",
      "id": 2235079345,
      "lat": 45.0560534,
      "lon": 13.9850553,
      "timestamp": "2013-03-29T16:23:48Z",
      "version": 1,
      "changeset": 15540670,
      "user": "skrtaca",
      "uid": 776457,
      "tags": {
        "ele": "330",
        "name": "Majčići",
        "place": "hamlet",
        "source": "US Defence"
      }
    },
    {
      "type": "node",
      "id": 2292834291,
      "lat": 45.0864465,
      "lon": 14.0025499,
      "timestamp": "2013-05-05T18:38:29Z",
      "version": 1,
      "changeset": 15988172,
      "user": "skrtaca",
      "uid": 776457,
      "tags": {
        "name": "Prnjani",
        "place": "hamlet"
      }
    },
    {
      "type": "node",
      "id": 2293477004,
      "lat": 45.0804979,
      "lon": 13.6383696,
      "timestamp": "2018-09-11T20:51:37Z",
      "version": 6,
      "changeset": 62501860,
      "user": "sogudaa",
      "uid": 499553,
      "tags": {
        "addr:city": "Rovinj",
        "name": "Müller",
        "opening_hours": "Mo-Sa 08:00-22:00; Su 08:00-21:00",
        "shop": "convenience"
      }
    },
    {
      "type": "node",
      "id": 2305010073,
      "lat": 44.9729779,
      "lon": 13.881784,
      "timestamp": "2015-07-05T22:16:19Z",
      "version": 2,
      "changeset": 32436704,
      "user": "Dr Kludge",
      "uid": 292665,
      "tags": {
        "name": "Cecilija",
        "place": "hamlet",
        "source": "US Defence"
      }
    },
    {
      "type": "node",
      "id": 2336005767,
      "lat": 44.9073332,
      "lon": 13.8698529,
      "timestamp": "2016-06-20T06:52:58Z",
      "version": 2,
      "changeset": 40149975,
      "user": "ReinerMeyer",
      "uid": 111529,
      "tags": {
        "name": "Kontrada",
        "place": "hamlet",
        "source": "U.S. Defense"
      }
    },
    {
      "type": "node",
      "id": 2409091444,
      "lat": 44.9927462,
      "lon": 13.7648455,
      "timestamp": "2013-08-06T17:40:21Z",
      "version": 1,
      "changeset": 17244349,
      "user": "skrtaca",
      "uid": 776457,
      "tags": {
        "name": "Murage",
        "place": "hamlet"
      }
    },
    {
      "type": "node",
      "id": 2409105993,
      "lat": 44.9890424,
      "lon": 13.7554453,
      "timestamp": "2016-08-07T15:08:54Z",
      "version": 4,
      "changeset": 41306272,
      "user": "filip55",
      "uid": 320873,
      "tags": {
        "name": "Puljanka",
        "shop": "convenience"
      }
    },
    {
      "type": "node",
      "id": 2499350013,
      "lat": 45.0531645,
      "lon": 14.0002177,
      "timestamp": "2013-10-17T11:49:39Z",
      "version": 1,
      "changeset": 18401879,
      "user": "skrtaca",
      "uid": 776457,
      "tags": {
        "name": "Dminići",
        "place": "hamlet"
      }
    },
    {
      "type": "node",
      "id": 2514744142,
      "lat": 44.8613658,
      "lon": 13.8325156,
      "timestamp": "2021-09-21T08:14:47Z",
      "version": 3,
      "changeset": 111481663,
      "user": "Janjko",
      "uid": 244754,
      "tags": {
        "addr:housenumber": "17",
        "addr:street": "Jeretova",
        "brand": "Konzum",
        "brand:wikidata": "Q518563",
        "brand:wikipedia": "hr:Konzum",
        "name": "Konzum",
        "opening_hours": "Mo-Sa 07:00-21:00; Su 07:00-14:00",
        "shop": "supermarket"
      }
    },
    {
      "type": "node",
      "id": 2531350688,
      "lat": 44.8535539,
      "lon": 13.8666764,
      "timestamp": "2013-11-13T20:52:25Z",
      "version": 1,
      "changeset": 18882629,
      "user": "ModuleC",
      "uid": 1805180,
      "tags": {
        "name": "Tanja 5",
        "shop": "supermarket"
      }
    },
    {
      "type": "node",
      "id": 2533627849,
      "lat": 45.0078942,
      "lon": 13.7455467,
      "timestamp": "2016-12-21T14:01:34Z",
      "version": 2,
      "changeset": 44565855,
      "user": "morlautrer",
      "uid": 38844,
      "tags": {
        "name": "Stancija Meneghetti",
        "place": "hamlet"
      }
    },
    {
      "type": "node",
      "id": 2551183664,
      "lat": 45.0028517,
      "lon": 13.8869284,
      "timestamp": "2013-11-25T18:52:43Z",
      "version": 1,
      "changeset": 19114901,
      "user": "skrtaca",
      "uid": 776457,
      "tags": {
        "name": "Mićini",
        "place": "hamlet"
      }
    },
    {
      "type": "node",
      "id": 2577248810,
      "lat": 44.8913216,
      "lon": 13.8152303,
      "timestamp": "2013-12-12T17:32:12Z",
      "version": 1,
      "changeset": 19417434,
      "user": "Zeno Kugy",
      "uid": 1666292,
      "tags": {
        "amenity": "drinking_water"
      }
    },
    {
      "type": "node",
      "id": 2583787338,
      "lat": 45.0300539,
      "lon": 13.9438678,
      "timestamp": "2013-12-17T15:22:54Z",
      "version": 1,
      "changeset": 19500114,
      "user": "skrtaca",
      "uid": 776457,
      "tags": {
        "addr:postcode": "52207",
        "name": "Računići",
        "place": "hamlet"
      }
    },
    {
      "type": "node",
      "id": 2601480208,
      "lat": 45.0817068,
      "lon": 13.9573492,
      "timestamp": "2013-12-30T17:21:08Z",
      "version": 1,
      "changeset": 19718223,
      "user": "skrtaca",
      "uid": 776457,
      "tags": {
        "name": "Poljaki",
        "place": "hamlet"
      }
    },
    {
      "type": "node",
      "id": 2603095747,
      "lat": 45.0821553,
      "lon": 13.9873034,
      "timestamp": "2013-12-31T12:25:52Z",
      "version": 1,
      "changeset": 19731305,
      "user": "skrtaca",
      "uid": 776457,
      "tags": {
        "addr:postcode": "52207",
        "name": "Filini",
        "place": "hamlet"
      }
    },
    {
      "type": "node",
      "id": 2603095752,
      "lat": 45.0826177,
      "lon": 13.9957414,
      "timestamp": "2013-12-31T12:25:52Z",
      "version": 1,
      "changeset": 19731305,
      "user": "skrtaca",
      "uid": 776457,
      "tags": {
        "addr:postcode": "52207",
        "name": "Mavrići",
        "place": "hamlet"
      }
    },
    {
      "type": "node",
      "id": 2603095755,
      "lat": 45.0807695,
      "lon": 13.9972524,
      "timestamp": "2013-12-31T12:25:52Z",
      "version": 1,
      "changeset": 19731305,
      "user": "skrtaca",
      "uid": 776457,
      "tags": {
        "addr:postcode": "52207",
        "name": "Regulići",
        "place": "hamlet"
      }
    },
    {
      "type": "node",
      "id": 2603095759,
      "lat": 45.0808252,
      "lon": 13.9904473,
      "timestamp": "2017-09-09T19:57:32Z",
      "version": 2,
      "changeset": 51890490,
      "user": "ReinerMeyer",
      "uid": 111529,
      "tags": {
        "addr:postcode": "52207",
        "name": "Sankovići",
        "place": "hamlet"
      }
    },
    {
      "type": "node",
      "id": 2603095937,
      "lat": 45.0793338,
      "lon": 13.9873075,
      "timestamp": "2017-09-09T19:57:34Z",
      "version": 3,
      "changeset": 51890490,
      "user": "ReinerMeyer",
      "uid": 111529,
      "tags": {
        "addr:postcode": "52207",
        "name": "Šugari",
        "place": "hamlet"
      }
    },
    {
      "type": "node",
      "id": 2683397894,
      "lat": 44.9975957,
      "lon": 13.8611076,
      "timestamp": "2014-02-21T12:37:27Z",
      "version": 1,
      "changeset": 20693004,
      "user": "skrtaca",
      "uid": 776457,
      "tags": {
        "name": "Cirka",
        "place": "hamlet"
      }
    },
    {
      "type": "node",
      "id": 2683403424,
      "lat": 45.0697323,
      "lon": 13.9982418,
      "timestamp": "2014-02-21T12:46:15Z",
      "version": 1,
      "changeset": 20693148,
      "user": "skrtaca",
      "uid": 776457,
      "tags": {
        "name": "Frkeči",
        "place": "hamlet"
      }
    },
    {
      "type": "node",
      "id": 2683403425,
      "lat": 45.0660659,
      "lon": 14.0049802,
      "timestamp": "2014-02-21T12:46:15Z",
      "version": 1,
      "changeset": 20693148,
      "user": "skrtaca",
      "uid": 776457,
      "tags": {
        "name": "Grabri",
        "place": "hamlet"
      }
    },
    {
      "type": "node",
      "id": 2860698353,
      "lat": 44.9139404,
      "lon": 13.8326936,
      "timestamp": "2016-02-11T13:13:57Z",
      "version": 2,
      "changeset": 37145380,
      "user": "Zeno Kugy",
      "uid": 1666292,
      "tags": {
        "name": "Stancija Barbo",
        "name:it": "Stanzia Barbo",
        "place": "hamlet"
      }
    },
    {
      "type": "node",
      "id": 2860706098,
      "lat": 45.0121688,
      "lon": 13.8355955,
      "timestamp": "2016-07-06T19:03:34Z",
      "version": 2,
      "changeset": 40527641,
      "user": "ReinerMeyer",
      "uid": 111529,
      "tags": {
        "name": "Tršićani",
        "place": "hamlet"
      }
    },
    {
      "type": "node",
      "id": 2929002704,
      "lat": 45.0802586,
      "lon": 13.6388127,
      "timestamp": "2019-08-22T17:47:16Z",
      "version": 4,
      "changeset": 73636384,
      "user": "Mistsmitt",
      "uid": 8463611,
      "tags": {
        "addr:city": "Rovinj",
        "name": "Konzum",
        "opening_hours": "Mo-Sa 07:00-20:00; Su 07:00-13:00",
        "shop": "supermarket"
      }
    },
    {
      "type": "node",
      "id": 2949659166,
      "lat": 45.0541057,
      "lon": 13.6864399,
      "timestamp": "2019-03-27T23:11:42Z",
      "version": 3,
      "changeset": 68606750,
      "user": "Badojo",
      "uid": 8189075,
      "tags": {
        "barrier": "lift_gate",
        "tourism": "camp_site"
      }
    },
    {
      "type": "node",
      "id": 2951457386,
      "lat": 44.9569662,
      "lon": 13.78492,
      "timestamp": "2016-09-08T07:28:55Z",
      "version": 2,
      "changeset": 41996048,
      "user": "lilhi",
      "uid": 1655899,
      "tags": {
        "name": "kemp v Peroj",
        "name:hr": "kemp v Peroj",
        "tourism": "camp_site"
      }
    },
    {
      "type": "node",
      "id": 2961494733,
      "lat": 45.0822156,
      "lon": 13.6342998,
      "timestamp": "2021-08-18T15:55:49Z",
      "version": 4,
      "changeset": 109884084,
      "user": "TaisiiaN",
      "uid": 13851890,
      "tags": {
        "name": "Konzum",
        "opening_hours": "Mo-Su 07:00-22:00",
        "shop": "supermarket"
      }
    },
    {
      "type": "node",
      "id": 3010246742,
      "lat": 44.8672989,
      "lon": 13.849388,
      "timestamp": "2014-08-11T12:21:33Z",
      "version": 1,
      "changeset": 24675401,
      "user": "cepesko",
      "uid": 577936,
      "tags": {
        "amenity": "drinking_water"
      }
    },
    {
      "type": "node",
      "id": 3059659423,
      "lat": 44.8211439,
      "lon": 13.8658278,
      "timestamp": "2021-08-02T16:34:51Z",
      "version": 2,
      "changeset": 109043399,
      "user": "Martinummo",
      "uid": 6698832,
      "tags": {
        "amenity": "drinking_water",
        "note": "Accessible by byboat / dinghy"
      }
    },
    {
      "type": "node",
      "id": 3126548279,
      "lat": 44.8180921,
      "lon": 13.9018773,
      "timestamp": "2014-10-12T19:00:26Z",
      "version": 1,
      "changeset": 26032901,
      "user": "idelac",
      "uid": 183676,
      "tags": {
        "name": "Imbiss",
        "tourism": "camp_site"
      }
    },
    {
      "type": "node",
      "id": 3325669156,
      "lat": 45.0128199,
      "lon": 14.0123103,
      "timestamp": "2015-02-01T17:53:59Z",
      "version": 1,
      "changeset": 28550618,
      "user": "skrtaca",
      "uid": 776457,
      "tags": {
        "name": "Beloči",
        "place": "hamlet"
      }
    },
    {
      "type": "node",
      "id": 3327182688,
      "lat": 45.0640972,
      "lon": 14.0264162,
      "timestamp": "2015-02-02T16:47:22Z",
      "version": 1,
      "changeset": 28570708,
      "user": "Antonio Istra",
      "uid": 2616407,
      "tags": {
        "amenity": "drinking_water"
      }
    },
    {
      "type": "node",
      "id": 3327182689,
      "lat": 45.0645624,
      "lon": 14.0173372,
      "timestamp": "2016-07-16T16:48:04Z",
      "version": 2,
      "changeset": 40783097,
      "user": "ReinerMeyer",
      "uid": 111529,
      "tags": {
        "amenity": "drinking_water"
      }
    },
    {
      "type": "node",
      "id": 3698466268,
      "lat": 44.877567,
      "lon": 13.8561982,
      "timestamp": "2015-08-15T12:04:42Z",
      "version": 1,
      "changeset": 33351275,
      "user": "skrtaca",
      "uid": 776457,
      "tags": {
        "name": "Duravit",
        "shop": "convenience",
        "wheelchair": "no"
      }
    },
    {
      "type": "node",
      "id": 3733306662,
      "lat": 44.8670244,
      "lon": 13.8482628,
      "timestamp": "2015-09-07T16:03:17Z",
      "version": 1,
      "changeset": 33860022,
      "user": "zed3000",
      "uid": 2098257,
      "tags": {
        "addr:city": "Pula",
        "addr:housenumber": "5",
        "addr:postcode": "52100",
        "addr:street": "Smareglina",
        "diet:vegan": "only",
        "name": "Zelena",
        "opening_hours": "Mo-Fr 08:00-20:00; Sa 08:00-14:00",
        "organic": "yes",
        "shop": "convenience"
      }
    },
    {
      "type": "node",
      "id": 3733306663,
      "lat": 44.8672545,
      "lon": 13.8486789,
      "timestamp": "2016-09-16T19:44:17Z",
      "version": 2,
      "changeset": 42212190,
      "user": "danwax",
      "uid": 3242890,
      "tags": {
        "addr:city": "Pula",
        "addr:housenumber": "4",
        "addr:postcode": "52100",
        "addr:street": "Fontička",
        "name": "bio&bio",
        "opening_hours": "Mo-Fr 08:00-20:00; Sa 08:00-15:00",
        "organic": "only",
        "shop": "supermarket",
        "website": "https://www.biobio.hr/nase-trgovine/pula-fonticka_4-22/"
      }
    },
    {
      "type": "node",
      "id": 3739284226,
      "lat": 44.8684869,
      "lon": 13.8451087,
      "timestamp": "2021-08-16T15:20:20Z",
      "version": 4,
      "changeset": 109757896,
      "user": "TaisiiaN",
      "uid": 13851890,
      "tags": {
        "addr:city": "Pula",
        "addr:country": "HR",
        "addr:housenumber": "35",
        "addr:postcode": "52100",
        "addr:street": "Sergijevaca",
        "name": "Studenac",
        "opening_hours": "Mo-Fr 07:00-22:00; Sa, Su 08:00-22:00",
        "operator": "Istarski Supermarketi d.o.o.",
        "shop": "convenience"
      }
    },
    {
      "type": "node",
      "id": 3748176454,
      "lat": 44.8009734,
      "lon": 13.9091073,
      "timestamp": "2021-08-16T15:21:01Z",
      "version": 3,
      "changeset": 109757896,
      "user": "TaisiiaN",
      "uid": 13851890,
      "tags": {
        "name": "Plus Market",
        "name:pl": "Sklep spożywczy",
        "opening_hours": "Mo-Su 07:00-22:00",
        "shop": "convenience"
      }
    },
    {
      "type": "node",
      "id": 3790659413,
      "lat": 44.8563373,
      "lon": 13.8346641,
      "timestamp": "2021-04-26T10:56:40Z",
      "version": 3,
      "changeset": 103630668,
      "user": "andreabilic",
      "uid": 12277835,
      "tags": {
        "addr:city": "Pula",
        "addr:housenumber": "a",
        "addr:postcode": "52100",
        "addr:street": "Sisplac",
        "name": "Market STUDENAC",
        "shop": "supermarket"
      }
    },
    {
      "type": "node",
      "id": 4251045293,
      "lat": 44.9559802,
      "lon": 13.9560874,
      "timestamp": "2016-06-19T07:51:24Z",
      "version": 2,
      "changeset": 40129967,
      "user": "ReinerMeyer",
      "uid": 111529,
      "tags": {
        "name": "Miracolo",
        "shop": "supermarket"
      }
    },
    {
      "type": "node",
      "id": 4254408778,
      "lat": 44.9539225,
      "lon": 13.9539091,
      "timestamp": "2016-06-20T13:52:51Z",
      "version": 1,
      "changeset": 40157858,
      "user": "ReinerMeyer",
      "uid": 111529,
      "tags": {
        "name": "Mini Market",
        "shop": "supermarket"
      }
    },
    {
      "type": "node",
      "id": 4261481464,
      "lat": 44.8079284,
      "lon": 13.918135,
      "timestamp": "2016-06-23T20:30:52Z",
      "version": 1,
      "changeset": 40244576,
      "user": "ReinerMeyer",
      "uid": 111529,
      "tags": {
        "name": "Camp Runke",
        "tourism": "camp_site"
      }
    },
    {
      "type": "node",
      "id": 4261481465,
      "lat": 44.8188765,
      "lon": 13.8989613,
      "timestamp": "2016-06-23T20:30:52Z",
      "version": 1,
      "changeset": 40244576,
      "user": "ReinerMeyer",
      "uid": 111529,
      "tags": {
        "name": "Eko Kamp Urod",
        "tourism": "camp_site"
      }
    },
    {
      "type": "node",
      "id": 4261481466,
      "lat": 44.8066953,
      "lon": 13.9174162,
      "timestamp": "2021-08-23T18:58:57Z",
      "version": 3,
      "changeset": 110133358,
      "user": "Gogul",
      "uid": 461328,
      "tags": {
        "fee": "yes",
        "name": "Kranjski kamp",
        "name:pl": "Obóz Carniola",
        "stars": "3",
        "tents": "yes",
        "tourism": "camp_site"
      }
    },
    {
      "type": "node",
      "id": 4268279653,
      "lat": 45.0828993,
      "lon": 13.6337539,
      "timestamp": "2021-08-18T15:55:50Z",
      "version": 5,
      "changeset": 109884084,
      "user": "TaisiiaN",
      "uid": 13851890,
      "tags": {
        "name": "Studenac",
        "opening_hours": "Mo-Sa 07:00-21:00; Su 07:00-14:00",
        "shop": "supermarket"
      }
    },
    {
      "type": "node",
      "id": 4284256389,
      "lat": 44.8043516,
      "lon": 13.961655,
      "timestamp": "2016-07-05T14:25:11Z",
      "version": 1,
      "changeset": 40501319,
      "user": "Fred Trum",
      "uid": 3090833,
      "tags": {
        "name": "Kazela FKK Top Camping",
        "tourism": "camp_site"
      }
    },
    {
      "type": "node",
      "id": 4307992970,
      "lat": 44.8255799,
      "lon": 13.9627283,
      "timestamp": "2016-07-30T17:14:31Z",
      "version": 4,
      "changeset": 41131082,
      "user": "AlesKubr",
      "uid": 2125262,
      "tags": {
        "addr:city": "Ližnjan",
        "addr:housenumber": "521 A",
        "addr:postcode": "52204",
        "addr:street": "Ližnjanska cesta",
        "brand": "Plus MARKET",
        "name": "Market Anita",
        "opening_hours": "Sep-May: Mo-Sa 07:00-20:00; PH,Su 07:00-14:00; Jun-Aug 07:00-21:00",
        "shop": "convenience"
      }
    },
    {
      "type": "node",
      "id": 4340037249,
      "lat": 44.9503297,
      "lon": 13.7980068,
      "timestamp": "2016-08-07T15:08:53Z",
      "version": 1,
      "changeset": 41306272,
      "user": "filip55",
      "uid": 320873,
      "tags": {
        "addr:city": "Peroj",
        "addr:country": "HR",
        "addr:housenumber": "216",
        "addr:postcode": "52215",
        "addr:street": "Peroj",
        "name": "Miracolo",
        "shop": "convenience"
      }
    },
    {
      "type": "node",
      "id": 4349448390,
      "lat": 44.9262505,
      "lon": 13.8044143,
      "timestamp": "2016-08-14T08:02:28Z",
      "version": 1,
      "changeset": 41441963,
      "user": "PrzemekP",
      "uid": 1244141,
      "tags": {
        "name": "Delikatesy",
        "shop": "convenience"
      }
    },
    {
      "type": "node",
      "id": 4351623289,
      "lat": 44.9148273,
      "lon": 13.8194232,
      "timestamp": "2016-08-15T19:31:47Z",
      "version": 1,
      "changeset": 41474769,
      "user": "ovsergey",
      "uid": 4425684,
      "tags": {
        "name": "Tanja 1",
        "shop": "convenience"
      }
    },
    {
      "type": "node",
      "id": 4351632368,
      "lat": 44.7929512,
      "lon": 13.9090336,
      "timestamp": "2021-08-06T14:24:32Z",
      "version": 2,
      "changeset": 109266081,
      "user": "PrzemekP",
      "uid": 1244141,
      "tags": {
        "name": "gift shop",
        "name:pl": "Sklep z pamiątkami",
        "shop": "convenience"
      }
    },
    {
      "type": "node",
      "id": 4355754401,
      "lat": 45.0629051,
      "lon": 13.6650382,
      "timestamp": "2018-10-13T09:43:52Z",
      "version": 2,
      "changeset": 63481083,
      "user": "sogudaa",
      "uid": 499553,
      "tags": {
        "name": "IS Market",
        "opening_hours": "Mo-Su 08:00-16:00",
        "shop": "supermarket"
      }
    },
    {
      "type": "node",
      "id": 4378722398,
      "lat": 44.8158395,
      "lon": 13.9374741,
      "timestamp": "2016-09-01T06:58:50Z",
      "version": 1,
      "changeset": 41841909,
      "user": "stano",
      "uid": 359501,
      "tags": {
        "name": "Market",
        "shop": "convenience"
      }
    },
    {
      "type": "node",
      "id": 4407032862,
      "lat": 44.869745,
      "lon": 13.8550783,
      "timestamp": "2016-09-18T16:50:08Z",
      "version": 1,
      "changeset": 42251459,
      "user": "danwax",
      "uid": 3242890,
      "tags": {
        "addr:city": "Pula",
        "addr:housenumber": "19",
        "addr:postcode": "52100",
        "addr:street": "Vukovarska",
        "level": "0",
        "name": "Konzum",
        "opening_hours": "Mo-Sa 7:00-21:00 Su 7:00-14:00",
        "shop": "supermarket"
      }
    },
    {
      "type": "node",
      "id": 4519165757,
      "lat": 44.8102827,
      "lon": 13.9073889,
      "timestamp": "2016-11-24T15:35:06Z",
      "version": 1,
      "changeset": 43923284,
      "user": "dg8vt",
      "uid": 454905,
      "tags": {
        "name": "Cave Premantura",
        "natural": "cave_entrance"
      }
    },
    {
      "type": "node",
      "id": 4565164628,
      "lat": 45.0400063,
      "lon": 13.7873835,
      "timestamp": "2020-06-15T10:04:14Z",
      "version": 4,
      "changeset": 86662124,
      "user": "morlautrer",
      "uid": 38844,
      "tags": {
        "name": "Studenac",
        "shop": "supermarket"
      }
    },
    {
      "type": "node",
      "id": 4782727461,
      "lat": 44.9213825,
      "lon": 13.8066025,
      "timestamp": "2020-07-10T23:31:38Z",
      "version": 3,
      "changeset": 87839711,
      "user": "Mariusz Staniszewski",
      "uid": 2044927,
      "tags": {
        "brand": "Plodine",
        "brand:wikidata": "Q58040098",
        "name": "Plodine",
        "opening_hours": "07:00-22:00",
        "shop": "supermarket"
      }
    },
    {
      "type": "node",
      "id": 4904757137,
      "lat": 44.768077,
      "lon": 13.9161117,
      "timestamp": "2021-07-22T05:22:49Z",
      "version": 2,
      "changeset": 108398388,
      "user": "Miroslav Suchý",
      "uid": 589904,
      "tags": {
        "cave:difficulty": "dangerous",
        "cave:equipment": "helmet|climbing_gear",
        "natural": "cave_entrance"
      }
    },
    {
      "type": "node",
      "id": 4904757138,
      "lat": 44.7695198,
      "lon": 13.9264879,
      "timestamp": "2017-06-08T20:20:34Z",
      "version": 1,
      "changeset": 49379018,
      "user": "TommiG",
      "uid": 6096256,
      "tags": {
        "cave:difficulty": "easy",
        "cave:length": "5",
        "cave:size": "small",
        "natural": "cave_entrance"
      }
    },
    {
      "type": "node",
      "id": 4904757139,
      "lat": 44.7690381,
      "lon": 13.9112958,
      "timestamp": "2017-06-08T20:20:34Z",
      "version": 1,
      "changeset": 49379018,
      "user": "TommiG",
      "uid": 6096256,
      "tags": {
        "cave:difficulty": "dangerous",
        "natural": "cave_entrance"
      }
    },
    {
      "type": "node",
      "id": 4904757140,
      "lat": 44.7874294,
      "lon": 13.9031619,
      "timestamp": "2017-06-08T20:20:34Z",
      "version": 1,
      "changeset": 49379018,
      "user": "TommiG",
      "uid": 6096256,
      "tags": {
        "cave:difficulty": "dangerous",
        "cave:ref": "42 178",
        "natural": "cave_entrance"
      }
    },
    {
      "type": "node",
      "id": 4909045721,
      "lat": 44.8825105,
      "lon": 13.8086689,
      "timestamp": "2017-06-11T15:08:35Z",
      "version": 1,
      "changeset": 49444651,
      "user": "Darin Ruba",
      "uid": 6061174,
      "tags": {
        "tourism": "camp_site"
      }
    },
    {
      "type": "node",
      "id": 4959818423,
      "lat": 44.8553668,
      "lon": 13.9326168,
      "timestamp": "2017-07-09T12:29:18Z",
      "version": 1,
      "changeset": 50151678,
      "user": "Matija18",
      "uid": 3538495,
      "tags": {
        "name": "Montiron",
        "place": "hamlet"
      }
    },
    {
      "type": "node",
      "id": 4960559548,
      "lat": 45.0453671,
      "lon": 14.0597365,
      "timestamp": "2017-07-09T20:56:56Z",
      "version": 1,
      "changeset": 50161632,
      "user": "Matija18",
      "uid": 3538495,
      "tags": {
        "name": "Kumin",
        "place": "hamlet"
      }
    },
    {
      "type": "node",
      "id": 5062892921,
      "lat": 44.8698052,
      "lon": 13.8683029,
      "timestamp": "2021-06-01T13:21:13Z",
      "version": 4,
      "changeset": 105680535,
      "user": "Prevodnik",
      "uid": 715369,
      "tags": {
        "addr:city": "Pula",
        "addr:country": "HR",
        "addr:housenumber": "101",
        "addr:postcode": "52100",
        "addr:street": "Rimske centurijacije",
        "brand": "Interspar",
        "brand:wikidata": "Q15820339",
        "brand:wikipedia": "de:Interspar (Österreich)",
        "name": "Interspar",
        "name:hr": "Interspar",
        "opening_hours": "Mo-Su 07:00-22:00",
        "shop": "supermarket"
      }
    },
    {
      "type": "node",
      "id": 5082537246,
      "lat": 45.0536017,
      "lon": 13.6857951,
      "timestamp": "2017-09-05T21:19:31Z",
      "version": 1,
      "changeset": 51763717,
      "user": "andam66",
      "uid": 227290,
      "tags": {
        "name": "Konzum",
        "shop": "supermarket"
      }
    },
    {
      "type": "node",
      "id": 5613455425,
      "lat": 44.850368,
      "lon": 13.8503902,
      "timestamp": "2021-06-01T12:55:33Z",
      "version": 2,
      "changeset": 105679532,
      "user": "Prevodnik",
      "uid": 715369,
      "tags": {
        "addr:city": "Pula",
        "addr:housenumber": "11",
        "addr:postcode": "52100",
        "addr:street": "Gervaisova",
        "brand": "Studenac",
        "brand:wikidata": "Q65156084",
        "brand:wikipedia": "hr:Studenac",
        "name": "Studenac market",
        "opening_hours": "Mo-Sa 07:00-21:00, Su 07:00-14:00",
        "shop": "convenience",
        "website": "https://www.studenac.hr/trgovine/424/t487-pula"
      }
    },
    {
      "type": "node",
      "id": 5794429678,
      "lat": 44.8975641,
      "lon": 13.8506886,
      "timestamp": "2018-07-29T20:39:07Z",
      "version": 1,
      "changeset": 61173764,
      "user": "Alepoz",
      "uid": 80863,
      "tags": {
        "name": "Plus Market",
        "shop": "supermarket"
      }
    },
    {
      "type": "node",
      "id": 5884419042,
      "lat": 45.0740152,
      "lon": 13.6528728,
      "timestamp": "2019-07-11T12:45:22Z",
      "version": 4,
      "changeset": 72134288,
      "user": "Vicbel",
      "uid": 207085,
      "tags": {
        "name": "ŠPEŽA",
        "opening_hours": "Mo-Sa 07:00-19:00; Su 07:00-12:00",
        "shop": "supermarket"
      }
    },
    {
      "type": "node",
      "id": 5937542024,
      "lat": 44.9937183,
      "lon": 13.7535009,
      "timestamp": "2020-08-18T16:39:38Z",
      "version": 5,
      "changeset": 89586712,
      "user": "Badojo",
      "uid": 8189075,
      "tags": {
        "name": "Barbariga",
        "place": "hamlet",
        "wikidata": "Q4859465",
        "wikipedia": "en:Barbariga, Croatia"
      }
    },
    {
      "type": "node",
      "id": 6042253820,
      "lat": 45.0827909,
      "lon": 13.6297243,
      "timestamp": "2020-02-26T14:31:50Z",
      "version": 2,
      "changeset": 81508518,
      "user": "morlautrer",
      "uid": 38844,
      "tags": {
        "natural": "cave_entrance"
      }
    },
    {
      "type": "node",
      "id": 6681572951,
      "lat": 44.8691911,
      "lon": 13.8430544,
      "timestamp": "2021-08-16T15:20:28Z",
      "version": 4,
      "changeset": 109757896,
      "user": "TaisiiaN",
      "uid": 13851890,
      "tags": {
        "name": "Studenac",
        "opening_hours": "Mo-Sa 07:00-22:00; Su 08:00-15:00",
        "operator": "Istarski Supermarketi d.o.o.",
        "shop": "convenience"
      }
    },
    {
      "type": "node",
      "id": 6718220285,
      "lat": 44.8946541,
      "lon": 13.8179957,
      "timestamp": "2019-08-17T14:50:02Z",
      "version": 2,
      "changeset": 73444649,
      "user": "ViaggiatoreCartografo",
      "uid": 10215785,
      "tags": {
        "name": "Lovorka",
        "opening_hours": "Mo-Su 07:00-21:00",
        "shop": "supermarket"
      }
    },
    {
      "type": "node",
      "id": 6855189632,
      "lat": 44.8643413,
      "lon": 13.8444504,
      "timestamp": "2019-10-06T12:18:43Z",
      "version": 1,
      "changeset": 75339255,
      "user": "DAI",
      "uid": 450910,
      "tags": {
        "name": "Studenac",
        "shop": "supermarket"
      }
    },
    {
      "type": "node",
      "id": 7306072617,
      "lat": 45.0714784,
      "lon": 13.7642274,
      "timestamp": "2020-03-18T14:10:48Z",
      "version": 1,
      "changeset": 82351110,
      "user": "morlautrer",
      "uid": 38844,
      "tags": {
        "name": "Smokvina",
        "natural": "cave_entrance"
      }
    },
    {
      "type": "node",
      "id": 7308886562,
      "lat": 45.0569124,
      "lon": 13.7093009,
      "timestamp": "2020-03-19T11:39:20Z",
      "version": 1,
      "changeset": 82388435,
      "user": "morlautrer",
      "uid": 38844,
      "tags": {
        "name": "Sarižol",
        "place": "hamlet"
      }
    },
    {
      "type": "node",
      "id": 7308886563,
      "lat": 45.0589967,
      "lon": 13.7159551,
      "timestamp": "2020-03-19T11:39:20Z",
      "version": 1,
      "changeset": 82388435,
      "user": "morlautrer",
      "uid": 38844,
      "tags": {
        "name": "Galafija",
        "place": "hamlet"
      }
    },
    {
      "type": "node",
      "id": 7623005486,
      "lat": 44.8687387,
      "lon": 13.8431546,
      "timestamp": "2020-06-15T13:39:03Z",
      "version": 1,
      "changeset": 86673177,
      "user": "vbertola",
      "uid": 4347030,
      "tags": {
        "amenity": "drinking_water"
      }
    },
    {
      "type": "node",
      "id": 7670720195,
      "lat": 44.8606087,
      "lon": 13.8242024,
      "timestamp": "2020-06-30T13:45:34Z",
      "version": 1,
      "changeset": 87351920,
      "user": "jendricke_uwe",
      "uid": 617958,
      "tags": {
        "brand": "Plodine",
        "brand:wikidata": "Q58040098",
        "name": "Plodine",
        "shop": "supermarket"
      }
    },
    {
      "type": "node",
      "id": 7890285952,
      "lat": 44.8333854,
      "lon": 13.8437128,
      "timestamp": "2020-09-09T12:51:50Z",
      "version": 1,
      "changeset": 90647230,
      "user": "Vaga Bond",
      "uid": 10229611,
      "tags": {
        "ele": "0",
        "fee": "no",
        "natural": "cave_entrance"
      }
    },
    {
      "type": "node",
      "id": 7984971259,
      "lat": 44.910977,
      "lon": 13.8974319,
      "timestamp": "2020-10-07T12:36:34Z",
      "version": 1,
      "changeset": 92113285,
      "user": "windfinder11",
      "uid": 3311683,
      "tags": {
        "cave:difficulty": "dangerous",
        "cave:ref": "42 178",
        "natural": "cave_entrance"
      }
    },
    {
      "type": "node",
      "id": 7987665563,
      "lat": 44.9484386,
      "lon": 13.928783,
      "timestamp": "2020-10-08T09:49:07Z",
      "version": 1,
      "changeset": 92164813,
      "user": "windfinder11",
      "uid": 3311683,
      "tags": {
        "cave:difficulty": "dangerous",
        "cave:ref": "42 178",
        "natural": "cave_entrance"
      }
    },
    {
      "type": "node",
      "id": 8050055680,
      "lat": 44.88196,
      "lon": 13.8896582,
      "timestamp": "2021-01-24T13:16:55Z",
      "version": 3,
      "changeset": 98056629,
      "user": "vanja9",
      "uid": 7023695,
      "tags": {
        "cave:difficulty": "dangerous",
        "cave:ref": "42 178",
        "name": "Šandalja",
        "natural": "cave_entrance",
        "wikidata": "Q12646068"
      }
    },
    {
      "type": "node",
      "id": 8131836066,
      "lat": 44.8808732,
      "lon": 13.9662784,
      "timestamp": "2020-11-17T19:33:21Z",
      "version": 1,
      "changeset": 94303504,
      "user": "PULSEvents",
      "uid": 9404014,
      "tags": {
        "access": "no",
        "name": "Radmanova jama",
        "natural": "cave_entrance"
      }
    },
    {
      "type": "node",
      "id": 8154784259,
      "lat": 44.9120604,
      "lon": 13.9959775,
      "timestamp": "2020-11-23T14:00:08Z",
      "version": 1,
      "changeset": 94642599,
      "user": "windfinder11",
      "uid": 3311683,
      "tags": {
        "amenity": "drinking_water",
        "name": "Špina"
      }
    },
    {
      "type": "node",
      "id": 8154784260,
      "lat": 44.9591183,
      "lon": 13.9843109,
      "timestamp": "2020-11-23T14:00:08Z",
      "version": 1,
      "changeset": 94642599,
      "user": "windfinder11",
      "uid": 3311683,
      "tags": {
        "amenity": "drinking_water",
        "name": "Špina"
      }
    },
    {
      "type": "node",
      "id": 8154784261,
      "lat": 44.9819365,
      "lon": 14.0456485,
      "timestamp": "2020-11-23T14:00:08Z",
      "version": 1,
      "changeset": 94642599,
      "user": "windfinder11",
      "uid": 3311683,
      "tags": {
        "amenity": "drinking_water",
        "name": "Špina"
      }
    },
    {
      "type": "node",
      "id": 8154804175,
      "lat": 44.9253853,
      "lon": 13.9390711,
      "timestamp": "2020-11-23T14:01:19Z",
      "version": 1,
      "changeset": 94642653,
      "user": "windfinder11",
      "uid": 3311683,
      "tags": {
        "amenity": "drinking_water",
        "name": "Špina"
      }
    },
    {
      "type": "node",
      "id": 8449114520,
      "lat": 44.9537282,
      "lon": 13.85208,
      "timestamp": "2021-07-13T12:31:16Z",
      "version": 2,
      "changeset": 107910309,
      "user": "morlautrer",
      "uid": 38844,
      "tags": {
        "addr:city": "Vodnjan",
        "addr:housenumber": "33",
        "addr:street": "Ulica Prvi maj",
        "name": "Plodine",
        "shop": "supermarket",
        "website": "https://www.plodine.hr/"
      }
    },
    {
      "type": "node",
      "id": 8571383514,
      "lat": 45.0813931,
      "lon": 13.9882206,
      "timestamp": "2021-03-29T11:11:02Z",
      "version": 1,
      "changeset": 101913822,
      "user": "Matija18",
      "uid": 3538495,
      "tags": {
        "name": "Baretuni",
        "place": "hamlet"
      }
    },
    {
      "type": "node",
      "id": 8571391590,
      "lat": 45.0850085,
      "lon": 13.9759772,
      "timestamp": "2021-03-29T11:08:00Z",
      "version": 1,
      "changeset": 101913683,
      "user": "Matija18",
      "uid": 3538495,
      "tags": {
        "name": "Osipi",
        "place": "hamlet"
      }
    },
    {
      "type": "node",
      "id": 8571422228,
      "lat": 45.0887439,
      "lon": 13.9981767,
      "timestamp": "2021-03-29T11:20:08Z",
      "version": 1,
      "changeset": 101914215,
      "user": "Matija18",
      "uid": 3538495,
      "tags": {
        "name": "Špadi",
        "place": "hamlet"
      }
    },
    {
      "type": "node",
      "id": 8571422229,
      "lat": 45.0877006,
      "lon": 13.9945867,
      "timestamp": "2021-03-29T11:20:08Z",
      "version": 1,
      "changeset": 101914215,
      "user": "Matija18",
      "uid": 3538495,
      "tags": {
        "name": "Bateli kod Prhati",
        "place": "hamlet"
      }
    },
    {
      "type": "node",
      "id": 8571458636,
      "lat": 45.0670951,
      "lon": 13.9999139,
      "timestamp": "2021-03-29T11:38:48Z",
      "version": 1,
      "changeset": 101915130,
      "user": "Matija18",
      "uid": 3538495,
      "tags": {
        "name": "Kvarantija",
        "place": "hamlet"
      }
    },
    {
      "type": "node",
      "id": 8571487160,
      "lat": 45.0234821,
      "lon": 13.9416938,
      "timestamp": "2021-03-29T11:47:19Z",
      "version": 1,
      "changeset": 101915579,
      "user": "Matija18",
      "uid": 3538495,
      "tags": {
        "name": "Stancija Draćevac",
        "place": "hamlet"
      }
    },
    {
      "type": "node",
      "id": 8586531564,
      "lat": 44.8654664,
      "lon": 13.8879569,
      "timestamp": "2021-04-02T12:59:37Z",
      "version": 1,
      "changeset": 102195428,
      "user": "Matija18",
      "uid": 3538495,
      "tags": {
        "name": "Rendinelica",
        "place": "hamlet"
      }
    },
    {
      "type": "node",
      "id": 8589229144,
      "lat": 44.851932,
      "lon": 13.9162373,
      "timestamp": "2021-04-03T10:22:34Z",
      "version": 1,
      "changeset": 102230005,
      "user": "Matija18",
      "uid": 3538495,
      "tags": {
        "name": "Ševe",
        "place": "hamlet"
      }
    },
    {
      "type": "node",
      "id": 8593198872,
      "lat": 44.9038938,
      "lon": 13.8266758,
      "timestamp": "2021-04-04T20:27:24Z",
      "version": 1,
      "changeset": 102286892,
      "user": "Matija18",
      "uid": 3538495,
      "tags": {
        "name": "Šurida",
        "place": "hamlet"
      }
    },
    {
      "type": "node",
      "id": 8621786126,
      "lat": 45.078064,
      "lon": 13.8802206,
      "timestamp": "2021-04-12T11:51:31Z",
      "version": 1,
      "changeset": 102801370,
      "user": "Matija18",
      "uid": 3538495,
      "tags": {
        "name": "Stancija Salamon",
        "place": "hamlet"
      }
    },
    {
      "type": "node",
      "id": 8621835557,
      "lat": 45.0420197,
      "lon": 13.8677351,
      "timestamp": "2021-04-12T11:58:42Z",
      "version": 1,
      "changeset": 102801867,
      "user": "Matija18",
      "uid": 3538495,
      "tags": {
        "name": "Stancija Čabrunići",
        "place": "hamlet"
      }
    },
    {
      "type": "node",
      "id": 8789270689,
      "lat": 44.8511667,
      "lon": 13.8497962,
      "timestamp": "2021-06-01T12:55:33Z",
      "version": 1,
      "changeset": 105679532,
      "user": "Prevodnik",
      "uid": 715369,
      "tags": {
        "name": "Discount Ruža",
        "shop": "convenience"
      }
    },
    {
      "type": "node",
      "id": 8789270691,
      "lat": 44.8521593,
      "lon": 13.8513358,
      "timestamp": "2021-06-01T13:21:13Z",
      "version": 2,
      "changeset": 105680535,
      "user": "Prevodnik",
      "uid": 715369,
      "tags": {
        "name": "H2O",
        "shop": "convenience"
      }
    },
    {
      "type": "node",
      "id": 8910553255,
      "lat": 44.9476571,
      "lon": 14.0111319,
      "timestamp": "2021-07-10T21:50:57Z",
      "version": 1,
      "changeset": 107763616,
      "user": "maem",
      "uid": 507640,
      "tags": {
        "name": "Miracolo Peruški",
        "shop": "convenience"
      }
    },
    {
      "type": "node",
      "id": 8912090059,
      "lat": 44.9265229,
      "lon": 13.8042758,
      "timestamp": "2021-07-11T19:27:29Z",
      "version": 1,
      "changeset": 107795426,
      "user": "Karry",
      "uid": 217057,
      "tags": {
        "name": "Miracolo Market",
        "shop": "convenience"
      }
    },
    {
      "type": "node",
      "id": 8940333858,
      "lat": 44.8215238,
      "lon": 13.8657279,
      "timestamp": "2021-07-22T04:43:39Z",
      "version": 1,
      "changeset": 108396377,
      "user": "Miroslav Suchý",
      "uid": 589904,
      "tags": {
        "name": "Market",
        "shop": "convenience"
      }
    },
    {
      "type": "node",
      "id": 9008454991,
      "lat": 44.8691184,
      "lon": 13.8487228,
      "timestamp": "2021-08-15T18:44:53Z",
      "version": 1,
      "changeset": 109712289,
      "user": "TaisiiaN",
      "uid": 13851890,
      "tags": {
        "name": "Studenac",
        "opening_hours": "Mo-Fr 07:00-23:00; Sa, Su 08:00-23:00",
        "shop": "supermarket"
      }
    },
    {
      "type": "node",
      "id": 9167937544,
      "lat": 44.8592836,
      "lon": 13.8156496,
      "timestamp": "2021-10-14T12:54:21Z",
      "version": 2,
      "changeset": 112502975,
      "user": "Chrisss Gü",
      "uid": 577766,
      "tags": {
        "amenity": "drinking_water",
        "fee": "no"
      }
    },
    {
      "type": "way",
      "id": 26268327,
      "timestamp": "2019-03-20T12:01:35Z",
      "version": 15,
      "changeset": 68333104,
      "user": "b-jazz-bot",
      "uid": 9451067,
      "center": {
        "lat": 44.9165275,
        "lon": 13.807881
      },
      "nodes": [],
      "tags": {
        "addr:city": "Fazana",
        "addr:housenumber": "115",
        "addr:postcode": "52212",
        "addr:street": "Dragonja",
        "email": "info@bivillage.com",
        "name": "Bi Village",
        "name:pl": "Bi Village Ośrodek wypoczynkowy",
        "note": "They have bungalows with wheelchair acces to toilet and shower. It's easy to get around at Bi Village and there is a path to Fazana",
        "stars": "4",
        "tourism": "camp_site",
        "website": "https://www.bivillage.com/",
        "wheelchair": "limited"
      }
    },
    {
      "type": "way",
      "id": 34426199,
      "timestamp": "2021-11-17T16:22:51Z",
      "version": 11,
      "changeset": 113905184,
      "user": "johnnybegoode",
      "uid": 10832296,
      "center": {
        "lat": 44.8253424,
        "lon": 13.8489522
      },
      "nodes": [],
      "tags": {
        "name": "Autocamp Indije",
        "tourism": "camp_site"
      }
    },
    {
      "type": "way",
      "id": 40883427,
      "timestamp": "2022-01-21T19:00:58Z",
      "version": 15,
      "changeset": 116444073,
      "user": "stbg",
      "uid": 3758092,
      "center": {
        "lat": 44.7963744,
        "lon": 13.9175294
      },
      "nodes": [],
      "tags": {
        "addr:city": "Premantura",
        "addr:country": "HR",
        "addr:housenumber": "250",
        "addr:postcode": "52203",
        "addr:street": "Selo",
        "caravans": "yes",
        "contact:email": "acstupice@arenaturist.hr",
        "contact:fax": "+38552575411",
        "contact:phone": "+38552575111",
        "contact:website": "http://www.arenacamps.com",
        "fee": "yes",
        "internet_access": "wlan",
        "internet_access:fee": "no",
        "name": "Camping Village Stupice",
        "name:pl": "Camping Village Stupice",
        "openfire": "no",
        "operator": "Arenacamps",
        "sanitary_dump_station": "yes",
        "tents": "yes",
        "tourism": "camp_site"
      }
    },
    {
      "type": "way",
      "id": 42763247,
      "timestamp": "2022-01-03T16:17:20Z",
      "version": 17,
      "changeset": 115718734,
      "user": "stbg",
      "uid": 3758092,
      "center": {
        "lat": 44.9369114,
        "lon": 13.796551
      },
      "nodes": [],
      "tags": {
        "name": "Pineta",
        "tourism": "camp_site"
      }
    },
    {
      "type": "way",
      "id": 55690386,
      "timestamp": "2017-07-17T06:30:23Z",
      "version": 11,
      "changeset": 50340179,
      "user": "wheelmap_visitor",
      "uid": 290680,
      "center": {
        "lat": 44.8966436,
        "lon": 13.8061213
      },
      "nodes": [],
      "tags": {
        "name": "Camp Brioni",
        "old_name": "Puntižela",
        "toilets:wheelchair": "no",
        "tourism": "camp_site",
        "wheelchair": "limited"
      }
    },
    {
      "type": "way",
      "id": 74130585,
      "timestamp": "2010-08-24T12:14:29Z",
      "version": 3,
      "changeset": 5578895,
      "user": "dino_h",
      "uid": 88508,
      "center": {
        "lat": 44.8238045,
        "lon": 13.8480592
      },
      "nodes": [],
      "tags": {
        "name": "Laguna",
        "tourism": "camp_site"
      }
    },
    {
      "type": "way",
      "id": 76131915,
      "timestamp": "2018-09-01T16:40:19Z",
      "version": 13,
      "changeset": 62202017,
      "user": "vice",
      "uid": 151346,
      "center": {
        "lat": 44.8088068,
        "lon": 13.9296613
      },
      "nodes": [],
      "tags": {
        "name": "Camping Medulin",
        "tourism": "camp_site"
      }
    },
    {
      "type": "way",
      "id": 77341477,
      "timestamp": "2010-09-13T08:38:38Z",
      "version": 1,
      "changeset": 5767394,
      "user": "gscholz",
      "uid": 109705,
      "center": {
        "lat": 44.8240156,
        "lon": 13.8555919
      },
      "nodes": [],
      "tags": {
        "name": "Kamp Karlo",
        "tourism": "camp_site"
      }
    },
    {
      "type": "way",
      "id": 77343664,
      "timestamp": "2015-04-22T08:02:51Z",
      "version": 2,
      "changeset": 30398028,
      "user": "morlautrer",
      "uid": 38844,
      "center": {
        "lat": 44.824821,
        "lon": 13.8589629
      },
      "nodes": [],
      "tags": {
        "name": "Kamp Diana",
        "tourism": "camp_site"
      }
    },
    {
      "type": "way",
      "id": 100322156,
      "timestamp": "2020-02-17T10:41:32Z",
      "version": 4,
      "changeset": 81108844,
      "user": "morlautrer",
      "uid": 38844,
      "center": {
        "lat": 45.0821848,
        "lon": 13.6504633
      },
      "nodes": [],
      "tags": {
        "addr:city": "Rovinj",
        "addr:country": "HR",
        "addr:housenumber": "5a",
        "addr:postcode": "52210",
        "addr:street": "Ulica Giovannija Dapiran",
        "building": "commercial",
        "name": "Konzum",
        "shop": "supermarket"
      }
    },
    {
      "type": "way",
      "id": 123185176,
      "timestamp": "2012-07-09T10:20:25Z",
      "version": 3,
      "changeset": 12160098,
      "user": "morlautrer",
      "uid": 38844,
      "center": {
        "lat": 45.0494659,
        "lon": 13.6897358
      },
      "nodes": [],
      "tags": {
        "name": "Mon Paradis",
        "tourism": "camp_site"
      }
    },
    {
      "type": "way",
      "id": 130456594,
      "timestamp": "2019-03-27T23:11:47Z",
      "version": 7,
      "changeset": 68606750,
      "user": "Badojo",
      "uid": 8189075,
      "center": {
        "lat": 45.052334,
        "lon": 13.6873132
      },
      "nodes": [],
      "tags": {
        "name": "Vestar",
        "tourism": "camp_site"
      }
    },
    {
      "type": "way",
      "id": 130577091,
      "timestamp": "2022-01-31T14:57:29Z",
      "version": 11,
      "changeset": 116827304,
      "user": "Blacky98",
      "uid": 14326205,
      "center": {
        "lat": 45.0583741,
        "lon": 13.6732833
      },
      "nodes": [],
      "tags": {
        "addr:city": "Rovinj",
        "addr:country": "HR",
        "addr:housenumber": "6",
        "addr:postcode": "52210",
        "addr:street": "Obala V. Nazora",
        "internet_access": "wlan",
        "name": "Polari",
        "nudism": "obligatory",
        "phone": "0038552800200",
        "tourism": "camp_site",
        "website": "http://www.campingrovinjvrsar.com/Campsites/Polari_Rovinj",
        "wheelchair": "yes"
      }
    },
    {
      "type": "way",
      "id": 135462283,
      "timestamp": "2021-09-24T22:18:18Z",
      "version": 6,
      "changeset": 111668681,
      "user": "Badojo",
      "uid": 8189075,
      "center": {
        "lat": 44.8785869,
        "lon": 13.8629542
      },
      "nodes": [],
      "tags": {
        "brand": "Kaufland",
        "brand:wikidata": "Q685967",
        "brand:wikipedia": "en:Kaufland",
        "building": "yes",
        "name": "Kaufland",
        "ref:vatin": "HR47432874968",
        "shop": "supermarket",
        "wheelchair": "yes"
      }
    },
    {
      "type": "way",
      "id": 135462284,
      "timestamp": "2016-08-11T21:48:20Z",
      "version": 4,
      "changeset": 41398751,
      "user": "PrzemekP",
      "uid": 1244141,
      "center": {
        "lat": 44.8823512,
        "lon": 13.8638945
      },
      "nodes": [],
      "tags": {
        "addr:city": "Pula",
        "addr:housenumber": "2",
        "addr:postcode": "52100",
        "addr:street": "Labinska",
        "building": "yes",
        "name": "Lidl",
        "ref:vatin": "HR66089976432",
        "shop": "supermarket"
      }
    },
    {
      "type": "way",
      "id": 135462285,
      "timestamp": "2021-09-24T18:08:09Z",
      "version": 7,
      "changeset": 111661248,
      "user": "Badojo",
      "uid": 8189075,
      "center": {
        "lat": 44.8789828,
        "lon": 13.8646607
      },
      "nodes": [],
      "tags": {
        "addr:city": "Pula",
        "addr:housenumber": "12",
        "addr:postcode": "52100",
        "addr:street": "Jurja Žakna",
        "brand": "Plodine",
        "brand:wikidata": "Q58040098",
        "brand:wikipedia": "hr:Plodine",
        "building": "yes",
        "name": "Plodine",
        "name:pl": "Supermarket Plodine",
        "opening_hours": "Mo-Su 07:00-22:00",
        "ref:vatin": "HR92510683607",
        "shop": "supermarket",
        "website": "http://www.plodine.hr"
      }
    },
    {
      "type": "way",
      "id": 135792166,
      "timestamp": "2013-10-10T12:11:35Z",
      "version": 2,
      "changeset": 18277604,
      "user": "wheelmap_visitor",
      "uid": 290680,
      "center": {
        "lat": 44.8771237,
        "lon": 13.8570842
      },
      "nodes": [],
      "tags": {
        "building": "yes",
        "name": "Di Meglio",
        "shop": "supermarket",
        "wheelchair": "yes"
      }
    },
    {
      "type": "way",
      "id": 135885139,
      "timestamp": "2019-01-17T22:19:17Z",
      "version": 2,
      "changeset": 66409431,
      "user": "Matija18",
      "uid": 3538495,
      "center": {
        "lat": 44.8770791,
        "lon": 13.861157
      },
      "nodes": [],
      "tags": {
        "building": "yes",
        "name": "Robna kuća Šijana",
        "shop": "supermarket"
      }
    },
    {
      "type": "way",
      "id": 135887882,
      "timestamp": "2019-08-17T11:16:11Z",
      "version": 7,
      "changeset": 73440454,
      "user": "ViaggiatoreCartografo",
      "uid": 10215785,
      "center": {
        "lat": 44.88375,
        "lon": 13.8688762
      },
      "nodes": [],
      "tags": {
        "addr:housenumber": "1",
        "addr:street": "Šijanska cesta",
        "building": "yes",
        "name": "Konzum",
        "opening_hours": "Mo-Su 07:00-22:00",
        "shop": "supermarket"
      }
    },
    {
      "type": "way",
      "id": 136291171,
      "timestamp": "2016-04-06T22:01:12Z",
      "version": 2,
      "changeset": 38364677,
      "user": "Edo_Pul@",
      "uid": 334362,
      "center": {
        "lat": 44.8734812,
        "lon": 13.8537611
      },
      "nodes": [],
      "tags": {
        "building": "yes",
        "name": "Duravit",
        "shop": "supermarket"
      }
    },
    {
      "type": "way",
      "id": 137189679,
      "timestamp": "2013-04-19T11:42:53Z",
      "version": 2,
      "changeset": 15784241,
      "user": "skrtaca",
      "uid": 776457,
      "center": {
        "lat": 44.8552571,
        "lon": 13.8484213
      },
      "nodes": [],
      "tags": {
        "addr:housenumber": "2",
        "addr:postcode": "52100",
        "addr:street": "Monte Cappelletta",
        "building": "yes",
        "name": "Puljanka Prodavaonica 006 Vidikovac",
        "shop": "convenience"
      }
    },
    {
      "type": "way",
      "id": 138431085,
      "timestamp": "2019-03-20T12:01:34Z",
      "version": 7,
      "changeset": 68333104,
      "user": "b-jazz-bot",
      "uid": 9451067,
      "center": {
        "lat": 44.8683075,
        "lon": 13.8634332
      },
      "nodes": [],
      "tags": {
        "addr:city": "Pula",
        "addr:country": "HR",
        "addr:housenumber": "13",
        "addr:postcode": "52100",
        "addr:street": "Santoriova",
        "building": "yes",
        "name": "Spar",
        "opening_hours": "Mo-Sa 07:00-23:00; Su 07:00-22:00",
        "payment:american_express": "yes",
        "payment:cash": "yes",
        "payment:diners_club": "yes",
        "payment:maestro": "yes",
        "payment:mastercard": "yes",
        "payment:visa": "yes",
        "payment:visa_debit": "yes",
        "payment:visa_electron": "yes",
        "phone": "+385 52 541 222",
        "ref:vatin": "HR30380746842",
        "shop": "supermarket",
        "website": "https://www.spar.hr/",
        "wheelchair": "yes"
      }
    },
    {
      "type": "way",
      "id": 159967662,
      "timestamp": "2016-09-08T11:37:49Z",
      "version": 2,
      "changeset": 42001840,
      "user": "pavlina88",
      "uid": 3666419,
      "center": {
        "lat": 44.8555125,
        "lon": 13.8422544
      },
      "nodes": [],
      "tags": {
        "building": "yes",
        "name": "Butiga Ultra",
        "shop": "convenience"
      }
    },
    {
      "type": "way",
      "id": 161847625,
      "timestamp": "2016-08-11T21:35:52Z",
      "version": 4,
      "changeset": 41398553,
      "user": "PrzemekP",
      "uid": 1244141,
      "center": {
        "lat": 44.8594967,
        "lon": 13.838812
      },
      "nodes": [],
      "tags": {
        "addr:city": "Pula",
        "addr:country": "HR",
        "addr:housenumber": "5",
        "addr:postcode": "52100",
        "addr:street": "Kamenjak",
        "building": "yes",
        "name": "Konzum",
        "shop": "supermarket"
      }
    },
    {
      "type": "way",
      "id": 169963983,
      "timestamp": "2021-09-07T10:47:48Z",
      "version": 4,
      "changeset": 110851962,
      "user": "jeka p",
      "uid": 2385757,
      "center": {
        "lat": 45.0088244,
        "lon": 13.718236
      },
      "nodes": [],
      "tags": {
        "name": "Mon Perin - Area Colona",
        "tourism": "camp_site",
        "website": "https://www.camping-monperin.hr/"
      }
    },
    {
      "type": "way",
      "id": 169963984,
      "timestamp": "2021-09-18T12:18:47Z",
      "version": 10,
      "changeset": 111373490,
      "user": "jeka p",
      "uid": 2385757,
      "center": {
        "lat": 45.0044824,
        "lon": 13.7234744
      },
      "nodes": [],
      "tags": {
        "addr:city": "Bale",
        "addr:country": "HR",
        "addr:housenumber": "1",
        "addr:postcode": "52211",
        "addr:street": "San Polo",
        "contact:email": "info@monperin.hr",
        "contact:fax": "+385 52 824 382",
        "contact:phone": "+385 52 824 338",
        "contact:website": "https://www.camping-monperin.hr/",
        "name": "Mon Perin - Area Colona",
        "tourism": "camp_site",
        "website": "https://www.camping-monperin.hr/"
      }
    },
    {
      "type": "way",
      "id": 169964005,
      "timestamp": "2021-09-18T12:18:47Z",
      "version": 11,
      "changeset": 111373490,
      "user": "jeka p",
      "uid": 2385757,
      "center": {
        "lat": 45.0177344,
        "lon": 13.714477
      },
      "nodes": [],
      "tags": {
        "addr:city": "Bale",
        "addr:country": "HR",
        "addr:housenumber": "1",
        "addr:postcode": "52211",
        "addr:street": "San Polo",
        "contact:email": "info@monperin.hr",
        "contact:fax": "+385 52 824 382",
        "contact:phone": "+385 52 824 338",
        "contact:website": "https://www.camping-monperin.hr/",
        "name": "Mon Perin - Area San Polo",
        "tourism": "camp_site",
        "website": "https://www.camping-monperin.hr/"
      }
    },
    {
      "type": "way",
      "id": 173928376,
      "timestamp": "2021-11-06T17:19:55Z",
      "version": 9,
      "changeset": 113455490,
      "user": "rene78",
      "uid": 257555,
      "center": {
        "lat": 44.8569778,
        "lon": 13.8133487
      },
      "nodes": [],
      "tags": {
        "alt_name": "Kamp Stoja",
        "dog": "yes",
        "email": "arenastoja@arenacampsites.com",
        "fee": "yes",
        "name": "Arena Stoja",
        "operator": "Arena",
        "phone": "+385 52 387 144",
        "tourism": "camp_site",
        "website": "https://www.arenacamps.com/en/camps-istria/camping-arena-stoja"
      }
    },
    {
      "type": "way",
      "id": 209336713,
      "timestamp": "2020-02-25T09:50:42Z",
      "version": 4,
      "changeset": 81447718,
      "user": "morlautrer",
      "uid": 38844,
      "center": {
        "lat": 45.0797109,
        "lon": 13.6571713
      },
      "nodes": [],
      "tags": {
        "addr:city": "Rovinj",
        "addr:country": "HR",
        "addr:housenumber": "4b",
        "addr:postcode": "52210",
        "addr:street": "Ulica Braće Božić",
        "brand": "Plodine",
        "brand:wikidata": "Q58040098",
        "building": "commercial",
        "name": "Plodine",
        "ref:vatin": "HR92510683607",
        "shop": "supermarket"
      }
    },
    {
      "type": "way",
      "id": 209336714,
      "timestamp": "2020-02-25T09:50:42Z",
      "version": 5,
      "changeset": 81447718,
      "user": "morlautrer",
      "uid": 38844,
      "center": {
        "lat": 45.0799758,
        "lon": 13.6563688
      },
      "nodes": [],
      "tags": {
        "addr:city": "Rovinj",
        "addr:housenumber": "4a",
        "addr:postcode": "52210",
        "addr:street": "Ulica Braće Božić",
        "brand": "Lidl",
        "brand:wikidata": "Q151954",
        "brand:wikipedia": "en:Lidl",
        "building": "commercial",
        "building:levels": "1",
        "name": "Lidl",
        "opening_hours": "Mo-Su 07:00-23:00",
        "shop": "supermarket"
      }
    },
    {
      "type": "way",
      "id": 220327054,
      "timestamp": "2021-07-12T10:17:18Z",
      "version": 2,
      "changeset": 107830442,
      "user": "morlautrer",
      "uid": 38844,
      "center": {
        "lat": 45.0778301,
        "lon": 13.6394831
      },
      "nodes": [],
      "tags": {
        "building": "yes",
        "name": "Tommy",
        "shop": "supermarket"
      }
    },
    {
      "type": "way",
      "id": 220467037,
      "timestamp": "2013-05-08T12:17:53Z",
      "version": 1,
      "changeset": 16028552,
      "user": "morlautrer",
      "uid": 38844,
      "center": {
        "lat": 45.0638238,
        "lon": 13.6766715
      },
      "nodes": [],
      "tags": {
        "name": "Oaza Kamp",
        "tourism": "camp_site"
      }
    },
    {
      "type": "way",
      "id": 257070645,
      "timestamp": "2021-09-25T12:52:18Z",
      "version": 3,
      "changeset": 111686768,
      "user": "Badojo",
      "uid": 8189075,
      "center": {
        "lat": 44.8267709,
        "lon": 13.9309152
      },
      "nodes": [],
      "tags": {
        "addr:city": "Medulin",
        "addr:housenumber": "3B",
        "addr:postcode": "52203",
        "addr:street": "Munida",
        "brand": "Plodine",
        "brand:wikidata": "Q58040098",
        "brand:wikipedia": "hr:Plodine",
        "building": "yes",
        "name": "Plodine",
        "opening_hours": "Mo-Su 07:00-23:00",
        "operator": "Plodine d.d.",
        "shop": "supermarket",
        "wheelchair": "yes"
      }
    },
    {
      "type": "way",
      "id": 262373749,
      "timestamp": "2019-09-18T21:39:11Z",
      "version": 3,
      "changeset": 74646376,
      "user": "Alesanderu",
      "uid": 4490260,
      "center": {
        "lat": 45.0852068,
        "lon": 13.6409489
      },
      "nodes": [],
      "tags": {
        "building": "yes",
        "name": "Discount Valalta",
        "opening_hours": "Mo-Su 07:00-21:00; PH off",
        "shop": "supermarket"
      }
    },
    {
      "type": "way",
      "id": 284027920,
      "timestamp": "2021-08-21T09:52:19Z",
      "version": 3,
      "changeset": 110021039,
      "user": "PrzemekP",
      "uid": 1244141,
      "center": {
        "lat": 44.8262116,
        "lon": 13.8788035
      },
      "nodes": [],
      "tags": {
        "brand": "Konzum",
        "brand:wikidata": "Q518563",
        "brand:wikipedia": "hr:Konzum",
        "building": "yes",
        "name": "Konzum",
        "ref:vatin": "1",
        "shop": "convenience"
      }
    },
    {
      "type": "way",
      "id": 302814410,
      "timestamp": "2019-05-28T21:25:31Z",
      "version": 2,
      "changeset": 70712321,
      "user": "Fuss-im-Ohr",
      "uid": 59819,
      "center": {
        "lat": 45.0617801,
        "lon": 13.6718427
      },
      "nodes": [],
      "tags": {
        "building": "yes",
        "name": "Konzum",
        "opening_hours": "Mo-Su 08:00-21:00",
        "operator": "Konzum",
        "shop": "supermarket"
      }
    },
    {
      "type": "way",
      "id": 338487986,
      "timestamp": "2015-04-14T15:08:25Z",
      "version": 1,
      "changeset": 30214841,
      "user": "sijanac",
      "uid": 545134,
      "center": {
        "lat": 44.8865646,
        "lon": 13.8602738
      },
      "nodes": [],
      "tags": {
        "building": "yes",
        "name": "Getro",
        "shop": "supermarket"
      }
    },
    {
      "type": "way",
      "id": 345295624,
      "timestamp": "2020-11-08T18:27:07Z",
      "version": 7,
      "changeset": 93752612,
      "user": "PULSEvents",
      "uid": 9404014,
      "center": {
        "lat": 44.8060844,
        "lon": 13.9546106
      },
      "nodes": [],
      "tags": {
        "alt_name": "Camp Kažela",
        "email": "ackazela@arenaturist.hr",
        "internet_access": "wlan",
        "internet_access:fee": "no",
        "name": "Kažela",
        "operator": "Arenacamps",
        "phone": "+385 52 577277",
        "tourism": "camp_site",
        "website": "https://www.arenacamps.com/arenacamps_camping/kazela_camping"
      }
    },
    {
      "type": "way",
      "id": 425961436,
      "timestamp": "2019-12-20T09:05:51Z",
      "version": 3,
      "changeset": 78675027,
      "user": "SkWalsh",
      "uid": 1209715,
      "center": {
        "lat": 44.9246503,
        "lon": 14.0307346
      },
      "nodes": [],
      "tags": {
        "access": "yes",
        "addr:city": "Krnica",
        "addr:postcode": "52208",
        "addr:street": "Duga uvala",
        "capacity": "27",
        "email": "hostel.cvrcak@zgh.hr",
        "name": "Kamp Cvrcak",
        "operator": "Podružnica Vladimir Nazor",
        "phone": "tel.+385 (0)1 642 6671",
        "power_supply": "yes",
        "tourism": "camp_site",
        "website": "https://www.nazor.hr/default.aspx?id=296"
      }
    },
    {
      "type": "way",
      "id": 437038290,
      "timestamp": "2016-08-13T15:32:27Z",
      "version": 1,
      "changeset": 41431626,
      "user": "skifans",
      "uid": 2800603,
      "center": {
        "lat": 44.9567578,
        "lon": 13.8494724
      },
      "nodes": [],
      "tags": {
        "access": "private",
        "amenity": "shelter",
        "bin": "no",
        "shelter_type": "sun_shelter"
      }
    },
    {
      "type": "way",
      "id": 503274382,
      "timestamp": "2021-08-03T16:36:38Z",
      "version": 7,
      "changeset": 109104662,
      "user": "PrzemekP",
      "uid": 1244141,
      "center": {
        "lat": 44.8275249,
        "lon": 13.9306838
      },
      "nodes": [],
      "tags": {
        "addr:city": "Medulin",
        "addr:housenumber": "7",
        "addr:postcode": "52203",
        "addr:street": "Biškupije",
        "brand": "Lidl",
        "brand:wikidata": "Q151954",
        "brand:wikipedia": "en:Lidl",
        "building": "yes",
        "name": "Lidl",
        "name:en": "Lidl",
        "name:hr": "Lidl",
        "opening_hours": "Mo-Su 07:00-21:00",
        "shop": "supermarket",
        "website": "https://www.lidl.hr/",
        "wheelchair": "yes"
      }
    },
    {
      "type": "way",
      "id": 506089001,
      "timestamp": "2017-07-08T17:18:48Z",
      "version": 1,
      "changeset": 50135866,
      "user": "euromapz",
      "uid": 5165463,
      "center": {
        "lat": 45.0676645,
        "lon": 13.6669989
      },
      "nodes": [],
      "tags": {
        "tourism": "camp_site"
      }
    },
    {
      "type": "way",
      "id": 506089002,
      "timestamp": "2017-07-08T17:18:48Z",
      "version": 1,
      "changeset": 50135866,
      "user": "euromapz",
      "uid": 5165463,
      "center": {
        "lat": 45.0695197,
        "lon": 13.6708229
      },
      "nodes": [],
      "tags": {
        "tourism": "camp_site"
      }
    },
    {
      "type": "way",
      "id": 506089003,
      "timestamp": "2017-07-08T17:18:48Z",
      "version": 1,
      "changeset": 50135866,
      "user": "euromapz",
      "uid": 5165463,
      "center": {
        "lat": 45.0684302,
        "lon": 13.672209
      },
      "nodes": [],
      "tags": {
        "tourism": "camp_site"
      }
    },
    {
      "type": "way",
      "id": 506089004,
      "timestamp": "2017-07-08T17:18:48Z",
      "version": 1,
      "changeset": 50135866,
      "user": "euromapz",
      "uid": 5165463,
      "center": {
        "lat": 45.0680177,
        "lon": 13.6698233
      },
      "nodes": [],
      "tags": {
        "tourism": "camp_site"
      }
    },
    {
      "type": "way",
      "id": 506089005,
      "timestamp": "2017-07-08T17:18:48Z",
      "version": 1,
      "changeset": 50135866,
      "user": "euromapz",
      "uid": 5165463,
      "center": {
        "lat": 45.0666727,
        "lon": 13.6698574
      },
      "nodes": [],
      "tags": {
        "tourism": "camp_site"
      }
    },
    {
      "type": "way",
      "id": 680177695,
      "timestamp": "2019-03-28T19:24:20Z",
      "version": 1,
      "changeset": 68640509,
      "user": "Badojo",
      "uid": 8189075,
      "center": {
        "lat": 44.894438,
        "lon": 13.8851647
      },
      "nodes": [],
      "tags": {
        "building": "yes",
        "name": "Lesnina XXXL Pula",
        "shop": "supermarket"
      }
    },
    {
      "type": "way",
      "id": 697548869,
      "timestamp": "2021-07-07T19:13:35Z",
      "version": 3,
      "changeset": 107585817,
      "user": "aronkvh",
      "uid": 12411427,
      "center": {
        "lat": 44.8626789,
        "lon": 13.8655295
      },
      "nodes": [],
      "tags": {
        "brand": "Lidl",
        "brand:wikidata": "Q151954",
        "brand:wikipedia": "en:Lidl",
        "building": "retail",
        "name": "Lidl",
        "opening_hours": "Mo-Su 07:00-23:00",
        "shop": "supermarket"
      }
    },
    {
      "type": "way",
      "id": 733246684,
      "timestamp": "2019-10-10T11:50:48Z",
      "version": 1,
      "changeset": 75509000,
      "user": "vkmod",
      "uid": 699570,
      "center": {
        "lat": 45.0501574,
        "lon": 13.6924923
      },
      "nodes": [],
      "tags": {
        "capacity": "36",
        "dog": "yes",
        "name": "Val Vidal",
        "tourism": "camp_site",
        "website": "https://valvidalcamping.business.site/"
      }
    },
    {
      "type": "way",
      "id": 785832698,
      "timestamp": "2020-03-30T10:29:54Z",
      "version": 1,
      "changeset": 82817932,
      "user": "morlautrer",
      "uid": 38844,
      "center": {
        "lat": 45.0652238,
        "lon": 13.6684176
      },
      "nodes": [],
      "tags": {
        "tourism": "camp_site"
      }
    },
    {
      "type": "way",
      "id": 822257284,
      "timestamp": "2021-08-02T18:07:30Z",
      "version": 3,
      "changeset": 109046665,
      "user": "Martinummo",
      "uid": 6698832,
      "center": {
        "lat": 44.8232207,
        "lon": 13.8522023
      },
      "nodes": [],
      "tags": {
        "name": "Brajdice",
        "tourism": "camp_site"
      }
    },
    {
      "type": "way",
      "id": 822257285,
      "timestamp": "2021-08-02T18:07:30Z",
      "version": 3,
      "changeset": 109046665,
      "user": "Martinummo",
      "uid": 6698832,
      "center": {
        "lat": 44.8222681,
        "lon": 13.8512404
      },
      "nodes": [],
      "tags": {
        "addr:city": "Pula",
        "addr:housenumber": "73",
        "addr:postcode": "52100",
        "addr:street": "Banjol-Indije",
        "name": "Peskera",
        "tourism": "camp_site",
        "website": "https://camp-peskera.com/"
      }
    },
    {
      "type": "way",
      "id": 866925571,
      "timestamp": "2020-11-04T10:02:33Z",
      "version": 1,
      "changeset": 93532924,
      "user": "PULSEvents",
      "uid": 9404014,
      "center": {
        "lat": 44.8486472,
        "lon": 13.9661663
      },
      "nodes": [],
      "tags": {
        "amenity": "shelter",
        "building": "yes"
      }
    },
    {
      "type": "way",
      "id": 969852803,
      "timestamp": "2021-11-17T16:22:51Z",
      "version": 3,
      "changeset": 113905184,
      "user": "johnnybegoode",
      "uid": 10832296,
      "center": {
        "lat": 44.8227627,
        "lon": 13.8496963
      },
      "nodes": [],
      "tags": {
        "addr:city": "Pula",
        "addr:housenumber": "102",
        "addr:postcode": "52100",
        "addr:street": "Banjol-Indije",
        "name": "Piccolo",
        "tourism": "camp_site",
        "website": "https://www.camping-piccolo.com/"
      }
    },
    {
      "type": "way",
      "id": 969861031,
      "timestamp": "2021-08-02T18:30:39Z",
      "version": 3,
      "changeset": 109047479,
      "user": "Martinummo",
      "uid": 6698832,
      "center": {
        "lat": 44.824517,
        "lon": 13.8517186
      },
      "nodes": [],
      "tags": {
        "addr:city": "Pula",
        "addr:postcode": "52100",
        "addr:street": "Banjol-Indije",
        "name": "Sidro",
        "phone": "+385 91 2219036",
        "tourism": "camp_site",
        "website": "http://campsidro.com/"
      }
    }
  ]
}