{
  "osm3s": {
    "timestamp_osm_date": "2021-08-16T23:59:59Z",
    "timestamp_osm_base": "2021-08-17T05:23:21Z",
    "copyright": "The data included in this document is from www.openstreetmap.org. The data is made available under ODbL."
  },
  "elements": [
    {
      "type": "node",
      "id": 26862747,
      "lat": 44.226415,
      "lon": 22.2221733,
      "timestamp": "2021-04-21T20:43:41Z",
      "version": 4,
      "changeset": 103363874,
      "user": "ficfiric",
      "uid": 182327,
      "tags": {
        "ele": "1137",
        "name": "Црни врх",
        "name:sr": "Црни врх",
        "name:sr-Latn": "Crni vrh",
        "natural": "peak",
        "wikidata": "Q31251245"
      }
    },
    {
      "type": "node",
      "id": 290083162,
      "lat": 44.5448648,
      "lon": 22.162078,
      "timestamp": "2017-11-08T21:34:36Z",
      "version": 11,
      "changeset": 53622993,
      "user": "Václav Fanta",
      "uid": 4846445,
      "tags": {
        "is_in": "Dubova;Mehedinți;România",
        "is_in:country": "România",
        "is_in:county": "Mehedinți",
        "name": "Eibenthal",
        "name:cs": "Tisové údolí",
        "name:hu": "Tiszafa",
        "name:uk": "Ейбенталь",
        "old_postal_code": "1544",
        "place": "village",
        "population": "375",
        "population:census:1992": "375",
        "postal_code": "227172",
        "postal_code:source": "INSSE - SIRUTA",
        "region": "Český Banát",
        "siruta:code": "112940",
        "siruta:code_sup": "112904",
        "siruta:county": "Mehedinți",
        "siruta:county_code": "MH",
        "siruta:county_id": "25",
        "siruta:name_sup": "Dubova",
        "siruta:type": "23",
        "website": "http://www.banat.cz/ceske_vesnice.htm#eibental",
        "wikidata": "Q221483",
        "wikipedia": "ro:Eibenthal, Mehedinți"
      }
    },
    {
      "type": "node",
      "id": 317238678,
      "lat": 44.3702151,
      "lon": 22.4942396,
      "timestamp": "2018-02-10T15:52:31Z",
      "version": 14,
      "changeset": 56243429,
      "user": "Serbian OSM Lint bot",
      "uid": 6797352,
      "tags": {
        "is_in": "Serbia",
        "name": "Михајловац",
        "name:en": "Mihajlovac",
        "name:ro": "Meilovăc",
        "name:sr": "Михајловац",
        "name:sr-Latn": "Mihajlovac",
        "place": "village",
        "source": "GPS OSMUser:Kotoj",
        "wikidata": "Q1017524",
        "wikipedia": "sr:Михајловац (Неготин)"
      }
    },
    {
      "type": "node",
      "id": 317238680,
      "lat": 44.3494291,
      "lon": 22.488103,
      "timestamp": "2018-02-10T15:52:31Z",
      "version": 13,
      "changeset": 56243429,
      "user": "Serbian OSM Lint bot",
      "uid": 6797352,
      "tags": {
        "is_in": "Serbia",
        "name": "Мала Каменица",
        "name:en": "Mala Kamenica",
        "name:ro": "Camița Mică",
        "name:sr": "Мала Каменица",
        "name:sr-Latn": "Mala Kamenica",
        "place": "village",
        "source": "Yahoo Sat",
        "wikidata": "Q1017512",
        "wikipedia": "sr:Мала Каменица"
      }
    },
    {
      "type": "node",
      "id": 389946763,
      "lat": 44.0951401,
      "lon": 22.0096723,
      "timestamp": "2016-08-17T04:33:06Z",
      "version": 5,
      "changeset": 41504104,
      "user": "Banjakker",
      "uid": 4392433,
      "tags": {
        "name": "Борско језеро",
        "name:en": "Borsko jezero",
        "name:sr": "Борско језеро",
        "name:sr-Latn": "Borsko jezero",
        "tourism": "camp_site"
      }
    },
    {
      "type": "node",
      "id": 392757945,
      "lat": 44.1717408,
      "lon": 22.1257064,
      "timestamp": "2012-04-21T19:34:54Z",
      "version": 3,
      "changeset": 11376338,
      "user": "kmilos",
      "uid": 441816,
      "tags": {
        "name": "Стол извор",
        "name:sr": "Стол извор",
        "name:sr-Latn": "Stol izvor",
        "natural": "spring"
      }
    },
    {
      "type": "node",
      "id": 393452632,
      "lat": 44.1139575,
      "lon": 22.3200155,
      "timestamp": "2021-04-02T11:05:20Z",
      "version": 19,
      "changeset": 102187336,
      "user": "Opaky",
      "uid": 102175,
      "tags": {
        "name": "Салаш",
        "name:en": "Salas",
        "name:sr": "Салаш",
        "name:sr-Latn": "Salaš",
        "place": "village",
        "wikidata": "Q3106321",
        "wikipedia": "sr:Салаш (Зајечар)"
      }
    },
    {
      "type": "node",
      "id": 393452633,
      "lat": 44.1754635,
      "lon": 22.3042282,
      "timestamp": "2018-02-10T15:52:35Z",
      "version": 15,
      "changeset": 56243429,
      "user": "Serbian OSM Lint bot",
      "uid": 6797352,
      "tags": {
        "is_in": "Serbia",
        "name": "Сиколе",
        "name:en": "Sikole",
        "name:ro": "Sikoli",
        "name:sr": "Сиколе",
        "name:sr-Latn": "Sikole",
        "place": "village",
        "wikidata": "Q1018942",
        "wikipedia": "sr:Сиколе"
      }
    },
    {
      "type": "node",
      "id": 460205752,
      "lat": 44.4532989,
      "lon": 22.4952385,
      "timestamp": "2017-09-13T21:38:16Z",
      "version": 5,
      "changeset": 52021025,
      "user": "nyuriks",
      "uid": 339581,
      "tags": {
        "is_in": "Burila Mare;Mehedinți;România",
        "is_in:country": "România",
        "is_in:county": "Mehedinți",
        "name": "Izvoru Frumos",
        "name:uk": "Ізвору-Фрумос",
        "old_postal_code": "1566",
        "place": "village",
        "population": "338",
        "population:census:1992": "338",
        "postal_code": "227087",
        "postal_code:source": "INSSE - SIRUTA",
        "siruta:code": "110973",
        "siruta:code_sup": "110946",
        "siruta:county": "Mehedinți",
        "siruta:county_code": "MH",
        "siruta:county_id": "25",
        "siruta:name_sup": "Burila Mare",
        "siruta:type": "23",
        "wikidata": "Q12074044",
        "wikipedia": "ro:Izvoru Frumos, Mehedinți"
      }
    },
    {
      "type": "node",
      "id": 460206455,
      "lat": 44.5546471,
      "lon": 22.1288922,
      "timestamp": "2019-02-15T12:39:42Z",
      "version": 10,
      "changeset": 67225775,
      "user": "User2 - Lightcyphers",
      "uid": 7753467,
      "tags": {
        "is_in": "Dubova;Mehedinți;România",
        "is_in:country": "România",
        "is_in:county": "Mehedinți",
        "name": "Baia Nouă",
        "name:cs": "Nové doly",
        "name:uk": "Бая-Ноуе",
        "old_postal_code": "1544",
        "place": "village",
        "population": "307",
        "population:census:1992": "307",
        "postal_code": "227171",
        "postal_code:source": "INSSE - SIRUTA",
        "siruta:code": "112922",
        "siruta:code_sup": "112904",
        "siruta:county": "Mehedinți",
        "siruta:county_code": "MH",
        "siruta:county_id": "25",
        "siruta:name_sup": "Dubova",
        "siruta:type": "23",
        "wikidata": "Q1321528",
        "wikipedia": "ro:Baia Nouă, Mehedinți"
      }
    },
    {
      "type": "node",
      "id": 460206642,
      "lat": 44.5001339,
      "lon": 22.1048751,
      "timestamp": "2017-09-13T21:38:43Z",
      "version": 6,
      "changeset": 52021025,
      "user": "nyuriks",
      "uid": 339581,
      "tags": {
        "is_in": "Mehedinți;România",
        "is_in:country": "România",
        "is_in:county": "Mehedinți",
        "name": "Svinița",
        "name:hu": "Szinice",
        "name:uk": "Свініца",
        "old_postal_code": "1546",
        "place": "village",
        "population": "1281",
        "population:census:1992": "1281",
        "postal_code": "227440",
        "postal_code:source": "INSSE - SIRUTA",
        "siruta:code": "113616",
        "siruta:code_sup": "113607",
        "siruta:county": "Mehedinți",
        "siruta:county_code": "MH",
        "siruta:county_id": "25",
        "siruta:name_sup": "Svinița",
        "siruta:type": "22",
        "wikidata": "Q278492",
        "wikipedia": "ro:Svinița, Mehedinți"
      }
    },
    {
      "type": "node",
      "id": 474498197,
      "lat": 44.3460115,
      "lon": 22.1798355,
      "timestamp": "2018-02-10T16:15:07Z",
      "version": 12,
      "changeset": 56243883,
      "user": "Serbian OSM Lint bot",
      "uid": 6797352,
      "tags": {
        "is_in": "Serbia",
        "name": "Клокочевац",
        "name:en": "Klokocevac",
        "name:sr": "Клокочевац",
        "name:sr-Latn": "Klokočevac",
        "place": "village",
        "source": "GPS OSMUser:Kotoj",
        "wikidata": "Q1018974",
        "wikipedia": "sr:Клокочевац (Мајданпек)"
      }
    },
    {
      "type": "node",
      "id": 474498201,
      "lat": 44.3899273,
      "lon": 22.1720414,
      "timestamp": "2021-03-22T15:51:49Z",
      "version": 12,
      "changeset": 101515983,
      "user": "Komadinovic Vanja",
      "uid": 875800,
      "tags": {
        "is_in": "Serbia",
        "name": "Тополница",
        "name:en": "Topolnica",
        "name:sr": "Тополница",
        "name:sr-Latn": "Topolnica",
        "place": "village",
        "source": "GPS OSMUser:Kotoj",
        "wikidata": "Q115621",
        "wikipedia": "sr:Тополница (Мајданпек)"
      }
    },
    {
      "type": "node",
      "id": 474498203,
      "lat": 44.4295358,
      "lon": 22.1744447,
      "timestamp": "2018-02-10T16:15:07Z",
      "version": 11,
      "changeset": 56243883,
      "user": "Serbian OSM Lint bot",
      "uid": 6797352,
      "tags": {
        "is_in": "Serbia",
        "name": "Мосна",
        "name:en": "Mosna",
        "name:sr": "Мосна",
        "name:sr-Latn": "Mosna",
        "place": "village",
        "source": "GPS OSMUser:Kotoj",
        "wikidata": "Q1017479",
        "wikipedia": "sr:Мосна"
      }
    },
    {
      "type": "node",
      "id": 474498205,
      "lat": 44.462747,
      "lon": 22.1523003,
      "timestamp": "2018-02-10T16:15:08Z",
      "version": 15,
      "changeset": 56243883,
      "user": "Serbian OSM Lint bot",
      "uid": 6797352,
      "tags": {
        "is_in": "Serbia",
        "name": "Доњи Милановац",
        "name:en": "Donji Milanovac",
        "name:ru": "Дони-Милановац",
        "name:sr": "Доњи Милановац",
        "name:sr-Latn": "Donji Milanovac",
        "place": "town",
        "source": "GPS OSMUser:Kotoj",
        "wikidata": "Q1002286",
        "wikipedia": "sr:Доњи Милановац"
      }
    },
    {
      "type": "node",
      "id": 474851951,
      "lat": 44.1058621,
      "lon": 22.4470306,
      "timestamp": "2021-04-02T11:05:20Z",
      "version": 14,
      "changeset": 102187336,
      "user": "Opaky",
      "uid": 102175,
      "tags": {
        "name": "Брусник",
        "name:en": "Brusnik",
        "name:sr": "Брусник",
        "name:sr-Latn": "Brusnik",
        "place": "village",
        "source": "GPS OSMUser:Kotoj",
        "wikidata": "Q2739197",
        "wikipedia": "sr:Брусник (Зајечар)"
      }
    },
    {
      "type": "node",
      "id": 474851952,
      "lat": 44.1175785,
      "lon": 22.454905,
      "timestamp": "2021-04-02T11:05:20Z",
      "version": 15,
      "changeset": 102187336,
      "user": "Opaky",
      "uid": 102175,
      "tags": {
        "name": "Кленовац",
        "name:en": "Klenovac",
        "name:sr": "Кленовац",
        "name:sr-Latn": "Klenovac",
        "place": "village",
        "source": "GPS OSMUser:Kotoj",
        "wikidata": "Q401286",
        "wikipedia": "sr:Кленовац (Зајечар)"
      }
    },
    {
      "type": "node",
      "id": 474851954,
      "lat": 44.1456717,
      "lon": 22.4778715,
      "timestamp": "2020-07-10T12:13:00Z",
      "version": 12,
      "changeset": 87816749,
      "user": "magrej",
      "uid": 7345137,
      "tags": {
        "is_in": "Serbia",
        "name": "Речка",
        "name:en": "Recka",
        "name:sr": "Речка",
        "name:sr-Latn": "Rečka",
        "place": "village",
        "source": "GPS OSMUser:Kotoj",
        "wikidata": "Q1017444",
        "wikipedia": "sr:Речка"
      }
    },
    {
      "type": "node",
      "id": 476084381,
      "lat": 44.2910717,
      "lon": 22.3528143,
      "timestamp": "2018-02-10T16:15:09Z",
      "version": 13,
      "changeset": 56243883,
      "user": "Serbian OSM Lint bot",
      "uid": 6797352,
      "tags": {
        "is_in": "Serbia",
        "name": "Штубик",
        "name:en": "Stubik",
        "name:sr": "Штубик",
        "name:sr-Latn": "Štubik",
        "place": "village",
        "source": "GPS OSMUser:Kotoj",
        "wikidata": "Q264462",
        "wikipedia": "sr:Штубик"
      }
    },
    {
      "type": "node",
      "id": 476084382,
      "lat": 44.2495652,
      "lon": 22.4365984,
      "timestamp": "2018-02-10T16:15:09Z",
      "version": 13,
      "changeset": 56243883,
      "user": "Serbian OSM Lint bot",
      "uid": 6797352,
      "tags": {
        "is_in": "Serbia",
        "name": "Јасеница",
        "name:en": "Jasenica",
        "name:ro": "Jesenica",
        "name:sr": "Јасеница",
        "name:sr-Latn": "Jasenica",
        "place": "village",
        "wikidata": "Q1017465",
        "wikipedia": "sr:Јасеница (Неготин)"
      }
    },
    {
      "type": "node",
      "id": 827013217,
      "lat": 44.4845406,
      "lon": 22.4572049,
      "timestamp": "2018-07-08T12:15:03Z",
      "version": 5,
      "changeset": 60508000,
      "user": "Seeking the Edge",
      "uid": 3115656,
      "tags": {
        "name": "Камп „Мирочка вода“",
        "name:sr": "Камп „Мирочка вода“",
        "name:sr-Latn": "Kamp „Miročka voda“",
        "phone": "+381 19 801290",
        "tourism": "camp_site",
        "website": "www.camping.rs/en/c/campsite-mirocka-voda-serbia/"
      }
    },
    {
      "type": "node",
      "id": 827013474,
      "lat": 44.4709151,
      "lon": 22.4440112,
      "timestamp": "2021-02-03T21:13:31Z",
      "version": 13,
      "changeset": 98666988,
      "user": "Carlos Franco",
      "uid": 3904030,
      "tags": {
        "fixme": "is it both Brza Palanka?",
        "is_in": "Serbia",
        "name": "Брза Паланка",
        "name:en": "Brza Palanka",
        "name:sr": "Брза Паланка",
        "name:sr-Latn": "Brza Palanka",
        "place": "village",
        "source": "GPS OSMUser:Kotoj",
        "wikidata": "Q995384",
        "wikipedia": "sr:Брза Паланка"
      }
    },
    {
      "type": "node",
      "id": 827013727,
      "lat": 44.4951084,
      "lon": 22.4905663,
      "timestamp": "2018-02-10T16:15:18Z",
      "version": 10,
      "changeset": 56243883,
      "user": "Serbian OSM Lint bot",
      "uid": 6797352,
      "tags": {
        "is_in": "Serbia",
        "name": "Грабовица",
        "name:en": "Grabovica",
        "name:sr": "Грабовица",
        "name:sr-Latn": "Grabovica",
        "place": "village",
        "source": "GPS OSMUser:Kotoj",
        "wikidata": "Q1017453",
        "wikipedia": "sr:Грабовица (Кладово)"
      }
    },
    {
      "type": "node",
      "id": 833412481,
      "lat": 44.2988795,
      "lon": 22.3863535,
      "timestamp": "2018-02-10T16:15:19Z",
      "version": 10,
      "changeset": 56243883,
      "user": "Serbian OSM Lint bot",
      "uid": 6797352,
      "tags": {
        "is_in": "Serbia",
        "name": "Малајница",
        "name:en": "Malajnica",
        "name:sr": "Малајница",
        "name:sr-Latn": "Malajnica",
        "place": "village",
        "wikidata": "Q1800968",
        "wikipedia": "sr:Малајница"
      }
    },
    {
      "type": "node",
      "id": 833413269,
      "lat": 44.3045874,
      "lon": 22.4589818,
      "timestamp": "2018-02-11T21:14:20Z",
      "version": 12,
      "changeset": 56274633,
      "user": "Serbian OSM Lint bot",
      "uid": 6797352,
      "tags": {
        "is_in": "Serbia",
        "name": "Дупљане",
        "name:en": "Dupljane",
        "name:ro": "Dupljana",
        "name:sr": "Дупљане",
        "name:sr-Latn": "Dupljane",
        "place": "village",
        "wikidata": "Q1266574",
        "wikipedia": "sr:Дупљане (Неготин)"
      }
    },
    {
      "type": "node",
      "id": 833413907,
      "lat": 44.3468649,
      "lon": 22.3810775,
      "timestamp": "2018-02-11T21:14:21Z",
      "version": 11,
      "changeset": 56274633,
      "user": "Serbian OSM Lint bot",
      "uid": 6797352,
      "tags": {
        "is_in": "Serbia",
        "name": "Јабуковац",
        "name:en": "Jabukovac",
        "name:sr": "Јабуковац",
        "name:sr-Latn": "Jabukovac",
        "place": "village",
        "source": "GPS OSMUser:Kotoj",
        "wikidata": "Q288966",
        "wikipedia": "sr:Јабуковац (Неготин)"
      }
    },
    {
      "type": "node",
      "id": 1057283173,
      "lat": 44.1373333,
      "lon": 22.1503433,
      "timestamp": "2020-11-04T11:49:17Z",
      "version": 14,
      "changeset": 93540839,
      "user": "Duja",
      "uid": 91964,
      "tags": {
        "is_in": "Serbia",
        "name": "Бучје",
        "name:en": "Bucje",
        "name:sr": "Бучје",
        "name:sr-Latn": "Bučje",
        "place": "village",
        "population": "666",
        "population:date": "2011",
        "wikidata": "Q1018415",
        "wikipedia": "sr:Бучје (Бор)"
      }
    },
    {
      "type": "node",
      "id": 1059150981,
      "lat": 44.1296585,
      "lon": 22.0957981,
      "timestamp": "2020-11-04T11:49:17Z",
      "version": 6,
      "changeset": 93540839,
      "user": "Duja",
      "uid": 91964,
      "tags": {
        "alt_name": "Велики Кривељ",
        "alt_name:en": "Veliki Krivelj",
        "alt_name:sr": "Велики Кривељ",
        "alt_name:sr-Latn": "Veliki Krivelj",
        "name": "Кривељ",
        "name:en": "Krivelj",
        "name:sr": "Кривељ",
        "name:sr-Latn": "Krivelj",
        "place": "village",
        "population": "1052",
        "population:date": "2011",
        "wikidata": "Q1789548",
        "wikipedia": "sr:Кривељ"
      }
    },
    {
      "type": "node",
      "id": 1361045673,
      "lat": 44.4990401,
      "lon": 22.2021216,
      "timestamp": "2018-02-11T21:26:52Z",
      "version": 11,
      "changeset": 56275049,
      "user": "Serbian OSM Lint bot",
      "uid": 6797352,
      "tags": {
        "is_in": "Serbia",
        "name": "Голубиње",
        "name:en": "Golubinje",
        "name:sr": "Голубиње",
        "name:sr-Latn": "Golubinje",
        "place": "village",
        "wikidata": "Q1018966",
        "wikipedia": "sr:Голубиње"
      }
    },
    {
      "type": "node",
      "id": 1363127248,
      "lat": 44.2226147,
      "lon": 22.2807183,
      "timestamp": "2018-02-11T21:26:53Z",
      "version": 11,
      "changeset": 56275049,
      "user": "Serbian OSM Lint bot",
      "uid": 6797352,
      "tags": {
        "is_in": "Serbia",
        "name": "Поповица",
        "name:en": "Popovica",
        "name:sr": "Поповица",
        "name:sr-Latn": "Popovica",
        "place": "village",
        "source": "GPS OSMUser:Kotoj",
        "wikidata": "Q1502008",
        "wikipedia": "sr:Поповица"
      }
    },
    {
      "type": "node",
      "id": 1363128000,
      "lat": 44.4118525,
      "lon": 22.4543885,
      "timestamp": "2018-02-11T21:26:53Z",
      "version": 10,
      "changeset": 56275049,
      "user": "Serbian OSM Lint bot",
      "uid": 6797352,
      "tags": {
        "is_in": "Serbia",
        "name": "Слатина",
        "name:en": "Slatina",
        "name:sr": "Слатина",
        "name:sr-Latn": "Slatina",
        "place": "village",
        "source": "GPS OSMUser:Kotoj",
        "wikidata": "Q1017308",
        "wikipedia": "sr:Слатина (Неготин)"
      }
    },
    {
      "type": "node",
      "id": 1363128001,
      "lat": 44.2243194,
      "lon": 22.3532645,
      "timestamp": "2018-02-11T21:26:53Z",
      "version": 11,
      "changeset": 56275049,
      "user": "Serbian OSM Lint bot",
      "uid": 6797352,
      "tags": {
        "is_in": "Serbia",
        "name": "Трњане",
        "name:en": "Trnjane",
        "name:sr": "Трњане",
        "name:sr-Latn": "Trnjane",
        "place": "village",
        "source": "GPS OSMUser:Kotoj",
        "wikidata": "Q1708477",
        "wikipedia": "sr:Трњане (Неготин)"
      }
    },
    {
      "type": "node",
      "id": 1363128002,
      "lat": 44.400616,
      "lon": 22.4028511,
      "timestamp": "2018-02-11T21:26:53Z",
      "version": 10,
      "changeset": 56275049,
      "user": "Serbian OSM Lint bot",
      "uid": 6797352,
      "tags": {
        "is_in": "Serbia",
        "name": "Уровица",
        "name:en": "Urovica",
        "name:sr": "Уровица",
        "name:sr-Latn": "Urovica",
        "place": "village",
        "source": "GPS OSMUser:Kotoj",
        "wikidata": "Q1561011",
        "wikipedia": "sr:Уровица"
      }
    },
    {
      "type": "node",
      "id": 1363128003,
      "lat": 44.3767887,
      "lon": 22.3724776,
      "timestamp": "2018-02-11T21:26:54Z",
      "version": 10,
      "changeset": 56275049,
      "user": "Serbian OSM Lint bot",
      "uid": 6797352,
      "tags": {
        "is_in": "Serbia",
        "name": "Вратна",
        "name:en": "Vratna",
        "name:sr": "Вратна",
        "name:sr-Latn": "Vratna",
        "place": "village",
        "source": "GPS OSMUser:Kotoj",
        "wikidata": "Q1018987",
        "wikipedia": "sr:Вратна (Неготин)"
      }
    },
    {
      "type": "node",
      "id": 1363128005,
      "lat": 44.2485149,
      "lon": 22.352841,
      "timestamp": "2018-02-11T21:26:54Z",
      "version": 10,
      "changeset": 56275049,
      "user": "Serbian OSM Lint bot",
      "uid": 6797352,
      "tags": {
        "is_in": "Serbia",
        "name": "Шаркамен",
        "name:en": "Sarkamen",
        "name:sr": "Шаркамен",
        "name:sr-Latn": "Šarkamen",
        "place": "village",
        "source": "GPS OSMUser:Kotoj",
        "wikidata": "Q391238",
        "wikipedia": "sr:Шаркамен"
      }
    },
    {
      "type": "node",
      "id": 1364430809,
      "lat": 44.1836757,
      "lon": 22.4046898,
      "timestamp": "2018-02-11T21:26:54Z",
      "version": 10,
      "changeset": 56275049,
      "user": "Serbian OSM Lint bot",
      "uid": 6797352,
      "tags": {
        "is_in": "Serbia",
        "name": "Брестовац",
        "name:en": "Brestovac",
        "name:sr": "Брестовац",
        "name:sr-Latn": "Brestovac",
        "place": "village",
        "source": "GPS OSMUser:Kotoj",
        "wikidata": "Q910421",
        "wikipedia": "sr:Брестовац (Неготин)"
      }
    },
    {
      "type": "node",
      "id": 1364430811,
      "lat": 44.1076431,
      "lon": 22.2768127,
      "timestamp": "2021-04-02T11:05:20Z",
      "version": 12,
      "changeset": 102187336,
      "user": "Opaky",
      "uid": 102175,
      "tags": {
        "name": "Дубочане",
        "name:en": "Dubocane",
        "name:sr": "Дубочане",
        "name:sr-Latn": "Dubočane",
        "place": "village",
        "source": "GPS OSMUser:Kotoj",
        "wikidata": "Q2738665",
        "wikipedia": "sr:Дубочане"
      }
    },
    {
      "type": "node",
      "id": 1364430814,
      "lat": 44.1204643,
      "lon": 22.2683452,
      "timestamp": "2021-04-02T11:05:20Z",
      "version": 12,
      "changeset": 102187336,
      "user": "Opaky",
      "uid": 102175,
      "tags": {
        "name": "Глоговица",
        "name:en": "Glogovica",
        "name:sr": "Глоговица",
        "name:sr-Latn": "Glogovica",
        "place": "village",
        "source": "GPS OSMUser:Kotoj",
        "wikidata": "Q2738735",
        "wikipedia": "sr:Глоговица (Зајечар)"
      }
    },
    {
      "type": "node",
      "id": 1364430815,
      "lat": 44.2217274,
      "lon": 22.4365644,
      "timestamp": "2018-02-11T21:26:54Z",
      "version": 10,
      "changeset": 56275049,
      "user": "Serbian OSM Lint bot",
      "uid": 6797352,
      "tags": {
        "is_in": "Serbia",
        "name": "Карбулово",
        "name:en": "Karbulovo",
        "name:sr": "Карбулово",
        "name:sr-Latn": "Karbulovo",
        "place": "village",
        "source": "GPS OSMUser:Kotoj",
        "wikidata": "Q959931",
        "wikipedia": "sr:Карбулово"
      }
    },
    {
      "type": "node",
      "id": 1364430825,
      "lat": 44.1403607,
      "lon": 22.3784704,
      "timestamp": "2021-04-02T11:05:20Z",
      "version": 12,
      "changeset": 102187336,
      "user": "Opaky",
      "uid": 102175,
      "tags": {
        "name": "Метриш",
        "name:en": "Metris",
        "name:sr": "Метриш",
        "name:sr-Latn": "Metriš",
        "place": "village",
        "source": "GPS OSMUser:Kotoj",
        "wikidata": "Q2739240",
        "wikipedia": "sr:Метриш"
      }
    },
    {
      "type": "node",
      "id": 1364713747,
      "lat": 44.2967957,
      "lon": 22.2603874,
      "timestamp": "2018-02-11T21:26:55Z",
      "version": 10,
      "changeset": 56275049,
      "user": "Serbian OSM Lint bot",
      "uid": 6797352,
      "tags": {
        "is_in": "Serbia",
        "name": "Плавна",
        "name:en": "Plavna",
        "name:ro": "Plamna",
        "name:sr": "Плавна",
        "name:sr-Latn": "Plavna",
        "place": "village",
        "source": "GPS OSMUser:Kotoj",
        "wikidata": "Q2037284",
        "wikipedia": "sr:Плавна (Неготин)"
      }
    },
    {
      "type": "node",
      "id": 1364735339,
      "lat": 44.2869089,
      "lon": 22.1419639,
      "timestamp": "2018-02-11T21:26:55Z",
      "version": 11,
      "changeset": 56275049,
      "user": "Serbian OSM Lint bot",
      "uid": 6797352,
      "tags": {
        "is_in": "Serbia",
        "name": "Црнајка",
        "name:en": "Crnajka",
        "name:sr": "Црнајка",
        "name:sr-Latn": "Crnajka",
        "place": "village",
        "source": "GPS OSMUser:Kotoj",
        "wikidata": "Q278277",
        "wikipedia": "sr:Црнајка"
      }
    },
    {
      "type": "node",
      "id": 1364735764,
      "lat": 44.2287415,
      "lon": 22.1470388,
      "timestamp": "2018-02-11T21:26:55Z",
      "version": 11,
      "changeset": 56275049,
      "user": "Serbian OSM Lint bot",
      "uid": 6797352,
      "tags": {
        "is_in": "Serbia",
        "name": "Танда",
        "name:en": "Tanda",
        "name:sr": "Танда",
        "name:sr-Latn": "Tanda",
        "place": "village",
        "source": "GPS OSMUser:Kotoj",
        "wikidata": "Q2035856",
        "wikipedia": "sr:Танда"
      }
    },
    {
      "type": "node",
      "id": 1365138606,
      "lat": 44.3551243,
      "lon": 22.0433613,
      "timestamp": "2013-05-02T17:43:02Z",
      "version": 5,
      "changeset": 15949581,
      "user": "kmilos",
      "uid": 441816,
      "tags": {
        "is_in": "Serbia",
        "name": "Близна",
        "name:en": "Blizna",
        "name:sr": "Близна",
        "name:sr-Latn": "Blizna",
        "place": "village",
        "source": "GPS OSMUser:Kotoj"
      }
    },
    {
      "type": "node",
      "id": 1365138611,
      "lat": 44.4776301,
      "lon": 22.2515587,
      "timestamp": "2018-02-11T21:26:56Z",
      "version": 10,
      "changeset": 56275049,
      "user": "Serbian OSM Lint bot",
      "uid": 6797352,
      "tags": {
        "is_in": "Serbia",
        "name": "Мироч",
        "name:en": "Miroc",
        "name:sr": "Мироч",
        "name:sr-Latn": "Miroč",
        "place": "village",
        "source": "GPS OSMUser:Kotoj",
        "wikidata": "Q1018982",
        "wikipedia": "sr:Мироч (Мајданпек)"
      }
    },
    {
      "type": "node",
      "id": 1365140437,
      "lat": 44.3252703,
      "lon": 22.0870216,
      "timestamp": "2018-02-11T21:26:56Z",
      "version": 10,
      "changeset": 56275049,
      "user": "Serbian OSM Lint bot",
      "uid": 6797352,
      "tags": {
        "is_in": "Serbia",
        "name": "Рудна Глава",
        "name:en": "Rudna Glava",
        "name:sr": "Рудна Глава",
        "name:sr-Latn": "Rudna Glava",
        "place": "village",
        "source": "GPS OSMUser:Kotoj",
        "wikidata": "Q2039400",
        "wikipedia": "sr:Рудна Глава"
      }
    },
    {
      "type": "node",
      "id": 1367256391,
      "lat": 44.1908783,
      "lon": 22.4673454,
      "timestamp": "2018-02-11T21:26:57Z",
      "version": 10,
      "changeset": 56275049,
      "user": "Serbian OSM Lint bot",
      "uid": 6797352,
      "tags": {
        "is_in": "Serbia",
        "name": "Чубра",
        "name:en": "Cubra",
        "name:sr": "Чубра",
        "name:sr-Latn": "Čubra",
        "place": "village",
        "source": "GPS OSMUser:Kotoj",
        "wikidata": "Q341688",
        "wikipedia": "sr:Чубра"
      }
    },
    {
      "type": "node",
      "id": 1376906198,
      "lat": 44.2672112,
      "lon": 22.4911916,
      "timestamp": "2018-02-11T21:26:58Z",
      "version": 10,
      "changeset": 56275049,
      "user": "Serbian OSM Lint bot",
      "uid": 6797352,
      "tags": {
        "is_in": "Serbia",
        "is_in:city": "Dušanovac",
        "name": "Видровац",
        "name:en": "Vidrovac",
        "name:ro": "Vidrovăţ",
        "name:sr": "Видровац",
        "name:sr-Latn": "Vidrovac",
        "place": "village",
        "source": "GPS OSMUser:Kotoj",
        "wikidata": "Q1021840",
        "wikipedia": "sr:Видровац"
      }
    },
    {
      "type": "node",
      "id": 1395443432,
      "lat": 44.4371396,
      "lon": 22.4432187,
      "timestamp": "2018-02-11T21:26:59Z",
      "version": 9,
      "changeset": 56275049,
      "user": "Serbian OSM Lint bot",
      "uid": 6797352,
      "tags": {
        "is_in": "Serbia",
        "name": "Купузиште",
        "name:en": "Kupuziste",
        "name:sr": "Купузиште",
        "name:sr-Latn": "Kupuzište",
        "place": "village",
        "source": "Bing",
        "wikidata": "Q1017501",
        "wikipedia": "sr:Купузиште"
      }
    },
    {
      "type": "node",
      "id": 1614829452,
      "lat": 44.2423686,
      "lon": 21.8072565,
      "timestamp": "2018-02-11T21:30:52Z",
      "version": 8,
      "changeset": 56275162,
      "user": "Serbian OSM Lint bot",
      "uid": 6797352,
      "tags": {
        "is_in": "Serbia",
        "name": "Лазница",
        "name:en": "Laznica",
        "name:sr": "Лазница",
        "name:sr-Latn": "Laznica",
        "place": "village",
        "wikidata": "Q1770120",
        "wikipedia": "sr:Лазница"
      }
    },
    {
      "type": "node",
      "id": 1647435621,
      "lat": 44.3119178,
      "lon": 21.9448327,
      "timestamp": "2018-01-21T21:24:59Z",
      "version": 7,
      "changeset": 55638624,
      "user": "Serbian OSM Lint bot",
      "uid": 6797352,
      "tags": {
        "name": "Лесково",
        "name:en": "Leskovo",
        "name:sr": "Лесково",
        "name:sr-Latn": "Leskovo",
        "place": "village",
        "wikidata": "Q1021874",
        "wikipedia": "sr:Лесково"
      }
    },
    {
      "type": "node",
      "id": 1853016706,
      "lat": 44.5326294,
      "lon": 22.0350267,
      "timestamp": "2017-09-13T21:38:47Z",
      "version": 3,
      "changeset": 52021025,
      "user": "nyuriks",
      "uid": 339581,
      "tags": {
        "name": "Бољетин",
        "name:de": "Boljetin",
        "name:en": "Boljetin",
        "name:sr": "Бољетин",
        "name:sr-Latn": "Boljetin",
        "place": "village",
        "wikidata": "Q258708",
        "wikipedia": "sr:Бољетин (Мајданпек)"
      }
    },
    {
      "type": "node",
      "id": 1853104714,
      "lat": 44.49529,
      "lon": 22.19974,
      "timestamp": "2012-08-05T16:52:36Z",
      "version": 1,
      "changeset": 12623183,
      "user": "malenki",
      "uid": 39504,
      "tags": {
        "amenity": "drinking_water"
      }
    },
    {
      "type": "node",
      "id": 1864654943,
      "lat": 44.4943981,
      "lon": 22.4902026,
      "timestamp": "2012-08-13T18:44:32Z",
      "version": 1,
      "changeset": 12717874,
      "user": "malenki",
      "uid": 39504,
      "tags": {
        "amenity": "drinking_water"
      }
    },
    {
      "type": "node",
      "id": 1873067297,
      "lat": 44.4072903,
      "lon": 22.4810319,
      "timestamp": "2012-08-19T16:34:52Z",
      "version": 1,
      "changeset": 12785808,
      "user": "malenki",
      "uid": 39504,
      "tags": {
        "amenity": "drinking_water",
        "man_made": "water_well"
      }
    },
    {
      "type": "node",
      "id": 2822352301,
      "lat": 44.5449057,
      "lon": 22.0594448,
      "timestamp": "2014-04-28T09:34:52Z",
      "version": 1,
      "changeset": 21997255,
      "user": "alexandrupufan",
      "uid": 1849216,
      "tags": {
        "amenity": "drinking_water"
      }
    },
    {
      "type": "node",
      "id": 2874458661,
      "lat": 44.4224552,
      "lon": 21.9359228,
      "timestamp": "2020-11-03T13:05:33Z",
      "version": 8,
      "changeset": 93485171,
      "user": "Badojo",
      "uid": 8189075,
      "tags": {
        "name": "Мајданпек",
        "name:en": "Majdanpek",
        "name:ru": "Майданпек",
        "name:sr": "Мајданпек",
        "name:sr-Latn": "Majdanpek",
        "place": "town",
        "population": "7699",
        "website": "http://www.majdanpek.rs/",
        "wikidata": "Q994331",
        "wikipedia": "sr:Мајданпек"
      }
    },
    {
      "type": "node",
      "id": 2999696058,
      "lat": 44.492932,
      "lon": 22.1840701,
      "timestamp": "2014-08-06T11:58:44Z",
      "version": 1,
      "changeset": 24574238,
      "user": "meisenmann",
      "uid": 51149,
      "tags": {
        "amenity": "drinking_water"
      }
    },
    {
      "type": "node",
      "id": 3827539933,
      "lat": 44.5494281,
      "lon": 22.1713997,
      "timestamp": "2019-12-02T09:30:06Z",
      "version": 2,
      "changeset": 77809603,
      "user": "Tones75",
      "uid": 1716283,
      "tags": {
        "natural": "spring"
      }
    },
    {
      "type": "node",
      "id": 3857597864,
      "lat": 44.5412094,
      "lon": 22.156215,
      "timestamp": "2015-11-24T21:46:12Z",
      "version": 3,
      "changeset": 35560771,
      "user": "mafan",
      "uid": 2026292,
      "tags": {
        "name": "Chromová štola II",
        "natural": "cave_entrance"
      }
    },
    {
      "type": "node",
      "id": 3857597865,
      "lat": 44.5408745,
      "lon": 22.155019,
      "timestamp": "2015-11-24T21:46:12Z",
      "version": 3,
      "changeset": 35560771,
      "user": "mafan",
      "uid": 2026292,
      "tags": {
        "name": "Chromová štola I",
        "natural": "cave_entrance"
      }
    },
    {
      "type": "node",
      "id": 4205166789,
      "lat": 44.5589327,
      "lon": 22.2534134,
      "timestamp": "2016-05-24T16:50:32Z",
      "version": 1,
      "changeset": 39537176,
      "user": "Jujuapi",
      "uid": 2143318,
      "tags": {
        "drinking_water": "yes",
        "natural": "spring"
      }
    },
    {
      "type": "node",
      "id": 4205171947,
      "lat": 44.5594167,
      "lon": 22.2610959,
      "timestamp": "2019-03-23T18:43:40Z",
      "version": 3,
      "changeset": 68451938,
      "user": "Branko Kokanovic",
      "uid": 95504,
      "tags": {
        "name": "Буронов понор",
        "natural": "cave_entrance"
      }
    },
    {
      "type": "node",
      "id": 4205186769,
      "lat": 44.565747,
      "lon": 22.2612005,
      "timestamp": "2016-05-24T17:05:10Z",
      "version": 1,
      "changeset": 39537176,
      "user": "Jujuapi",
      "uid": 2143318,
      "tags": {
        "drinking_water": "yes",
        "natural": "spring"
      }
    },
    {
      "type": "node",
      "id": 4209868338,
      "lat": 44.5194526,
      "lon": 22.2409784,
      "timestamp": "2016-05-26T22:06:40Z",
      "version": 1,
      "changeset": 39591685,
      "user": "Jujuapi",
      "uid": 2143318,
      "tags": {
        "drinking_water": "yes",
        "natural": "spring"
      }
    },
    {
      "type": "node",
      "id": 4209882389,
      "lat": 44.5126118,
      "lon": 22.2791623,
      "timestamp": "2019-03-23T18:43:56Z",
      "version": 2,
      "changeset": 68451938,
      "user": "Branko Kokanovic",
      "uid": 95504,
      "tags": {
        "name": "Ракин понор",
        "natural": "cave_entrance",
        "website": "http://www.asak.org.rs/caves/rakin/rakin_y.html"
      }
    },
    {
      "type": "node",
      "id": 4241154889,
      "lat": 44.1701103,
      "lon": 22.1838647,
      "timestamp": "2021-04-21T20:43:38Z",
      "version": 6,
      "changeset": 103363874,
      "user": "ficfiric",
      "uid": 182327,
      "tags": {
        "name": "Лука",
        "name:sr": "Лука",
        "name:sr-Latn": "Luka",
        "place": "village",
        "population": "612",
        "wikidata": "Q1876852"
      }
    },
    {
      "type": "node",
      "id": 4241159466,
      "lat": 44.1414807,
      "lon": 22.1810318,
      "timestamp": "2019-12-27T02:20:01Z",
      "version": 8,
      "changeset": 78903920,
      "user": "TXBG",
      "uid": 5569366,
      "tags": {
        "name": "Топла",
        "name:sr": "Топла",
        "name:sr-Latn": "Topla",
        "place": "village",
        "wikidata": "Q978201",
        "wikipedia": "sr:Топла"
      }
    },
    {
      "type": "node",
      "id": 4241206954,
      "lat": 44.2430836,
      "lon": 22.0597326,
      "timestamp": "2019-12-27T02:20:01Z",
      "version": 8,
      "changeset": 78903920,
      "user": "TXBG",
      "uid": 5569366,
      "tags": {
        "name": "Горњане",
        "name:sr": "Горњане",
        "name:sr-Latn": "Gornjane",
        "place": "village",
        "wikidata": "Q14629953",
        "wikipedia": "sr:Горњане"
      }
    },
    {
      "type": "node",
      "id": 4241240509,
      "lat": 44.2686019,
      "lon": 21.9852633,
      "timestamp": "2019-12-27T02:20:01Z",
      "version": 8,
      "changeset": 78903920,
      "user": "TXBG",
      "uid": 5569366,
      "tags": {
        "name": "Влаоле",
        "name:sr": "Влаоле",
        "name:sr-Latn": "Vlaole",
        "place": "village",
        "population": "767",
        "wikidata": "Q1018992",
        "wikipedia": "sr:Влаоле"
      }
    },
    {
      "type": "node",
      "id": 4242417764,
      "lat": 44.283996,
      "lon": 21.94021,
      "timestamp": "2019-12-27T02:20:01Z",
      "version": 8,
      "changeset": 78903920,
      "user": "TXBG",
      "uid": 5569366,
      "tags": {
        "name": "Јасиково",
        "name:sr": "Јасиково",
        "name:sr-Latn": "Jasikovo",
        "place": "village",
        "wikidata": "Q1683789",
        "wikipedia": "sr:Јасиково"
      }
    },
    {
      "type": "node",
      "id": 4242428331,
      "lat": 44.3680628,
      "lon": 21.9089693,
      "timestamp": "2019-12-27T02:20:01Z",
      "version": 8,
      "changeset": 78903920,
      "user": "TXBG",
      "uid": 5569366,
      "tags": {
        "name": "Дебели Луг",
        "name:sr": "Дебели Луг",
        "name:sr-Latn": "Debeli Lug",
        "place": "village",
        "wikidata": "Q1181464",
        "wikipedia": "sr:Дебели Луг (Мајданпек)"
      }
    },
    {
      "type": "node",
      "id": 4242438019,
      "lat": 44.4370206,
      "lon": 21.854631,
      "timestamp": "2019-12-27T02:20:01Z",
      "version": 8,
      "changeset": 78903920,
      "user": "TXBG",
      "uid": 5569366,
      "tags": {
        "name": "Благојев Камен",
        "name:sr": "Благојев Камен",
        "name:sr-Latn": "Blagojev Kamen",
        "place": "village",
        "wikidata": "Q2580686",
        "wikipedia": "sr:Благојев Камен"
      }
    },
    {
      "type": "node",
      "id": 4242738092,
      "lat": 44.2329789,
      "lon": 21.9539343,
      "timestamp": "2019-12-27T02:20:01Z",
      "version": 8,
      "changeset": 78903920,
      "user": "TXBG",
      "uid": 5569366,
      "tags": {
        "name": "Липе",
        "name:sr": "Липе",
        "name:sr-Latn": "Lipe",
        "place": "village",
        "wikidata": "Q3106031",
        "wikipedia": "sr:Липе (Жагубица)"
      }
    },
    {
      "type": "node",
      "id": 4246528244,
      "lat": 44.4836779,
      "lon": 21.8228058,
      "timestamp": "2019-12-27T02:20:01Z",
      "version": 8,
      "changeset": 78903920,
      "user": "TXBG",
      "uid": 5569366,
      "tags": {
        "name": "Бродица",
        "name:sr": "Бродица",
        "name:sr-Latn": "Brodica",
        "place": "village",
        "wikidata": "Q2925953",
        "wikipedia": "sr:Бродица"
      }
    },
    {
      "type": "node",
      "id": 4634470115,
      "lat": 44.5781461,
      "lon": 22.1440501,
      "timestamp": "2017-01-26T10:34:03Z",
      "version": 1,
      "changeset": 45507645,
      "user": "BobyEkstrom",
      "uid": 3453772,
      "tags": {
        "natural": "spring"
      }
    },
    {
      "type": "node",
      "id": 4812264210,
      "lat": 44.5038611,
      "lon": 22.2786111,
      "timestamp": "2019-03-23T18:43:59Z",
      "version": 2,
      "changeset": 68451938,
      "user": "Branko Kokanovic",
      "uid": 95504,
      "tags": {
        "name": "Фаца Шора",
        "natural": "cave_entrance"
      }
    },
    {
      "type": "node",
      "id": 4838548484,
      "lat": 44.4862305,
      "lon": 22.2337344,
      "timestamp": "2019-03-23T18:44:08Z",
      "version": 2,
      "changeset": 68451938,
      "user": "Branko Kokanovic",
      "uid": 95504,
      "tags": {
        "name": "Безимена пећина",
        "natural": "cave_entrance"
      }
    },
    {
      "type": "node",
      "id": 4838548485,
      "lat": 44.4841868,
      "lon": 22.2355556,
      "timestamp": "2019-03-23T18:44:10Z",
      "version": 2,
      "changeset": 68451938,
      "user": "Branko Kokanovic",
      "uid": 95504,
      "tags": {
        "name": "Дисина пећина",
        "natural": "cave_entrance"
      }
    },
    {
      "type": "node",
      "id": 4838591190,
      "lat": 44.5431038,
      "lon": 22.2664869,
      "timestamp": "2019-03-23T18:43:44Z",
      "version": 2,
      "changeset": 68451938,
      "user": "Branko Kokanovic",
      "uid": 95504,
      "tags": {
        "name": "Ибрин понор",
        "natural": "cave_entrance"
      }
    },
    {
      "type": "node",
      "id": 4838607296,
      "lat": 44.5328295,
      "lon": 22.2688472,
      "timestamp": "2019-03-23T18:43:51Z",
      "version": 2,
      "changeset": 68451938,
      "user": "Branko Kokanovic",
      "uid": 95504,
      "tags": {
        "name": "Суви понор",
        "natural": "cave_entrance"
      }
    },
    {
      "type": "node",
      "id": 5581064839,
      "lat": 44.089004,
      "lon": 21.8199824,
      "timestamp": "2020-10-06T12:38:55Z",
      "version": 2,
      "changeset": 92050564,
      "user": "Duja",
      "uid": 91964,
      "tags": {
        "name": "Хајдучки кладанац",
        "natural": "spring"
      }
    },
    {
      "type": "node",
      "id": 5581065024,
      "lat": 44.0928695,
      "lon": 21.8140117,
      "timestamp": "2020-10-06T12:38:55Z",
      "version": 2,
      "changeset": 92050564,
      "user": "Duja",
      "uid": 91964,
      "tags": {
        "name": "Бигар",
        "natural": "spring"
      }
    },
    {
      "type": "node",
      "id": 5593413521,
      "lat": 44.4645299,
      "lon": 22.2340796,
      "timestamp": "2018-05-02T23:34:28Z",
      "version": 1,
      "changeset": 58631312,
      "user": "Balazs Kollar",
      "uid": 3839735,
      "tags": {
        "amenity": "drinking_water"
      }
    },
    {
      "type": "node",
      "id": 5602406643,
      "lat": 44.1931212,
      "lon": 21.7974091,
      "timestamp": "2018-05-07T14:34:06Z",
      "version": 1,
      "changeset": 58760663,
      "user": "fenrisster",
      "uid": 2482553,
      "tags": {
        "direction": "10",
        "natural": "cave_entrance"
      }
    },
    {
      "type": "node",
      "id": 5602406644,
      "lat": 44.1937269,
      "lon": 21.802052,
      "timestamp": "2018-06-19T23:33:14Z",
      "version": 2,
      "changeset": 59993357,
      "user": "fenrisster",
      "uid": 2482553,
      "tags": {
        "direction": "180",
        "natural": "cave_entrance"
      }
    },
    {
      "type": "node",
      "id": 5602406645,
      "lat": 44.1921134,
      "lon": 21.8021834,
      "timestamp": "2018-05-07T14:34:06Z",
      "version": 1,
      "changeset": 58760663,
      "user": "fenrisster",
      "uid": 2482553,
      "tags": {
        "natural": "cave_entrance"
      }
    },
    {
      "type": "node",
      "id": 5602406646,
      "lat": 44.1912365,
      "lon": 21.8053163,
      "timestamp": "2018-05-07T14:34:07Z",
      "version": 1,
      "changeset": 58760663,
      "user": "fenrisster",
      "uid": 2482553,
      "tags": {
        "natural": "cave_entrance"
      }
    },
    {
      "type": "node",
      "id": 5602406647,
      "lat": 44.1918365,
      "lon": 21.8064428,
      "timestamp": "2018-05-07T14:34:07Z",
      "version": 1,
      "changeset": 58760663,
      "user": "fenrisster",
      "uid": 2482553,
      "tags": {
        "natural": "cave_entrance"
      }
    },
    {
      "type": "node",
      "id": 5602406648,
      "lat": 44.1914288,
      "lon": 21.8098975,
      "timestamp": "2019-03-23T18:54:32Z",
      "version": 3,
      "changeset": 68452514,
      "user": "Branko Kokanovic",
      "uid": 95504,
      "tags": {
        "name": "Бабина Пећина",
        "natural": "cave_entrance"
      }
    },
    {
      "type": "node",
      "id": 5602406650,
      "lat": 44.1916057,
      "lon": 21.8109811,
      "timestamp": "2018-05-07T14:52:24Z",
      "version": 2,
      "changeset": 58761146,
      "user": "fenrisster",
      "uid": 2482553,
      "tags": {
        "natural": "cave_entrance"
      }
    },
    {
      "type": "node",
      "id": 5602406651,
      "lat": 44.1898287,
      "lon": 21.8126119,
      "timestamp": "2018-05-07T14:52:23Z",
      "version": 2,
      "changeset": 58761146,
      "user": "fenrisster",
      "uid": 2482553,
      "tags": {
        "natural": "cave_entrance"
      }
    },
    {
      "type": "node",
      "id": 5602406652,
      "lat": 44.1894594,
      "lon": 21.8098653,
      "timestamp": "2018-05-07T14:34:07Z",
      "version": 1,
      "changeset": 58760663,
      "user": "fenrisster",
      "uid": 2482553,
      "tags": {
        "natural": "cave_entrance"
      }
    },
    {
      "type": "node",
      "id": 5602406661,
      "lat": 44.190786,
      "lon": 21.8132498,
      "timestamp": "2019-03-23T18:54:30Z",
      "version": 2,
      "changeset": 68452514,
      "user": "Branko Kokanovic",
      "uid": 95504,
      "tags": {
        "name": "Девојачка пећина",
        "natural": "cave_entrance"
      }
    },
    {
      "type": "node",
      "id": 5602406662,
      "lat": 44.1896782,
      "lon": 21.8160179,
      "timestamp": "2018-05-07T14:34:07Z",
      "version": 1,
      "changeset": 58760663,
      "user": "fenrisster",
      "uid": 2482553,
      "tags": {
        "natural": "cave_entrance"
      }
    },
    {
      "type": "node",
      "id": 5602406663,
      "lat": 44.1886704,
      "lon": 21.8131855,
      "timestamp": "2019-03-23T18:54:27Z",
      "version": 2,
      "changeset": 68452514,
      "user": "Branko Kokanovic",
      "uid": 95504,
      "tags": {
        "name": "Кракаста пећина",
        "natural": "cave_entrance"
      }
    },
    {
      "type": "node",
      "id": 5602406664,
      "lat": 44.1916091,
      "lon": 21.8243327,
      "timestamp": "2019-03-23T18:55:17Z",
      "version": 2,
      "changeset": 68452514,
      "user": "Branko Kokanovic",
      "uid": 95504,
      "tags": {
        "name": "Пасерара кладе пећина",
        "natural": "cave_entrance"
      }
    },
    {
      "type": "node",
      "id": 5602406665,
      "lat": 44.1922707,
      "lon": 21.8265321,
      "timestamp": "2019-03-23T18:55:04Z",
      "version": 2,
      "changeset": 68452514,
      "user": "Branko Kokanovic",
      "uid": 95504,
      "tags": {
        "name": "Кљанц пећина",
        "natural": "cave_entrance"
      }
    },
    {
      "type": "node",
      "id": 5602406666,
      "lat": 44.1951453,
      "lon": 21.8174651,
      "timestamp": "2019-03-23T18:54:58Z",
      "version": 2,
      "changeset": 68452514,
      "user": "Branko Kokanovic",
      "uid": 95504,
      "tags": {
        "name": "Говеђа пећина",
        "natural": "cave_entrance"
      }
    },
    {
      "type": "node",
      "id": 5602516009,
      "lat": 44.1909613,
      "lon": 21.8432962,
      "timestamp": "2020-07-27T06:04:22Z",
      "version": 2,
      "changeset": 88543947,
      "user": "fenrisster",
      "uid": 2482553,
      "tags": {
        "direction": "180",
        "natural": "cave_entrance"
      }
    },
    {
      "type": "node",
      "id": 5602516010,
      "lat": 44.1904507,
      "lon": 21.8464425,
      "timestamp": "2018-05-07T15:39:26Z",
      "version": 1,
      "changeset": 58762357,
      "user": "fenrisster",
      "uid": 2482553,
      "tags": {
        "direction": "0",
        "natural": "cave_entrance"
      }
    },
    {
      "type": "node",
      "id": 5602516011,
      "lat": 44.1952201,
      "lon": 21.8688228,
      "timestamp": "2018-05-07T15:39:26Z",
      "version": 1,
      "changeset": 58762357,
      "user": "fenrisster",
      "uid": 2482553,
      "tags": {
        "natural": "cave_entrance"
      }
    },
    {
      "type": "node",
      "id": 5602516012,
      "lat": 44.1944816,
      "lon": 21.8714596,
      "timestamp": "2018-05-07T15:39:26Z",
      "version": 1,
      "changeset": 58762357,
      "user": "fenrisster",
      "uid": 2482553,
      "tags": {
        "natural": "cave_entrance"
      }
    },
    {
      "type": "node",
      "id": 5602516013,
      "lat": 44.1938047,
      "lon": 21.8738414,
      "timestamp": "2018-05-07T15:39:26Z",
      "version": 1,
      "changeset": 58762357,
      "user": "fenrisster",
      "uid": 2482553,
      "tags": {
        "natural": "cave_entrance"
      }
    },
    {
      "type": "node",
      "id": 5688862046,
      "lat": 44.2575862,
      "lon": 21.8780332,
      "timestamp": "2019-03-23T18:51:46Z",
      "version": 2,
      "changeset": 68452514,
      "user": "Branko Kokanovic",
      "uid": 95504,
      "tags": {
        "name": "Јагина пећина",
        "natural": "cave_entrance"
      }
    },
    {
      "type": "node",
      "id": 5688862047,
      "lat": 44.2615971,
      "lon": 21.8788915,
      "timestamp": "2019-03-23T18:51:48Z",
      "version": 2,
      "changeset": 68452514,
      "user": "Branko Kokanovic",
      "uid": 95504,
      "tags": {
        "name": "Коркан пећина",
        "natural": "cave_entrance"
      }
    },
    {
      "type": "node",
      "id": 5688862107,
      "lat": 44.257494,
      "lon": 21.8814664,
      "timestamp": "2018-06-13T20:56:35Z",
      "version": 1,
      "changeset": 59823725,
      "user": "fenrisster",
      "uid": 2482553,
      "tags": {
        "natural": "cave_entrance"
      }
    },
    {
      "type": "node",
      "id": 5688862108,
      "lat": 44.2553731,
      "lon": 21.8871742,
      "timestamp": "2018-06-13T20:56:35Z",
      "version": 1,
      "changeset": 59823725,
      "user": "fenrisster",
      "uid": 2482553,
      "tags": {
        "natural": "cave_entrance"
      }
    },
    {
      "type": "node",
      "id": 5716610821,
      "lat": 44.4795048,
      "lon": 22.1918473,
      "timestamp": "2018-06-25T05:45:30Z",
      "version": 1,
      "changeset": 60136075,
      "user": "Gadiel Rachelson",
      "uid": 5468567,
      "tags": {
        "natural": "spring"
      }
    },
    {
      "type": "node",
      "id": 5789928310,
      "lat": 44.4402987,
      "lon": 21.9611165,
      "timestamp": "2020-11-03T12:17:27Z",
      "version": 2,
      "changeset": 93482599,
      "user": "Badojo",
      "uid": 8189075,
      "tags": {
        "natural": "cave_entrance"
      }
    },
    {
      "type": "node",
      "id": 5789928821,
      "lat": 44.4431825,
      "lon": 21.9545685,
      "timestamp": "2018-07-27T13:51:32Z",
      "version": 1,
      "changeset": 61121464,
      "user": "fenrisster",
      "uid": 2482553,
      "tags": {
        "natural": "cave_entrance"
      }
    },
    {
      "type": "node",
      "id": 5789949238,
      "lat": 44.440978,
      "lon": 21.9533781,
      "timestamp": "2020-12-24T15:27:05Z",
      "version": 7,
      "changeset": 96394356,
      "user": "Stralo",
      "uid": 12085447,
      "tags": {
        "access": "permissive",
        "charge": "300 RSD",
        "ele": "427",
        "fee": "yes",
        "name": "Рајкова пећина",
        "name:sr": "Рајкова пећина",
        "name:sr-Latn": "Rajkova pećina",
        "natural": "cave_entrance",
        "tourism": "attraction",
        "wikidata": "Q4859970",
        "wikipedia": "sr:Рајкова пећина"
      }
    },
    {
      "type": "node",
      "id": 5789949239,
      "lat": 44.4420444,
      "lon": 21.9520976,
      "timestamp": "2019-03-23T10:12:03Z",
      "version": 3,
      "changeset": 68439611,
      "user": "Branko Kokanovic",
      "uid": 95504,
      "tags": {
        "name": "Паскова пећина",
        "natural": "cave_entrance"
      }
    },
    {
      "type": "node",
      "id": 5789950515,
      "lat": 44.449451,
      "lon": 21.9532134,
      "timestamp": "2020-11-03T12:17:27Z",
      "version": 4,
      "changeset": 93482599,
      "user": "Badojo",
      "uid": 8189075,
      "tags": {
        "ele": "458",
        "name": "Римски бунар",
        "natural": "cave_entrance"
      }
    },
    {
      "type": "node",
      "id": 5791774847,
      "lat": 44.572586,
      "lon": 22.3549229,
      "timestamp": "2018-07-28T07:41:41Z",
      "version": 2,
      "changeset": 61136573,
      "user": "Crizzu",
      "uid": 2030488,
      "tags": {
        "drinking_water": "yes",
        "natural": "spring",
        "source": "Lazar C."
      }
    },
    {
      "type": "node",
      "id": 6017290100,
      "lat": 44.2853235,
      "lon": 22.016336,
      "timestamp": "2021-04-21T20:43:43Z",
      "version": 4,
      "changeset": 103363874,
      "user": "ficfiric",
      "uid": 182327,
      "tags": {
        "ele": "929",
        "name": "Гарван",
        "name:en": "Garvan",
        "name:sr": "Гарван",
        "name:sr-Latn": "Garvan",
        "natural": "peak",
        "wikidata": "Q31499063"
      }
    },
    {
      "type": "node",
      "id": 6679741649,
      "lat": 44.4981913,
      "lon": 22.1051562,
      "timestamp": "2019-08-03T08:19:28Z",
      "version": 1,
      "changeset": 72964348,
      "user": "Pada",
      "uid": 226857,
      "tags": {
        "amenity": "drinking_water"
      }
    },
    {
      "type": "node",
      "id": 6886421258,
      "lat": 44.2963716,
      "lon": 22.2603086,
      "timestamp": "2019-10-16T15:54:00Z",
      "version": 1,
      "changeset": 75791459,
      "user": "Stadtigel",
      "uid": 597150,
      "tags": {
        "amenity": "drinking_water",
        "drinking_water": "yes"
      }
    },
    {
      "type": "node",
      "id": 6892909191,
      "lat": 44.3085048,
      "lon": 22.2955967,
      "timestamp": "2019-10-17T14:54:02Z",
      "version": 1,
      "changeset": 75847916,
      "user": "Stadtigel",
      "uid": 597150,
      "tags": {
        "name": "Canetova cave",
        "natural": "cave_entrance",
        "source": "http://www.tixik.eu/canetova-cave-3802442.htm"
      }
    },
    {
      "type": "node",
      "id": 6903250637,
      "lat": 44.2162157,
      "lon": 22.4930746,
      "timestamp": "2019-10-21T15:52:58Z",
      "version": 1,
      "changeset": 76007333,
      "user": "Stadtigel",
      "uid": 597150,
      "tags": {
        "drinking_water": "yes",
        "natural": "spring"
      }
    },
    {
      "type": "node",
      "id": 6949727164,
      "lat": 44.1727085,
      "lon": 22.1236947,
      "timestamp": "2020-08-18T21:02:26Z",
      "version": 2,
      "changeset": 89596202,
      "user": "David_81",
      "uid": 8303064,
      "tags": {
        "amenity": "drinking_water",
        "name": "Česma sa vodom"
      }
    },
    {
      "type": "node",
      "id": 7139635692,
      "lat": 44.3766753,
      "lon": 22.3726448,
      "timestamp": "2020-01-17T16:19:47Z",
      "version": 1,
      "changeset": 79706311,
      "user": "Stadtigel",
      "uid": 597150,
      "tags": {
        "amenity": "drinking_water",
        "drinking_water": "yes"
      }
    },
    {
      "type": "node",
      "id": 7139635791,
      "lat": 44.3638137,
      "lon": 22.3620452,
      "timestamp": "2020-01-17T16:19:47Z",
      "version": 1,
      "changeset": 79706311,
      "user": "Stadtigel",
      "uid": 597150,
      "tags": {
        "amenity": "drinking_water",
        "drinking_water": "yes",
        "man_made": "water_well",
        "water_well": "pump"
      }
    },
    {
      "type": "node",
      "id": 7156836091,
      "lat": 44.2618628,
      "lon": 22.2981443,
      "timestamp": "2020-01-24T15:39:32Z",
      "version": 1,
      "changeset": 80041847,
      "user": "Stadtigel",
      "uid": 597150,
      "tags": {
        "amenity": "drinking_water",
        "drinking_water": "yes",
        "man_made": "water_well"
      }
    },
    {
      "type": "node",
      "id": 7468310563,
      "lat": 44.3799225,
      "lon": 22.3189305,
      "timestamp": "2020-04-30T20:54:48Z",
      "version": 2,
      "changeset": 84438448,
      "user": "fenrisster",
      "uid": 2482553,
      "tags": {
        "natural": "spring"
      }
    },
    {
      "type": "node",
      "id": 7472486253,
      "lat": 44.4119799,
      "lon": 22.3148021,
      "timestamp": "2020-05-01T23:24:54Z",
      "version": 1,
      "changeset": 84497508,
      "user": "fenrisster",
      "uid": 2482553,
      "tags": {
        "natural": "spring"
      }
    },
    {
      "type": "node",
      "id": 7472486315,
      "lat": 44.4081785,
      "lon": 22.3057684,
      "timestamp": "2020-05-01T23:24:54Z",
      "version": 1,
      "changeset": 84497508,
      "user": "fenrisster",
      "uid": 2482553,
      "tags": {
        "natural": "cave_entrance"
      }
    },
    {
      "type": "node",
      "id": 7472486536,
      "lat": 44.3948352,
      "lon": 22.2916644,
      "timestamp": "2020-05-01T23:24:54Z",
      "version": 1,
      "changeset": 84497508,
      "user": "fenrisster",
      "uid": 2482553,
      "tags": {
        "natural": "spring"
      }
    },
    {
      "type": "node",
      "id": 7472486947,
      "lat": 44.4146829,
      "lon": 22.2049827,
      "timestamp": "2020-05-01T23:24:54Z",
      "version": 1,
      "changeset": 84497508,
      "user": "fenrisster",
      "uid": 2482553,
      "tags": {
        "natural": "cave_entrance"
      }
    },
    {
      "type": "node",
      "id": 7556374964,
      "lat": 44.3674167,
      "lon": 21.80095,
      "timestamp": "2021-04-21T20:43:43Z",
      "version": 2,
      "changeset": 103363874,
      "user": "ficfiric",
      "uid": 182327,
      "tags": {
        "ele": "814",
        "name": "Тилва Уроша",
        "name:sr": "Тилва Уроша",
        "name:sr-Latn": "Tilva Uroša",
        "natural": "peak",
        "wikidata": "Q31491535"
      }
    },
    {
      "type": "node",
      "id": 7556391508,
      "lat": 44.5274166,
      "lon": 22.2983333,
      "timestamp": "2021-04-21T20:43:42Z",
      "version": 2,
      "changeset": 103363874,
      "user": "ficfiric",
      "uid": 182327,
      "tags": {
        "ele": "630",
        "name": "Високи чукар",
        "name:sr": "Високи чукар",
        "name:sr-Latn": "Visoki čukar",
        "natural": "peak",
        "wikidata": "Q31490533"
      }
    },
    {
      "type": "node",
      "id": 7556391516,
      "lat": 44.5817667,
      "lon": 22.3556167,
      "timestamp": "2021-04-21T20:43:44Z",
      "version": 2,
      "changeset": 103363874,
      "user": "ficfiric",
      "uid": 182327,
      "tags": {
        "ele": "504",
        "name": "Буљбино брдо",
        "name:sr": "Буљбино брдо",
        "name:sr-Latn": "Buljbino brdo",
        "natural": "peak",
        "wikidata": "Q31500644"
      }
    },
    {
      "type": "node",
      "id": 7556391539,
      "lat": 44.4792833,
      "lon": 21.9758667,
      "timestamp": "2021-04-21T20:43:43Z",
      "version": 2,
      "changeset": 103363874,
      "user": "ficfiric",
      "uid": 182327,
      "tags": {
        "ele": "727",
        "name": "Кулмеа Орба",
        "name:sr": "Кулмеа Орба",
        "name:sr-Latn": "Kulmea Orba",
        "natural": "peak",
        "wikidata": "Q31494885"
      }
    },
    {
      "type": "node",
      "id": 7556391552,
      "lat": 44.4526833,
      "lon": 22.0225334,
      "timestamp": "2021-04-21T20:43:42Z",
      "version": 3,
      "changeset": 103363874,
      "user": "ficfiric",
      "uid": 182327,
      "tags": {
        "ele": "803",
        "name": "Велики Лишковац",
        "name:en": "Veliki Liškovac",
        "name:sr": "Велики Лишковац",
        "name:sr-Latn": "Veliki Liškovac",
        "natural": "peak",
        "wikidata": "Q31491115"
      }
    },
    {
      "type": "node",
      "id": 7556571705,
      "lat": 44.35475,
      "lon": 22.2462,
      "timestamp": "2021-04-21T20:43:43Z",
      "version": 3,
      "changeset": 103363874,
      "user": "ficfiric",
      "uid": 182327,
      "tags": {
        "ele": "656",
        "name": "Црни врх",
        "name:en": "Crni vrh",
        "name:sr": "Црни врх",
        "name:sr-Latn": "Crni vrh",
        "natural": "peak",
        "wikidata": "Q31499923"
      }
    },
    {
      "type": "node",
      "id": 7899493925,
      "lat": 44.4624929,
      "lon": 22.2283105,
      "timestamp": "2020-11-21T13:03:24Z",
      "version": 2,
      "changeset": 94543740,
      "user": "Komadinovic Vanja",
      "uid": 875800,
      "tags": {
        "access": "yes",
        "name": "Градишница",
        "name:sr": "Градишница",
        "name:sr-Latn": "Gradašnica",
        "natural": "cave_entrance",
        "wikidata": "Q102178845"
      }
    },
    {
      "type": "node",
      "id": 8065987200,
      "lat": 44.4269914,
      "lon": 21.9453634,
      "timestamp": "2020-10-30T15:35:49Z",
      "version": 1,
      "changeset": 93298772,
      "user": "Stralo",
      "uid": 12085447,
      "tags": {
        "name": "Tekijanka Brdo",
        "opening_hours": "Mo-Sa 07:00-21:00",
        "operator": "Tekijanka",
        "payment:cash": "yes",
        "payment:credit_cards": "yes",
        "shop": "supermarket",
        "website": "https://www.tekijanka.com/"
      }
    },
    {
      "type": "node",
      "id": 8065987203,
      "lat": 44.4232013,
      "lon": 21.9348118,
      "timestamp": "2020-10-30T15:35:49Z",
      "version": 1,
      "changeset": 93298772,
      "user": "Stralo",
      "uid": 12085447,
      "tags": {
        "name": "Tekijanka Park",
        "operator": "Tekijanka",
        "payment:cash": "yes",
        "payment:credit_cards": "yes",
        "shop": "supermarket",
        "website": "https://www.tekijanka.com/"
      }
    },
    {
      "type": "node",
      "id": 8392135388,
      "lat": 44.4902667,
      "lon": 22.4259126,
      "timestamp": "2021-02-03T21:13:31Z",
      "version": 1,
      "changeset": 98666988,
      "user": "Carlos Franco",
      "uid": 3904030,
      "tags": {
        "name": "Река",
        "place": "village"
      }
    },
    {
      "type": "node",
      "id": 8686730825,
      "lat": 44.3009835,
      "lon": 22.2797315,
      "timestamp": "2021-05-01T07:46:22Z",
      "version": 1,
      "changeset": 103945422,
      "user": "fenrisster",
      "uid": 2482553,
      "tags": {
        "name": "Rajska prerast",
        "natural": "cave_entrance"
      }
    },
    {
      "type": "way",
      "id": 34247323,
      "timestamp": "2019-11-05T21:21:28Z",
      "version": 6,
      "changeset": 76668392,
      "user": "dizajnmario",
      "uid": 733709,
      "center": {
        "lat": 44.1727916,
        "lon": 22.1238647
      },
      "nodes": [],
      "tags": {
        "building": "yes",
        "building:levels": "2",
        "capacity": "40",
        "ele": "920",
        "name": "Планинарски дом „Стол“",
        "name:sr": "Планинарски дом „Стол“",
        "name:sr-Latn": "Planinarski dom „Stol“",
        "toilets": "yes",
        "tourism": "alpine_hut"
      }
    },
    {
      "type": "way",
      "id": 74511910,
      "timestamp": "2020-07-11T09:20:02Z",
      "version": 4,
      "changeset": 87847930,
      "user": "Garmin-User",
      "uid": 177389,
      "center": {
        "lat": 44.4330482,
        "lon": 22.501087
      },
      "nodes": [],
      "tags": {
        "name": "Țigănași",
        "place": "village",
        "siruta:code": "110982",
        "source": "Mircea Angelescu, geo-spatial.org"
      }
    },
    {
      "type": "way",
      "id": 74511944,
      "timestamp": "2020-07-05T06:01:30Z",
      "version": 8,
      "changeset": 87546938,
      "user": "Garmin-User",
      "uid": 177389,
      "center": {
        "lat": 44.4983754,
        "lon": 22.1011904
      },
      "nodes": [],
      "tags": {
        "name": "Svinița",
        "place": "village",
        "siruta:code": "113616",
        "source": "Mircea Angelescu, geo-spatial.org"
      }
    },
    {
      "type": "way",
      "id": 74512474,
      "timestamp": "2020-07-11T09:20:02Z",
      "version": 4,
      "changeset": 87847930,
      "user": "Garmin-User",
      "uid": 177389,
      "center": {
        "lat": 44.452212,
        "lon": 22.4949925
      },
      "nodes": [],
      "tags": {
        "name": "Izvoru Frumos",
        "place": "village",
        "siruta:code": "110973",
        "source": "Mircea Angelescu, geo-spatial.org"
      }
    },
    {
      "type": "way",
      "id": 148377027,
      "timestamp": "2020-10-23T13:33:45Z",
      "version": 7,
      "changeset": 92952630,
      "user": "MajaMaravic",
      "uid": 9357577,
      "center": {
        "lat": 44.2677824,
        "lon": 21.9850463
      },
      "nodes": [],
      "tags": {
        "landuse": "residential",
        "name": "Влаоле",
        "name:en": "Vlaole",
        "name:sr": "Влаоле",
        "name:sr-Latn": "Vlaole",
        "place": "village"
      }
    },
    {
      "type": "way",
      "id": 206223967,
      "timestamp": "2013-03-02T14:20:31Z",
      "version": 2,
      "changeset": 15221501,
      "user": "kmilos",
      "uid": 441816,
      "center": {
        "lat": 44.138689,
        "lon": 21.9639972
      },
      "nodes": [],
      "tags": {
        "name": "Црни врх",
        "name:sr": "Црни врх",
        "name:sr-Latn": "Crni vrh",
        "tourism": "alpine_hut"
      }
    },
    {
      "type": "way",
      "id": 268177860,
      "timestamp": "2021-04-05T19:33:37Z",
      "version": 4,
      "changeset": 102354522,
      "user": "Badojo",
      "uid": 8189075,
      "center": {
        "lat": 44.4262291,
        "lon": 21.9334075
      },
      "nodes": [],
      "tags": {
        "addr:city": "Мајданпек",
        "addr:postcode": "19250",
        "addr:street": "Карађорђева",
        "building": "yes",
        "name": "Tekijanka",
        "opening_hours": "Mo-Sa 07:00-21:00",
        "operator": "Tekijanka",
        "payment:cash": "yes",
        "payment:credit_cards": "yes",
        "shop": "supermarket",
        "website": "https://www.tekijanka.com/"
      }
    },
    {
      "type": "way",
      "id": 379399127,
      "timestamp": "2015-12-14T14:15:04Z",
      "version": 2,
      "changeset": 35946407,
      "user": "BobyEkstrom",
      "uid": 3453772,
      "center": {
        "lat": 44.5459097,
        "lon": 22.1694125
      },
      "nodes": [],
      "tags": {
        "amenity": "shelter"
      }
    },
    {
      "type": "way",
      "id": 385823073,
      "timestamp": "2015-12-14T11:27:24Z",
      "version": 1,
      "changeset": 35943053,
      "user": "BobyEkstrom",
      "uid": 3453772,
      "center": {
        "lat": 44.5451191,
        "lon": 22.1581012
      },
      "nodes": [],
      "tags": {
        "addr:city": "Eibenthal",
        "addr:housenumber": "32",
        "capacity": "50",
        "name": "Kemp U Medvěda",
        "operator": "www.dovolena-banat.cz",
        "tourism": "camp_site"
      }
    },
    {
      "type": "way",
      "id": 469030685,
      "timestamp": "2017-01-26T10:34:03Z",
      "version": 1,
      "changeset": 45507645,
      "user": "BobyEkstrom",
      "uid": 3453772,
      "center": {
        "lat": 44.5792393,
        "lon": 22.1424805
      },
      "nodes": [],
      "tags": {
        "amenity": "shelter"
      }
    },
    {
      "type": "way",
      "id": 735254973,
      "timestamp": "2019-10-16T15:54:00Z",
      "version": 1,
      "changeset": 75791459,
      "user": "Stadtigel",
      "uid": 597150,
      "center": {
        "lat": 44.2922597,
        "lon": 22.2669564
      },
      "nodes": [],
      "tags": {
        "amenity": "shelter",
        "building": "yes",
        "shelter_type": "weather_shelter"
      }
    },
    {
      "type": "way",
      "id": 736254246,
      "timestamp": "2019-10-17T14:54:02Z",
      "version": 1,
      "changeset": 75847916,
      "user": "Stadtigel",
      "uid": 597150,
      "center": {
        "lat": 44.2606956,
        "lon": 22.394591
      },
      "nodes": [],
      "tags": {
        "amenity": "shelter",
        "building": "yes",
        "shelter_type": "weather_shelter"
      }
    },
    {
      "type": "way",
      "id": 736254257,
      "timestamp": "2019-10-17T14:54:02Z",
      "version": 1,
      "changeset": 75847916,
      "user": "Stadtigel",
      "uid": 597150,
      "center": {
        "lat": 44.261145,
        "lon": 22.4129584
      },
      "nodes": [],
      "tags": {
        "amenity": "shelter",
        "building": "yes",
        "shelter_type": "field_shelter"
      }
    },
    {
      "type": "way",
      "id": 885177923,
      "timestamp": "2020-12-15T16:24:50Z",
      "version": 1,
      "changeset": 95887960,
      "user": "Stralo",
      "uid": 12085447,
      "center": {
        "lat": 44.4250905,
        "lon": 21.9459298
      },
      "nodes": [],
      "tags": {
        "building": "yes",
        "name": "Ranko",
        "shop": "supermarket"
      }
    }
  ]
}