{
  "osm3s": {
    "timestamp_osm_date": "2022-04-12T23:59:59Z",
    "timestamp_osm_base": "2022-04-13T06:35:39Z",
    "copyright": "The data included in this document is from www.openstreetmap.org. The data is made available under ODbL."
  },
  "elements": [
    {
      "type": "node",
      "id": 59649300,
      "lat": -26.0499555,
      "lon": 31.0166144,
      "timestamp": "2007-09-24T19:12:30Z",
      "version": 1,
      "changeset": 510421,
      "user": "NicRoets",
      "uid": 1186,
      "tags": {
        "created_by": "JOSM",
        "name": "Kromdraai Supermarket",
        "note": "Square Deal",
        "shop": "supermarket"
      }
    },
    {
      "type": "node",
      "id": 59649319,
      "lat": -26.0092555,
      "lon": 31.0783596,
      "timestamp": "2007-09-25T12:24:07Z",
      "version": 1,
      "changeset": 513456,
      "user": "NicRoets",
      "uid": 1186,
      "tags": {
        "created_by": "JOSM",
        "name": "Msauli",
        "place": "town"
      }
    },
    {
      "type": "node",
      "id": 59732385,
      "lat": -25.9616997,
      "lon": 31.247642,
      "timestamp": "2016-10-26T09:58:46Z",
      "version": 5,
      "changeset": 43187409,
      "user": "nammala",
      "uid": 3479270,
      "tags": {
        "name": "Piggs Peak",
        "name:ru": "Пигс-Пик",
        "place": "town",
        "wikidata": "Q1950487"
      }
    },
    {
      "type": "node",
      "id": 59732834,
      "lat": -25.9439801,
      "lon": 31.1179998,
      "timestamp": "2011-03-04T09:41:51Z",
      "version": 2,
      "changeset": 7452909,
      "user": "BennieD",
      "uid": 120693,
      "tags": {
        "is_in": "Swaziland",
        "name": "Josefsdal",
        "place": "hamlet"
      }
    },
    {
      "type": "node",
      "id": 59732837,
      "lat": -25.9533485,
      "lon": 31.1272114,
      "timestamp": "2019-08-08T16:04:37Z",
      "version": 6,
      "changeset": 73162344,
      "user": "mDav",
      "uid": 7882299,
      "tags": {
        "name": "Bulembu",
        "place": "village",
        "wikidata": "Q3643239"
      }
    },
    {
      "type": "node",
      "id": 243837793,
      "lat": -26.325745,
      "lon": 31.144663,
      "timestamp": "2022-03-06T14:36:30Z",
      "version": 30,
      "changeset": 118161452,
      "user": "mueschel",
      "uid": 616774,
      "tags": {
        "admin_level": "2",
        "capital": "yes",
        "is_capital": "country",
        "is_in": "Swaziland",
        "is_in:continent": "Africa",
        "is_in:country": "Swaziland",
        "is_in:country_code": "SZ",
        "name": "Mbabane",
        "name:am": "ምባባኔ",
        "name:an": "Mbabane",
        "name:ar": "مبابان",
        "name:ast": "Mbabane",
        "name:avk": "Mbabane",
        "name:az": "Mbabane",
        "name:ba": "Мбабане",
        "name:bcl": "Mbabane",
        "name:be": "Мбабанэ",
        "name:bg": "Мбабане",
        "name:bm": "Mbabane",
        "name:bn": "এম্বাবানে",
        "name:bo": "མ་པ་པན།",
        "name:br": "Mbabane",
        "name:bs": "Mbabane",
        "name:ca": "Mbabane",
        "name:cdo": "Mbabane",
        "name:ce": "Мбабане",
        "name:ceb": "Mbabane",
        "name:ckb": "مبابانێ",
        "name:cs": "Mbabane",
        "name:cy": "Mbabane",
        "name:da": "Mbabane",
        "name:de": "Mbabane",
        "name:el": "Μπαμπάνε",
        "name:en": "Mbabane",
        "name:eo": "Mbabano",
        "name:es": "Mbabane",
        "name:et": "Mbabane",
        "name:eu": "Mbabane",
        "name:fa": "مبابانه",
        "name:fi": "Mbabane",
        "name:fr": "Mbabane",
        "name:frr": "Mbabane",
        "name:ga": "Mbabane",
        "name:gd": "Mbabane",
        "name:gl": "Mbabane",
        "name:ha": "Mbabane",
        "name:hak": "Mbabane",
        "name:he": "מבבנה",
        "name:hi": "मबैब्ने",
        "name:hif": "Mbabane",
        "name:hr": "Mbabane",
        "name:ht": "Mbabàn",
        "name:hu": "Mbabane",
        "name:hy": "Մբաբանե",
        "name:ia": "Mbabane",
        "name:id": "Mbabane",
        "name:ie": "Mbabane",
        "name:io": "Mbabane",
        "name:is": "Mbabane",
        "name:it": "Mbabane",
        "name:ja": "ムババーネ",
        "name:jv": "Mbabane",
        "name:ka": "მბაბანე",
        "name:kab": "Mbabane",
        "name:kg": "Mbabane",
        "name:ko": "음바바네",
        "name:ky": "Мбабане",
        "name:la": "Mbabane",
        "name:lb": "Mbabane",
        "name:lij": "Mbabane",
        "name:lmo": "Mbabane",
        "name:lt": "Mbabanė",
        "name:lv": "Mbabane",
        "name:mg": "Mbabane",
        "name:mk": "Мбабане",
        "name:ml": "എംബബാനി",
        "name:mr": "अंबाबाने",
        "name:ms": "Mbabane",
        "name:nah": "Mbabane",
        "name:nds": "Mbabane",
        "name:nl": "Mbabane",
        "name:nn": "Mbabane",
        "name:no": "Mbabane",
        "name:ny": "Mbabane",
        "name:oc": "Mbabane",
        "name:os": "Мбабане",
        "name:pa": "ਅੰਬਾਬਾਨੇ",
        "name:pl": "Mbabane",
        "name:pms": "Mbabane",
        "name:pnb": "مبابین",
        "name:ps": "مبابانه",
        "name:pt": "Mbabane",
        "name:ro": "Mbabane",
        "name:ru": "Мбабане",
        "name:sc": "Mbabane",
        "name:sco": "Mbabane",
        "name:se": "Mbabane",
        "name:sh": "Mbabane",
        "name:sk": "Mbabane",
        "name:sl": "Mbabane",
        "name:smn": "Mbabane",
        "name:sn": "Mbabane",
        "name:so": "Mabane",
        "name:sq": "Mbabane",
        "name:sr": "Мбабане",
        "name:ss": "ÉMbábáne",
        "name:sv": "Mbabane",
        "name:sw": "Mbabane",
        "name:szl": "Mbabane",
        "name:ta": "இம்பபான்",
        "name:tg": "Мбабане",
        "name:th": "อัมบาบาเน",
        "name:tl": "Mbabane",
        "name:tr": "Mbabane",
        "name:udm": "Мбабане",
        "name:uk": "Мбабане",
        "name:ur": "مبابنے",
        "name:uz": "Mbabane",
        "name:vec": "Mbabane",
        "name:vep": "Mbabane",
        "name:vi": "Mbabane",
        "name:war": "Mbabane",
        "name:wuu": "姆巴巴内",
        "name:xmf": "მბაბანე",
        "name:yi": "מבאבאנע",
        "name:yo": "Mbabane",
        "name:zh": "姆巴巴內",
        "name:zu": "IMbabane",
        "place": "city",
        "population": "94874",
        "source:population": "DBpedia",
        "wikidata": "Q3904",
        "wikipedia": "en:Mbabane"
      }
    },
    {
      "type": "node",
      "id": 537561792,
      "lat": -26.0890249,
      "lon": 31.5485086,
      "timestamp": "2012-09-27T16:39:23Z",
      "version": 4,
      "changeset": 13274368,
      "user": "geochrome",
      "uid": 663559,
      "tags": {
        "name": "Madlangempisi",
        "place": "village"
      }
    },
    {
      "type": "node",
      "id": 906921814,
      "lat": -26.1970188,
      "lon": 31.5687935,
      "timestamp": "2019-08-08T16:04:37Z",
      "version": 5,
      "changeset": 73162344,
      "user": "mDav",
      "uid": 7882299,
      "tags": {
        "name": "Croydon",
        "place": "village",
        "source": "GNS"
      }
    },
    {
      "type": "node",
      "id": 906923737,
      "lat": -26.2397445,
      "lon": 31.5827303,
      "timestamp": "2019-08-08T16:04:37Z",
      "version": 5,
      "changeset": 73162344,
      "user": "mDav",
      "uid": 7882299,
      "tags": {
        "name": "Mliba",
        "place": "village",
        "source": "GNS",
        "wikidata": "Q6885719"
      }
    },
    {
      "type": "node",
      "id": 1469796522,
      "lat": -26.35,
      "lon": 31.516667,
      "timestamp": "2019-08-08T16:04:37Z",
      "version": 3,
      "changeset": 73162344,
      "user": "mDav",
      "uid": 7882299,
      "tags": {
        "name": "Mbuluzana",
        "place": "hamlet",
        "source": "GNS"
      }
    },
    {
      "type": "node",
      "id": 2435816514,
      "lat": -26.3262536,
      "lon": 31.139979,
      "timestamp": "2020-05-12T03:29:30Z",
      "version": 4,
      "changeset": 85054944,
      "user": "chath_tsu",
      "uid": 6185950,
      "tags": {
        "brand": "Pick n Pay",
        "brand:wikidata": "Q7190735",
        "brand:wikipedia": "en:Pick n Pay Stores",
        "name": "Pick n Pay",
        "shop": "supermarket"
      }
    },
    {
      "type": "node",
      "id": 2522280154,
      "lat": -26.1438352,
      "lon": 31.1313729,
      "timestamp": "2013-11-06T15:26:44Z",
      "version": 1,
      "changeset": 18749197,
      "user": "juergenb22",
      "uid": 1660455,
      "tags": {
        "name": "Malolotja Campsite",
        "tourism": "camp_site"
      }
    },
    {
      "type": "node",
      "id": 4415037937,
      "lat": -26.4018193,
      "lon": 31.178316,
      "timestamp": "2016-09-24T07:21:52Z",
      "version": 2,
      "changeset": 42400157,
      "user": "kickert",
      "uid": 4539363,
      "tags": {
        "name": "Ezulwini",
        "place": "town"
      }
    },
    {
      "type": "node",
      "id": 4523507591,
      "lat": -26.2965228,
      "lon": 31.086778,
      "timestamp": "2017-05-11T09:50:58Z",
      "version": 2,
      "changeset": 48586793,
      "user": "abissom",
      "uid": 5786995,
      "tags": {
        "name": "Mpolonjeni",
        "tourism": "alpine_hut"
      }
    },
    {
      "type": "node",
      "id": 4547990093,
      "lat": -26.3283342,
      "lon": 31.1401679,
      "timestamp": "2016-12-10T14:45:51Z",
      "version": 1,
      "changeset": 44304587,
      "user": "pierred",
      "uid": 499549,
      "tags": {
        "name": "SuperSpar",
        "name:en": "SuperSpar",
        "shop": "supermarket"
      }
    },
    {
      "type": "node",
      "id": 4551213293,
      "lat": -26.3253843,
      "lon": 31.1409342,
      "timestamp": "2016-12-12T18:26:33Z",
      "version": 1,
      "changeset": 44352736,
      "user": "pierred",
      "uid": 499549,
      "tags": {
        "name": "Shoprite Usave",
        "name:en": "Shoprite Usave",
        "shop": "supermarket"
      }
    },
    {
      "type": "node",
      "id": 4551221990,
      "lat": -26.3281524,
      "lon": 31.1423346,
      "timestamp": "2021-08-04T23:50:26Z",
      "version": 2,
      "changeset": 109167745,
      "user": "chath_tsu",
      "uid": 6185950,
      "tags": {
        "brand": "Shoprite",
        "brand:wikidata": "Q1857639",
        "brand:wikipedia": "en:Shoprite (retailer)",
        "name": "Shoprite",
        "name:en": "Shoprite",
        "shop": "supermarket"
      }
    },
    {
      "type": "node",
      "id": 4551222592,
      "lat": -26.3254034,
      "lon": 31.1427022,
      "timestamp": "2016-12-12T18:27:10Z",
      "version": 1,
      "changeset": 44352736,
      "user": "pierred",
      "uid": 499549,
      "tags": {
        "name": "MultiSave",
        "name:en": "MultiSave",
        "shop": "supermarket"
      }
    },
    {
      "type": "node",
      "id": 5232622021,
      "lat": -25.9602616,
      "lon": 31.2479451,
      "timestamp": "2017-11-16T12:44:51Z",
      "version": 1,
      "changeset": 53840059,
      "user": "Thokozani Luda Nkosie",
      "uid": 6746967,
      "tags": {
        "name": "Boxer Shop",
        "shop": "convenience"
      }
    },
    {
      "type": "node",
      "id": 5239520021,
      "lat": -25.9765317,
      "lon": 31.2969252,
      "timestamp": "2019-09-05T21:18:56Z",
      "version": 2,
      "changeset": 74151051,
      "user": "mh166",
      "uid": 1760083,
      "tags": {
        "addr:housenumber": "107",
        "name": "millsite",
        "phone": "+268 7838 9451",
        "tourism": "camp_site"
      }
    },
    {
      "type": "node",
      "id": 5301241739,
      "lat": -25.9213917,
      "lon": 31.1273059,
      "timestamp": "2020-01-06T23:29:45Z",
      "version": 2,
      "changeset": 79268878,
      "user": "kdkeller",
      "uid": 43207,
      "tags": {
        "ele": "1862",
        "name": "Emlembe",
        "natural": "peak",
        "wikidata": "Q1337951"
      }
    },
    {
      "type": "node",
      "id": 5303410567,
      "lat": -26.2423258,
      "lon": 31.1842318,
      "timestamp": "2017-12-25T16:53:49Z",
      "version": 1,
      "changeset": 54911500,
      "user": "Grische",
      "uid": 7235139,
      "tags": {
        "cave:difficulty": "easy",
        "cave:size": "small",
        "name": "Little cave",
        "natural": "cave_entrance"
      }
    },
    {
      "type": "node",
      "id": 6528192624,
      "lat": -26.321335,
      "lon": 31.4756155,
      "timestamp": "2019-06-06T11:02:35Z",
      "version": 1,
      "changeset": 70985641,
      "user": "mDav",
      "uid": 7882299,
      "tags": {
        "name": "Luve",
        "place": "town"
      }
    },
    {
      "type": "node",
      "id": 6573077984,
      "lat": -26.0727947,
      "lon": 31.1057087,
      "timestamp": "2019-06-26T17:47:45Z",
      "version": 1,
      "changeset": 71646703,
      "user": "mDav",
      "uid": 7882299,
      "tags": {
        "name": "Campsite #11",
        "tourism": "camp_site"
      }
    },
    {
      "type": "node",
      "id": 6573077985,
      "lat": -26.0918167,
      "lon": 31.1047934,
      "timestamp": "2019-06-26T17:47:45Z",
      "version": 1,
      "changeset": 71646703,
      "user": "mDav",
      "uid": 7882299,
      "tags": {
        "name": "Campsite #9",
        "tourism": "camp_site"
      }
    },
    {
      "type": "node",
      "id": 6573077986,
      "lat": -26.1101407,
      "lon": 31.100298,
      "timestamp": "2019-06-26T17:47:45Z",
      "version": 1,
      "changeset": 71646703,
      "user": "mDav",
      "uid": 7882299,
      "tags": {
        "name": "Campsite #8",
        "tourism": "camp_site"
      }
    },
    {
      "type": "node",
      "id": 6573086936,
      "lat": -26.0681628,
      "lon": 31.1022627,
      "timestamp": "2019-06-26T18:02:41Z",
      "version": 1,
      "changeset": 71647208,
      "user": "mDav",
      "uid": 7882299,
      "tags": {
        "name": "Campsite #12",
        "tourism": "camp_site"
      }
    },
    {
      "type": "node",
      "id": 6628631289,
      "lat": -25.9229563,
      "lon": 31.5102678,
      "timestamp": "2019-07-18T14:55:59Z",
      "version": 2,
      "changeset": 72395170,
      "user": "mDav",
      "uid": 7882299,
      "tags": {
        "name": "Buhleni",
        "place": "town"
      }
    },
    {
      "type": "node",
      "id": 6629079851,
      "lat": -26.2339278,
      "lon": 31.3520558,
      "timestamp": "2019-08-08T16:04:37Z",
      "version": 2,
      "changeset": 73162344,
      "user": "mDav",
      "uid": 7882299,
      "tags": {
        "name": "Nsingweni",
        "place": "hamlet"
      }
    },
    {
      "type": "node",
      "id": 7868739690,
      "lat": -26.3226406,
      "lon": 31.1265849,
      "timestamp": "2020-09-02T14:09:06Z",
      "version": 1,
      "changeset": 90309145,
      "user": "Welcome Dlamini",
      "uid": 4545128,
      "tags": {
        "name": "Checkers complex",
        "shop": "supermarket"
      }
    },
    {
      "type": "node",
      "id": 7868746386,
      "lat": -26.3313454,
      "lon": 31.1138569,
      "timestamp": "2020-09-02T14:08:48Z",
      "version": 2,
      "changeset": 90309145,
      "user": "Welcome Dlamini",
      "uid": 4545128,
      "tags": {
        "name": "Hilltop  Complev",
        "shop": "supermarket"
      }
    },
    {
      "type": "node",
      "id": 7868746685,
      "lat": -26.3270024,
      "lon": 31.1036265,
      "timestamp": "2020-09-02T14:08:09Z",
      "version": 1,
      "changeset": 90309145,
      "user": "Welcome Dlamini",
      "uid": 4545128,
      "tags": {
        "name": "Junction supermarket",
        "shop": "supermarket"
      }
    },
    {
      "type": "node",
      "id": 7868746688,
      "lat": -26.2349693,
      "lon": 31.1224919,
      "timestamp": "2020-09-02T14:09:13Z",
      "version": 1,
      "changeset": 90309145,
      "user": "Welcome Dlamini",
      "uid": 4545128,
      "tags": {
        "name": "KaMalaza Mercy home",
        "tourism": "wilderness_hut"
      }
    },
    {
      "type": "node",
      "id": 8025525485,
      "lat": -25.9588497,
      "lon": 31.2467132,
      "timestamp": "2020-10-20T14:03:00Z",
      "version": 1,
      "changeset": 92773817,
      "user": "Welcome Dlamini",
      "uid": 4545128,
      "tags": {
        "name": "Ndlaludzaka House Complex",
        "shop": "supermarket"
      }
    },
    {
      "type": "node",
      "id": 8921793226,
      "lat": -26.0764379,
      "lon": 31.2506504,
      "timestamp": "2021-07-15T08:50:42Z",
      "version": 1,
      "changeset": 108033567,
      "user": "JezzaJay",
      "uid": 13710052,
      "tags": {
        "addr:street": "MR32",
        "fee": "no",
        "name": "Maguga Lodge Campsite",
        "operator": "Maguga Lodge",
        "tourism": "camp_site"
      }
    },
    {
      "type": "way",
      "id": 390004389,
      "timestamp": "2017-10-18T22:10:17Z",
      "version": 2,
      "changeset": 53053853,
      "user": "Johnwhelan",
      "uid": 186592,
      "center": {
        "lat": -26.2204133,
        "lon": 31.5793446
      },
      "nodes": [],
      "tags": {
        "amenity": "shelter",
        "shelter_type": "public_transport"
      }
    },
    {
      "type": "way",
      "id": 390004390,
      "timestamp": "2017-10-18T22:10:17Z",
      "version": 2,
      "changeset": 53053853,
      "user": "Johnwhelan",
      "uid": 186592,
      "center": {
        "lat": -26.2159788,
        "lon": 31.5772877
      },
      "nodes": [],
      "tags": {
        "amenity": "shelter",
        "shelter_type": "public_transport"
      }
    },
    {
      "type": "way",
      "id": 390004391,
      "timestamp": "2017-10-18T22:10:17Z",
      "version": 2,
      "changeset": 53053853,
      "user": "Johnwhelan",
      "uid": 186592,
      "center": {
        "lat": -26.2198365,
        "lon": 31.5788825
      },
      "nodes": [],
      "tags": {
        "amenity": "shelter",
        "shelter_type": "public_transport"
      }
    },
    {
      "type": "way",
      "id": 390004392,
      "timestamp": "2017-10-18T22:10:17Z",
      "version": 2,
      "changeset": 53053853,
      "user": "Johnwhelan",
      "uid": 186592,
      "center": {
        "lat": -26.2268368,
        "lon": 31.5823374
      },
      "nodes": [],
      "tags": {
        "amenity": "shelter",
        "shelter_type": "public_transport"
      }
    },
    {
      "type": "way",
      "id": 390004393,
      "timestamp": "2017-10-18T22:10:17Z",
      "version": 2,
      "changeset": 53053853,
      "user": "Johnwhelan",
      "uid": 186592,
      "center": {
        "lat": -26.2271786,
        "lon": 31.582665
      },
      "nodes": [],
      "tags": {
        "amenity": "shelter",
        "shelter_type": "public_transport"
      }
    },
    {
      "type": "way",
      "id": 390004394,
      "timestamp": "2017-10-18T22:10:17Z",
      "version": 2,
      "changeset": 53053853,
      "user": "Johnwhelan",
      "uid": 186592,
      "center": {
        "lat": -26.2165197,
        "lon": 31.5779372
      },
      "nodes": [],
      "tags": {
        "amenity": "shelter",
        "shelter_type": "public_transport"
      }
    },
    {
      "type": "way",
      "id": 390488944,
      "timestamp": "2018-11-16T03:49:51Z",
      "version": 3,
      "changeset": 64551378,
      "user": "teresa_P",
      "uid": 8976566,
      "center": {
        "lat": -25.8291683,
        "lon": 31.4816191
      },
      "nodes": [],
      "tags": {
        "amenity": "shelter",
        "shelter_type": "public_transport"
      }
    },
    {
      "type": "way",
      "id": 390488947,
      "timestamp": "2018-11-16T03:49:51Z",
      "version": 3,
      "changeset": 64551378,
      "user": "teresa_P",
      "uid": 8976566,
      "center": {
        "lat": -25.8289292,
        "lon": 31.4811783
      },
      "nodes": [],
      "tags": {
        "amenity": "shelter",
        "shelter_type": "public_transport"
      }
    },
    {
      "type": "way",
      "id": 390493375,
      "timestamp": "2018-11-16T03:49:51Z",
      "version": 2,
      "changeset": 64551378,
      "user": "teresa_P",
      "uid": 8976566,
      "center": {
        "lat": -25.8228469,
        "lon": 31.4773635
      },
      "nodes": [],
      "tags": {
        "amenity": "shelter",
        "shelter_type": "public_transport"
      }
    },
    {
      "type": "way",
      "id": 390493376,
      "timestamp": "2018-11-16T03:49:51Z",
      "version": 2,
      "changeset": 64551378,
      "user": "teresa_P",
      "uid": 8976566,
      "center": {
        "lat": -25.8238288,
        "lon": 31.47801
      },
      "nodes": [],
      "tags": {
        "amenity": "shelter",
        "shelter_type": "public_transport"
      }
    },
    {
      "type": "way",
      "id": 926984569,
      "timestamp": "2021-04-07T05:28:31Z",
      "version": 1,
      "changeset": 102447640,
      "user": "vraskavec",
      "uid": 11864032,
      "center": {
        "lat": -26.0172722,
        "lon": 31.4436006
      },
      "nodes": [],
      "tags": {
        "name": "Hhohho",
        "place": "village"
      }
    },
    {
      "type": "way",
      "id": 1010807483,
      "timestamp": "2021-12-09T22:20:45Z",
      "version": 1,
      "changeset": 114761961,
      "user": "Hanhan8o",
      "uid": 14602163,
      "center": {
        "lat": -26.3224796,
        "lon": 31.1354748
      },
      "nodes": [],
      "tags": {
        "building": "yes",
        "name": "Tuck shop",
        "payment:cash": "yes",
        "shop": "convenience"
      }
    }
  ]
}