{
  "osm3s": {
    "timestamp_osm_date": "2021-09-21T23:59:59Z",
    "timestamp_osm_base": "2021-09-22T04:00:53Z",
    "copyright": "The data included in this document is from www.openstreetmap.org. The data is made available under ODbL."
  },
  "elements": [
    {
      "type": "node",
      "id": 456009087,
      "lat": 66.96194,
      "lon": -53.7179197,
      "timestamp": "2019-04-09T08:44:51Z",
      "version": 6,
      "changeset": 69035313,
      "user": "tms13",
      "uid": 91225,
      "tags": {
        "ele": "549",
        "name": "Palasip Qaqqaa",
        "name:da": "Præstefjeldet",
        "name:kl": "Palasip Qaqqaa",
        "natural": "peak",
        "wikidata": "Q3361265",
        "wikipedia": "en:Palasip Qaqqaa"
      }
    },
    {
      "type": "node",
      "id": 932065332,
      "lat": 66.9392699,
      "lon": -53.5331267,
      "timestamp": "2011-02-06T19:10:00Z",
      "version": 2,
      "changeset": 7207514,
      "user": "Fabi2",
      "uid": 125718,
      "tags": {
        "name": "Skilift",
        "place": "hamlet",
        "wpt_description": "18-CVN-09 21:39:26"
      }
    },
    {
      "type": "node",
      "id": 1913331768,
      "lat": 66.9371906,
      "lon": -53.6664816,
      "timestamp": "2020-12-02T16:31:36Z",
      "version": 19,
      "changeset": 95167536,
      "user": "joserrg12",
      "uid": 1104904,
      "tags": {
        "capital": "4",
        "contact:website": "http://sisimiutcity.com/",
        "name": "Sisimiut",
        "name:ar": "سيسيميوت",
        "name:en": "Sisimiut",
        "name:kl": "Sisimiut",
        "name:lt": "Sisimiutas",
        "name:ru": "Сисимиут",
        "name:uk": "Сісіміут",
        "old_name": "Holsteinborg",
        "place": "city",
        "population": "5571",
        "population:date": "2012",
        "wikidata": "Q208098",
        "wikipedia": "kl:Sisimiut"
      }
    },
    {
      "type": "node",
      "id": 1913382877,
      "lat": 66.9394722,
      "lon": -53.6646562,
      "timestamp": "2019-03-16T11:56:19Z",
      "version": 3,
      "changeset": 68201036,
      "user": "b-jazz-bot",
      "uid": 9451067,
      "tags": {
        "name": "Pisiffik",
        "shop": "supermarket",
        "website": "https://www.pisiffik.gl/?page_id=482"
      }
    },
    {
      "type": "node",
      "id": 1913382879,
      "lat": 66.940051,
      "lon": -53.6498431,
      "timestamp": "2014-10-13T08:41:22Z",
      "version": 5,
      "changeset": 26042687,
      "user": "Michael Ørnsholt",
      "uid": 1711618,
      "tags": {
        "name": "Brugseni",
        "shop": "supermarket"
      }
    },
    {
      "type": "node",
      "id": 1914301690,
      "lat": 66.9393747,
      "lon": -53.6628295,
      "timestamp": "2018-12-22T13:16:41Z",
      "version": 2,
      "changeset": 65693325,
      "user": "Henrik PS",
      "uid": 413282,
      "tags": {
        "name": "Brugseneeraq Centrum",
        "opening_hours": "Mo-Sa 08:00-24:00; Su 11:00-24:00",
        "shop": "convenience"
      }
    },
    {
      "type": "node",
      "id": 1915143911,
      "lat": 66.9337121,
      "lon": -53.6799214,
      "timestamp": "2012-09-15T10:15:01Z",
      "version": 1,
      "changeset": 13115948,
      "user": "sendelbach",
      "uid": 375542,
      "tags": {
        "name": "Spar Qiviarfik",
        "shop": "supermarket"
      }
    },
    {
      "type": "node",
      "id": 6572275788,
      "lat": 66.9420703,
      "lon": -53.6092046,
      "timestamp": "2019-06-26T10:55:23Z",
      "version": 1,
      "changeset": 71632029,
      "user": "Willem Steeman",
      "uid": 4206560,
      "tags": {
        "tourism": "camp_site"
      }
    },
    {
      "type": "node",
      "id": 7173332250,
      "lat": 66.9164743,
      "lon": -53.4780609,
      "timestamp": "2020-01-30T21:54:10Z",
      "version": 1,
      "changeset": 80338782,
      "user": "Reboot01",
      "uid": 9856191,
      "tags": {
        "name": "Assaqutag",
        "tourism": "camp_site"
      }
    },
    {
      "type": "node",
      "id": 7323657411,
      "lat": 66.9170127,
      "lon": -53.5166704,
      "timestamp": "2020-12-02T18:33:57Z",
      "version": 2,
      "changeset": 95172519,
      "user": "joserrg12",
      "uid": 1104904,
      "tags": {
        "abandoned": "yes",
        "alt_name": "Killinnguat",
        "is_in:municipality": "Qeqqata Kommunia",
        "name": "Killinnguit",
        "place": "hamlet"
      }
    },
    {
      "type": "way",
      "id": 180932729,
      "timestamp": "2018-12-22T13:16:43Z",
      "version": 4,
      "changeset": 65693325,
      "user": "Henrik PS",
      "uid": 413282,
      "center": {
        "lat": 66.9334839,
        "lon": -53.6576532
      },
      "nodes": [],
      "tags": {
        "addr:city": "Sisimiut",
        "addr:housenumber": "1",
        "addr:postcode": "3911",
        "addr:street": "Bolethep Aqquserna",
        "building": "yes",
        "name": "Brugseneeraq Kussangasoq",
        "opening_hours": "Mo-Su 07:00-23:00",
        "shop": "supermarket"
      }
    },
    {
      "type": "way",
      "id": 180978034,
      "timestamp": "2018-12-23T21:53:29Z",
      "version": 2,
      "changeset": 65725349,
      "user": "Henrik PS",
      "uid": 413282,
      "center": {
        "lat": 66.940009,
        "lon": -53.6481279
      },
      "nodes": [],
      "tags": {
        "building": "yes",
        "name": "SparQuick",
        "opening_hours": "Mo-Su 07:00-24:00",
        "shop": "convenience"
      }
    },
    {
      "type": "way",
      "id": 180978036,
      "timestamp": "2018-12-22T13:16:42Z",
      "version": 7,
      "changeset": 65693325,
      "user": "Henrik PS",
      "uid": 413282,
      "center": {
        "lat": 66.9401536,
        "lon": -53.6499039
      },
      "nodes": [],
      "tags": {
        "addr:city": "Sisimiut",
        "addr:housenumber": "52",
        "addr:postcode": "3911",
        "addr:street": "Aqqusinersuaq",
        "branch": "Sisimiut",
        "building": "yes",
        "fixme": "rough new outline",
        "name": "Brugseni",
        "name:da": "Brugsen",
        "opening_hours": "Mo-Sa 07:00-21:00",
        "shop": "supermarket"
      }
    },
    {
      "type": "way",
      "id": 181155671,
      "timestamp": "2012-09-17T20:56:52Z",
      "version": 2,
      "changeset": 13147848,
      "user": "sendelbach",
      "uid": 375542,
      "center": {
        "lat": 66.940887,
        "lon": -53.6191162
      },
      "nodes": [],
      "tags": {
        "tourism": "camp_site"
      }
    },
    {
      "type": "way",
      "id": 723846955,
      "timestamp": "2020-01-30T21:54:10Z",
      "version": 2,
      "changeset": 80338782,
      "user": "Reboot01",
      "uid": 9856191,
      "center": {
        "lat": 66.9161826,
        "lon": -53.4782821
      },
      "nodes": [],
      "tags": {
        "description": "Abandonded in 1969, now used as summer camp.",
        "start_date": "1906",
        "tourism": "camp_site",
        "wikipedia": "da:Assaqutaq"
      }
    }
  ]
}