{
  "osm3s": {
    "timestamp_osm_date": "2022-05-11T23:59:59Z",
    "timestamp_osm_base": "2022-05-12T07:14:11Z",
    "copyright": "The data included in this document is from www.openstreetmap.org. The data is made available under ODbL."
  },
  "elements": [
    {
      "type": "node",
      "id": 971934277,
      "lat": -46.58085,
      "lon": 168.2966,
      "timestamp": "2018-11-02T07:46:32Z",
      "version": 4,
      "changeset": 64103713,
      "user": "lcmortensen",
      "uid": 341519,
      "tags": {
        "name": "Greenpoint",
        "name:en": "Greenpoint",
        "name:ru": "Гринпойнт",
        "name:uk": "Грінпойнт",
        "place": "hamlet"
      }
    },
    {
      "type": "node",
      "id": 973972609,
      "lat": -46.90201,
      "lon": 168.12481,
      "timestamp": "2021-05-07T02:27:12Z",
      "version": 6,
      "changeset": 104281364,
      "user": "kylenz",
      "uid": 10140394,
      "tags": {
        "ele": "65",
        "name": "Observation Rock",
        "natural": "peak",
        "ref:linz:topo50_id": "2344876",
        "source": "LINZ & NZ Open GIS",
        "wikidata": "Q31648940"
      }
    },
    {
      "type": "node",
      "id": 973972626,
      "lat": -46.90201,
      "lon": 168.1358,
      "timestamp": "2021-05-07T02:27:12Z",
      "version": 6,
      "changeset": 104281364,
      "user": "kylenz",
      "uid": 10140394,
      "tags": {
        "ele": "65",
        "name": "Peterson Hill",
        "natural": "peak",
        "ref:linz:topo50_id": "2344877",
        "source": "LINZ & NZ Open GIS",
        "wikidata": "Q31648925"
      }
    },
    {
      "type": "node",
      "id": 973972628,
      "lat": -46.8979908,
      "lon": 168.1283778,
      "timestamp": "2020-03-04T21:22:59Z",
      "version": 11,
      "changeset": 81793200,
      "user": "StenSoft",
      "uid": 255936,
      "tags": {
        "alt_name": "Halfmoon Bay",
        "is_in": "Southland;New Zealand",
        "name": "Oban",
        "name:ckb": "ئۆبان",
        "name:en": "Oban",
        "name:etymology": "Oban, Scotland",
        "name:etymology:wikidata": "Q935702",
        "name:gd": "An t-Òban",
        "name:ja": "オーバン",
        "name:mi": "Pā nui o Hau",
        "name:mk": "Обан",
        "place": "village",
        "source": "LINZ & NZ Open GIS",
        "wikidata": "Q1718987",
        "wikipedia": "en:Oban, New Zealand"
      }
    },
    {
      "type": "node",
      "id": 974363520,
      "lat": -46.6014038,
      "lon": 168.3398682,
      "timestamp": "2020-10-06T08:52:48Z",
      "version": 11,
      "changeset": 92033798,
      "user": "lcmortensen",
      "uid": 341519,
      "tags": {
        "name": "Bluff",
        "name:ckb": "بڵوف",
        "name:en": "Bluff",
        "name:ja": "ブルーフ",
        "name:mi": "Te Kārehu-a-Tamatea",
        "name:mk": "Блаф",
        "place": "town",
        "population": "1840",
        "source:population": "Statistics NZ 2019",
        "wikidata": "Q152028",
        "wikipedia": "en:Bluff, New Zealand"
      }
    },
    {
      "type": "node",
      "id": 1121490041,
      "lat": -46.8570711,
      "lon": 168.0884775,
      "timestamp": "2021-05-03T08:50:30Z",
      "version": 3,
      "changeset": 104040034,
      "user": "kylenz",
      "uid": 10140394,
      "tags": {
        "amenity": "shelter",
        "building": "yes",
        "source": "LINZ"
      }
    },
    {
      "type": "node",
      "id": 1121491483,
      "lat": -46.8368621,
      "lon": 168.0836811,
      "timestamp": "2021-05-03T08:50:30Z",
      "version": 3,
      "changeset": 104040034,
      "user": "kylenz",
      "uid": 10140394,
      "tags": {
        "amenity": "shelter",
        "building": "yes",
        "source": "LINZ"
      }
    },
    {
      "type": "node",
      "id": 1121491770,
      "lat": -46.9546881,
      "lon": 168.0714466,
      "timestamp": "2022-02-07T06:15:11Z",
      "version": 5,
      "changeset": 117103394,
      "user": "kylenz_linz",
      "uid": 8389777,
      "tags": {
        "building": "yes",
        "drinking_water": "untreated",
        "fireplace": "yes",
        "mattress": "yes",
        "name": "Hapuatuna Hunters Hut",
        "operator": "Department of Conservation",
        "operator:wikidata": "Q1191417",
        "operator:wikipedia": "en:Department of Conservation (New Zealand)",
        "ref:doc": "100039936",
        "ref:linz:topo50_id": "5378796",
        "reservation": "required",
        "source": "LINZ",
        "toilets": "yes",
        "toilets:disposal": "pitlatrine",
        "tourism": "wilderness_hut",
        "website": "https://doc.govt.nz/link/54cfd70f1ac6492b9ef34ddc514bd30d"
      }
    },
    {
      "type": "node",
      "id": 1121492133,
      "lat": -46.974284,
      "lon": 168.1540967,
      "timestamp": "2022-02-07T06:15:11Z",
      "version": 6,
      "changeset": 117103394,
      "user": "kylenz_linz",
      "uid": 8389777,
      "tags": {
        "building": "yes",
        "drinking_water": "untreated",
        "fireplace": "no",
        "mattress": "no",
        "name": "Little Glory Hunters Hut",
        "operator": "Department of Conservation",
        "operator:wikidata": "Q1191417",
        "operator:wikipedia": "en:Department of Conservation (New Zealand)",
        "ref:doc": "100030937",
        "ref:linz:topo50_id": "5378845",
        "reservation": "required",
        "source": "LINZ",
        "toilets": "yes",
        "toilets:disposal": "pitlatrine",
        "tourism": "wilderness_hut",
        "website": "https://doc.govt.nz/link/dde6c7b58599476d89a8451b2850d266"
      }
    },
    {
      "type": "node",
      "id": 1121492170,
      "lat": -47.0178299,
      "lon": 168.2148246,
      "timestamp": "2022-02-08T09:23:25Z",
      "version": 6,
      "changeset": 117151414,
      "user": "kylenz_linz",
      "uid": 8389777,
      "tags": {
        "building": "yes",
        "name": "Chew Tobacco Hunters Hut",
        "ref:doc": "100057328",
        "ref:linz:topo50_id": "5378700",
        "tourism": "wilderness_hut"
      }
    },
    {
      "type": "node",
      "id": 1121492193,
      "lat": -46.9591043,
      "lon": 168.1257871,
      "timestamp": "2022-02-07T06:15:11Z",
      "version": 6,
      "changeset": 117103394,
      "user": "kylenz_linz",
      "uid": 8389777,
      "tags": {
        "building": "yes",
        "drinking_water": "untreated",
        "fireplace": "yes",
        "mattress": "yes",
        "name": "North Big Glory Hunters Hut",
        "operator": "Department of Conservation",
        "operator:wikidata": "Q1191417",
        "operator:wikipedia": "en:Department of Conservation (New Zealand)",
        "ref:doc": "100040564",
        "ref:linz:topo50_id": "5378848",
        "reservation": "required",
        "source": "LINZ",
        "toilets": "yes",
        "toilets:disposal": "pitlatrine",
        "tourism": "wilderness_hut",
        "website": "https://doc.govt.nz/link/1cd8572aa21a416b92c9320fb237277b"
      }
    },
    {
      "type": "node",
      "id": 1121492551,
      "lat": -46.9161987,
      "lon": 168.0544156,
      "timestamp": "2021-05-03T08:50:30Z",
      "version": 2,
      "changeset": 104040034,
      "user": "kylenz",
      "uid": 10140394,
      "tags": {
        "amenity": "shelter",
        "building": "yes",
        "source": "LINZ"
      }
    },
    {
      "type": "node",
      "id": 1225187854,
      "lat": -46.9161987,
      "lon": 168.0544156,
      "timestamp": "2021-05-03T08:01:56Z",
      "version": 2,
      "changeset": 104036538,
      "user": "kylenz",
      "uid": 10140394,
      "tags": {
        "amenity": "shelter",
        "name": "Shelter",
        "source": "LINZ"
      }
    },
    {
      "type": "node",
      "id": 1785454563,
      "lat": -46.8367333,
      "lon": 168.0839714,
      "timestamp": "2022-02-07T07:25:52Z",
      "version": 3,
      "changeset": 117105428,
      "user": "kylenz_linz",
      "uid": 8389777,
      "tags": {
        "capacity:caravans": "0",
        "capacity:tents": "4",
        "caravans": "no",
        "description": "This is a basic Great Walk campsite on Stewart Island/Rakiura. It is on a grassy area with Magnetic Beach directly in front of it. It is protected from the prevailing westerly winds by forest.",
        "dog": "no",
        "drinking_water": "untreated",
        "name": "Port William Campsite",
        "openfire": "no",
        "operator": "Department of Conservation",
        "operator:wikidata": "Q1191417",
        "operator:wikipedia": "en:Department of Conservation (New Zealand)",
        "ref:doc": "100065045",
        "reservation": "required",
        "tents": "yes",
        "toilets": "yes",
        "toilets:disposal": "pitlatrine",
        "tourism": "camp_site",
        "website": "https://doc.govt.nz/link/69943f712b48470da50951fb8983676d"
      }
    },
    {
      "type": "node",
      "id": 3461334988,
      "lat": -46.5996003,
      "lon": 168.3451982,
      "timestamp": "2022-03-22T07:06:49Z",
      "version": 4,
      "changeset": 118764491,
      "user": "kylenz",
      "uid": 10140394,
      "tags": {
        "addr:street": "Gore Street",
        "brand": "Four Square",
        "brand:wikidata": "Q5475558",
        "brand:wikipedia": "en:Four Square (supermarket)",
        "name": "Four Square",
        "opening_hours": "Mo-Fr 07:00-19:00; Sa-Su 08:00-19:00",
        "shop": "supermarket"
      }
    },
    {
      "type": "node",
      "id": 3877596882,
      "lat": -46.8570425,
      "lon": 168.0881942,
      "timestamp": "2022-02-07T07:25:52Z",
      "version": 3,
      "changeset": 117105428,
      "user": "kylenz_linz",
      "uid": 8389777,
      "tags": {
        "capacity:caravans": "0",
        "capacity:tents": "4",
        "description": "This is a basic Great Walk campsite on Stewart Island/Rakiura. Situated in a grassy clearing with sand dunes and the beach in front of it.",
        "dog": "no",
        "drinking_water": "untreated",
        "name": "Māori Beach Campsite",
        "operator": "Department of Conservation",
        "operator:wikidata": "Q1191417",
        "operator:wikipedia": "en:Department of Conservation (New Zealand)",
        "ref:doc": "100042533",
        "reservation": "required",
        "toilets": "yes",
        "toilets:disposal": "pitlatrine",
        "tourism": "camp_site",
        "website": "https://doc.govt.nz/link/61f41ead117b4a21b52a4af19e7e4135"
      }
    },
    {
      "type": "node",
      "id": 5251326123,
      "lat": -46.8995977,
      "lon": 168.1264412,
      "timestamp": "2019-04-25T14:21:12Z",
      "version": 2,
      "changeset": 69567226,
      "user": "claudia10",
      "uid": 557496,
      "tags": {
        "name": "Stewart Island Backpackers",
        "tents": "only",
        "tourism": "camp_site",
        "website": "https://www.stewartislandbackpackers.co.nz/tents/"
      }
    },
    {
      "type": "node",
      "id": 5625874375,
      "lat": -46.5978884,
      "lon": 168.3323908,
      "timestamp": "2021-03-10T01:23:13Z",
      "version": 4,
      "changeset": 100739032,
      "user": "kylenz",
      "uid": 10140394,
      "tags": {
        "addr:city": "Bluff",
        "addr:housenumber": "268",
        "addr:street": "Gore Street",
        "addr:suburb": "Bluff",
        "description": "Foveaux Dairy - Dairy that sells a range of hot food / takeaways, as well as ice-cream, milkshakes and a range of other food/products",
        "name": "Foveaux Dairy",
        "ref:linz:address_id": "87717",
        "shop": "convenience"
      }
    },
    {
      "type": "node",
      "id": 6439938887,
      "lat": -46.6010149,
      "lon": 168.3484059,
      "timestamp": "2019-05-01T01:28:30Z",
      "version": 1,
      "changeset": 69755387,
      "user": "Adr1en",
      "uid": 3366289,
      "tags": {
        "addr:street": "Gore Street",
        "name": "White Tops Dairy",
        "shop": "convenience"
      }
    },
    {
      "type": "node",
      "id": 7173766685,
      "lat": -46.8930051,
      "lon": 168.1079673,
      "timestamp": "2020-01-31T00:35:13Z",
      "version": 1,
      "changeset": 80341508,
      "user": "Martin Lawrence",
      "uid": 5143766,
      "tags": {
        "name": "Allan's Base Camp",
        "opening_hours": "24/7",
        "tourism": "camp_site"
      }
    },
    {
      "type": "way",
      "id": 228365510,
      "timestamp": "2021-10-09T06:18:47Z",
      "version": 5,
      "changeset": 112289495,
      "user": "kylenz",
      "uid": 10140394,
      "center": {
        "lat": -46.8975176,
        "lon": 168.1281882
      },
      "nodes": [],
      "tags": {
        "addr:city": "Stewart Island",
        "addr:housenumber": "20",
        "addr:postcode": "9818",
        "addr:street": "Elgin Terrace",
        "addr:suburb": "Halfmoon Bay",
        "brand": "Four Square",
        "brand:wikidata": "Q5475558",
        "brand:wikipedia": "en:Four Square (supermarket)",
        "building": "yes",
        "building:levels": "1",
        "name": "Four Square",
        "opening_hours": "07:30-19:00",
        "phone": "+64 3 219 1069",
        "ref:linz:address_id": "82896",
        "shop": "supermarket"
      }
    },
    {
      "type": "way",
      "id": 381455392,
      "timestamp": "2020-04-05T01:26:09Z",
      "version": 3,
      "changeset": 83086328,
      "user": "Sarvihepo",
      "uid": 2057798,
      "center": {
        "lat": -46.604009,
        "lon": 168.3506762
      },
      "nodes": [],
      "tags": {
        "addr:city": "Bluff",
        "addr:housenumber": "21",
        "addr:street": "Gregory Street",
        "email": "procter01@xtra.co.nz",
        "name": "The Bluff Camping Ground",
        "phone": "+64276262018",
        "sanitary_dump_station": "yes",
        "tourism": "camp_site",
        "website": "https://www.bluffcampingground.co.nz"
      }
    },
    {
      "type": "way",
      "id": 520870899,
      "timestamp": "2022-02-07T06:15:11Z",
      "version": 5,
      "changeset": 117103394,
      "user": "kylenz_linz",
      "uid": 8389777,
      "center": {
        "lat": -46.8357392,
        "lon": 168.0870715
      },
      "nodes": [],
      "tags": {
        "building": "yes",
        "building:levels": "1",
        "drinking_water": "untreated",
        "fireplace": "yes",
        "mattress": "yes",
        "name": "Port William Hut",
        "operator": "Department of Conservation",
        "operator:wikidata": "Q1191417",
        "operator:wikipedia": "en:Department of Conservation (New Zealand)",
        "ref:doc": "100055526",
        "ref:linz:topo50_id": "5378956",
        "reservation": "required",
        "toilets": "yes",
        "toilets:disposal": "pitlatrine",
        "tourism": "wilderness_hut",
        "website": "https://doc.govt.nz/link/ccadff28ba044ee6a4066c6b8b8dacd9"
      }
    },
    {
      "type": "way",
      "id": 978404641,
      "timestamp": "2021-09-01T11:51:26Z",
      "version": 1,
      "changeset": 110563311,
      "user": "petenz",
      "uid": 38928,
      "center": {
        "lat": -46.9270892,
        "lon": 168.1318252
      },
      "nodes": [],
      "tags": {
        "amenity": "shelter",
        "building": "yes"
      }
    }
  ]
}