{
  "osm3s": {
    "timestamp_osm_date": "2022-04-02T23:59:59Z",
    "timestamp_osm_base": "2022-04-03T06:13:25Z",
    "copyright": "The data included in this document is from www.openstreetmap.org. The data is made available under ODbL."
  },
  "elements": [
    {
      "type": "node",
      "id": 275585094,
      "lat": 31.2612199,
      "lon": 35.214581,
      "timestamp": "2022-03-04T00:31:30Z",
      "version": 23,
      "changeset": 118074690,
      "user": "Jacksonville",
      "uid": 12732985,
      "tags": {
        "ele": "528",
        "gns_ref": "-779238",
        "name": "ערד",
        "name:ar": "عراد",
        "name:cs": "Arad",
        "name:de": "Arad",
        "name:en": "Arad",
        "name:es": "Arad",
        "name:fr": "Arad",
        "name:he": "ערד",
        "name:ml": "അറാദ്",
        "name:ru": "Арад",
        "name:ur": "عراد",
        "note": "Clearly one of \"the largest settlements within a territory\", as defined by the OSM wiki https://wiki.openstreetmap.org/wiki/Tag:place%3Dcity Please keep its place=city tag",
        "place": "city",
        "population": "26765",
        "source": "GEOnet Names Server (gns);https://www.cbs.gov.il/he/publications/doclib/2017/population_madaf/population_madaf_2019_1.xlsx",
        "start_date": "1962",
        "website": "https://www.arad.muni.il/",
        "wikidata": "Q152473",
        "wikipedia": "en:Arad, Israel",
        "wikipedia:he": "ערד"
      }
    },
    {
      "type": "node",
      "id": 278470158,
      "lat": 31.0845273,
      "lon": 35.3571842,
      "timestamp": "2020-02-05T08:49:37Z",
      "version": 9,
      "changeset": 80576745,
      "user": "Sanniu",
      "uid": 1206509,
      "tags": {
        "access": "no",
        "accuracy": "minutes",
        "gns_ref": "48042",
        "name": "מערת הקמח",
        "name:en": "Mearat HaKemah",
        "name:he": "מערת הקמח",
        "natural": "cave_entrance",
        "source": "GEOnet Names Server (gns)"
      }
    },
    {
      "type": "node",
      "id": 278470177,
      "lat": 31.1672788,
      "lon": 35.2590758,
      "timestamp": "2020-04-28T20:32:41Z",
      "version": 7,
      "changeset": 84290297,
      "user": "Edward",
      "uid": 364,
      "tags": {
        "accuracy": "minutes",
        "ele": "279",
        "gns_ref": "48439",
        "name": "הר חתר",
        "name:en": "Mt. Heter",
        "name:he": "הר חתר",
        "natural": "peak",
        "source": "GEOnet Names Server (gns)",
        "wikidata": "Q26764133"
      }
    },
    {
      "type": "node",
      "id": 278470191,
      "lat": 31.3298624,
      "lon": 35.2139666,
      "timestamp": "2020-04-28T20:30:15Z",
      "version": 7,
      "changeset": 84290189,
      "user": "Edward",
      "uid": 364,
      "tags": {
        "accuracy": "minutes",
        "ele": "594",
        "gns_ref": "-781842",
        "name": "הר צאלים",
        "name:en": "Har Ze'elim",
        "name:en1": "Rujm Kharazmiya",
        "name:en2": "Har Tseelim",
        "name:he": "הר צאלים",
        "natural": "peak",
        "source": "GEOnet Names Server (gns)",
        "wikidata": "Q26762153"
      }
    },
    {
      "type": "node",
      "id": 278471095,
      "lat": 30.8716604,
      "lon": 35.2711094,
      "timestamp": "2016-10-22T10:24:51Z",
      "version": 5,
      "changeset": 43078013,
      "user": "homebuilt",
      "uid": 4642201,
      "tags": {
        "accuracy": "minutes",
        "gns_ref": "-780941",
        "name": "עין עופרים",
        "name:en": "Ein Ofarim",
        "name:en1": "`En Abu Ghuzeilat",
        "name:en2": "Ofarim",
        "name:en3": "`En `Ofarimo",
        "name:he": "עין עופרים",
        "natural": "spring",
        "source": "GEOnet Names Server (gns)"
      }
    },
    {
      "type": "node",
      "id": 278471690,
      "lat": 30.7982828,
      "lon": 35.2463979,
      "timestamp": "2021-03-22T19:01:56Z",
      "version": 15,
      "changeset": 101524452,
      "user": "Vejoson",
      "uid": 11422772,
      "tags": {
        "gns_ref": "-780098",
        "int_name": "Ein Khatseva",
        "name": "עין חצבה",
        "name:cs": "Ejn Chaceva",
        "name:en": "Ein Hatseva",
        "name:en1": "`En Hazeva",
        "name:en2": "Hasiba",
        "name:en3": "Hatseva",
        "name:fr": "Ein Hatzeva",
        "name:he": "עין חצבה",
        "place": "village",
        "source": "GEOnet Names Server (gns)",
        "wikidata": "Q2920037"
      }
    },
    {
      "type": "node",
      "id": 278472530,
      "lat": 31.0439861,
      "lon": 35.1909355,
      "timestamp": "2020-04-28T20:32:35Z",
      "version": 4,
      "changeset": 84290297,
      "user": "Edward",
      "uid": 364,
      "tags": {
        "accuracy": "minutes",
        "ele": "461",
        "gns_ref": "-781807",
        "name": "גבעת צפית",
        "name:en": "Giv`at Zafit",
        "name:en1": "Rujm el Marqab",
        "name:en2": "Har Tsafit",
        "name:he": "גבעת צפית",
        "natural": "peak",
        "source": "GEOnet Names Server (gns)",
        "wikidata": "Q26762142"
      }
    },
    {
      "type": "node",
      "id": 278472588,
      "lat": 31.199982,
      "lon": 35.3096768,
      "timestamp": "2020-04-28T20:32:41Z",
      "version": 8,
      "changeset": 84290297,
      "user": "Edward",
      "uid": 364,
      "tags": {
        "accuracy": "minutes",
        "ele": "235",
        "gns_ref": "48582",
        "name": "גבעת שעט",
        "name:en": "Giv'at Shaat",
        "name:he": "גבעת שעט",
        "natural": "peak",
        "source": "GEOnet Names Server (gns)",
        "wikidata": "Q26764126"
      }
    },
    {
      "type": "node",
      "id": 278472674,
      "lat": 30.81259,
      "lon": 35.1994215,
      "timestamp": "2020-12-24T14:23:18Z",
      "version": 7,
      "changeset": 96391606,
      "user": "pizzaiolo",
      "uid": 1772368,
      "tags": {
        "accuracy": "minutes",
        "gns_ref": "-781512",
        "name": "עין תמיד",
        "name:en": "Ein Tamid",
        "name:he": "עין תמיד",
        "natural": "spring",
        "source": "GEOnet Names Server (gns)",
        "wikidata": "Q26762504"
      }
    },
    {
      "type": "node",
      "id": 278473301,
      "lat": 31.2013827,
      "lon": 35.3638836,
      "timestamp": "2021-03-22T19:01:56Z",
      "version": 11,
      "changeset": 101524452,
      "user": "Vejoson",
      "uid": 11422772,
      "tags": {
        "accuracy": "minutes",
        "gns_ref": "-779680",
        "name": "עין בוקק",
        "name:cs": "Ejn Bokek",
        "name:en": "Ein Bokek",
        "name:en1": "En Boqeq",
        "name:en2": "En Bokek",
        "name:fr": "Ein Bokek",
        "name:he": "עין בוקק",
        "place": "village",
        "source": "GEOnet Names Server (gns)",
        "wikidata": "Q679158"
      }
    },
    {
      "type": "node",
      "id": 278473691,
      "lat": 30.800012,
      "lon": 35.2500204,
      "timestamp": "2016-10-22T10:24:49Z",
      "version": 4,
      "changeset": 43078013,
      "user": "homebuilt",
      "uid": 4642201,
      "tags": {
        "accuracy": "minutes",
        "gns_ref": "-780100",
        "name": "עין חצבה",
        "name:en": "Ein Hazeva",
        "name:en1": "`Ayn Hasab",
        "name:en2": "`En Hasb",
        "name:en3": "`En Hatseva",
        "name:en4": "Hosb",
        "name:en5": "Hosob",
        "name:en6": "Husab",
        "name:he": "עין חצבה",
        "natural": "spring",
        "source": "GEOnet Names Server (gns)"
      }
    },
    {
      "type": "node",
      "id": 278473747,
      "lat": 31.2025013,
      "lon": 35.356308,
      "timestamp": "2020-12-24T14:23:51Z",
      "version": 9,
      "changeset": 96391606,
      "user": "pizzaiolo",
      "uid": 1772368,
      "tags": {
        "accuracy": "minutes",
        "description": "מי תהום גבוהים שמאפשרים קיום צמחיית מים. בעבר הייתה ממש נביעה שהוזרמה לבית מרחץ.",
        "description:he": "מי תהום גבוהים שמאפשרים קיום צמחיית מים. בעבר הייתה ממש נביעה שהוזרמה לבית מרחץ.",
        "gns_ref": "48556",
        "name": "עין נואית",
        "name:en": "Ein Noit",
        "name:he": "עין נואית",
        "natural": "spring",
        "source": "GEOnet Names Server (gns)",
        "wikidata": "Q26764127"
      }
    },
    {
      "type": "node",
      "id": 278474076,
      "lat": 31.2423766,
      "lon": 35.2787236,
      "timestamp": "2020-04-28T20:30:14Z",
      "version": 8,
      "changeset": 84290189,
      "user": "Edward",
      "uid": 364,
      "tags": {
        "accuracy": "minutes",
        "ele": "382",
        "gns_ref": "-781731",
        "name": "הר יעלים",
        "name:en": "Har Yeelim",
        "name:he": "הר יעלים",
        "natural": "peak",
        "source": "GEOnet Names Server (gns);Bing",
        "wikidata": "Q26762110"
      }
    },
    {
      "type": "node",
      "id": 278474104,
      "lat": 30.9330032,
      "lon": 35.3772356,
      "timestamp": "2021-03-25T00:19:52Z",
      "version": 9,
      "changeset": 101679007,
      "user": "Vejoson",
      "uid": 11422772,
      "tags": {
        "accuracy": "minutes",
        "gns_ref": "-780844",
        "image": "https://upload.wikimedia.org/wikipedia/commons/e/ed/Neothakikar5916.JPG",
        "name": "נאות הכיכר",
        "name:cs": "Ne'ot ha-Kikar",
        "name:en": "Neot HaKikar",
        "name:fr": "Neot HaKikar",
        "name:he": "נאות הכיכר",
        "place": "village",
        "source": "GEOnet Names Server (gns)",
        "wikidata": "Q2975326",
        "wikipedia": "he:נאות הכיכר",
        "wikipedia:en": "Neot HaKikar",
        "wikipedia:he": "נאות הכיכר"
      }
    },
    {
      "type": "node",
      "id": 278474173,
      "lat": 31.1982021,
      "lon": 35.351387,
      "timestamp": "2021-09-02T15:01:04Z",
      "version": 13,
      "changeset": 110625424,
      "user": "hatul",
      "uid": 686490,
      "tags": {
        "accuracy": "minutes",
        "description": "מסלול קל ונחמד מתאים למשפחות",
        "description:he": "מסלול קל ונחמד מתאים למשפחות",
        "gns_ref": "-779508",
        "image": "https://upload.wikimedia.org/wikipedia/commons/7/7d/IHM_עין_בוקק.jpeg",
        "image1": "https://upload.wikimedia.org/wikipedia/commons/c/c9/Israel_Hiking_Map_%D7%A2%D7%99%D7%9F_%D7%91%D7%95%D7%A7%D7%A7.jpeg",
        "name": "עין בוקק",
        "name:en": "Ein Bokek",
        "name:he": "עין בוקק",
        "natural": "spring",
        "source": "GEOnet Names Server (gns)",
        "website": "http://nelech.co.il/2020/03/29/%D7%A2%D7%99%D7%9F-%D7%91%D7%95%D7%A7%D7%A7-%D7%95%D7%A0%D7%97%D7%9C-%D7%91%D7%95%D7%A7%D7%A7/",
        "wikidata": "Q26764012"
      }
    },
    {
      "type": "node",
      "id": 278474652,
      "lat": 30.9855528,
      "lon": 35.3516615,
      "timestamp": "2021-12-26T17:46:53Z",
      "version": 8,
      "changeset": 115394475,
      "user": "עמוס שני",
      "uid": 5245100,
      "tags": {
        "accuracy": "minutes",
        "description": "עין תמר",
        "description:he": "עין תמר",
        "gns_ref": "-781510",
        "name": "עין תמר",
        "name:en": "Ein Tamar",
        "name:en1": "En Arus",
        "name:en2": "En Tamar",
        "name:he": "עין תמר",
        "natural": "spring",
        "source": "GEOnet Names Server (gns)",
        "wikidata": "Q26762502"
      }
    },
    {
      "type": "node",
      "id": 278474779,
      "lat": 31.1111046,
      "lon": 35.3888863,
      "timestamp": "2015-09-01T18:15:20Z",
      "version": 5,
      "changeset": 33734977,
      "user": "sivan00",
      "uid": 2045570,
      "tags": {
        "accuracy": "minutes",
        "gns_ref": "48095",
        "name": "עין שידים",
        "name:en": "Ein Shiddim",
        "name:he": "עין שידים",
        "natural": "spring",
        "source": "GEOnet Names Server (gns)"
      }
    },
    {
      "type": "node",
      "id": 278475743,
      "lat": 31.2886552,
      "lon": 35.3230402,
      "timestamp": "2020-04-28T20:32:34Z",
      "version": 7,
      "changeset": 84290297,
      "user": "Edward",
      "uid": 364,
      "tags": {
        "gns_ref": "-781786",
        "name": "הר יונתן",
        "name:en": "Mt. Yonatan",
        "name:en1": "Jebel Ruheimat Zeid",
        "name:he": "הר יונתן",
        "natural": "peak",
        "source": "GEOnet Names Server (gns);NASA SRTM",
        "wikidata": "Q26762130"
      }
    },
    {
      "type": "node",
      "id": 278476413,
      "lat": 31.0861381,
      "lon": 35.3945518,
      "timestamp": "2020-04-28T21:18:42Z",
      "version": 8,
      "changeset": 84292040,
      "user": "Edward",
      "uid": 364,
      "tags": {
        "accuracy": "minutes",
        "gns_ref": "48054",
        "name": "מערת סדום",
        "name:ar": "مغارة سدوم",
        "name:en": "Mearat Sedom",
        "name:en1": "Sdom cave",
        "name:he": "מערת סדום",
        "name:ru": "Содомская пещера",
        "natural": "cave_entrance",
        "source": "GEOnet Names Server (gns)",
        "wikidata": "Q26764139"
      }
    },
    {
      "type": "node",
      "id": 278476481,
      "lat": 31.1152712,
      "lon": 35.3888863,
      "timestamp": "2020-12-24T14:23:51Z",
      "version": 6,
      "changeset": 96391606,
      "user": "pizzaiolo",
      "uid": 1772368,
      "tags": {
        "accuracy": "minutes",
        "gns_ref": "48111",
        "name": "עין אשלג",
        "name:en": "Ein Ashlag",
        "name:en1": "`En Ashlag",
        "name:he": "עין אשלג",
        "natural": "spring",
        "source": "GEOnet Names Server (gns)",
        "wikidata": "Q26764137"
      }
    },
    {
      "type": "node",
      "id": 278476956,
      "lat": 31.3273201,
      "lon": 35.3207046,
      "timestamp": "2020-04-28T20:30:33Z",
      "version": 5,
      "changeset": 84290189,
      "user": "Edward",
      "uid": 364,
      "tags": {
        "accuracy": "minutes",
        "ele": "384",
        "gns_ref": "-779393",
        "name": "הר בן יאיר",
        "name:en": "Har Ben Yair",
        "name:en1": "Jebel el Qita`a",
        "name:he": "הר בן יאיר",
        "natural": "peak",
        "source": "GEOnet Names Server (gns)",
        "wikidata": "Q26763996"
      }
    },
    {
      "type": "node",
      "id": 278477007,
      "lat": 31.0527761,
      "lon": 35.359721,
      "timestamp": "2020-12-24T14:23:33Z",
      "version": 6,
      "changeset": 96391606,
      "user": "pizzaiolo",
      "uid": 1772368,
      "tags": {
        "accuracy": "minutes",
        "gns_ref": "-780001",
        "name": "עין חמרמר",
        "name:en": "Ein Hamarmar",
        "name:en1": "`En Aheimir",
        "name:he": "עין חמרמר",
        "natural": "spring",
        "source": "GEOnet Names Server (gns)",
        "wikidata": "Q26763732"
      }
    },
    {
      "type": "node",
      "id": 278477297,
      "lat": 31.0597261,
      "lon": 35.2922487,
      "timestamp": "2020-12-24T14:23:33Z",
      "version": 5,
      "changeset": 96391606,
      "user": "pizzaiolo",
      "uid": 1772368,
      "tags": {
        "accuracy": "minutes",
        "gns_ref": "-780002",
        "name": "הר חמרמר",
        "name:en": "Mt. Hamarmar",
        "name:en1": "Jebel Heimr",
        "name:he": "הר חמרמר",
        "natural": "peak",
        "source": "GEOnet Names Server (gns)",
        "wikidata": "Q26763733"
      }
    },
    {
      "type": "node",
      "id": 278477313,
      "lat": 31.0502089,
      "lon": 35.2426291,
      "timestamp": "2020-12-24T14:23:12Z",
      "version": 8,
      "changeset": 96391606,
      "user": "pizzaiolo",
      "uid": 1772368,
      "tags": {
        "accuracy": "minutes",
        "ele": "468",
        "gns_ref": "-781869",
        "name": "הר צבאים",
        "name:en": "Mt. Tzvaim",
        "name:en1": "Har Peraqraq",
        "name:en2": "Jebel Um Gattar",
        "name:en3": "Ras Umm Ghada",
        "name:en4": "Ras Umm Gheda",
        "name:he": "הר צבאים",
        "natural": "peak",
        "wikidata": "Q26762161"
      }
    },
    {
      "type": "node",
      "id": 278477342,
      "lat": 31.0166657,
      "lon": 35.3499964,
      "timestamp": "2016-10-22T10:24:55Z",
      "version": 5,
      "changeset": 43078013,
      "user": "homebuilt",
      "uid": 4642201,
      "tags": {
        "accuracy": "minutes",
        "gns_ref": "-779144",
        "name": "עין אדמון",
        "name:en": "Ein Admon",
        "name:en1": "`En Hamra",
        "name:he": "עין אדמון",
        "natural": "spring",
        "source": "GEOnet Names Server (gns)"
      }
    },
    {
      "type": "node",
      "id": 278477428,
      "lat": 30.8847985,
      "lon": 35.2732509,
      "timestamp": "2020-12-24T14:23:52Z",
      "version": 7,
      "changeset": 96391606,
      "user": "pizzaiolo",
      "uid": 1772368,
      "tags": {
        "accuracy": "minutes",
        "gns_ref": "-779190",
        "name": "עין אמציהו",
        "name:en": "Ein Amazyahu",
        "name:en1": "`En Amatsyahu",
        "name:en2": "`Ayn al Qusayb",
        "name:en3": "`En el Quseib",
        "name:he": "עין אמציהו",
        "natural": "spring",
        "source": "GEOnet Names Server (gns)",
        "wikidata": "Q26764164"
      }
    },
    {
      "type": "node",
      "id": 278477627,
      "lat": 31.1529016,
      "lon": 35.365301,
      "timestamp": "2021-03-25T00:19:52Z",
      "version": 9,
      "changeset": 101679007,
      "user": "Vejoson",
      "uid": 11422772,
      "tags": {
        "accuracy": "minutes",
        "alt_name:en": "Newe Zohar;Neveh-Zohar;Neve-Zohar",
        "ele": "-376",
        "gns_ref": "-780890",
        "name": "נווה זוהר",
        "name:cs": "Neve Zohar",
        "name:en": "Neve Zohar",
        "name:fr": "Neve Zohar",
        "name:he": "נווה זוהר",
        "place": "village",
        "population": "60",
        "source": "GEOnet Names Server (gns)",
        "start_date": "1964",
        "website": "http://www.neve-zohar.co.il/",
        "wikidata": "Q2975481"
      }
    },
    {
      "type": "node",
      "id": 278477689,
      "lat": 30.798611,
      "lon": 35.186667,
      "timestamp": "2020-12-24T14:23:31Z",
      "version": 4,
      "changeset": 96391606,
      "user": "pizzaiolo",
      "uid": 1772368,
      "tags": {
        "accuracy": "minutes",
        "gns_ref": "-780601",
        "name": "עין משק",
        "name:en": "Ein Mashaq",
        "name:he": "עין משק",
        "natural": "spring",
        "source": "GEOnet Names Server (gns)",
        "wikidata": "Q26763560"
      }
    },
    {
      "type": "node",
      "id": 278477779,
      "lat": 30.9625,
      "lon": 35.360278,
      "timestamp": "2020-12-24T14:23:33Z",
      "version": 5,
      "changeset": 96391606,
      "user": "pizzaiolo",
      "uid": 1772368,
      "tags": {
        "accuracy": "minutes",
        "gns_ref": "-779990",
        "name": "עין הכיכר",
        "name:en": "Ein HaKikkar",
        "name:en1": "Ain Bada",
        "name:en2": "En Baida",
        "name:en3": "En el Beida",
        "name:en4": "En Hakikkar",
        "name:en5": "En Hakikar",
        "name:he": "עין הכיכר",
        "natural": "spring",
        "source": "GEOnet Names Server (gns)",
        "wikidata": "Q26763726"
      }
    },
    {
      "type": "node",
      "id": 278477936,
      "lat": 31.3475232,
      "lon": 35.1842994,
      "timestamp": "2020-04-28T20:30:16Z",
      "version": 4,
      "changeset": 84290189,
      "user": "Edward",
      "uid": 364,
      "tags": {
        "accuracy": "minutes",
        "ele": "638",
        "gns_ref": "-781518",
        "name": "הר תר",
        "name:en": "Har Tar",
        "name:he": "הר תר",
        "natural": "peak",
        "source": "GEOnet Names Server (gns)",
        "wikidata": "Q26762505"
      }
    },
    {
      "type": "node",
      "id": 278478319,
      "lat": 31.3017474,
      "lon": 35.2966221,
      "timestamp": "2021-08-29T09:15:32Z",
      "version": 11,
      "changeset": 110404403,
      "user": "hatul",
      "uid": 686490,
      "tags": {
        "accuracy": "minutes",
        "ele": "435",
        "gns_ref": "-781045",
        "name": "הר קנאים",
        "name:en": "Kannaim mountain",
        "name:en1": "Jebel el `Areima",
        "name:en2": "Har Haqanaim",
        "name:en3": "Har Haqannaim",
        "name:en4": "Har Qannu'im",
        "name:he": "הר קנאים",
        "natural": "peak",
        "source": "GEOnet Names Server (gns);NASA SRTM",
        "wikidata": "Q26762858",
        "wikimedia_commons": "File:IHM הר קנאים - כיפה דרומית.jpeg",
        "wikimedia_commons1": "File:IHM הר קנאים - כיפה דרומית 1.jpeg",
        "wikipedia": "he:הר קנאים",
        "wikipedia:he": "הר קנאים"
      }
    },
    {
      "type": "node",
      "id": 278478345,
      "lat": 31.1611542,
      "lon": 35.3539549,
      "timestamp": "2020-04-28T20:32:41Z",
      "version": 7,
      "changeset": 84290297,
      "user": "Edward",
      "uid": 364,
      "tags": {
        "accuracy": "minutes",
        "ele": "-98",
        "gns_ref": "48523",
        "name": "הר יזרח",
        "name:en": "Mt. Yizrah",
        "name:he": "הר יזרח",
        "natural": "peak",
        "source": "GEOnet Names Server (gns); NASA SRTM",
        "wikidata": "Q26764129"
      }
    },
    {
      "type": "node",
      "id": 278478380,
      "lat": 31.0197338,
      "lon": 35.2994478,
      "timestamp": "2020-12-24T14:23:14Z",
      "version": 6,
      "changeset": 96391606,
      "user": "pizzaiolo",
      "uid": 1772368,
      "tags": {
        "accuracy": "minutes",
        "ele": "117",
        "gns_ref": "-781928",
        "name": "הר צורים",
        "name:en": "Mt. Zurim",
        "name:en1": "Jebel Buweib",
        "name:en2": "Har Tsurim",
        "name:he": "הר צורים",
        "natural": "peak",
        "source": "GEOnet Names Server (gns)",
        "wikidata": "Q26762190"
      }
    },
    {
      "type": "node",
      "id": 278478412,
      "lat": 31.006259,
      "lon": 35.1936393,
      "timestamp": "2021-05-16T02:31:19Z",
      "version": 6,
      "changeset": 104753188,
      "user": "pizzaiolo",
      "uid": 1772368,
      "tags": {
        "gns_ref": "-780094",
        "name": "הר חצרה",
        "name:en": "Mt. Hazera",
        "name:en1": "Jebel el Hadhira",
        "name:en2": "Har Hatsera",
        "name:he": "הר חצרה",
        "natural": "peak",
        "source": "GEOnet Names Server (gns)",
        "wikidata": "Q26763769"
      }
    },
    {
      "type": "node",
      "id": 278478454,
      "lat": 31.313504,
      "lon": 35.1950166,
      "timestamp": "2020-04-28T20:30:32Z",
      "version": 7,
      "changeset": 84290189,
      "user": "Edward",
      "uid": 364,
      "tags": {
        "accuracy": "minutes",
        "ele": "594",
        "gns_ref": "-779837",
        "name": "הר גבנונים",
        "name:en": "Mt. Gavnunim",
        "name:he": "הר גבנונים",
        "natural": "peak",
        "source": "GEOnet Names Server (gns)",
        "wikidata": "Q26763969"
      }
    },
    {
      "type": "node",
      "id": 278478465,
      "lat": 30.807778,
      "lon": 35.195,
      "timestamp": "2018-01-05T19:46:32Z",
      "version": 9,
      "changeset": 55195693,
      "user": "SafwatHalaby_bot",
      "uid": 5816834,
      "tags": {
        "accuracy": "minutes",
        "fixme": "name, name:en mismatch. Flagged by SafwatHalaby_bot-nameCopy. name, name:en mismatch. Flagged by SafwatHalaby_bot-nameCopy",
        "gns_ref": "46127",
        "name": "Eiin al Ibweire",
        "name:en": "Ein al Ibweire",
        "natural": "spring",
        "source": "GEOnet Names Server (gns)"
      }
    },
    {
      "type": "node",
      "id": 278478485,
      "lat": 31.3401744,
      "lon": 35.1916164,
      "timestamp": "2020-04-28T20:30:28Z",
      "version": 4,
      "changeset": 84290189,
      "user": "Edward",
      "uid": 364,
      "tags": {
        "accuracy": "minutes",
        "ele": "627",
        "gns_ref": "-780040",
        "name": "הר חרדון",
        "name:en": "Har Hardon",
        "name:he": "הר חרדון",
        "natural": "peak",
        "source": "GEOnet Names Server (gns)",
        "wikidata": "Q26763751"
      }
    },
    {
      "type": "node",
      "id": 278478691,
      "lat": 31.2101406,
      "lon": 35.2832578,
      "timestamp": "2020-12-24T14:23:51Z",
      "version": 6,
      "changeset": 96391606,
      "user": "pizzaiolo",
      "uid": 1772368,
      "tags": {
        "accuracy": "minutes",
        "ele": "322",
        "gns_ref": "48587",
        "name": "הר פרסה",
        "name:en": "Mt. Parsa",
        "name:he": "הר פרסה",
        "natural": "peak",
        "source": "GEOnet Names Server (gns)",
        "wikidata": "Q26764125"
      }
    },
    {
      "type": "node",
      "id": 425777095,
      "lat": 31.0375777,
      "lon": 35.48881,
      "timestamp": "2020-05-20T22:21:28Z",
      "version": 5,
      "changeset": 85520332,
      "user": "S-M-R",
      "uid": 10914036,
      "tags": {
        "int_name": "Al Safi; Safi;Es-Safi",
        "name": "الصافي",
        "name:ar": "الصافي",
        "name:de": "Al Safi",
        "name:en": "Al Safi",
        "name:fr": "Al Safi",
        "place": "village"
      }
    },
    {
      "type": "node",
      "id": 499649375,
      "lat": 31.3120225,
      "lon": 35.3624607,
      "timestamp": "2009-09-18T00:27:44Z",
      "version": 1,
      "changeset": 2517988,
      "user": "he1ix",
      "uid": 7516,
      "tags": {
        "amenity": "drinking_water",
        "shop": "kiosk"
      }
    },
    {
      "type": "node",
      "id": 598664248,
      "lat": 30.8060345,
      "lon": 35.2994035,
      "timestamp": "2021-09-07T08:45:54Z",
      "version": 6,
      "changeset": 110843893,
      "user": "zstadler",
      "uid": 3127,
      "tags": {
        "name": "עידן",
        "name:en": "Idan",
        "name:fr": "Idan",
        "name:he": "עידן",
        "place": "village"
      }
    },
    {
      "type": "node",
      "id": 605993556,
      "lat": 30.943309,
      "lon": 35.3747349,
      "timestamp": "2021-03-22T19:01:56Z",
      "version": 8,
      "changeset": 101524452,
      "user": "Vejoson",
      "uid": 11422772,
      "tags": {
        "name": "עין תמר",
        "name:cs": "Ejn Tamar",
        "name:en": "Ein Tamar",
        "name:fr": "Ein Tamar",
        "name:he": "עין תמר",
        "place": "village",
        "wikidata": "Q2975331",
        "wikipedia": "he:עין תמר"
      }
    },
    {
      "type": "node",
      "id": 606130361,
      "lat": 31.0468038,
      "lon": 35.5028046,
      "timestamp": "2017-04-11T17:47:10Z",
      "version": 2,
      "changeset": 47664846,
      "user": "ceever",
      "uid": 5592573,
      "tags": {
        "historic": "ruins",
        "name": "Lot's Cave",
        "natural": "cave_entrance",
        "tourism": "attraction"
      }
    },
    {
      "type": "node",
      "id": 778595146,
      "lat": 31.2431827,
      "lon": 35.5292774,
      "timestamp": "2018-04-21T19:12:23Z",
      "version": 2,
      "changeset": 58296979,
      "user": "سامبا",
      "uid": 4860517,
      "tags": {
        "name": "مدينة البوتاس",
        "name:ar": "مدينة البوتاس",
        "name:en": "Arab Potash Township",
        "place": "village"
      }
    },
    {
      "type": "node",
      "id": 798877107,
      "lat": 31.175833,
      "lon": 35.718611,
      "timestamp": "2021-07-22T08:54:44Z",
      "version": 3,
      "changeset": 108413725,
      "user": "IllerRiver",
      "uid": 11187572,
      "tags": {
        "int_name": "‘Ayn al Bunduqānīyah, Ayn al Bunduqaniyah",
        "is_in": "Jordan, الأردن",
        "name": "عين البندقانية",
        "name:ar": "عين البندقانية",
        "name:de": "Ayn al Bunduqaniyah",
        "name:en": "Ayn al Bunduqaniyah",
        "name:fr": "Ayn al Bunduqaniyah",
        "natural": "spring"
      }
    },
    {
      "type": "node",
      "id": 798877163,
      "lat": 31.199444,
      "lon": 35.693056,
      "timestamp": "2011-11-01T18:09:00Z",
      "version": 2,
      "changeset": 9715023,
      "user": "lyx",
      "uid": 28237,
      "tags": {
        "int_name": "Sārah; Sarah; Ayn Sarah",
        "is_in": "Jordan, الأردن",
        "name": "عين سارة",
        "name:ar": "عين سارة",
        "name:de": "Sarah",
        "name:en": "Sarah",
        "name:fr": "Sarah",
        "natural": "spring"
      }
    },
    {
      "type": "node",
      "id": 798877221,
      "lat": 31.186944,
      "lon": 35.711944,
      "timestamp": "2011-11-01T11:55:51Z",
      "version": 2,
      "changeset": 9711862,
      "user": "lyx",
      "uid": 28237,
      "tags": {
        "int_name": "‘Ayn al ‘Aqabah; Ayn al Aqabah",
        "is_in": "Jordan, الأردن",
        "name": "عين العقبة",
        "name:ar": "عين العقبة",
        "name:de": "Ayn al Aqabah",
        "name:en": "Ayn al Aqabah",
        "name:fr": "Ayn al Aqabah",
        "natural": "spring"
      }
    },
    {
      "type": "node",
      "id": 798877233,
      "lat": 31.184444,
      "lon": 35.717222,
      "timestamp": "2011-11-01T11:55:53Z",
      "version": 2,
      "changeset": 9711862,
      "user": "lyx",
      "uid": 28237,
      "tags": {
        "int_name": "‘Ayn al Jāyah; Ayn al Jayah",
        "is_in": "Jordan, الأردن",
        "name": "عين الجاية",
        "name:ar": "عين الجاية",
        "name:de": "Ayn al Jayah",
        "name:en": "Ayn al Jayah",
        "name:fr": "Ayn al Jayah",
        "natural": "spring"
      }
    },
    {
      "type": "node",
      "id": 798877241,
      "lat": 31.1847222,
      "lon": 35.7047218,
      "timestamp": "2022-02-19T00:27:43Z",
      "version": 18,
      "changeset": 117587300,
      "user": "Yamílo",
      "uid": 11332999,
      "tags": {
        "name": "الكرك",
        "name:ar": "الكرك",
        "name:de": "Al Karak",
        "name:en": "Al Karak",
        "name:fr": "Al Karak",
        "name:he": "כרכ",
        "name:hi": "करक",
        "name:ml": "കരക്",
        "name:ru": "Эль-Карак",
        "name:tr": "Kerek",
        "name:ur": "الکرک",
        "place": "town",
        "population": "23000",
        "wikidata": "Q31572",
        "wikipedia": "ar:الكرك"
      }
    },
    {
      "type": "node",
      "id": 798882243,
      "lat": 30.798388,
      "lon": 35.713092,
      "timestamp": "2011-11-01T15:58:12Z",
      "version": 2,
      "changeset": 9713737,
      "user": "lyx",
      "uid": 28237,
      "tags": {
        "int_name": "Khirbat ‘Ābūn; Khirbat Abun",
        "is_in": "Jordan, الأردن",
        "name": "خربة عابون",
        "name:ar": "خربة عابون",
        "name:de": "Khirbat Abun",
        "name:en": "Khirbat Abun",
        "name:fr": "Khirbat Abun",
        "place": "village"
      }
    },
    {
      "type": "node",
      "id": 798882984,
      "lat": 30.792749,
      "lon": 35.648081,
      "timestamp": "2011-11-02T00:00:21Z",
      "version": 2,
      "changeset": 9718196,
      "user": "lyx",
      "uid": 28237,
      "tags": {
        "int_name": "Zuḩīqah; Zuhiqah",
        "is_in": "Jordan, الأردن",
        "name": "زحيقة",
        "name:ar": "زحيقة",
        "name:de": "Zuhiqah",
        "name:en": "Zuhiqah",
        "name:fr": "Zuhiqah",
        "place": "village"
      }
    },
    {
      "type": "node",
      "id": 798883007,
      "lat": 30.7841155,
      "lon": 35.596166,
      "timestamp": "2011-10-31T23:54:50Z",
      "version": 3,
      "changeset": 9709095,
      "user": "lyx",
      "uid": 28237,
      "tags": {
        "int_name": "Al ‘Ain al Bayḑā’; Al Ain al Bayda",
        "is_in": "Jordan, الأردن",
        "name": "العين البيضاء",
        "name:ar": "العين البيضاء",
        "name:de": "Al Ain al Bayda",
        "name:en": "Al Ain al Bayda",
        "name:fr": "Al Ain al Bayda",
        "place": "village"
      }
    },
    {
      "type": "node",
      "id": 798883027,
      "lat": 30.7887395,
      "lon": 35.596337,
      "timestamp": "2011-11-01T15:58:04Z",
      "version": 3,
      "changeset": 9713737,
      "user": "lyx",
      "uid": 28237,
      "tags": {
        "int_name": "Al Hanana; Hanana",
        "is_in": "Jordan, الأردن",
        "name": "الحنانة",
        "name:ar": "الحنانة",
        "name:de": "Hanana",
        "name:en": "Hanana",
        "name:fr": "Hanana",
        "place": "village"
      }
    },
    {
      "type": "node",
      "id": 798883086,
      "lat": 30.7715125,
      "lon": 35.583452,
      "timestamp": "2018-02-27T21:50:54Z",
      "version": 4,
      "changeset": 56736596,
      "user": "juestres",
      "uid": 43064,
      "tags": {
        "int_name": "As Sil‘; Al Sil; Sela",
        "is_in": "Jordan, الأردن",
        "name": "السلع",
        "name:ar": "السلع",
        "name:de": "Sela",
        "name:en": "Al Sil",
        "name:fr": "Al Sil",
        "place": "village"
      }
    },
    {
      "type": "node",
      "id": 798883130,
      "lat": 30.8051355,
      "lon": 35.599605,
      "timestamp": "2011-10-31T23:54:43Z",
      "version": 3,
      "changeset": 9709095,
      "user": "lyx",
      "uid": 28237,
      "tags": {
        "int_name": "‘Ābil; Abil",
        "is_in": "Jordan, الأردن",
        "name": "عابل",
        "name:ar": "عابل",
        "name:de": "Abil",
        "name:en": "Abil",
        "name:fr": "Abil",
        "place": "village"
      }
    },
    {
      "type": "node",
      "id": 798885115,
      "lat": 30.85,
      "lon": 35.666667,
      "timestamp": "2011-10-31T23:54:44Z",
      "version": 2,
      "changeset": 9709095,
      "user": "lyx",
      "uid": 28237,
      "tags": {
        "int_name": "Abū Shauka; Abu Shauka",
        "is_in": "Jordan, الأردن",
        "name": "أبو شوكة",
        "name:ar": "أبو شوكة",
        "name:de": "Abu Shauka",
        "name:en": "Abu Shauka",
        "name:fr": "Abu Shauka",
        "place": "village"
      }
    },
    {
      "type": "node",
      "id": 798885124,
      "lat": 30.876457,
      "lon": 35.685274,
      "timestamp": "2011-10-31T23:54:43Z",
      "version": 2,
      "changeset": 9709095,
      "user": "lyx",
      "uid": 28237,
      "tags": {
        "int_name": "Abū Banā; Abu Bana",
        "is_in": "Jordan, الأردن",
        "name": "أبو بنا",
        "name:ar": "أبو بنا",
        "name:de": "Abu Bana",
        "name:en": "Abu Bana",
        "name:fr": "Abu Bana",
        "place": "village"
      }
    },
    {
      "type": "node",
      "id": 798885146,
      "lat": 30.853567,
      "lon": 35.666866,
      "timestamp": "2011-11-01T18:09:13Z",
      "version": 2,
      "changeset": 9715023,
      "user": "lyx",
      "uid": 28237,
      "tags": {
        "int_name": "Şuwaymīḩ; Suwaymih",
        "is_in": "Jordan, الأردن",
        "name": "صويميح",
        "name:ar": "صويميح",
        "name:de": "Suwaymih",
        "name:en": "Suwaymih",
        "name:fr": "Suwaymih",
        "place": "village"
      }
    },
    {
      "type": "node",
      "id": 798885152,
      "lat": 30.916667,
      "lon": 35.7,
      "timestamp": "2011-10-31T23:55:01Z",
      "version": 2,
      "changeset": 9709095,
      "user": "lyx",
      "uid": 28237,
      "tags": {
        "int_name": "Al La‘bān; Al Laban; Leban",
        "is_in": "Jordan, الأردن",
        "name": "اللعبان",
        "name:ar": "اللعبان",
        "name:de": "Al Laban",
        "name:en": "Al Laban",
        "name:fr": "Al Laban",
        "place": "village"
      }
    },
    {
      "type": "node",
      "id": 798885868,
      "lat": 30.833333,
      "lon": 35.616667,
      "timestamp": "2011-10-31T23:54:54Z",
      "version": 2,
      "changeset": 9709095,
      "user": "lyx",
      "uid": 28237,
      "tags": {
        "int_name": "Ad Duwaykhilah; Al Duwaykhilah; Duweikhila",
        "is_in": "Jordan, الأردن",
        "name": "الدويخلة",
        "name:ar": "الدويخلة",
        "name:de": "Al Duwaykhilah",
        "name:en": "Al Duwaykhilah",
        "name:fr": "Al Duwaykhilah",
        "place": "village"
      }
    },
    {
      "type": "node",
      "id": 798885872,
      "lat": 30.854109,
      "lon": 35.568624,
      "timestamp": "2011-11-02T00:00:17Z",
      "version": 2,
      "changeset": 9718196,
      "user": "lyx",
      "uid": 28237,
      "tags": {
        "is_in": "Jordan, الأردن",
        "name": "صنفحة",
        "name:ar": "صنفحة",
        "name:de": "Sanfaha",
        "name:en": "Sanfaha",
        "name:fr": "Sanfaha",
        "place": "village"
      }
    },
    {
      "type": "node",
      "id": 798885879,
      "lat": 30.818567,
      "lon": 35.5544,
      "timestamp": "2011-10-31T23:55:05Z",
      "version": 2,
      "changeset": 9709095,
      "user": "lyx",
      "uid": 28237,
      "tags": {
        "int_name": "An Namatah; Al Namatah; Al Namata",
        "is_in": "Jordan, الأردن",
        "name": "النمتة",
        "name:ar": "النمتة",
        "name:de": "Al Namatah",
        "name:en": "Al Namatah",
        "name:fr": "Al Namatah",
        "place": "village"
      }
    },
    {
      "type": "node",
      "id": 798885889,
      "lat": 30.833333,
      "lon": 35.5999999,
      "timestamp": "2022-02-19T00:27:43Z",
      "version": 10,
      "changeset": 117587300,
      "user": "Yamílo",
      "uid": 11332999,
      "tags": {
        "int_name": "Tafilah;At Tafilah;At Tafila;Al Tafilah;Tufailah",
        "name": "الطفيلة",
        "name:ar": "الطفيلة",
        "name:de": "Tafila",
        "name:en": "At Tafila",
        "name:fr": "At Tafila",
        "name:hi": "टफिला",
        "name:ml": "ടഫീല",
        "name:ru": "Эт-Тафила",
        "name:uk": "Ет-Тафіла",
        "name:ur": "طفیلہ",
        "place": "town",
        "wikidata": "Q2550996",
        "wikipedia": "ar:الطفيلة"
      }
    },
    {
      "type": "node",
      "id": 798885894,
      "lat": 30.85,
      "lon": 35.55,
      "timestamp": "2011-11-01T11:55:53Z",
      "version": 2,
      "changeset": 9711862,
      "user": "lyx",
      "uid": 28237,
      "tags": {
        "int_name": "‘Ayn al Jarbānah; Ayn al Jarbanah",
        "is_in": "Jordan, الأردن",
        "name": "عين الجربانة",
        "name:ar": "عين الجربانة",
        "name:de": "Ayn al Jarbanah",
        "name:en": "Ayn al Jarbanah",
        "name:fr": "Ayn al Jarbanah",
        "natural": "spring"
      }
    },
    {
      "type": "node",
      "id": 798885897,
      "lat": 30.8330398,
      "lon": 35.5832423,
      "timestamp": "2011-11-01T18:08:52Z",
      "version": 2,
      "changeset": 9715023,
      "user": "lyx",
      "uid": 28237,
      "tags": {
        "int_name": "Rūweim; Ruweim",
        "is_in": "Jordan, الأردن",
        "name": "رويم",
        "name:ar": "رويم",
        "name:de": "Ruweim",
        "name:en": "Ruweim",
        "name:fr": "Ruweim",
        "place": "village"
      }
    },
    {
      "type": "node",
      "id": 798885898,
      "lat": 30.841964,
      "lon": 35.566858,
      "timestamp": "2011-11-01T11:55:47Z",
      "version": 2,
      "changeset": 9711862,
      "user": "lyx",
      "uid": 28237,
      "tags": {
        "int_name": "‘Arfah; Arfah",
        "is_in": "Jordan, الأردن",
        "name": "عرفة",
        "name:ar": "عرفة",
        "name:de": "Arfah",
        "name:en": "Arfah",
        "name:fr": "Arfah",
        "place": "village"
      }
    },
    {
      "type": "node",
      "id": 798886125,
      "lat": 30.8356615,
      "lon": 35.6416207,
      "timestamp": "2011-11-01T15:58:16Z",
      "version": 2,
      "changeset": 9713737,
      "user": "lyx",
      "uid": 28237,
      "tags": {
        "int_name": "Khirbat al ‘Īs; Khirbat al Is",
        "is_in": "Jordan, الأردن",
        "name": "خربة العيص",
        "name:ar": "خربة العيص",
        "name:de": "Khirbat al Is",
        "name:en": "Khirbat al Is",
        "name:fr": "Khirbat al Is",
        "place": "village"
      }
    },
    {
      "type": "node",
      "id": 798886129,
      "lat": 30.8366583,
      "lon": 35.6419864,
      "timestamp": "2011-11-01T13:19:10Z",
      "version": 2,
      "changeset": 9712473,
      "user": "lyx",
      "uid": 28237,
      "tags": {
        "int_name": "‘Īs; Is; Al Is; Al Isa",
        "is_in": "Jordan, الأردن",
        "name": "العيص",
        "name:ar": "العيص",
        "name:de": "Is",
        "name:en": "Is",
        "name:fr": "Is",
        "place": "village"
      }
    },
    {
      "type": "node",
      "id": 798886141,
      "lat": 30.866667,
      "lon": 35.633333,
      "timestamp": "2011-11-01T15:58:12Z",
      "version": 2,
      "changeset": 9713737,
      "user": "lyx",
      "uid": 28237,
      "tags": {
        "int_name": "Khirbat Buteina; Khirbat Buteina",
        "is_in": "Jordan, الأردن",
        "name": "خربة بطينة",
        "name:ar": "خربة بطينة",
        "name:de": "Khirbat Buteina",
        "name:en": "Khirbat Buteina",
        "name:fr": "Khirbat Buteina",
        "place": "village"
      }
    },
    {
      "type": "node",
      "id": 798895444,
      "lat": 31.181944,
      "lon": 35.736389,
      "timestamp": "2012-04-16T16:03:22Z",
      "version": 4,
      "changeset": 11323592,
      "user": "Claudius Henrichs",
      "uid": 18069,
      "tags": {
        "int_name": "Abū Ḩammūr; Abu Hammur",
        "is_in": "Jordan, الأردن",
        "name": "أبو حمور",
        "name:ar": "أبو حمور",
        "name:de": "Abu Hammur",
        "name:en": "Abu Hammur",
        "name:fr": "Abu Hammur",
        "place": "village"
      }
    },
    {
      "type": "node",
      "id": 798895452,
      "lat": 31.2643238,
      "lon": 35.7043831,
      "timestamp": "2011-05-24T06:32:31Z",
      "version": 2,
      "changeset": 8232360,
      "user": "lyx",
      "uid": 28237,
      "tags": {
        "int_name": "Betir",
        "is_in": "Jordan, الأردن",
        "name": "بتير",
        "name:ar": "بتير",
        "name:de": "Betir",
        "name:en": "Betir",
        "name:fr": "Betir",
        "place": "village"
      }
    },
    {
      "type": "node",
      "id": 798895454,
      "lat": 31.187778,
      "lon": 35.740556,
      "timestamp": "2011-10-31T23:55:02Z",
      "version": 2,
      "changeset": 9709095,
      "user": "lyx",
      "uid": 28237,
      "tags": {
        "int_name": "El Manshiya; Al Manshiya",
        "is_in": "Jordan, الأردن",
        "name": "المنشية",
        "name:ar": "المنشية",
        "name:de": "Al Manshiya",
        "name:en": "Al Manshiya",
        "name:fr": "Al Manshiya",
        "place": "village"
      }
    },
    {
      "type": "node",
      "id": 798895460,
      "lat": 31.2526184,
      "lon": 35.811071,
      "timestamp": "2011-11-01T15:58:08Z",
      "version": 3,
      "changeset": 9713737,
      "user": "lyx",
      "uid": 28237,
      "tags": {
        "int_name": "Judayyidah",
        "is_in": "Jordan, الأردن",
        "name": "الجديدة",
        "name:ar": "الجديدة",
        "name:de": "Judayyidah",
        "name:en": "Judayyidah",
        "name:fr": "Judayyidah",
        "place": "village"
      }
    },
    {
      "type": "node",
      "id": 798895473,
      "lat": 31.1661034,
      "lon": 35.7227043,
      "timestamp": "2016-06-06T13:10:23Z",
      "version": 5,
      "changeset": 39838268,
      "user": "Abo shgr",
      "uid": 4073766,
      "tags": {
        "int_name": "El Thaniya; Al Thaniya; Thaniya",
        "is_in": "Jordan, الأردن",
        "name": "الثنيه",
        "name:ar": "الثانية",
        "name:de": "Al Thaniya",
        "name:en": "Al Thaniya",
        "name:fr": "Al Thaniya",
        "place": "village"
      }
    },
    {
      "type": "node",
      "id": 798895493,
      "lat": 31.276944,
      "lon": 35.710278,
      "timestamp": "2011-10-31T23:54:48Z",
      "version": 2,
      "changeset": 9709095,
      "user": "lyx",
      "uid": 28237,
      "tags": {
        "int_name": "‘Ain el Mugheisil; Ain al Mugheisil",
        "is_in": "Jordan, الأردن",
        "name": "المغيسل",
        "name:ar": "المغيسل",
        "name:de": "Ain al Mugheisil",
        "name:en": "Ain al Mugheisil",
        "name:fr": "Ain al Mugheisil",
        "natural": "spring"
      }
    },
    {
      "type": "node",
      "id": 798895502,
      "lat": 31.270833,
      "lon": 35.714722,
      "timestamp": "2011-11-01T18:41:48Z",
      "version": 2,
      "changeset": 9715335,
      "user": "lyx",
      "uid": 28237,
      "tags": {
        "int_name": "‘Uyūn Abū Sa‘īd; Uyun Abu Said",
        "is_in": "Jordan, الأردن",
        "name": "عيون أبو سعيد",
        "name:ar": "عيون أبو سعيد",
        "name:de": "Uyun Abu Said",
        "name:en": "Uyun Abu Said",
        "name:fr": "Uyun Abu Said",
        "natural": "spring"
      }
    },
    {
      "type": "node",
      "id": 798895506,
      "lat": 31.1669148,
      "lon": 35.7663635,
      "timestamp": "2011-11-02T00:00:21Z",
      "version": 3,
      "changeset": 9718196,
      "user": "lyx",
      "uid": 28237,
      "tags": {
        "int_name": "Zahum",
        "is_in": "Jordan, الأردن",
        "name": "زحوم",
        "name:ar": "زحوم",
        "name:de": "Zahum",
        "name:en": "Zahum",
        "name:fr": "Zahum",
        "place": "village"
      }
    },
    {
      "type": "node",
      "id": 798895695,
      "lat": 31.15,
      "lon": 35.616667,
      "timestamp": "2011-11-01T11:55:52Z",
      "version": 2,
      "changeset": 9711862,
      "user": "lyx",
      "uid": 28237,
      "tags": {
        "int_name": "‘Ayn ad Dukhn; Ayn al Dukhn",
        "is_in": "Jordan, الأردن",
        "name": "عين الدخن",
        "name:ar": "عين الدخن",
        "name:de": "Ayn al Dukhn",
        "name:en": "Ayn al Dukhn",
        "name:fr": "Ayn al Dukhn",
        "natural": "spring"
      }
    },
    {
      "type": "node",
      "id": 798895703,
      "lat": 31.138333,
      "lon": 35.623333,
      "timestamp": "2011-11-01T15:58:09Z",
      "version": 2,
      "changeset": 9713737,
      "user": "lyx",
      "uid": 28237,
      "tags": {
        "int_name": "Kethrabba",
        "is_in": "Jordan, الأردن",
        "name": "كثربا",
        "name:ar": "كثربا",
        "name:de": "Kethrabba",
        "name:en": "Kethrabba",
        "name:fr": "Kethrabba",
        "place": "village"
      }
    },
    {
      "type": "node",
      "id": 798895705,
      "lat": 31.183333,
      "lon": 35.616667,
      "timestamp": "2011-11-01T11:55:49Z",
      "version": 2,
      "changeset": 9711862,
      "user": "lyx",
      "uid": 28237,
      "tags": {
        "int_name": "‘Ayn Dārā; Ayn Dara",
        "is_in": "Jordan, الأردن",
        "name": "عين دارا",
        "name:ar": "عين دارا",
        "name:de": "Ayn Dara",
        "name:en": "Ayn Dara",
        "name:fr": "Ayn Dara",
        "natural": "spring"
      }
    },
    {
      "type": "node",
      "id": 798895707,
      "lat": 31.206667,
      "lon": 35.658611,
      "timestamp": "2011-11-01T18:08:59Z",
      "version": 2,
      "changeset": 9715023,
      "user": "lyx",
      "uid": 28237,
      "tags": {
        "int_name": "Sakkā; Sakka",
        "is_in": "Jordan, الأردن",
        "name": "سكا",
        "name:ar": "سكا",
        "name:de": "Sakka",
        "name:en": "Sakka",
        "name:fr": "Sakka",
        "place": "village"
      }
    },
    {
      "type": "node",
      "id": 798895724,
      "lat": 31.212222,
      "lon": 35.656389,
      "timestamp": "2011-11-01T11:55:50Z",
      "version": 2,
      "changeset": 9711862,
      "user": "lyx",
      "uid": 28237,
      "tags": {
        "int_name": "‘Ayn Umm Jam‘ān; Ayn Um Jaman",
        "is_in": "Jordan, الأردن",
        "name": "عين أم جمعان",
        "name:ar": "عين أم جمعان",
        "name:de": "Ayn Um Jaman",
        "name:en": "Ayn Um Jaman",
        "name:fr": "Ayn Um Jaman",
        "natural": "spring"
      }
    },
    {
      "type": "node",
      "id": 798895730,
      "lat": 31.215556,
      "lon": 35.6625,
      "timestamp": "2011-11-01T18:41:47Z",
      "version": 3,
      "changeset": 9715335,
      "user": "lyx",
      "uid": 28237,
      "tags": {
        "int_name": "Um ed Dajāj; Um al Dajaj",
        "is_in": "Jordan, الأردن",
        "name": "أم الدجاج",
        "name:ar": "أم الدجاج",
        "name:de": "Um al Dajaj",
        "name:en": "Um al Dajaj",
        "name:fr": "Um al Dajaj",
        "place": "village"
      }
    },
    {
      "type": "node",
      "id": 798895740,
      "lat": 31.133333,
      "lon": 35.640833,
      "timestamp": "2021-10-27T18:11:10Z",
      "version": 3,
      "changeset": 113050309,
      "user": "Olyon",
      "uid": 1443767,
      "tags": {
        "int_name": "‘Ai; Ai; Ayy",
        "name": "عي",
        "name:ar": "عي",
        "name:de": "Ai",
        "name:en": "Ai",
        "name:fr": "Ai",
        "place": "village"
      }
    },
    {
      "type": "node",
      "id": 798895745,
      "lat": 31.155278,
      "lon": 35.643889,
      "timestamp": "2011-11-01T15:58:08Z",
      "version": 2,
      "changeset": 9713737,
      "user": "lyx",
      "uid": 28237,
      "tags": {
        "int_name": "Joze",
        "is_in": "Jordan, الأردن",
        "name": "جوزة",
        "name:ar": "جوزة",
        "name:de": "Joze",
        "name:en": "Joze",
        "name:fr": "Joze",
        "place": "village"
      }
    },
    {
      "type": "node",
      "id": 798895757,
      "lat": 31.164167,
      "lon": 35.641389,
      "timestamp": "2011-11-01T18:41:48Z",
      "version": 2,
      "changeset": 9715335,
      "user": "lyx",
      "uid": 28237,
      "tags": {
        "int_name": "‘Umyān; Umyan; Al Emein",
        "is_in": "Jordan, الأردن",
        "name": "العميان",
        "name:ar": "العميان",
        "name:de": "Umyan",
        "name:en": "Umyan",
        "name:fr": "Umyan",
        "place": "village"
      }
    },
    {
      "type": "node",
      "id": 798895758,
      "lat": 31.129167,
      "lon": 35.636944,
      "timestamp": "2011-11-01T11:55:51Z",
      "version": 2,
      "changeset": 9711862,
      "user": "lyx",
      "uid": 28237,
      "tags": {
        "int_name": "‘Ayn al ‘Ammāl; Ayn al Ammal",
        "is_in": "Jordan, الأردن",
        "name": "عين العمال",
        "name:ar": "عين العمال",
        "name:de": "Ayn al Ammal",
        "name:en": "Ayn al Ammal",
        "name:fr": "Ayn al Ammal",
        "natural": "spring"
      }
    },
    {
      "type": "node",
      "id": 798895777,
      "lat": 31.2225185,
      "lon": 35.6664445,
      "timestamp": "2020-05-20T16:21:01Z",
      "version": 4,
      "changeset": 85509285,
      "user": "S-M-R",
      "uid": 10914036,
      "tags": {
        "name": "بردى",
        "name:ar": "بردى",
        "place": "village"
      }
    },
    {
      "type": "node",
      "id": 798895785,
      "lat": 31.1675,
      "lon": 35.684444,
      "timestamp": "2011-11-01T18:41:45Z",
      "version": 2,
      "changeset": 9715335,
      "user": "lyx",
      "uid": 28237,
      "tags": {
        "int_name": "Umm Rummanā; Um Rummana",
        "is_in": "Jordan, الأردن",
        "name": "أم رمانا",
        "name:ar": "أم رمانا",
        "name:de": "Um Rummana",
        "name:en": "Um Rummana",
        "name:fr": "Um Rummana",
        "place": "village"
      }
    },
    {
      "type": "node",
      "id": 798895790,
      "lat": 31.228333,
      "lon": 35.650833,
      "timestamp": "2011-11-01T16:19:28Z",
      "version": 2,
      "changeset": 9713976,
      "user": "lyx",
      "uid": 28237,
      "tags": {
        "int_name": "Mumeya; Mumya",
        "is_in": "Jordan, الأردن",
        "name": "موميا",
        "name:ar": "موميا",
        "name:de": "Mumeya",
        "name:en": "Mumeya",
        "name:fr": "Mumeya",
        "place": "village"
      }
    },
    {
      "type": "node",
      "id": 798895796,
      "lat": 31.233333,
      "lon": 35.583333,
      "timestamp": "2011-11-01T21:03:43Z",
      "version": 2,
      "changeset": 9716860,
      "user": "lyx",
      "uid": 28237,
      "tags": {
        "int_name": "Waydi‘ah; Waydiah",
        "is_in": "Jordan, الأردن",
        "name": "عين ودعة",
        "name:ar": "عين ودعة",
        "name:de": "Waydiah",
        "name:en": "Waydiah",
        "name:fr": "Waydiah",
        "natural": "spring"
      }
    },
    {
      "type": "node",
      "id": 798895798,
      "lat": 31.172778,
      "lon": 35.6875,
      "timestamp": "2011-11-01T13:19:09Z",
      "version": 2,
      "changeset": 9712473,
      "user": "lyx",
      "uid": 28237,
      "tags": {
        "int_name": "Ifranj",
        "is_in": "Jordan, الأردن",
        "name": "الإفرنج",
        "name:ar": "الإفرنج",
        "name:de": "Ifranj",
        "name:en": "Ifranj",
        "name:fr": "Ifranj",
        "place": "village"
      }
    },
    {
      "type": "node",
      "id": 798896471,
      "lat": 31.0673618,
      "lon": 35.6958857,
      "timestamp": "2021-10-27T18:11:10Z",
      "version": 4,
      "changeset": 113050309,
      "user": "Olyon",
      "uid": 1443767,
      "tags": {
        "int_name": "Al Mazār; Al Mazar",
        "name": "المزار",
        "name:ar": "المزار",
        "name:de": "El Mazar",
        "name:en": "Al Mazar",
        "name:fr": "Al Mazar",
        "place": "village"
      }
    },
    {
      "type": "node",
      "id": 798896491,
      "lat": 31.066667,
      "lon": 35.616667,
      "timestamp": "2011-10-31T23:54:46Z",
      "version": 2,
      "changeset": 9709095,
      "user": "lyx",
      "uid": 28237,
      "tags": {
        "int_name": "‘Ain Beit Sahm; Ain Beit Sahm",
        "is_in": "Jordan, الأردن",
        "name": "عين بيت سهم",
        "name:ar": "عين بيت سهم",
        "name:de": "Ain Beit Sahm",
        "name:en": "Ain Beit Sahm",
        "name:fr": "Ain Beit Sahm",
        "natural": "spring"
      }
    },
    {
      "type": "node",
      "id": 798896498,
      "lat": 31.05,
      "lon": 35.616667,
      "timestamp": "2011-11-01T11:55:50Z",
      "version": 2,
      "changeset": 9711862,
      "user": "lyx",
      "uid": 28237,
      "tags": {
        "int_name": "‘Ayn Sarrāqah; Ayn Sarraqah",
        "is_in": "Jordan, الأردن",
        "name": "عين سراقة",
        "name:ar": "عين سراقة",
        "name:de": "Ayn Sarraqah",
        "name:en": "Ayn Sarraqah",
        "name:fr": "Ayn Sarraqah",
        "natural": "spring"
      }
    },
    {
      "type": "node",
      "id": 798896506,
      "lat": 31.068889,
      "lon": 35.639444,
      "timestamp": "2011-10-31T23:54:51Z",
      "version": 2,
      "changeset": 9709095,
      "user": "lyx",
      "uid": 28237,
      "tags": {
        "int_name": "Al Baḩr; Al Bahr",
        "is_in": "Jordan, الأردن",
        "name": "البحر",
        "name:ar": "البحر",
        "name:de": "Al Bahr",
        "name:en": "Al Bahr",
        "name:fr": "Al Bahr",
        "place": "village"
      }
    },
    {
      "type": "node",
      "id": 798896544,
      "lat": 31.055,
      "lon": 35.661667,
      "timestamp": "2011-10-31T23:54:58Z",
      "version": 2,
      "changeset": 9709095,
      "user": "lyx",
      "uid": 28237,
      "tags": {
        "int_name": "Al ‘Īsāwīyah; Al Isawiyah",
        "is_in": "Jordan, الأردن",
        "name": "العيساوية",
        "name:ar": "العيساوية",
        "name:de": "Al Isawiyah",
        "name:en": "Al Isawiyah",
        "name:fr": "Al Isawiyah",
        "place": "village"
      }
    },
    {
      "type": "node",
      "id": 798896551,
      "lat": 31.073889,
      "lon": 35.656389,
      "timestamp": "2011-10-31T23:54:52Z",
      "version": 2,
      "changeset": 9709095,
      "user": "lyx",
      "uid": 28237,
      "tags": {
        "int_name": "El Buqei; Al Buqei",
        "is_in": "Jordan, الأردن",
        "name": "البقيع",
        "name:ar": "البقيع",
        "name:de": "Al Buqei",
        "name:en": "Al Buqei",
        "name:fr": "Al Buqei",
        "place": "village"
      }
    },
    {
      "type": "node",
      "id": 798896558,
      "lat": 31.0498874,
      "lon": 35.6055723,
      "timestamp": "2020-05-20T16:38:48Z",
      "version": 3,
      "changeset": 85510223,
      "user": "Ro_Ro",
      "uid": 4889644,
      "tags": {
        "int_name": "Aţ Ţayyibah; Al Tayyibah",
        "is_in": "Jordan, الأردن",
        "name": "الطيبة",
        "name:ar": "الطيبة",
        "name:de": "Al Tayyibah",
        "name:en": "Al Tayyibah",
        "name:fr": "Al Tayyibah",
        "place": "village"
      }
    },
    {
      "type": "node",
      "id": 798896568,
      "lat": 31.055833,
      "lon": 35.701111,
      "timestamp": "2011-11-01T11:55:44Z",
      "version": 2,
      "changeset": 9711862,
      "user": "lyx",
      "uid": 28237,
      "tags": {
        "int_name": "‘Amaqa; Amaqa; Al Amaqa",
        "is_in": "Jordan, الأردن",
        "name": "العمقة",
        "name:ar": "العمقة",
        "name:de": "Amaqa",
        "name:en": "Amaqa",
        "name:fr": "Amaqa",
        "place": "village"
      }
    },
    {
      "type": "node",
      "id": 798896574,
      "lat": 31.057222,
      "lon": 35.668889,
      "timestamp": "2011-10-31T23:54:59Z",
      "version": 2,
      "changeset": 9709095,
      "user": "lyx",
      "uid": 28237,
      "tags": {
        "int_name": "El Jauza; Al Jauza",
        "is_in": "Jordan, الأردن",
        "name": "الجوزة",
        "name:ar": "الجوزة",
        "name:de": "Al Jauza",
        "name:en": "Al Jauza",
        "name:fr": "Al Jauza",
        "place": "village"
      }
    },
    {
      "type": "node",
      "id": 798896597,
      "lat": 31.083333,
      "lon": 35.6,
      "timestamp": "2011-10-31T23:54:47Z",
      "version": 2,
      "changeset": 9709095,
      "user": "lyx",
      "uid": 28237,
      "tags": {
        "int_name": "‘Ain Khuneizīr; Ain Khuneizir",
        "is_in": "Jordan, الأردن",
        "name": "عين خنيزير",
        "name:ar": "عين خنيزير",
        "name:de": "Ain Khuneizir",
        "name:en": "Ain Khuneizir",
        "name:fr": "Ain Khuneizir",
        "natural": "spring"
      }
    },
    {
      "type": "node",
      "id": 798896598,
      "lat": 31.0614598,
      "lon": 35.6533836,
      "timestamp": "2011-10-31T23:54:52Z",
      "version": 3,
      "changeset": 9709095,
      "user": "lyx",
      "uid": 28237,
      "tags": {
        "int_name": "Ed Dabbāka; Al Dabbaka; Al Dabkah; Dabka",
        "is_in": "Jordan, الأردن",
        "name": "الدباكة",
        "name:ar": "الدباكة",
        "name:de": "Al Dabbaka",
        "name:en": "Al Dabbaka",
        "name:fr": "Al Dabbaka",
        "place": "village"
      }
    },
    {
      "type": "node",
      "id": 798897195,
      "lat": 30.978666,
      "lon": 35.8,
      "timestamp": "2011-11-02T00:00:17Z",
      "version": 2,
      "changeset": 9718196,
      "user": "lyx",
      "uid": 28237,
      "tags": {
        "is_in": "Jordan, الأردن",
        "name": "شقيرا الشرقية",
        "name:ar": "شقيرا الشرقية",
        "name:de": "Shaqira al Sharkiya",
        "name:en": "Shaqira al Sharqiya",
        "name:fr": "Shaqira al Sharqiya",
        "place": "village"
      }
    },
    {
      "type": "node",
      "id": 798897197,
      "lat": 30.99426,
      "lon": 35.758466,
      "timestamp": "2011-11-01T18:09:02Z",
      "version": 2,
      "changeset": 9715023,
      "user": "lyx",
      "uid": 28237,
      "tags": {
        "int_name": "Shaqīrah al Gharbīyah; Shaqirah al Gharbiyah",
        "is_in": "Jordan, الأردن",
        "name": "شقيرا الغربية",
        "name:ar": "شقيرا الغربية",
        "name:de": "Shaqirah al Gharbiyah",
        "name:en": "Shaqirah al Gharbiyah",
        "name:fr": "Shaqirah al Gharbiyah",
        "place": "village"
      }
    },
    {
      "type": "node",
      "id": 798897208,
      "lat": 30.967308,
      "lon": 35.772433,
      "timestamp": "2011-10-31T23:54:50Z",
      "version": 2,
      "changeset": 9709095,
      "user": "lyx",
      "uid": 28237,
      "tags": {
        "int_name": "El ‘Aina; Al Aina",
        "is_in": "Jordan, الأردن",
        "name": "العينا",
        "name:ar": "العينا",
        "name:de": "Al Aina",
        "name:en": "Al Aina",
        "name:fr": "Al Aina",
        "place": "village"
      }
    },
    {
      "type": "node",
      "id": 798897215,
      "lat": 30.992612,
      "lon": 35.774207,
      "timestamp": "2011-10-31T23:55:05Z",
      "version": 2,
      "changeset": 9709095,
      "user": "lyx",
      "uid": 28237,
      "tags": {
        "int_name": "An Na‘īmah; Al Naimah",
        "is_in": "Jordan, الأردن",
        "name": "النعيمة",
        "name:ar": "النعيمة",
        "name:de": "Al Naimah",
        "name:en": "Al Naimah",
        "name:fr": "Al Naimah",
        "place": "village"
      }
    },
    {
      "type": "node",
      "id": 798897240,
      "lat": 31.005125,
      "lon": 35.761908,
      "timestamp": "2011-11-01T12:33:32Z",
      "version": 2,
      "changeset": 9712128,
      "user": "lyx",
      "uid": 28237,
      "tags": {
        "int_name": "Dat Ras",
        "is_in": "Jordan, الأردن",
        "name": "ذات رأس",
        "name:ar": "ذات رأس",
        "name:de": "Dat Ras",
        "name:en": "Dat Ras",
        "name:fr": "Dat Ras",
        "place": "village"
      }
    },
    {
      "type": "node",
      "id": 798897499,
      "lat": 31.3,
      "lon": 35.633333,
      "timestamp": "2011-11-01T11:55:49Z",
      "version": 2,
      "changeset": 9711862,
      "user": "lyx",
      "uid": 28237,
      "tags": {
        "int_name": "‘Ayn Ḩimārah; Ayn Himarah",
        "is_in": "Jordan, الأردن",
        "name": "عين حمارة",
        "name:ar": "عين حمارة",
        "name:de": "Ayn Himarah",
        "name:en": "Ayn Himarah",
        "name:fr": "Ayn Himarah",
        "natural": "spring"
      }
    },
    {
      "type": "node",
      "id": 798897502,
      "lat": 31.35,
      "lon": 35.616667,
      "timestamp": "2011-10-31T23:54:56Z",
      "version": 2,
      "changeset": 9709095,
      "user": "lyx",
      "uid": 28237,
      "tags": {
        "int_name": "Al Ḩafā’ir; Al Hafair; Ayn al Hafair",
        "is_in": "Jordan, الأردن",
        "name": "عين الحفائر",
        "name:ar": "عين الحفائر",
        "name:de": "Al Hafair",
        "name:en": "Al Hafair",
        "name:fr": "Al Hafair",
        "natural": "spring"
      }
    },
    {
      "type": "node",
      "id": 798897507,
      "lat": 31.333333,
      "lon": 35.616667,
      "timestamp": "2011-10-31T23:54:48Z",
      "version": 2,
      "changeset": 9709095,
      "user": "lyx",
      "uid": 28237,
      "tags": {
        "int_name": "‘Ain el Māliḥa; Ain al Maliha",
        "is_in": "Jordan, الأردن",
        "name": "عين المالحة",
        "name:ar": "عين المالحة",
        "name:de": "Ain al Maliha",
        "name:en": "Ain al Maliha",
        "name:fr": "Ain al Maliha",
        "natural": "spring"
      }
    },
    {
      "type": "node",
      "id": 799022738,
      "lat": 31.333889,
      "lon": 35.715833,
      "timestamp": "2011-11-01T15:58:13Z",
      "version": 2,
      "changeset": 9713737,
      "user": "lyx",
      "uid": 28237,
      "tags": {
        "int_name": "Khirbat Majdalayn; Majdalin; Majdulin",
        "is_in": "Jordan, الأردن",
        "name": "خربة مجدلين",
        "name:ar": "خربة مجدلين",
        "name:de": "Khirbat Majdalayn",
        "name:en": "Khirbat Majdalayn",
        "name:fr": "Khirbat Majdalayn",
        "place": "village"
      }
    },
    {
      "type": "node",
      "id": 799022848,
      "lat": 31.351667,
      "lon": 35.685,
      "timestamp": "2011-11-01T13:19:10Z",
      "version": 2,
      "changeset": 9712473,
      "user": "lyx",
      "uid": 28237,
      "tags": {
        "int_name": "Imra‘; Imra",
        "is_in": "Jordan, الأردن",
        "name": "إمرع",
        "name:ar": "إمرع",
        "name:de": "Imra",
        "name:en": "Imra",
        "name:fr": "Imra",
        "place": "village"
      }
    },
    {
      "type": "node",
      "id": 802887081,
      "lat": 31.3,
      "lon": 35.533333,
      "timestamp": "2019-06-28T16:34:13Z",
      "version": 3,
      "changeset": 71714534,
      "user": "_Poliwrath_",
      "uid": 8759140,
      "tags": {
        "int_name": "Al Maghārah; Al Magharah",
        "name": "المغارة",
        "name:ar": "المغارة",
        "name:de": "Al Magharah",
        "name:en": "Al Magharah",
        "name:fr": "Al Magharah",
        "natural": "spring"
      }
    },
    {
      "type": "node",
      "id": 802887091,
      "lat": 31.268333,
      "lon": 35.516111,
      "timestamp": "2011-10-31T23:55:03Z",
      "version": 2,
      "changeset": 9709095,
      "user": "lyx",
      "uid": 28237,
      "tags": {
        "int_name": "Al Mazra‘; Al Mazra; Al Mazraah; Al Mazraa; Al Mezre; Mezra; Mezraa",
        "is_in": "Jordan, الأردن",
        "name": "المزرعة",
        "name:ar": "المزرعة",
        "name:de": "Al Mazra",
        "name:en": "Al Mazra",
        "name:fr": "Al Mazra",
        "place": "village"
      }
    },
    {
      "type": "node",
      "id": 802887100,
      "lat": 31.270833,
      "lon": 35.674444,
      "timestamp": "2011-11-01T11:56:00Z",
      "version": 2,
      "changeset": 9711862,
      "user": "lyx",
      "uid": 28237,
      "tags": {
        "int_name": "Bughaylah",
        "is_in": "Jordan, الأردن",
        "name": "بغيلة",
        "name:ar": "بغيلة",
        "name:de": "Bughaylah",
        "name:en": "Bughaylah",
        "name:fr": "Bughaylah",
        "natural": "spring"
      }
    },
    {
      "type": "node",
      "id": 802887124,
      "lat": 31.25,
      "lon": 35.6,
      "timestamp": "2011-10-31T23:54:48Z",
      "version": 2,
      "changeset": 9709095,
      "user": "lyx",
      "uid": 28237,
      "tags": {
        "int_name": "‘Ain el Mantara; Ain al Mantara",
        "is_in": "Jordan, الأردن",
        "name": "عين المنطرة",
        "name:ar": "عين المنطرة",
        "name:de": "Ain al Mantara",
        "name:en": "Ain al Mantara",
        "name:fr": "Ain al Mantara",
        "natural": "spring"
      }
    },
    {
      "type": "node",
      "id": 802887154,
      "lat": 31.25,
      "lon": 35.566667,
      "timestamp": "2011-11-01T12:33:38Z",
      "version": 2,
      "changeset": 9712128,
      "user": "lyx",
      "uid": 28237,
      "tags": {
        "int_name": "Ghawr adh Dhirā‘; Ghawr al Dhira",
        "is_in": "Jordan, الأردن",
        "name": "غور الذراع",
        "name:ar": "غور الذراع",
        "name:de": "Ghawr al Dhira",
        "name:en": "Ghawr al Dhira",
        "name:fr": "Ghawr al Dhira",
        "place": "village"
      }
    },
    {
      "type": "node",
      "id": 802887366,
      "lat": 31.124444,
      "lon": 35.638611,
      "timestamp": "2011-10-31T23:54:48Z",
      "version": 2,
      "changeset": 9709095,
      "user": "lyx",
      "uid": 28237,
      "tags": {
        "int_name": "Ain Um eṭ Ṭawāqī; Ain Um al Tawaqi",
        "is_in": "Jordan, الأردن",
        "name": "عين أم الطواقي",
        "name:ar": "عين أم الطواقي",
        "name:de": "Ain Um al Tawaqi",
        "name:en": "Ain Um al Tawaqi",
        "name:fr": "Ain Um al Tawaqi",
        "natural": "spring"
      }
    },
    {
      "type": "node",
      "id": 802887375,
      "lat": 31.1,
      "lon": 35.616667,
      "timestamp": "2011-11-01T11:55:52Z",
      "version": 2,
      "changeset": 9711862,
      "user": "lyx",
      "uid": 28237,
      "tags": {
        "int_name": "‘Ayn al Birāsh; Ayn al Birash",
        "is_in": "Jordan, الأردن",
        "name": "عين البراش",
        "name:ar": "عين البراش",
        "name:de": "Ayn al Birash",
        "name:en": "Ayn al Birash",
        "name:fr": "Ayn al Birash",
        "natural": "spring"
      }
    },
    {
      "type": "node",
      "id": 802887376,
      "lat": 31.0925,
      "lon": 35.694444,
      "timestamp": "2018-02-25T21:54:38Z",
      "version": 3,
      "changeset": 56671927,
      "user": "juestres",
      "uid": 43064,
      "tags": {
        "int_name": "Mota; Mutah",
        "is_in": "Jordan, الأردن",
        "name": "موتة",
        "name:ar": "موتة",
        "name:de": "Mutah",
        "name:en": "Mota",
        "name:fr": "Mota",
        "place": "village",
        "wikidata": "Q3774958",
        "wikipedia": "en:Mu'tah"
      }
    },
    {
      "type": "node",
      "id": 802887400,
      "lat": 31.090278,
      "lon": 35.641944,
      "timestamp": "2011-10-31T23:54:58Z",
      "version": 2,
      "changeset": 9709095,
      "user": "lyx",
      "uid": 28237,
      "tags": {
        "int_name": "Al ‘Irāq; Al Iraq; Al Araq; Al Iraq",
        "is_in": "Jordan, الأردن",
        "name": "العراق",
        "name:ar": "العراق",
        "name:de": "Al Iraq",
        "name:en": "Al Iraq",
        "name:fr": "Al Iraq",
        "place": "village"
      }
    },
    {
      "type": "node",
      "id": 802889128,
      "lat": 31.066667,
      "lon": 35.583333,
      "timestamp": "2011-11-01T11:55:54Z",
      "version": 2,
      "changeset": 9711862,
      "user": "lyx",
      "uid": 28237,
      "tags": {
        "int_name": "‘Ayn as Sadd; Ayn al Sadd; Ayn Sadd Habil",
        "is_in": "Jordan, الأردن",
        "name": "عين سد حابل",
        "name:ar": "عين سد حابل",
        "name:de": "Ayn al Sadd",
        "name:en": "Ayn al Sadd",
        "name:fr": "Ayn al Sadd",
        "natural": "spring"
      }
    },
    {
      "type": "node",
      "id": 802889258,
      "lat": 31.048056,
      "lon": 35.678056,
      "timestamp": "2020-05-20T16:29:12Z",
      "version": 3,
      "changeset": 85509759,
      "user": "S-M-R",
      "uid": 10914036,
      "tags": {
        "is_in": "Jordan, الأردن",
        "name": "منشية المزار",
        "name:ar": "منشية المزار",
        "place": "village"
      }
    },
    {
      "type": "node",
      "id": 802889262,
      "lat": 31.0475,
      "lon": 35.664444,
      "timestamp": "2011-10-31T23:54:47Z",
      "version": 2,
      "changeset": 9709095,
      "user": "lyx",
      "uid": 28237,
      "tags": {
        "int_name": "‘Ain Ḥuleila; Ain Huleila",
        "is_in": "Jordan, الأردن",
        "name": "عين حليلة",
        "name:ar": "عين حليلة",
        "name:de": "Ain Huleila",
        "name:en": "Ain Huleila",
        "name:fr": "Ain Huleila",
        "natural": "spring"
      }
    },
    {
      "type": "node",
      "id": 802889294,
      "lat": 31.039722,
      "lon": 35.653333,
      "timestamp": "2011-11-01T14:21:19Z",
      "version": 2,
      "changeset": 9712965,
      "user": "lyx",
      "uid": 28237,
      "tags": {
        "int_name": "Jaḩrah; Jahrah",
        "is_in": "Jordan, الأردن",
        "name": "جحرة",
        "name:ar": "جحرة",
        "name:de": "Jahrah",
        "name:en": "Jahrah",
        "name:fr": "Jahrah",
        "place": "village"
      }
    },
    {
      "type": "node",
      "id": 802889318,
      "lat": 31.033333,
      "lon": 35.6,
      "timestamp": "2011-11-01T11:55:51Z",
      "version": 2,
      "changeset": 9711862,
      "user": "lyx",
      "uid": 28237,
      "tags": {
        "int_name": "‘Ayn Umm al Fuţţas; Ayn Um al Futtas",
        "is_in": "Jordan, الأردن",
        "name": "عين أم الفطس",
        "name:ar": "عين أم الفطس",
        "name:de": "Ayn Um al Futtas",
        "name:en": "Ayn Um al Futtas",
        "name:fr": "Ayn Um al Futtas",
        "natural": "spring"
      }
    },
    {
      "type": "node",
      "id": 802889325,
      "lat": 31.023333,
      "lon": 35.691111,
      "timestamp": "2011-11-01T15:58:08Z",
      "version": 2,
      "changeset": 9713737,
      "user": "lyx",
      "uid": 28237,
      "tags": {
        "int_name": "Juweir",
        "is_in": "Jordan, الأردن",
        "name": "جوير",
        "name:ar": "جوير",
        "name:de": "Juweir",
        "name:en": "Juweir",
        "name:fr": "Juweir",
        "place": "village"
      }
    },
    {
      "type": "node",
      "id": 802889334,
      "lat": 31.0275,
      "lon": 35.66,
      "timestamp": "2011-11-01T16:19:28Z",
      "version": 2,
      "changeset": 9713976,
      "user": "lyx",
      "uid": 28237,
      "tags": {
        "int_name": "Mujeida",
        "is_in": "Jordan, الأردن",
        "name": "المجيدل",
        "name:ar": "المجيدل",
        "name:de": "Mujeida",
        "name:en": "Mujeida",
        "name:fr": "Mujeida",
        "place": "village"
      }
    },
    {
      "type": "node",
      "id": 802889339,
      "lat": 31.0275,
      "lon": 35.723889,
      "timestamp": "2011-10-31T23:54:58Z",
      "version": 2,
      "changeset": 9709095,
      "user": "lyx",
      "uid": 28237,
      "tags": {
        "int_name": "Al Ḩusaynīyah; Al Husayniyah",
        "is_in": "Jordan, الأردن",
        "name": "الحسينية",
        "name:ar": "الحسينية",
        "name:de": "Al Husayniyah",
        "name:en": "Al Husayniyah",
        "name:fr": "Al Husayniyah",
        "place": "village"
      }
    },
    {
      "type": "node",
      "id": 802889342,
      "lat": 31.132778,
      "lon": 35.720833,
      "timestamp": "2011-10-31T23:55:04Z",
      "version": 2,
      "changeset": 9709095,
      "user": "lyx",
      "uid": 28237,
      "tags": {
        "int_name": "El Musheirifa; Al Musheirifa",
        "is_in": "Jordan, الأردن",
        "name": "المشيرفة",
        "name:ar": "المشيرفة",
        "name:de": "Al Musheirifa",
        "name:en": "Al Musheirifa",
        "name:fr": "Al Musheirifa",
        "place": "village"
      }
    },
    {
      "type": "node",
      "id": 802889345,
      "lat": 31.032778,
      "lon": 35.598889,
      "timestamp": "2011-11-01T18:41:45Z",
      "version": 2,
      "changeset": 9715335,
      "user": "lyx",
      "uid": 28237,
      "tags": {
        "int_name": "Umm Rummānah; Um Rummanah",
        "is_in": "Jordan, الأردن",
        "name": "أم رمانة",
        "name:ar": "أم رمانة",
        "name:de": "Um Rummanah",
        "name:en": "Um Rummanah",
        "name:fr": "Um Rummanah",
        "place": "village"
      }
    },
    {
      "type": "node",
      "id": 802889360,
      "lat": 31.010833,
      "lon": 35.7125,
      "timestamp": "2011-10-31T23:54:57Z",
      "version": 2,
      "changeset": 9709095,
      "user": "lyx",
      "uid": 28237,
      "tags": {
        "int_name": "Al Hāshimīyah al Janūbīyah; Al Hashimiyah al Janubiyah",
        "is_in": "Jordan, الأردن",
        "name": "الهاشمية الجنوبية",
        "name:ar": "الهاشمية الجنوبية",
        "name:de": "Al Hashimiyah al Janubiyah",
        "name:en": "Al Hashimiyah al Janubiyah",
        "name:fr": "Al Hashimiyah al Janubiyah",
        "place": "village"
      }
    },
    {
      "type": "node",
      "id": 802889361,
      "lat": 31.012222,
      "lon": 35.665556,
      "timestamp": "2011-11-01T18:41:47Z",
      "version": 3,
      "changeset": 9715335,
      "user": "lyx",
      "uid": 28237,
      "tags": {
        "int_name": "Um el Khanāzīr; Um al Khanazir",
        "is_in": "Jordan, الأردن",
        "name": "أم الخنازير",
        "name:ar": "أم الخنازير",
        "name:de": "Um al Khanazir",
        "name:en": "Um al Khanazir",
        "name:fr": "Um al Khanazir",
        "place": "village"
      }
    },
    {
      "type": "node",
      "id": 802889362,
      "lat": 31.013889,
      "lon": 35.671667,
      "timestamp": "2011-10-31T23:54:51Z",
      "version": 2,
      "changeset": 9709095,
      "user": "lyx",
      "uid": 28237,
      "tags": {
        "int_name": "El Baqei‘; Al Baqei",
        "is_in": "Jordan, الأردن",
        "name": "البقيع",
        "name:ar": "البقيع",
        "name:de": "Al Baqei",
        "name:en": "Al Baqei",
        "name:fr": "Al Baqei",
        "place": "village"
      }
    },
    {
      "type": "node",
      "id": 802889363,
      "lat": 31.118889,
      "lon": 35.730278,
      "timestamp": "2011-11-01T16:19:26Z",
      "version": 2,
      "changeset": 9713976,
      "user": "lyx",
      "uid": 28237,
      "tags": {
        "int_name": "Meddin; Middin",
        "is_in": "Jordan, الأردن",
        "name": "مدين",
        "name:ar": "مدين",
        "name:de": "Meddin",
        "name:en": "Meddin",
        "name:fr": "Meddin",
        "place": "village"
      }
    },
    {
      "type": "node",
      "id": 802889374,
      "lat": 31.014722,
      "lon": 35.643333,
      "timestamp": "2011-11-01T11:55:51Z",
      "version": 2,
      "changeset": 9711862,
      "user": "lyx",
      "uid": 28237,
      "tags": {
        "int_name": "‘Ayn Umm adh Dhibbān; Ayn Um al Dhibban",
        "is_in": "Jordan, الأردن",
        "name": "عين أم الذبان",
        "name:ar": "عين أم الذبان",
        "name:de": "Ayn Um al Dhibban",
        "name:en": "Ayn Um al Dhibban",
        "name:fr": "Ayn Um al Dhibban",
        "natural": "spring"
      }
    },
    {
      "type": "node",
      "id": 802895126,
      "lat": 30.983333,
      "lon": 35.666667,
      "timestamp": "2011-11-01T13:19:06Z",
      "version": 2,
      "changeset": 9712473,
      "user": "lyx",
      "uid": 28237,
      "tags": {
        "int_name": "Ḩammāmāt al Burbayţah; Hammamat al Burbaytah",
        "is_in": "Jordan, الأردن",
        "name": "حمامات البربيطة",
        "name:ar": "حمامات البربيطة",
        "name:de": "Hammamat al Burbaytah",
        "name:en": "Hammamat al Burbaytah",
        "name:fr": "Hammamat al Burbaytah",
        "natural": "spring"
      }
    },
    {
      "type": "node",
      "id": 802897131,
      "lat": 31.033333,
      "lon": 35.766667,
      "timestamp": "2011-11-01T18:41:44Z",
      "version": 3,
      "changeset": 9715335,
      "user": "lyx",
      "uid": 28237,
      "tags": {
        "int_name": "Um Hemat",
        "is_in": "Jordan, الأردن",
        "name": "أم حماط",
        "name:ar": "أم حماط",
        "name:de": "Um Hemat",
        "name:en": "Um Hemat",
        "name:fr": "Um Hemat",
        "place": "village"
      }
    },
    {
      "type": "node",
      "id": 802897151,
      "lat": 30.966667,
      "lon": 35.633333,
      "timestamp": "2011-11-01T13:19:06Z",
      "version": 2,
      "changeset": 9712473,
      "user": "lyx",
      "uid": 28237,
      "tags": {
        "int_name": "Ḩammām ‘Afrā’; Hammam Afra",
        "is_in": "Jordan, الأردن",
        "name": "حمام عفراء",
        "name:ar": "حمام عفراء",
        "name:de": "Hammam Afra",
        "name:en": "Hammam Afra",
        "name:fr": "Hammam Afra",
        "natural": "spring"
      }
    },
    {
      "type": "node",
      "id": 802897819,
      "lat": 30.8834866,
      "lon": 35.6333344,
      "timestamp": "2011-11-01T15:58:18Z",
      "version": 2,
      "changeset": 9713737,
      "user": "lyx",
      "uid": 28237,
      "tags": {
        "int_name": "Khirbat es Sab‘a; Khirbat al Saba",
        "is_in": "Jordan, الأردن",
        "name": "خربة السبعة",
        "name:ar": "خربة السبعة",
        "name:de": "Khirbat al Saba",
        "name:en": "Khirbat al Saba",
        "name:fr": "Khirbat al Saba",
        "place": "village"
      }
    },
    {
      "type": "node",
      "id": 802897828,
      "lat": 30.878615,
      "lon": 35.595645,
      "timestamp": "2011-10-31T23:54:46Z",
      "version": 2,
      "changeset": 9709095,
      "user": "lyx",
      "uid": 28237,
      "tags": {
        "int_name": "‘Aima; Aima; Aime; Al Ime",
        "is_in": "Jordan, الأردن",
        "name": "العيمة",
        "name:ar": "العيمة",
        "name:de": "Aima",
        "name:en": "Aima",
        "name:fr": "Aima",
        "place": "village"
      }
    },
    {
      "type": "node",
      "id": 802897858,
      "lat": 30.9,
      "lon": 35.6,
      "timestamp": "2011-10-31T23:54:46Z",
      "version": 2,
      "changeset": 9709095,
      "user": "lyx",
      "uid": 28237,
      "tags": {
        "int_name": "‘Ain Dibā‘a; Ain Dibaa; Ayn Dibaah",
        "is_in": "Jordan, الأردن",
        "name": "عين ضباعة",
        "name:ar": "عين ضباعة",
        "name:de": "Ain Dibaa",
        "name:en": "Ain Dibaa",
        "name:fr": "Ain Dibaa",
        "natural": "spring"
      }
    },
    {
      "type": "node",
      "id": 802897896,
      "lat": 30.966667,
      "lon": 35.566667,
      "timestamp": "2011-10-31T23:54:49Z",
      "version": 2,
      "changeset": 9709095,
      "user": "lyx",
      "uid": 28237,
      "tags": {
        "int_name": "‘Ain el Qaṭṭāra; Ain al Qattara",
        "is_in": "Jordan, الأردن",
        "name": "عين القطارة",
        "name:ar": "عين القطارة",
        "name:de": "Ain al Qattara",
        "name:en": "Ain al Qattara",
        "name:fr": "Ain al Qattara",
        "natural": "spring"
      }
    },
    {
      "type": "node",
      "id": 802899648,
      "lat": 30.907077,
      "lon": 35.808956,
      "timestamp": "2011-10-31T23:54:50Z",
      "version": 2,
      "changeset": 9709095,
      "user": "lyx",
      "uid": 28237,
      "tags": {
        "int_name": "Al ‘Ālīyah; Al Aliyah",
        "is_in": "Jordan, الأردن",
        "name": "العالية",
        "name:ar": "العالية",
        "name:de": "Al Aliyah",
        "name:en": "Al Aliyah",
        "name:fr": "Al Aliyah",
        "place": "village"
      }
    },
    {
      "type": "node",
      "id": 802901145,
      "lat": 30.9187351,
      "lon": 35.4605029,
      "timestamp": "2011-10-31T23:55:01Z",
      "version": 3,
      "changeset": 9709095,
      "user": "lyx",
      "uid": 28237,
      "tags": {
        "int_name": "Al Maamura",
        "is_in": "Jordan, الأردن",
        "name": "المعمورة",
        "name:ar": "المعمورة",
        "name:de": "Al Maamura",
        "name:en": "Al Maamura",
        "name:fr": "Al Maamura",
        "place": "village"
      }
    },
    {
      "type": "node",
      "id": 802901148,
      "lat": 30.9379889,
      "lon": 35.4474007,
      "timestamp": "2011-11-14T20:09:02Z",
      "version": 4,
      "changeset": 9828297,
      "user": "lyx",
      "uid": 28237,
      "tags": {
        "int_name": "Fayfa",
        "is_in": "Jordan, الأردن",
        "name": "فيفا",
        "name:ar": "فيفا",
        "name:de": "Fayfa",
        "name:en": "Fayfa",
        "name:fr": "Fayfa",
        "place": "village"
      }
    },
    {
      "type": "node",
      "id": 802901830,
      "lat": 31.033333,
      "lon": 35.45,
      "timestamp": "2011-11-01T11:55:52Z",
      "version": 2,
      "changeset": 9711862,
      "user": "lyx",
      "uid": 28237,
      "tags": {
        "int_name": "‘Ayn ad Dīsah; Ayn al Disah",
        "is_in": "Jordan, الأردن",
        "name": "عين الديسة",
        "name:ar": "عين الديسة",
        "name:de": "Ayn al Disah",
        "name:en": "Ayn al Disah",
        "name:fr": "Ayn al Disah",
        "natural": "spring"
      }
    },
    {
      "type": "node",
      "id": 802933656,
      "lat": 31.314444,
      "lon": 35.745,
      "timestamp": "2021-10-27T18:11:10Z",
      "version": 5,
      "changeset": 113050309,
      "user": "Olyon",
      "uid": 1443767,
      "tags": {
        "int_name": "El Qaşer; Al Qaser",
        "name": "Al Qaser - القصر",
        "name:ar": "القصر",
        "name:de": "Al Qasr",
        "name:en": "Al Qaser",
        "name:fr": "Al Qaser",
        "place": "village"
      }
    },
    {
      "type": "node",
      "id": 802933665,
      "lat": 31.298226,
      "lon": 35.7990316,
      "timestamp": "2011-10-31T23:55:10Z",
      "version": 2,
      "changeset": 9709095,
      "user": "lyx",
      "uid": 28237,
      "tags": {
        "int_name": "As Simākīyah; Al Simakiyah; Al Simakiya; Simakiyah",
        "is_in": "Jordan, الأردن",
        "name": "السماكية",
        "name:ar": "السماكية",
        "name:de": "Al Simakiyah",
        "name:en": "Al Simakiyah",
        "name:fr": "Al Simakiyah",
        "place": "village"
      }
    },
    {
      "type": "node",
      "id": 802933679,
      "lat": 31.3049981,
      "lon": 35.7989035,
      "timestamp": "2011-11-01T13:19:06Z",
      "version": 4,
      "changeset": 9712473,
      "user": "lyx",
      "uid": 28237,
      "tags": {
        "int_name": "Ḩamūd; Hamud; Humud",
        "is_in": "Jordan, الأردن",
        "name": "حمود",
        "name:ar": "حمود",
        "name:de": "Hamud",
        "name:en": "Hamud",
        "name:fr": "Hamud",
        "place": "village"
      }
    },
    {
      "type": "node",
      "id": 802933697,
      "lat": 31.298611,
      "lon": 35.720833,
      "timestamp": "2011-11-01T11:55:44Z",
      "version": 2,
      "changeset": 9711862,
      "user": "lyx",
      "uid": 28237,
      "tags": {
        "int_name": "Al Yārūt; Al Yarut",
        "is_in": "Jordan, الأردن",
        "name": "الياروت",
        "name:ar": "الياروت",
        "name:de": "Al Yarut",
        "name:en": "Al Yarut",
        "name:fr": "Al Yarut",
        "place": "village"
      }
    },
    {
      "type": "node",
      "id": 802933742,
      "lat": 31.292222,
      "lon": 35.703333,
      "timestamp": "2011-10-31T23:54:53Z",
      "version": 2,
      "changeset": 9709095,
      "user": "lyx",
      "uid": 28237,
      "tags": {
        "int_name": "Ad Dimnah; Al Dimnah; Al Dimna",
        "is_in": "Jordan, الأردن",
        "name": "الدمنة",
        "name:ar": "الدمنة",
        "name:de": "Al Dimnah",
        "name:en": "Al Dimnah",
        "name:fr": "Al Dimnah",
        "place": "village"
      }
    },
    {
      "type": "node",
      "id": 802943832,
      "lat": 31.133333,
      "lon": 35.75,
      "timestamp": "2011-10-31T23:54:55Z",
      "version": 2,
      "changeset": 9709095,
      "user": "lyx",
      "uid": 28237,
      "tags": {
        "int_name": "El Ghuweir; Al Ghuweir",
        "is_in": "Jordan, الأردن",
        "name": "الغوير",
        "name:ar": "الغوير",
        "name:de": "Al Ghuweir",
        "name:en": "Al Ghuweir",
        "name:fr": "Al Ghuweir",
        "place": "village"
      }
    },
    {
      "type": "node",
      "id": 802949576,
      "lat": 31.0534087,
      "lon": 35.469936,
      "timestamp": "2019-10-04T15:41:34Z",
      "version": 4,
      "changeset": 75294001,
      "user": "Aqaba Shark",
      "uid": 10269876,
      "tags": {
        "int_name": "‘Ayn Khawkhān; Ayn Khawkhan",
        "name": "عين خوخان",
        "name:ar": "عين خوخان",
        "name:de": "Ayn Khawkhan",
        "name:en": "Ayn Khawkhan",
        "name:fr": "Ayn Khawkhan",
        "natural": "spring"
      }
    },
    {
      "type": "node",
      "id": 907048399,
      "lat": 31.1983117,
      "lon": 35.3633809,
      "timestamp": "2017-06-10T05:00:14Z",
      "version": 3,
      "changeset": 49412690,
      "user": "SafwatHalaby_bot",
      "uid": 5816834,
      "tags": {
        "name": "mix market",
        "name:en": "mix market",
        "shop": "supermarket"
      }
    },
    {
      "type": "node",
      "id": 907117853,
      "lat": 31.2012229,
      "lon": 35.3633782,
      "timestamp": "2017-06-10T05:00:15Z",
      "version": 4,
      "changeset": 49412690,
      "user": "SafwatHalaby_bot",
      "uid": 5816834,
      "tags": {
        "name": "minimarket",
        "name:en": "minimarket",
        "shop": "supermarket"
      }
    },
    {
      "type": "node",
      "id": 1019030208,
      "lat": 31.070451,
      "lon": 35.3523503,
      "timestamp": "2021-03-19T10:14:56Z",
      "version": 7,
      "changeset": 101318604,
      "user": "Cleos Naharis",
      "uid": 12880643,
      "tags": {
        "description": "חניון מישורי, יש רוחות חזקות, לקשור טוב את האוהלים ולעגן עם אבנים כבדות",
        "description:he": "חניון מישורי, יש רוחות חזקות, לקשור טוב את האוהלים ולעגן עם אבנים כבדות",
        "name": "חניון לילה מישור עמיעז",
        "name:he": "חניון לילה מישור עמיעז",
        "tourism": "camp_site"
      }
    },
    {
      "type": "node",
      "id": 1077250123,
      "lat": 31.2251888,
      "lon": 35.2171235,
      "timestamp": "2022-01-18T16:07:49Z",
      "version": 6,
      "changeset": 116305632,
      "user": "hatul",
      "uid": 686490,
      "tags": {
        "name": "קבועה",
        "name:en": "Kabua",
        "name:fr": "Kabua",
        "name:he": "קבועה",
        "place": "village",
        "wikipedia": "he:קבועה",
        "wikipedia:he": "קבועה"
      }
    },
    {
      "type": "node",
      "id": 1237563268,
      "lat": 31.2572354,
      "lon": 35.1596253,
      "timestamp": "2011-04-08T18:45:23Z",
      "version": 1,
      "changeset": 7806811,
      "user": "Vladimir Kondratiev",
      "uid": 195738,
      "tags": {
        "amenity": "drinking_water"
      }
    },
    {
      "type": "node",
      "id": 1297247751,
      "lat": 31.1983209,
      "lon": 35.3637671,
      "timestamp": "2017-06-10T05:00:26Z",
      "version": 3,
      "changeset": 49412690,
      "user": "SafwatHalaby_bot",
      "uid": 5816834,
      "tags": {
        "name": "minimarket",
        "name:en": "minimarket",
        "shop": "supermarket"
      }
    },
    {
      "type": "node",
      "id": 1550362639,
      "lat": 31.2756726,
      "lon": 35.2835653,
      "timestamp": "2013-03-17T12:52:07Z",
      "version": 3,
      "changeset": 15395196,
      "user": "Mr_Israel",
      "uid": 22684,
      "tags": {
        "name": "Bedouin village",
        "name:en": "Bedouin village",
        "name:he": "ישוב בדואי",
        "place": "hamlet"
      }
    },
    {
      "type": "node",
      "id": 1668746147,
      "lat": 31.0170689,
      "lon": 35.2253075,
      "timestamp": "2020-09-24T13:02:05Z",
      "version": 11,
      "changeset": 91437071,
      "user": "hatul",
      "uid": 686490,
      "tags": {
        "description": "מעיין וגב גדול שמלא מים רוב השנה. ניתן להגיע אליו או מכיוון הכביש שיורד מדימונה לכיוון כביש הערבה, או מכיוון כביש 90 - על ערוץ נחל צפית או מפניה משביל ישראל",
        "description:he": "מעיין וגב גדול שמלא מים רוב השנה. ניתן להגיע אליו או מכיוון הכביש שיורד מדימונה לכיוון כביש הערבה, או מכיוון כביש 90 - על ערוץ נחל צפית או מפניה משביל ישראל",
        "image": "https://upload.wikimedia.org/wikipedia/commons/9/97/Israel_Hiking_Map_%D7%A2%D7%99%D7%9F_%D7%A6%D7%A4%D7%99%D7%AA.jpeg",
        "name": "עין צפית",
        "name:en": "Ein Tzafit",
        "name:he": "עין צפית",
        "natural": "spring",
        "waterway": "weir",
        "website": "http://www.nelech.co.il/%D7%9E%D7%A2%D7%99%D7%99%D7%A0%D7%95%D7%AA/%D7%9E%D7%99%D7%93%D7%A2/%D7%A2%D7%99%D7%9F-%D7%A6%D7%A4%D7%99%D7%AA"
      }
    },
    {
      "type": "node",
      "id": 1706297438,
      "lat": 31.2600407,
      "lon": 35.2088102,
      "timestamp": "2018-01-27T14:52:45Z",
      "version": 9,
      "changeset": 55805474,
      "user": "Ynhockey",
      "uid": 20518,
      "tags": {
        "brand": "Shufersal",
        "brand:wikidata": "Q4523181",
        "brand:wikipedia": "en:Shufersal",
        "level": "1",
        "name": "שופרסל דיל",
        "name:en": "Shufersal Deal",
        "name:he": "שופרסל דיל",
        "name:ru": "Шуферсаль Диль",
        "shop": "supermarket",
        "website": "https://www.shufersal.co.il"
      }
    },
    {
      "type": "node",
      "id": 1706297457,
      "lat": 31.2609736,
      "lon": 35.2158843,
      "timestamp": "2017-06-25T17:34:05Z",
      "version": 2,
      "changeset": 49818818,
      "user": "BMM994",
      "uid": 189946,
      "tags": {
        "name": "סופר ערד",
        "name:en": "Super Arad",
        "name:he": "סופר ערד",
        "shop": "convenience"
      }
    },
    {
      "type": "node",
      "id": 1921967649,
      "lat": 31.1709801,
      "lon": 35.3350252,
      "timestamp": "2022-03-02T08:02:11Z",
      "version": 9,
      "changeset": 118007288,
      "user": "zstadler",
      "uid": 3127,
      "tags": {
        "description": "חניון לילה לא רשמי. שטח נוח שהיה בעבר מתקן קידוח נפט.",
        "description:he": "חניון לילה לא רשמי. שטח נוח שהיה בעבר מתקן קידוח נפט.",
        "fee": "no",
        "image": "https://upload.wikimedia.org/wikipedia/commons/7/79/IHM_campsite_1.jpeg",
        "image1": "https://upload.wikimedia.org/wikipedia/commons/0/0a/IHM_campsite_2.jpeg",
        "image2": "https://upload.wikimedia.org/wikipedia/commons/0/04/IHM_campsite_3.jpeg",
        "overnight": "yes",
        "tourism": "camp_site"
      }
    },
    {
      "type": "node",
      "id": 2188338096,
      "lat": 30.7677164,
      "lon": 35.2796246,
      "timestamp": "2021-09-07T08:45:54Z",
      "version": 11,
      "changeset": 110843893,
      "user": "zstadler",
      "uid": 3127,
      "tags": {
        "name": "חצבה",
        "name:en": "Hatzeva",
        "name:fr": "Hatzeva",
        "name:he": "חצבה",
        "place": "village"
      }
    },
    {
      "type": "node",
      "id": 2546704020,
      "lat": 30.9338441,
      "lon": 35.3760951,
      "timestamp": "2015-03-18T12:12:46Z",
      "version": 2,
      "changeset": 29565595,
      "user": "sivan00",
      "uid": 2045570,
      "tags": {
        "name": "Grocery store",
        "name:en": "Grocery store",
        "shop": "supermarket"
      }
    },
    {
      "type": "node",
      "id": 2587877212,
      "lat": 31.331568,
      "lon": 35.2784613,
      "timestamp": "2021-03-08T22:30:01Z",
      "version": 5,
      "changeset": 100664399,
      "user": "hatul",
      "uid": 686490,
      "tags": {
        "description": "חניון עם סהרונים וחביות למדורות אך ללא מים.",
        "description:he": "חניון עם סהרונים וחביות למדורות אך ללא מים.",
        "image": "https://upload.wikimedia.org/wikipedia/commons/a/a2/IHM_חניון_לילה_ברכת_צפירה.jpeg",
        "name": "חניון לילה ברכת צפירה",
        "name:en": "Birkat tzfira camp area",
        "name:he": "חניון לילה ברכת צפירה",
        "tourism": "camp_site"
      }
    },
    {
      "type": "node",
      "id": 2724206191,
      "lat": 31.3514748,
      "lon": 35.3535767,
      "timestamp": "2022-01-09T19:04:36Z",
      "version": 7,
      "changeset": 115954620,
      "user": "mosherf",
      "uid": 12113237,
      "tags": {
        "access": "yes",
        "description": "חניון גדול ושקט עם רחבות מסודרות לבניית אוהלים.",
        "description:he": "חניון גדול ושקט עם רחבות מסודרות לבניית אוהלים.",
        "fee": "no",
        "image": "https://upload.wikimedia.org/wikipedia/commons/3/3e/IHM_חניון_לילה_נחל_צאלים.jpeg",
        "image1": "https://upload.wikimedia.org/wikipedia/commons/6/6c/IHM_חניון_לילה_נחל_צאלים_1.jpeg",
        "image2": "https://upload.wikimedia.org/wikipedia/commons/7/76/IHM_חניון_לילה_נחל_צאלים_2.jpeg",
        "image3": "https://upload.wikimedia.org/wikipedia/commons/d/d6/IHM_חניון_לילה_נחל_צאלים_3.jpeg",
        "image4": "https://upload.wikimedia.org/wikipedia/commons/6/65/IHM_חניון_לילה_נחל_צאלים_4.jpeg",
        "name": "חניון לילה נחל צאלים",
        "name:en": "Zeelim Camp Site",
        "name:he": "חניון לילה נחל צאלים",
        "note": "Some 3G\nNo Water\nMaybe noisy and illuminated at night (have ears and mask) !",
        "tourism": "camp_site"
      }
    },
    {
      "type": "node",
      "id": 2820502332,
      "lat": 31.3167303,
      "lon": 35.3544963,
      "timestamp": "2014-04-27T12:33:10Z",
      "version": 1,
      "changeset": 21976311,
      "user": "Papa Schlumpf",
      "uid": 13969,
      "tags": {
        "amenity": "drinking_water"
      }
    },
    {
      "type": "node",
      "id": 2949879224,
      "lat": 31.231274,
      "lon": 35.3455382,
      "timestamp": "2021-02-09T09:18:32Z",
      "version": 5,
      "changeset": 98962099,
      "user": "kalimi ronen",
      "uid": 3934326,
      "tags": {
        "name:en": "Ma'ale Yair camping site",
        "name:he": "חניון לילה מעלה יאיר",
        "tourism": "camp_site"
      }
    },
    {
      "type": "node",
      "id": 3296007478,
      "lat": 30.9561201,
      "lon": 35.3638864,
      "timestamp": "2020-03-21T14:29:10Z",
      "version": 3,
      "changeset": 82460835,
      "user": "Roi Rosenthal",
      "uid": 9613469,
      "tags": {
        "ele": "-349.0",
        "image": "https://upload.wikimedia.org/wikipedia/commons/1/1b/Israel_Hiking_Map_עין_פלוטית.jpeg",
        "image1": "https://upload.wikimedia.org/wikipedia/commons/1/17/Israel_Hiking_Map_עין_פלוטית_1.jpeg",
        "name": "עין פלוטית",
        "name:en": "The Hidden Spring",
        "name:he": "עין פלוטית",
        "natural": "spring",
        "source": "GPS"
      }
    },
    {
      "type": "node",
      "id": 3308311303,
      "lat": 31.3512945,
      "lon": 35.3387441,
      "timestamp": "2021-06-26T03:41:23Z",
      "version": 4,
      "changeset": 106989282,
      "user": "Razp",
      "uid": 12401423,
      "tags": {
        "description": "מעיין קטן בגדה המערבית של נחל ענבה למרגלות השביל האדום. מצפון לו אנדרטת זיכרון קטנה.\nמים רדודים שלא מתאימים לרחצה או לשתייה.",
        "description:he": "מעיין קטן בגדה המערבית של נחל ענבה למרגלות השביל האדום. מצפון לו אנדרטת זיכרון קטנה.\nמים רדודים שלא מתאימים לרחצה או לשתייה.",
        "ele": "-159.0",
        "gns_ref": "-779210",
        "image": "https://upload.wikimedia.org/wikipedia/commons/c/c1/IHM_עין_ענבה.jpeg",
        "name": "עין ענבה",
        "name:en": "Ein Anava",
        "name:en1": "`En `Uneiba",
        "name:he": "עין ענבה",
        "natural": "spring",
        "source": "GPS",
        "wikidata": "Q26764169"
      }
    },
    {
      "type": "node",
      "id": 3442732613,
      "lat": 31.3153286,
      "lon": 35.3457031,
      "timestamp": "2022-03-21T19:40:37Z",
      "version": 7,
      "changeset": 118750118,
      "user": "hatul",
      "uid": 686490,
      "tags": {
        "description": "חניון מסודר ובתשלום.\nיש שרותים וניתן לקבל עץ למדורה.\nפינות מסודרת ונפרדות להקמת אוהל עם שולחנות פיקניק ופינת מדורה מסודרת.",
        "description:he": "חניון מסודר ובתשלום.\nיש שרותים וניתן לקבל עץ למדורה.\nפינות מסודרת ונפרדות להקמת אוהל עם שולחנות פיקניק ופינת מדורה מסודרת.",
        "fee": "yes",
        "image": "https://upload.wikimedia.org/wikipedia/commons/0/09/Israel_Hiking_Map_%D7%97%D7%A0%D7%99%D7%95%D7%9F_%D7%9E%D7%A6%D7%93%D7%94_%D7%9E%D7%A2%D7%A8%D7%91.jpeg",
        "image1": "https://upload.wikimedia.org/wikipedia/commons/3/3e/Israel_Hiking_Map_%D7%97%D7%A0%D7%99%D7%95%D7%9F_%D7%9E%D7%A6%D7%93%D7%94_%D7%9E%D7%A2%D7%A8%D7%91_1.jpeg",
        "name": "חניון לילה מצדה מערב",
        "name:en": "masada west night camp",
        "name:he": "חניון לילה מצדה מערב",
        "operator": "NPA",
        "tourism": "camp_site"
      }
    },
    {
      "type": "node",
      "id": 3568228625,
      "lat": 31.2980564,
      "lon": 35.2977691,
      "timestamp": "2021-08-26T15:06:48Z",
      "version": 6,
      "changeset": 110293796,
      "user": "hatul",
      "uid": 686490,
      "tags": {
        "description": "חניון שקט עם פינות לאוהלים ובורות למדורות.",
        "description:he": "חניון שקט עם פינות לאוהלים ובורות למדורות.",
        "image": "https://upload.wikimedia.org/wikipedia/commons/7/7b/IHM_חניון_לילה_הר_קנאים.jpeg",
        "image1": "https://upload.wikimedia.org/wikipedia/commons/0/02/IHM_חניון_לילה_הר_קנאים_1.jpeg",
        "image2": "https://upload.wikimedia.org/wikipedia/commons/6/6b/IHM_חניון_לילה_הר_קנאים_2.jpeg",
        "name": "חניון לילה הר קנאים",
        "name:en": "Kannaim Mt. camp area",
        "name:he": "חניון לילה הר קנאים",
        "tourism": "camp_site"
      }
    },
    {
      "type": "node",
      "id": 3568331220,
      "lat": 31.3052987,
      "lon": 35.2692954,
      "timestamp": "2021-03-28T23:44:56Z",
      "version": 8,
      "changeset": 101892796,
      "user": "Vejoson",
      "uid": 11422772,
      "tags": {
        "description": "בבקעת הקנאים שבמדבר יהודה, בין העיר ערד למצדה, שוכן נווה מדבר מוריק: כפר הנוקדים. כאן, בצל עצי דקל ובוסתנים, עומדים חדרי אירוח ציוריים, אוהלים בדואים ארוגים מצמר עיזים, חאנים רחבי ידיים מאבן מקומית ופינות חמד לרוב. אירוח בחדרים, אוהלים, סוכות וקמפינג",
        "email": "kfar@khn.co.il",
        "leisure": "resort",
        "name": "כפר הנוקדים",
        "name:en": "Kfar Hanokdim",
        "name:fr": "Kfar Hanokdim",
        "name:he": "כפר הנוקדים",
        "phone": "08-9950097",
        "place": "village",
        "start_date": "1991",
        "tourism": "hotel",
        "website": "www.KfarHanokdim.co.il"
      }
    },
    {
      "type": "node",
      "id": 3568527627,
      "lat": 31.2802307,
      "lon": 35.2421426,
      "timestamp": "2021-04-17T23:22:34Z",
      "version": 7,
      "changeset": 103120532,
      "user": "Vejoson",
      "uid": 11422772,
      "tags": {
        "name": "זמן מדבר",
        "name:en": "Zman Midbar",
        "name:fr": "Zman Midbar",
        "name:he": "זמן מדבר",
        "place": "hamlet",
        "website": "http://zmanmidbar.net/"
      }
    },
    {
      "type": "node",
      "id": 3714134400,
      "lat": 31.2901552,
      "lon": 35.2717519,
      "timestamp": "2020-04-28T20:30:25Z",
      "version": 4,
      "changeset": 84290189,
      "user": "Edward",
      "uid": 364,
      "tags": {
        "accuracy": "minutes",
        "ele": "390",
        "gns_ref": "-780653",
        "name": "הר מנחם",
        "name:en": "Mt. Menahem",
        "name:en1": "Rujm Umm Wasa",
        "name:he": "הר מנחם",
        "natural": "peak",
        "source": "GEOnet Names Server (gns);NASA SRTM;GPS",
        "wikidata": "Q26763570"
      }
    },
    {
      "type": "node",
      "id": 3804059582,
      "lat": 31.1699699,
      "lon": 35.3675668,
      "timestamp": "2017-06-10T05:07:52Z",
      "version": 2,
      "changeset": 49412690,
      "user": "SafwatHalaby_bot",
      "uid": 5816834,
      "tags": {
        "name": "Kiosk",
        "name:en": "Kiosk",
        "shop": "convenience"
      }
    },
    {
      "type": "node",
      "id": 4018467343,
      "lat": 31.0716253,
      "lon": 35.3963073,
      "timestamp": "2021-07-08T18:29:08Z",
      "version": 4,
      "changeset": 107654816,
      "user": "GorALexeY",
      "uid": 11765454,
      "tags": {
        "image": "https://upload.wikimedia.org/wikipedia/commons/0/02/IHM_קולונל.jpeg",
        "image1": "https://upload.wikimedia.org/wikipedia/commons/0/0f/IHM_קולונל_1.jpeg",
        "image2": "https://upload.wikimedia.org/wikipedia/commons/1/10/IHM_קולונל_2.jpeg",
        "image3": "https://upload.wikimedia.org/wikipedia/commons/7/77/IHM_קולונל_3.jpeg",
        "image4": "https://upload.wikimedia.org/wikipedia/commons/2/23/IHM_קולונל_4.jpeg",
        "image5": "https://upload.wikimedia.org/wikipedia/commons/5/53/IHM_קולונל_5.jpeg",
        "image6": "https://upload.wikimedia.org/wikipedia/commons/e/ed/IHM_קולונל_6.jpeg",
        "name": "קולונל",
        "name:en": "Colonel",
        "name:he": "קולונל",
        "natural": "cave_entrance"
      }
    },
    {
      "type": "node",
      "id": 4018467344,
      "lat": 31.0718229,
      "lon": 35.3937332,
      "timestamp": "2018-10-01T17:16:55Z",
      "version": 3,
      "changeset": 63101201,
      "user": "yrtimiD",
      "uid": 331840,
      "tags": {
        "name": "קולונל",
        "name:en": "Colonel",
        "name:he": "קולונל",
        "natural": "cave_entrance"
      }
    },
    {
      "type": "node",
      "id": 4163752697,
      "lat": 31.1397305,
      "lon": 35.3020134,
      "timestamp": "2018-10-01T21:52:43Z",
      "version": 3,
      "changeset": 63108096,
      "user": "hatul",
      "uid": 686490,
      "tags": {
        "description": "נביעה קטנה בתחתית גיא חמר.",
        "description:he": "נביעה קטנה בתחתית גיא חמר.",
        "image": "https://upload.wikimedia.org/wikipedia/commons/8/81/Israel_Hiking_Map_%D7%A2%D7%99%D7%9F_%D7%90%D7%A9%D7%93.jpeg",
        "name": "עין אשד",
        "name:en": "Ein Eshad",
        "name:he": "עין אשד",
        "natural": "spring"
      }
    },
    {
      "type": "node",
      "id": 4185669267,
      "lat": 31.0764537,
      "lon": 35.3970705,
      "timestamp": "2022-01-02T06:16:42Z",
      "version": 4,
      "changeset": 115658680,
      "user": "חיליק אגמון",
      "uid": 9200198,
      "tags": {
        "access": "no",
        "description": "הכניסה אסורה בהחלט, הכניסה למערה מסוכנת ביותר.",
        "description:he": "הכניסה אסורה בהחלט, הכניסה למערה מסוכנת ביותר.",
        "image": "https://upload.wikimedia.org/wikipedia/commons/1/18/IHM_מלח\"ם_-_כניסה_תחתונה.jpeg",
        "name": "מלח\"ם - כניסה תחתונה",
        "name:en": "Malham - Lower entry",
        "name:he": "מלח\"ם - כניסה תחתונה",
        "natural": "cave_entrance"
      }
    },
    {
      "type": "node",
      "id": 4185669268,
      "lat": 31.0775546,
      "lon": 35.3960897,
      "timestamp": "2021-06-29T16:59:02Z",
      "version": 5,
      "changeset": 107160868,
      "user": "hatul",
      "uid": 686490,
      "tags": {
        "access": "no",
        "name": "מלח\"ם",
        "name:en": "Malham",
        "name:he": "מלח\"ם",
        "natural": "cave_entrance",
        "wikidata": "Q4286545",
        "wikipedia": "he:מערת מלח\"ם",
        "wikipedia:he": "מערת מלח\"ם"
      }
    },
    {
      "type": "node",
      "id": 4232973390,
      "lat": 31.3288266,
      "lon": 35.6557484,
      "timestamp": "2016-06-09T03:30:17Z",
      "version": 1,
      "changeset": 39898062,
      "user": "Abo shgr",
      "uid": 4073766,
      "tags": {
        "name": "صرفا",
        "tourism": "alpine_hut"
      }
    },
    {
      "type": "node",
      "id": 4429242318,
      "lat": 30.9851577,
      "lon": 35.3074047,
      "timestamp": "2017-06-10T05:08:05Z",
      "version": 2,
      "changeset": 49412690,
      "user": "SafwatHalaby_bot",
      "uid": 5816834,
      "tags": {
        "brand": "מנטה",
        "name": "הערבה",
        "name:he": "הערבה",
        "opening_hours": "24/7",
        "shop": "convenience"
      }
    },
    {
      "type": "node",
      "id": 4490684442,
      "lat": 30.9890735,
      "lon": 35.6028355,
      "timestamp": "2016-11-09T14:03:39Z",
      "version": 1,
      "changeset": 43512832,
      "user": "alexy",
      "uid": 296469,
      "tags": {
        "natural": "spring"
      }
    },
    {
      "type": "node",
      "id": 4516959645,
      "lat": 31.146949,
      "lon": 35.190875,
      "timestamp": "2016-11-23T12:07:56Z",
      "version": 1,
      "changeset": 43894323,
      "user": "zstadler",
      "uid": 3127,
      "tags": {
        "amenity": "drinking_water",
        "source": "GPS"
      }
    },
    {
      "type": "node",
      "id": 4726035535,
      "lat": 30.8117804,
      "lon": 35.2469853,
      "timestamp": "2021-09-07T08:45:54Z",
      "version": 8,
      "changeset": 110843893,
      "user": "zstadler",
      "uid": 3127,
      "tags": {
        "name": "עיר אובות",
        "name:en": "Ir Ovot",
        "name:fr": "Ir Ovot",
        "name:he": "עיר אובות",
        "name:ru": "Ир Овот",
        "place": "hamlet",
        "population": "8",
        "wikidata": "Q117418"
      }
    },
    {
      "type": "node",
      "id": 4754558912,
      "lat": 30.990019,
      "lon": 35.600129,
      "timestamp": "2017-03-25T13:18:49Z",
      "version": 1,
      "changeset": 47151187,
      "user": "amckenna",
      "uid": 646431,
      "tags": {
        "natural": "spring"
      }
    },
    {
      "type": "node",
      "id": 4818464421,
      "lat": 31.2051046,
      "lon": 35.3617141,
      "timestamp": "2021-03-01T14:15:35Z",
      "version": 6,
      "changeset": 100212312,
      "user": "hatul",
      "uid": 686490,
      "tags": {
        "description:ru": "Хороший кемпинг. Есть туалет душ , хороший пляж, и вайфа",
        "name": "חניון לילה מלונות ים המלח צפון",
        "name:he": "חניון לילה מלונות ים המלח צפון",
        "source": "https://www.facebook.com/groups/368302393254183/permalink/3764770373607351/",
        "tourism": "camp_site"
      }
    },
    {
      "type": "node",
      "id": 4818464423,
      "lat": 31.2050035,
      "lon": 35.3615812,
      "timestamp": "2019-09-17T20:47:00Z",
      "version": 3,
      "changeset": 74598607,
      "user": "hatul",
      "uid": 686490,
      "tags": {
        "amenity": "drinking_water"
      }
    },
    {
      "type": "node",
      "id": 5029918707,
      "lat": 31.3149969,
      "lon": 35.3541225,
      "timestamp": "2017-08-12T06:09:48Z",
      "version": 1,
      "changeset": 51050269,
      "user": "domob",
      "uid": 521541,
      "tags": {
        "amenity": "drinking_water"
      }
    },
    {
      "type": "node",
      "id": 5359248998,
      "lat": 31.1100253,
      "lon": 35.307933,
      "timestamp": "2020-04-28T20:32:40Z",
      "version": 4,
      "changeset": 84290297,
      "user": "Edward",
      "uid": 364,
      "tags": {
        "ele": "206",
        "name": "הר בדוד",
        "name:en": "Mt. Boded",
        "name:he": "הר בדוד",
        "natural": "peak",
        "wikidata": "Q26763986"
      }
    },
    {
      "type": "node",
      "id": 5359264747,
      "lat": 31.1147376,
      "lon": 35.2604297,
      "timestamp": "2020-12-24T14:23:22Z",
      "version": 2,
      "changeset": 96391606,
      "user": "pizzaiolo",
      "uid": 1772368,
      "tags": {
        "ele": "293",
        "name": "הר קומות",
        "name:en": "Mt. Komot",
        "name:he": "הר קומות",
        "natural": "peak",
        "wikidata": "Q26762868"
      }
    },
    {
      "type": "node",
      "id": 5434934089,
      "lat": 31.2692159,
      "lon": 35.737769,
      "timestamp": "2021-03-16T00:22:34Z",
      "version": 3,
      "changeset": 101079634,
      "user": "Vejoson",
      "uid": 11422772,
      "tags": {
        "int_name": "Rabba",
        "name": "الربة",
        "name:ar": "الربة‎",
        "name:bn": "রাব্বা",
        "name:de": "Rabbat-Moab",
        "name:en": "Rabba",
        "name:fr": "Rabba",
        "old_name": "Areopolis",
        "place": "town",
        "wikidata": "Q847351",
        "wikipedia": "en:Rabba"
      }
    },
    {
      "type": "node",
      "id": 5475407221,
      "lat": 31.158652,
      "lon": 35.194256,
      "timestamp": "2018-03-13T11:06:40Z",
      "version": 1,
      "changeset": 57141594,
      "user": "offa72",
      "uid": 2410665,
      "tags": {
        "name": "מערת נחל חמר",
        "name:he": "מערת נחל חמר",
        "natural": "cave_entrance"
      }
    },
    {
      "type": "node",
      "id": 5686904499,
      "lat": 31.2475406,
      "lon": 35.2002669,
      "timestamp": "2018-06-13T07:07:51Z",
      "version": 1,
      "changeset": 59799861,
      "user": "sivan00",
      "uid": 2045570,
      "tags": {
        "name": "יינות ביתן",
        "name:en": "Yeynot Bittan",
        "name:he": "יינות ביתן",
        "shop": "supermarket"
      }
    },
    {
      "type": "node",
      "id": 5909607219,
      "lat": 30.8355559,
      "lon": 35.6430648,
      "timestamp": "2018-09-16T10:48:28Z",
      "version": 1,
      "changeset": 62632100,
      "user": "Tareq Khaled Alquraan",
      "uid": 8829789,
      "tags": {
        "amenity": "drinking_water",
        "name": "مياه العيص الصحية"
      }
    },
    {
      "type": "node",
      "id": 6003462785,
      "lat": 31.0031073,
      "lon": 35.2389749,
      "timestamp": "2018-10-21T20:33:36Z",
      "version": 1,
      "changeset": 63737882,
      "user": "hatul",
      "uid": 686490,
      "tags": {
        "description": "מי התהום קרובים לפני השטח ולכן צומחת צמחיית מים רבה. אין ממש נביעה.",
        "description:he": "מי התהום קרובים לפני השטח ולכן צומחת צמחיית מים רבה. אין ממש נביעה.",
        "image": "https://upload.wikimedia.org/wikipedia/commons/6/6d/Israel_Hiking_Map_%D7%A2%D7%99%D7%A0%D7%95%D7%AA_%D7%A6%D7%A4%D7%99%D7%AA.jpeg",
        "name": "עינות צפית",
        "name:he": "עינות צפית",
        "natural": "spring"
      }
    },
    {
      "type": "node",
      "id": 6052754489,
      "lat": 31.3176294,
      "lon": 35.3726768,
      "timestamp": "2021-08-25T13:20:30Z",
      "version": 5,
      "changeset": 110233192,
      "user": "Sanniu",
      "uid": 1206509,
      "tags": {
        "fee": "no",
        "name": "חניון לילה מצדה מזרח",
        "name:en": "Masada Eastern campsite",
        "name:he": "חניון לילה מצדה מזרח",
        "name:ru": "Масада восточный кемпинг",
        "tourism": "camp_site"
      }
    },
    {
      "type": "node",
      "id": 6063593685,
      "lat": 31.2353344,
      "lon": 35.2605782,
      "timestamp": "2021-04-13T15:42:32Z",
      "version": 4,
      "changeset": 102875373,
      "user": "hatul",
      "uid": 686490,
      "tags": {
        "image": "https://upload.wikimedia.org/wikipedia/commons/d/dc/IHM_חניון_לילה.jpeg",
        "name": "חניון לילה מורג",
        "name:he": "חניון לילה מורג",
        "tourism": "camp_site"
      }
    },
    {
      "type": "node",
      "id": 6138097081,
      "lat": 31.2559891,
      "lon": 35.3700247,
      "timestamp": "2020-05-16T17:14:54Z",
      "version": 2,
      "changeset": 85311424,
      "user": "SafwatHalaby",
      "uid": 2138064,
      "tags": {
        "name": "חניון לילה נחל מור",
        "name:he": "חניון לילה נחל מור",
        "tourism": "camp_site"
      }
    },
    {
      "type": "node",
      "id": 6174486305,
      "lat": 30.8059592,
      "lon": 35.2996459,
      "timestamp": "2020-05-16T17:14:54Z",
      "version": 2,
      "changeset": 85311424,
      "user": "SafwatHalaby",
      "uid": 2138064,
      "tags": {
        "addr:city": "עידן",
        "addr:postcode": "8684000",
        "name": "טאקו",
        "name:he": "טאקו",
        "shop": "supermarket"
      }
    },
    {
      "type": "node",
      "id": 6258302979,
      "lat": 31.1723771,
      "lon": 35.3690261,
      "timestamp": "2019-02-04T16:59:13Z",
      "version": 1,
      "changeset": 66909494,
      "user": "thumbsup",
      "uid": 6508691,
      "tags": {
        "amenity": "drinking_water"
      }
    },
    {
      "type": "node",
      "id": 6258303618,
      "lat": 31.171846,
      "lon": 35.3692081,
      "timestamp": "2019-02-04T16:59:14Z",
      "version": 1,
      "changeset": 66909494,
      "user": "thumbsup",
      "uid": 6508691,
      "tags": {
        "amenity": "drinking_water"
      }
    },
    {
      "type": "node",
      "id": 6389340287,
      "lat": 31.1397888,
      "lon": 35.3767276,
      "timestamp": "2020-06-25T13:12:14Z",
      "version": 2,
      "changeset": 87142787,
      "user": "hatul",
      "uid": 686490,
      "tags": {
        "name": "בריכות נווית",
        "name:he": "בריכות נווית",
        "natural": "spring"
      }
    },
    {
      "type": "node",
      "id": 6837980285,
      "lat": 31.174063,
      "lon": 35.3193247,
      "timestamp": "2022-03-01T10:22:09Z",
      "version": 3,
      "changeset": 117973922,
      "user": "hatul",
      "uid": 686490,
      "tags": {
        "image": "https://upload.wikimedia.org/wikipedia/commons/c/c2/IHM_חניון_לילה_צוק_תמרור.jpeg",
        "image1": "https://upload.wikimedia.org/wikipedia/commons/e/e7/IHM_חניון_לילה_צוק_תמרור_1.jpeg",
        "image2": "https://upload.wikimedia.org/wikipedia/commons/2/22/IHM_חניון_לילה_צוק_תמרור_2.jpeg",
        "name": "חניון לילה צוק תמרור",
        "name:he": "חניון לילה צוק תמרור",
        "operator": "npa",
        "tourism": "camp_site"
      }
    },
    {
      "type": "node",
      "id": 6854079987,
      "lat": 30.9970085,
      "lon": 35.7158573,
      "timestamp": "2019-10-05T18:47:46Z",
      "version": 1,
      "changeset": 75325630,
      "user": "Zielak666",
      "uid": 10355241,
      "tags": {
        "name": "Wild camping place",
        "tourism": "camp_site"
      }
    },
    {
      "type": "node",
      "id": 6955093200,
      "lat": 31.0043452,
      "lon": 35.2743562,
      "timestamp": "2021-03-31T18:56:08Z",
      "version": 2,
      "changeset": 102074423,
      "user": "hatul",
      "uid": 686490,
      "tags": {
        "fee": "no",
        "name": "חניון לילה נחל תמר",
        "name:he": "חניון לילה נחל תמר",
        "tourism": "camp_site"
      }
    },
    {
      "type": "node",
      "id": 6970246485,
      "lat": 31.2828472,
      "lon": 35.3700397,
      "timestamp": "2019-11-12T21:12:59Z",
      "version": 1,
      "changeset": 76982100,
      "user": "hatul",
      "uid": 686490,
      "tags": {
        "name": "חניון לילה נחל רחף",
        "name:he": "חניון לילה נחל רחף",
        "tourism": "camp_site"
      }
    },
    {
      "type": "node",
      "id": 6975197345,
      "lat": 30.8120975,
      "lon": 35.23409,
      "timestamp": "2020-04-28T20:32:45Z",
      "version": 4,
      "changeset": 84290297,
      "user": "Edward",
      "uid": 364,
      "tags": {
        "image": "https://upload.wikimedia.org/wikipedia/commons/7/76/Israel_Hiking_Map_גבעת_חצבה.jpeg",
        "name": "גבעת חצבה",
        "name:he": "גבעת חצבה",
        "natural": "peak",
        "tourism": "viewpoint",
        "wikidata": "Q26768763"
      }
    },
    {
      "type": "node",
      "id": 6978280585,
      "lat": 31.1365871,
      "lon": 35.289135,
      "timestamp": "2022-01-25T20:19:49Z",
      "version": 3,
      "changeset": 116600592,
      "user": "hatul",
      "uid": 686490,
      "tags": {
        "alt_name": "עין חימר",
        "alt_name:he": "עין חימר",
        "description": "נביעה קטנטנה שמתייבשת לעיתים קרובות. ניתן לראות בעיקר צמחייה.",
        "description:he": "נביעה קטנטנה שמתייבשת לעיתים קרובות. ניתן לראות בעיקר צמחייה.",
        "image": "https://upload.wikimedia.org/wikipedia/commons/5/56/Israel_Hiking_Map_עין_חמר.jpeg",
        "image1": "https://upload.wikimedia.org/wikipedia/commons/f/fa/Israel_Hiking_Map_עין_חמר_1.jpeg",
        "name": "עין חמר",
        "name:he": "עין חמר",
        "natural": "spring"
      }
    },
    {
      "type": "node",
      "id": 6985633385,
      "lat": 31.3020857,
      "lon": 35.3063369,
      "timestamp": "2019-11-17T19:26:37Z",
      "version": 1,
      "changeset": 77197782,
      "user": "hatul",
      "uid": 686490,
      "tags": {
        "description": "מערה ארוכה וסבוכה.",
        "description:he": "מערה ארוכה וסבוכה.",
        "name": "מערת קנאים",
        "name:he": "מערת קנאים",
        "natural": "cave_entrance"
      }
    },
    {
      "type": "node",
      "id": 6998057094,
      "lat": 31.3173503,
      "lon": 35.3545994,
      "timestamp": "2019-11-22T05:23:36Z",
      "version": 1,
      "changeset": 77406358,
      "user": "GBAB",
      "uid": 3335899,
      "tags": {
        "amenity": "drinking_water"
      }
    },
    {
      "type": "node",
      "id": 7015615989,
      "lat": 31.3219793,
      "lon": 35.3410476,
      "timestamp": "2020-07-26T21:45:18Z",
      "version": 2,
      "changeset": 88533328,
      "user": "hatul",
      "uid": 686490,
      "tags": {
        "description": "משטחים נוחים לאוהל בצד דרך העפר. המקום נמצא מחוץ לגן לאומי מצדה ואין בעיה חוקית לישון כאן.",
        "description:he": "משטחים נוחים לאוהל בצד דרך העפר. המקום נמצא מחוץ לגן לאומי מצדה ואין בעיה חוקית לישון כאן.",
        "fee": "no",
        "image": "https://upload.wikimedia.org/wikipedia/commons/e/ef/Israel_Hiking_Map_חניון_לילה_לא_רשמי.jpeg",
        "name": "חניון לילה לא רשמי",
        "name:he": "חניון לילה לא רשמי",
        "tourism": "camp_site"
      }
    },
    {
      "type": "node",
      "id": 7015616085,
      "lat": 31.3177889,
      "lon": 35.3487736,
      "timestamp": "2020-06-17T12:55:29Z",
      "version": 3,
      "changeset": 86775472,
      "user": "zstadler",
      "uid": 3127,
      "tags": {
        "amenity": "drinking_water",
        "cold_water": "yes",
        "description": "ברז מים קרים",
        "image": "https://upload.wikimedia.org/wikipedia/commons/3/3e/Israel_Hiking_Map_ברז_מים_קרים.jpeg"
      }
    },
    {
      "type": "node",
      "id": 7090793285,
      "lat": 31.2927938,
      "lon": 35.6460866,
      "timestamp": "2019-12-28T15:15:25Z",
      "version": 1,
      "changeset": 78957731,
      "user": "MrBrightsideTK",
      "uid": 4060262,
      "tags": {
        "name:en": "Bedouin camp",
        "tourism": "camp_site"
      }
    },
    {
      "type": "node",
      "id": 7157345285,
      "lat": 31.0843869,
      "lon": 35.3557286,
      "timestamp": "2021-01-24T04:35:01Z",
      "version": 6,
      "changeset": 98043036,
      "user": "GorALexeY",
      "uid": 11765454,
      "tags": {
        "access": "no",
        "description": "הכניסה למערה אסורה!!",
        "description:he": "הכניסה למערה אסורה!!",
        "image": "https://upload.wikimedia.org/wikipedia/commons/7/78/Israel_Hiking_Map_כניסה_למערת_הקמח.jpeg",
        "image1": "https://upload.wikimedia.org/wikipedia/commons/4/49/IHM_כניסה.jpeg",
        "image2": "https://upload.wikimedia.org/wikipedia/commons/3/3a/IHM_כניסה_1.jpeg",
        "image3": "https://upload.wikimedia.org/wikipedia/commons/e/e2/IHM_כניסה_2.jpeg",
        "name": "כניסה",
        "name:he": "כניסה",
        "natural": "cave_entrance",
        "tourism": "attraction"
      }
    },
    {
      "type": "node",
      "id": 7184121792,
      "lat": 31.0280587,
      "lon": 35.7169147,
      "timestamp": "2020-02-04T12:28:27Z",
      "version": 1,
      "changeset": 80532822,
      "user": "roadscarf",
      "uid": 4240291,
      "tags": {
        "amenity": "drinking_water"
      }
    },
    {
      "type": "node",
      "id": 7541638946,
      "lat": 31.0293899,
      "lon": 35.7319199,
      "timestamp": "2021-10-27T18:11:10Z",
      "version": 2,
      "changeset": 113050309,
      "user": "Olyon",
      "uid": 1443767,
      "tags": {
        "name": "مؤاب",
        "name:en": "Mo'aab",
        "place": "village"
      }
    },
    {
      "type": "node",
      "id": 7541651052,
      "lat": 31.0242714,
      "lon": 35.7410707,
      "timestamp": "2020-05-20T15:58:58Z",
      "version": 1,
      "changeset": 85508328,
      "user": "S-M-R",
      "uid": 10914036,
      "tags": {
        "name": "الفيصلية",
        "place": "village"
      }
    },
    {
      "type": "node",
      "id": 7541662276,
      "lat": 31.0303198,
      "lon": 35.7387961,
      "timestamp": "2021-03-18T00:27:16Z",
      "version": 2,
      "changeset": 101218492,
      "user": "Vejoson",
      "uid": 11422772,
      "tags": {
        "name": "الخالدية",
        "name:fr": "Khalidiya",
        "place": "village"
      }
    },
    {
      "type": "node",
      "id": 7541663260,
      "lat": 31.0367286,
      "lon": 35.7214622,
      "timestamp": "2020-05-20T16:04:03Z",
      "version": 1,
      "changeset": 85508506,
      "user": "S-M-R",
      "uid": 10914036,
      "tags": {
        "name": "عمريه",
        "place": "village"
      }
    },
    {
      "type": "node",
      "id": 7541707264,
      "lat": 31.2121771,
      "lon": 35.6764183,
      "timestamp": "2020-05-20T16:21:40Z",
      "version": 1,
      "changeset": 85509305,
      "user": "S-M-R",
      "uid": 10914036,
      "tags": {
        "name": "بزان",
        "place": "village"
      }
    },
    {
      "type": "node",
      "id": 7541735726,
      "lat": 31.0596512,
      "lon": 35.6952176,
      "timestamp": "2020-05-20T16:27:11Z",
      "version": 1,
      "changeset": 85509649,
      "user": "S-M-R",
      "uid": 10914036,
      "tags": {
        "name": "ام قاع",
        "place": "village"
      }
    },
    {
      "type": "node",
      "id": 7541743486,
      "lat": 31.0487839,
      "lon": 35.6877762,
      "timestamp": "2021-03-18T00:27:16Z",
      "version": 2,
      "changeset": 101218492,
      "user": "Vejoson",
      "uid": 11422772,
      "tags": {
        "name": "الحارثية",
        "name:fr": "Harithiya",
        "place": "village",
        "wikidata": "Q12186055"
      }
    },
    {
      "type": "node",
      "id": 7549550256,
      "lat": 31.030431,
      "lon": 35.6559674,
      "timestamp": "2020-05-22T18:35:02Z",
      "version": 1,
      "changeset": 85626759,
      "user": "SalehR7",
      "uid": 10372709,
      "tags": {
        "name": "مجيدل",
        "place": "village"
      }
    },
    {
      "type": "node",
      "id": 7549550257,
      "lat": 31.0285993,
      "lon": 35.6786845,
      "timestamp": "2020-05-22T18:35:02Z",
      "version": 1,
      "changeset": 85626759,
      "user": "SalehR7",
      "uid": 10372709,
      "tags": {
        "name": "مجرا",
        "place": "village"
      }
    },
    {
      "type": "node",
      "id": 7549550267,
      "lat": 31.2900659,
      "lon": 35.5341994,
      "timestamp": "2020-05-22T18:35:02Z",
      "version": 1,
      "changeset": 85626759,
      "user": "SalehR7",
      "uid": 10372709,
      "tags": {
        "name": "غور الحديثه",
        "place": "village"
      }
    },
    {
      "type": "node",
      "id": 7549550269,
      "lat": 31.1389348,
      "lon": 35.6886255,
      "timestamp": "2020-05-22T18:35:02Z",
      "version": 1,
      "changeset": 85626759,
      "user": "SalehR7",
      "uid": 10372709,
      "tags": {
        "name": "عينون",
        "place": "village"
      }
    },
    {
      "type": "node",
      "id": 7549550280,
      "lat": 30.8073107,
      "lon": 35.6007114,
      "timestamp": "2020-05-22T18:35:02Z",
      "version": 1,
      "changeset": 85626759,
      "user": "SalehR7",
      "uid": 10372709,
      "tags": {
        "name": "عابل",
        "place": "village"
      }
    },
    {
      "type": "node",
      "id": 7549550889,
      "lat": 31.3287613,
      "lon": 35.655752,
      "timestamp": "2020-05-22T18:35:02Z",
      "version": 1,
      "changeset": 85626759,
      "user": "SalehR7",
      "uid": 10372709,
      "tags": {
        "name": "صرفا",
        "place": "village"
      }
    },
    {
      "type": "node",
      "id": 7549550891,
      "lat": 31.331454,
      "lon": 35.7020665,
      "timestamp": "2020-05-22T18:35:02Z",
      "version": 1,
      "changeset": 85626759,
      "user": "SalehR7",
      "uid": 10372709,
      "tags": {
        "name": "شحتور",
        "place": "village"
      }
    },
    {
      "type": "node",
      "id": 7549550894,
      "lat": 31.199663,
      "lon": 35.6527439,
      "timestamp": "2020-05-22T18:35:02Z",
      "version": 1,
      "changeset": 85626759,
      "user": "SalehR7",
      "uid": 10372709,
      "tags": {
        "name": "سمرا",
        "place": "village"
      }
    },
    {
      "type": "node",
      "id": 7549550907,
      "lat": 31.2287028,
      "lon": 35.7066489,
      "timestamp": "2020-05-22T18:35:02Z",
      "version": 1,
      "changeset": 85626759,
      "user": "SalehR7",
      "uid": 10372709,
      "tags": {
        "name": "راكين",
        "place": "village"
      }
    },
    {
      "type": "node",
      "id": 7549550932,
      "lat": 31.1618089,
      "lon": 35.6465467,
      "timestamp": "2020-05-22T18:35:02Z",
      "version": 1,
      "changeset": 85626759,
      "user": "SalehR7",
      "uid": 10372709,
      "tags": {
        "name": "جوزا الشمالية",
        "place": "village"
      }
    },
    {
      "type": "node",
      "id": 7549550933,
      "lat": 31.1556823,
      "lon": 35.6459162,
      "timestamp": "2020-05-22T18:35:02Z",
      "version": 1,
      "changeset": 85626759,
      "user": "SalehR7",
      "uid": 10372709,
      "tags": {
        "name": "جوزا الجنوبية",
        "place": "village"
      }
    },
    {
      "type": "node",
      "id": 7549550945,
      "lat": 31.2216641,
      "lon": 35.6494511,
      "timestamp": "2020-05-22T18:35:02Z",
      "version": 1,
      "changeset": 85626759,
      "user": "SalehR7",
      "uid": 10372709,
      "tags": {
        "name": "بقيع",
        "place": "village"
      }
    },
    {
      "type": "node",
      "id": 7549550956,
      "lat": 31.0303739,
      "lon": 35.6702011,
      "timestamp": "2020-05-22T18:35:02Z",
      "version": 1,
      "changeset": 85626759,
      "user": "SalehR7",
      "uid": 10372709,
      "tags": {
        "name": "ام الغزلان",
        "place": "village"
      }
    },
    {
      "type": "node",
      "id": 7549550962,
      "lat": 31.2269848,
      "lon": 35.7242222,
      "timestamp": "2020-05-22T18:35:02Z",
      "version": 1,
      "changeset": 85626759,
      "user": "SalehR7",
      "uid": 10372709,
      "tags": {
        "name": "الوسية.",
        "place": "village"
      }
    },
    {
      "type": "node",
      "id": 7549550971,
      "lat": 31.0220333,
      "lon": 35.4814476,
      "timestamp": "2020-05-22T18:35:02Z",
      "version": 1,
      "changeset": 85626759,
      "user": "SalehR7",
      "uid": 10372709,
      "tags": {
        "name": "النقع",
        "place": "village"
      }
    },
    {
      "type": "node",
      "id": 7549550995,
      "lat": 30.7544447,
      "lon": 35.337255,
      "timestamp": "2020-05-22T18:35:02Z",
      "version": 1,
      "changeset": 85626759,
      "user": "SalehR7",
      "uid": 10372709,
      "tags": {
        "name": "الغويبة",
        "place": "village"
      }
    },
    {
      "type": "node",
      "id": 7549551004,
      "lat": 31.0306716,
      "lon": 35.6469855,
      "timestamp": "2020-05-22T18:35:02Z",
      "version": 1,
      "changeset": 85626759,
      "user": "SalehR7",
      "uid": 10372709,
      "tags": {
        "name": "الظاهرية",
        "place": "village"
      }
    },
    {
      "type": "node",
      "id": 7549551009,
      "lat": 31.1926004,
      "lon": 35.6933624,
      "timestamp": "2020-05-22T18:35:02Z",
      "version": 1,
      "changeset": 85626759,
      "user": "SalehR7",
      "uid": 10372709,
      "tags": {
        "name": "الصالحية",
        "place": "village"
      }
    },
    {
      "type": "node",
      "id": 7549551013,
      "lat": 31.1808739,
      "lon": 35.685882,
      "timestamp": "2020-05-22T18:35:02Z",
      "version": 1,
      "changeset": 85626759,
      "user": "SalehR7",
      "uid": 10372709,
      "tags": {
        "name": "الشهابية",
        "place": "village"
      }
    },
    {
      "type": "node",
      "id": 7549551037,
      "lat": 31.1482978,
      "lon": 35.6997636,
      "timestamp": "2021-03-18T00:27:16Z",
      "version": 2,
      "changeset": 101218492,
      "user": "Vejoson",
      "uid": 11422772,
      "tags": {
        "name": "الحوية",
        "name:fr": "Hawiya",
        "place": "village",
        "wikidata": "Q33770009"
      }
    },
    {
      "type": "node",
      "id": 7549551047,
      "lat": 31.280993,
      "lon": 35.5327428,
      "timestamp": "2021-03-18T00:27:16Z",
      "version": 2,
      "changeset": 101218492,
      "user": "Vejoson",
      "uid": 11422772,
      "tags": {
        "name": "البليده الحديثه",
        "name:fr": "Al Bulayda Al Hadetha",
        "place": "village"
      }
    },
    {
      "type": "node",
      "id": 7549551048,
      "lat": 31.2707201,
      "lon": 35.5668392,
      "timestamp": "2021-03-18T00:27:16Z",
      "version": 2,
      "changeset": 101218492,
      "user": "Vejoson",
      "uid": 11422772,
      "tags": {
        "name": "البليده",
        "name:fr": "Al Bulayda",
        "place": "village"
      }
    },
    {
      "type": "node",
      "id": 7549551052,
      "lat": 30.9799304,
      "lon": 35.6716399,
      "timestamp": "2021-03-18T00:27:16Z",
      "version": 2,
      "changeset": 101218492,
      "user": "Vejoson",
      "uid": 11422772,
      "tags": {
        "name": "البربيطة",
        "name:fr": "Al Barbita",
        "place": "village",
        "wikidata": "Q33766174"
      }
    },
    {
      "type": "node",
      "id": 7549551055,
      "lat": 31.0399716,
      "lon": 35.6227022,
      "timestamp": "2021-03-17T01:23:01Z",
      "version": 2,
      "changeset": 101149829,
      "user": "Vejoson",
      "uid": 11422772,
      "tags": {
        "name": "الاشرفية",
        "name:fr": "Achrafia",
        "place": "village",
        "wikidata": "Q33773165"
      }
    },
    {
      "type": "node",
      "id": 7549551060,
      "lat": 30.9386823,
      "lon": 35.6144108,
      "timestamp": "2021-03-17T01:23:01Z",
      "version": 2,
      "changeset": 101149829,
      "user": "Vejoson",
      "uid": 11422772,
      "tags": {
        "name": "ارحاب",
        "name:en": "Arhab",
        "name:fr": "Arhab",
        "place": "village",
        "wikidata": "Q33766257"
      }
    },
    {
      "type": "node",
      "id": 7549551061,
      "lat": 30.8538954,
      "lon": 35.6372721,
      "timestamp": "2021-03-17T01:23:01Z",
      "version": 2,
      "changeset": 101149829,
      "user": "Vejoson",
      "uid": 11422772,
      "tags": {
        "name": "اتين",
        "name:en": "Atin",
        "name:fr": "Atin",
        "place": "village"
      }
    },
    {
      "type": "node",
      "id": 7605310178,
      "lat": 31.3172236,
      "lon": 35.3536881,
      "timestamp": "2021-05-16T02:31:25Z",
      "version": 4,
      "changeset": 104753188,
      "user": "pizzaiolo",
      "uid": 1772368,
      "tags": {
        "ele": "63",
        "name": "מצדה",
        "name:en": "Massda",
        "name:he": "מצדה",
        "natural": "peak",
        "wikidata": "Q26768870"
      }
    },
    {
      "type": "node",
      "id": 7817845862,
      "lat": 31.0791301,
      "lon": 35.3939985,
      "timestamp": "2020-09-25T10:32:22Z",
      "version": 2,
      "changeset": 91502029,
      "user": "SafwatHalaby",
      "uid": 2138064,
      "tags": {
        "name": "Malcham upper",
        "name:en": "Malcham upper",
        "natural": "cave_entrance"
      }
    },
    {
      "type": "node",
      "id": 7898195926,
      "lat": 31.119356,
      "lon": 35.7010294,
      "timestamp": "2020-09-11T20:29:32Z",
      "version": 1,
      "changeset": 90777088,
      "user": "Arkaraki",
      "uid": 11800687,
      "tags": {
        "name": "العدنانيه",
        "name:en": "Al Adnanyah",
        "place": "village"
      }
    },
    {
      "type": "node",
      "id": 7899892514,
      "lat": 31.1048328,
      "lon": 35.7194099,
      "timestamp": "2020-09-12T13:26:14Z",
      "version": 1,
      "changeset": 90794398,
      "user": "Arkaraki",
      "uid": 11800687,
      "tags": {
        "name": "مرود",
        "place": "village"
      }
    },
    {
      "type": "node",
      "id": 7899966038,
      "lat": 31.1291427,
      "lon": 35.6978303,
      "timestamp": "2021-03-17T01:23:01Z",
      "version": 3,
      "changeset": 101149829,
      "user": "Vejoson",
      "uid": 11422772,
      "tags": {
        "name": "المحموديه",
        "name:fr": "Mahmudiyah",
        "place": "village"
      }
    },
    {
      "type": "node",
      "id": 8165473346,
      "lat": 31.2602296,
      "lon": 35.2325467,
      "timestamp": "2020-11-25T19:45:17Z",
      "version": 2,
      "changeset": 94795473,
      "user": "hatul",
      "uid": 686490,
      "tags": {
        "amenity": "drinking_water"
      }
    },
    {
      "type": "node",
      "id": 8844277379,
      "lat": 31.2634334,
      "lon": 35.2048183,
      "timestamp": "2021-06-18T07:13:22Z",
      "version": 1,
      "changeset": 106570694,
      "user": "hatul",
      "uid": 686490,
      "tags": {
        "amenity": "drinking_water"
      }
    },
    {
      "type": "node",
      "id": 8849088447,
      "lat": 31.2516745,
      "lon": 35.197751,
      "timestamp": "2021-06-19T19:11:54Z",
      "version": 1,
      "changeset": 106643708,
      "user": "hatul",
      "uid": 686490,
      "tags": {
        "amenity": "drinking_water"
      }
    },
    {
      "type": "node",
      "id": 8960307446,
      "lat": 31.0280587,
      "lon": 35.7169147,
      "timestamp": "2021-07-29T14:53:42Z",
      "version": 1,
      "changeset": 108832970,
      "user": "roadscarf",
      "uid": 4240291,
      "tags": {
        "amenity": "drinking_water"
      }
    },
    {
      "type": "node",
      "id": 9212496528,
      "lat": 31.1514634,
      "lon": 35.3655484,
      "timestamp": "2021-10-30T17:24:24Z",
      "version": 1,
      "changeset": 113169016,
      "user": "mosherf",
      "uid": 12113237,
      "tags": {
        "amenity": "drinking_water"
      }
    },
    {
      "type": "node",
      "id": 9212513670,
      "lat": 31.1514955,
      "lon": 35.3656924,
      "timestamp": "2021-10-30T17:26:12Z",
      "version": 1,
      "changeset": 113169058,
      "user": "mosherf",
      "uid": 12113237,
      "tags": {
        "amenity": "drinking_water"
      }
    },
    {
      "type": "node",
      "id": 9545217217,
      "lat": 30.8206614,
      "lon": 35.2056856,
      "timestamp": "2022-02-28T14:53:38Z",
      "version": 1,
      "changeset": 117947532,
      "user": "zstadler",
      "uid": 3127,
      "tags": {
        "natural": "spring"
      }
    },
    {
      "type": "node",
      "id": 9545780980,
      "lat": 31.2614085,
      "lon": 35.2393692,
      "timestamp": "2022-02-28T19:54:46Z",
      "version": 1,
      "changeset": 117957228,
      "user": "hatul",
      "uid": 686490,
      "tags": {
        "amenity": "drinking_water"
      }
    },
    {
      "type": "node",
      "id": 9565663074,
      "lat": 30.8179674,
      "lon": 35.2044505,
      "timestamp": "2022-03-09T09:54:16Z",
      "version": 1,
      "changeset": 118271038,
      "user": "zstadler",
      "uid": 3127,
      "tags": {
        "desc": "",
        "name": "עין זך",
        "name:he": "עין זך",
        "natural": "spring"
      }
    },
    {
      "type": "way",
      "id": 60256743,
      "timestamp": "2021-03-29T22:12:04Z",
      "version": 12,
      "changeset": 101942398,
      "user": "Vejoson",
      "uid": 11422772,
      "center": {
        "lat": 30.7683588,
        "lon": 35.2801622
      },
      "nodes": [],
      "tags": {
        "landuse": "residential",
        "name": "חצבה",
        "name:en": "Hatzeva",
        "name:fr": "Hatzeva",
        "name:he": "חצבה",
        "place": "village"
      }
    },
    {
      "type": "way",
      "id": 60263090,
      "timestamp": "2021-09-07T08:45:54Z",
      "version": 8,
      "changeset": 110843893,
      "user": "zstadler",
      "uid": 3127,
      "center": {
        "lat": 30.8063748,
        "lon": 35.3006228
      },
      "nodes": [],
      "tags": {
        "landuse": "residential",
        "name": "עידן",
        "name:en": "Idan",
        "name:he": "עידן",
        "place": "village"
      }
    },
    {
      "type": "way",
      "id": 71267983,
      "timestamp": "2021-03-30T22:20:15Z",
      "version": 16,
      "changeset": 102011577,
      "user": "Vejoson",
      "uid": 11422772,
      "center": {
        "lat": 31.1528008,
        "lon": 35.364592
      },
      "nodes": [],
      "tags": {
        "alt_name:en": "Newe Zohar;Neveh-Zohar;Neve-Zohar",
        "ele": "-376",
        "landuse": "residential",
        "name": "נווה זוהר",
        "name:en": "Neve Zohar",
        "name:fr": "Neve Zohar",
        "name:he": "נווה זוהר",
        "place": "village",
        "population": "60",
        "start_date": "1964",
        "website": "http://www.neve-zohar.co.il/",
        "wikidata": "Q2975481",
        "wikipedia": "he:נווה זוהר"
      }
    },
    {
      "type": "way",
      "id": 92652408,
      "timestamp": "2021-03-30T22:20:15Z",
      "version": 8,
      "changeset": 102011577,
      "user": "Vejoson",
      "uid": 11422772,
      "center": {
        "lat": 30.7980471,
        "lon": 35.2460097
      },
      "nodes": [],
      "tags": {
        "landuse": "residential",
        "name": "עין חצבה",
        "name:en": "Ein Hazeva",
        "name:fr": "Ein Hatzeva",
        "name:he": "עין חצבה",
        "place": "village"
      }
    },
    {
      "type": "way",
      "id": 92653494,
      "timestamp": "2021-06-03T10:58:54Z",
      "version": 11,
      "changeset": 105773149,
      "user": "Yoni Shtern",
      "uid": 9309427,
      "center": {
        "lat": 30.9346233,
        "lon": 35.3772436
      },
      "nodes": [],
      "tags": {
        "landuse": "residential",
        "name": "נאות הכיכר",
        "name:cs": "Ne'ot ha-Kikar",
        "name:en": "Neot HaKikar",
        "name:fr": "Neot HaKikar",
        "name:he": "נאות הכיכר",
        "place": "village",
        "wikidata": "Q2975326",
        "wikipedia": "he:נאות הכיכר"
      }
    },
    {
      "type": "way",
      "id": 92653504,
      "timestamp": "2021-03-30T22:20:15Z",
      "version": 9,
      "changeset": 102011577,
      "user": "Vejoson",
      "uid": 11422772,
      "center": {
        "lat": 30.9433664,
        "lon": 35.3745635
      },
      "nodes": [],
      "tags": {
        "landuse": "residential",
        "name": "עין תמר",
        "name:cs": "Ejn Tamar",
        "name:en": "Ein Tamar",
        "name:fr": "Ein Tamar",
        "name:he": "עין תמר",
        "place": "village",
        "wikidata": "Q2975331",
        "wikipedia": "he:עין תמר"
      }
    },
    {
      "type": "way",
      "id": 92914637,
      "timestamp": "2021-09-06T15:06:28Z",
      "version": 5,
      "changeset": 110808712,
      "user": "zstadler",
      "uid": 3127,
      "center": {
        "lat": 31.2245649,
        "lon": 35.2170924
      },
      "nodes": [],
      "tags": {
        "landuse": "residential",
        "name": "קבועה",
        "name:en": "Kabua",
        "name:he": "קבועה",
        "place": "village"
      }
    },
    {
      "type": "way",
      "id": 194435782,
      "timestamp": "2021-09-06T15:06:28Z",
      "version": 11,
      "changeset": 110808712,
      "user": "zstadler",
      "uid": 3127,
      "center": {
        "lat": 31.2445748,
        "lon": 35.2585017
      },
      "nodes": [],
      "tags": {
        "fixme": "add offical name",
        "landuse": "residential",
        "name": "יישוב בדואי",
        "name:en": "Beduin village",
        "name:he": "יישוב בדואי",
        "place": "village"
      }
    },
    {
      "type": "way",
      "id": 283589095,
      "timestamp": "2014-05-22T11:43:23Z",
      "version": 1,
      "changeset": 22484300,
      "user": "elpequenyosaltatapias",
      "uid": 419528,
      "center": {
        "lat": 31.2510142,
        "lon": 35.5944356
      },
      "nodes": [],
      "tags": {
        "amenity": "shelter",
        "shelter": "yes",
        "shelter_type": "public_transport"
      }
    },
    {
      "type": "way",
      "id": 341143853,
      "timestamp": "2017-09-25T06:34:02Z",
      "version": 7,
      "changeset": 52345502,
      "user": "SafwatHalaby",
      "uid": 2138064,
      "center": {
        "lat": 31.2566372,
        "lon": 35.2111164
      },
      "nodes": [],
      "tags": {
        "brand": "Mega",
        "brand:wikidata": "Q12403907",
        "brand:wikipedia": "he:מגה קמעונאות",
        "building": "yes",
        "name": "מגה בעיר",
        "name:en": "Mega Ba'Ir",
        "name:he": "מגה בעיר",
        "name:ru": "Мега Ба'Ир",
        "shop": "supermarket",
        "website": "http://www.mega-bair.co.il/"
      }
    },
    {
      "type": "way",
      "id": 379066688,
      "timestamp": "2020-07-12T07:52:52Z",
      "version": 5,
      "changeset": 87870583,
      "user": "hatul",
      "uid": 686490,
      "center": {
        "lat": 31.0724706,
        "lon": 35.3426347
      },
      "nodes": [],
      "tags": {
        "area": "yes",
        "name": "חניון לילה נחל עמיעז",
        "name:he": "חניון לילה נחל עמיעז",
        "tourism": "camp_site"
      }
    },
    {
      "type": "way",
      "id": 495239773,
      "timestamp": "2021-04-09T23:32:23Z",
      "version": 2,
      "changeset": 102674449,
      "user": "Vejoson",
      "uid": 11422772,
      "center": {
        "lat": 31.3078258,
        "lon": 35.251238
      },
      "nodes": [],
      "tags": {
        "landuse": "residential",
        "name": "البقيعة",
        "name:ar": "البقيعة",
        "name:en": "Al Bqea'ah",
        "name:fr": "Al-Bekia",
        "name:he": "אל-בקיעה",
        "place": "hamlet"
      }
    },
    {
      "type": "way",
      "id": 531009238,
      "timestamp": "2020-07-24T13:31:26Z",
      "version": 4,
      "changeset": 88460896,
      "user": "hatul",
      "uid": 686490,
      "center": {
        "lat": 30.9523017,
        "lon": 35.2266894
      },
      "nodes": [],
      "tags": {
        "fee": "no",
        "name": "חניון לילה שער אשמדאי",
        "name:he": "חניון לילה שער אשמדאי",
        "tourism": "camp_site"
      }
    },
    {
      "type": "way",
      "id": 667008715,
      "timestamp": "2021-10-26T18:45:25Z",
      "version": 6,
      "changeset": 113006655,
      "user": "Joni Gritzner",
      "uid": 3060282,
      "center": {
        "lat": 31.3038697,
        "lon": 35.2704808
      },
      "nodes": [],
      "tags": {
        "amenity": "shelter",
        "building": "yes",
        "colour": "brown",
        "height": "3.5",
        "roof:colour": "brown",
        "roof:material": "wood",
        "roof:shape": "hipped"
      }
    },
    {
      "type": "way",
      "id": 667008747,
      "timestamp": "2021-10-26T18:30:24Z",
      "version": 5,
      "changeset": 113006227,
      "user": "Joni Gritzner",
      "uid": 3060282,
      "center": {
        "lat": 31.3043006,
        "lon": 35.2703694
      },
      "nodes": [],
      "tags": {
        "amenity": "shelter",
        "building": "yes",
        "building:levels": "1",
        "colour": "brown",
        "height": "1.8"
      }
    },
    {
      "type": "way",
      "id": 668049022,
      "timestamp": "2020-05-19T10:16:06Z",
      "version": 4,
      "changeset": 85434014,
      "user": "Joni Gritzner",
      "uid": 3060282,
      "center": {
        "lat": 31.3046772,
        "lon": 35.270217
      },
      "nodes": [],
      "tags": {
        "amenity": "shelter",
        "building": "yes",
        "height": "3"
      }
    },
    {
      "type": "way",
      "id": 805541911,
      "timestamp": "2020-06-08T18:41:14Z",
      "version": 3,
      "changeset": 86367902,
      "user": "Joni Gritzner",
      "uid": 3060282,
      "center": {
        "lat": 31.3054848,
        "lon": 35.2696612
      },
      "nodes": [],
      "tags": {
        "amenity": "shelter",
        "building": "yes",
        "height": "1.8",
        "layer": "1"
      }
    },
    {
      "type": "way",
      "id": 846684505,
      "timestamp": "2021-03-17T01:23:01Z",
      "version": 3,
      "changeset": 101149829,
      "user": "Vejoson",
      "uid": 11422772,
      "center": {
        "lat": 31.1301137,
        "lon": 35.6979738
      },
      "nodes": [],
      "tags": {
        "name": "المحموديه",
        "name:en": "Almahmoudiah",
        "name:fr": "Mahmudiyah",
        "place": "village"
      }
    },
    {
      "type": "way",
      "id": 911755934,
      "timestamp": "2021-02-28T11:24:12Z",
      "version": 1,
      "changeset": 100132305,
      "user": "zstadler",
      "uid": 3127,
      "center": {
        "lat": 31.1335124,
        "lon": 35.3562333
      },
      "nodes": [],
      "tags": {
        "fee": "no",
        "tourism": "camp_site"
      }
    },
    {
      "type": "way",
      "id": 911755936,
      "timestamp": "2021-02-28T11:24:12Z",
      "version": 1,
      "changeset": 100132305,
      "user": "zstadler",
      "uid": 3127,
      "center": {
        "lat": 31.1276176,
        "lon": 35.3723753
      },
      "nodes": [],
      "tags": {
        "fee": "no",
        "name": "חניון לילה לוט",
        "name:en": "Lot campground",
        "name:he": "חניון לילה לוט",
        "tourism": "camp_site",
        "wheelchair": "no"
      }
    },
    {
      "type": "way",
      "id": 915719363,
      "timestamp": "2021-03-11T07:07:39Z",
      "version": 1,
      "changeset": 100821056,
      "user": "Joni Gritzner",
      "uid": 3060282,
      "center": {
        "lat": 31.2542238,
        "lon": 35.2229924
      },
      "nodes": [],
      "tags": {
        "amenity": "shelter",
        "building": "yes"
      }
    }
  ]
}