{
  "osm3s": {
    "timestamp_osm_date": "2021-10-15T23:59:59Z",
    "timestamp_osm_base": "2021-10-16T06:02:43Z",
    "copyright": "The data included in this document is from www.openstreetmap.org. The data is made available under ODbL."
  },
  "elements": [
    {
      "type": "node",
      "id": 278473528,
      "lat": 30.719167,
      "lon": 35.200833,
      "timestamp": "2016-10-22T10:23:59Z",
      "version": 4,
      "changeset": 43078013,
      "user": "homebuilt",
      "uid": 4642201,
      "tags": {
        "accuracy": "minutes",
        "gns_ref": "-781365",
        "name": "עין שחק",
        "name:en": "Ein Shahaq",
        "name:he": "עין שחק",
        "natural": "spring",
        "source": "GEOnet Names Server (gns)"
      }
    },
    {
      "type": "node",
      "id": 278476801,
      "lat": 30.6140945,
      "lon": 35.1846411,
      "timestamp": "2021-09-07T08:45:54Z",
      "version": 12,
      "changeset": 110843893,
      "user": "zstadler",
      "uid": 3127,
      "tags": {
        "accuracy": "minutes",
        "gns_ref": "44545",
        "name": "ספיר",
        "name:en": "Sappir",
        "name:en1": "Merkaz Sappir",
        "name:fr": "Sapir",
        "name:he": "ספיר",
        "place": "village",
        "source": "GEOnet Names Server (gns)"
      }
    },
    {
      "type": "node",
      "id": 278477113,
      "lat": 30.6307866,
      "lon": 35.1711233,
      "timestamp": "2020-12-24T14:23:23Z",
      "version": 7,
      "changeset": 96391606,
      "user": "pizzaiolo",
      "uid": 1772368,
      "tags": {
        "accuracy": "minutes",
        "gns_ref": "-781140",
        "name": "עין רחל",
        "name:en": "Ein Rahel",
        "name:en1": "Eil Rahel",
        "name:he": "עין רחל",
        "natural": "spring",
        "source": "GEOnet Names Server (gns)",
        "wikidata": "Q26762871"
      }
    },
    {
      "type": "node",
      "id": 278478027,
      "lat": 30.6916266,
      "lon": 35.2709726,
      "timestamp": "2020-12-24T14:23:26Z",
      "version": 5,
      "changeset": 96391606,
      "user": "pizzaiolo",
      "uid": 1772368,
      "tags": {
        "accuracy": "minutes",
        "gns_ref": "-780595",
        "name": "עין מרזב",
        "name:en": "Ein Marzev",
        "name:en1": "`En Marzeva",
        "name:he": "עין מרזב",
        "natural": "spring",
        "source": "GEOnet Names Server (gns)",
        "wikidata": "Q26763557"
      }
    },
    {
      "type": "node",
      "id": 278478478,
      "lat": 30.6569021,
      "lon": 35.2381753,
      "timestamp": "2021-09-07T08:45:54Z",
      "version": 14,
      "changeset": 110843893,
      "user": "zstadler",
      "uid": 3127,
      "tags": {
        "accuracy": "minutes",
        "gns_ref": "-779725",
        "name": "עין יהב",
        "name:ar": "عين يهاف",
        "name:en": "Ein Yahav",
        "name:en1": "Ain Yahav",
        "name:en2": "Ayn Waybah",
        "name:en3": "Ein Yahav",
        "name:en4": "Mabua",
        "name:en5": "Mavua",
        "name:fr": "Ein Yahav",
        "name:he": "עין יהב",
        "place": "village",
        "source": "GEOnet Names Server (gns)"
      }
    },
    {
      "type": "node",
      "id": 278478491,
      "lat": 30.5586234,
      "lon": 35.1801426,
      "timestamp": "2021-09-07T08:45:54Z",
      "version": 10,
      "changeset": 110843893,
      "user": "zstadler",
      "uid": 3127,
      "tags": {
        "gns_ref": "44543",
        "name": "צופר",
        "name:en": "Zofar",
        "name:fr": "Tzofar",
        "name:he": "צופר",
        "place": "village",
        "source": "GEOnet Names Server (gns)"
      }
    },
    {
      "type": "node",
      "id": 360629631,
      "lat": 30.3227405,
      "lon": 35.4743008,
      "timestamp": "2019-05-13T09:16:36Z",
      "version": 5,
      "changeset": 70183101,
      "user": "JKS1956!!!",
      "uid": 9944723,
      "tags": {
        "name": "Rock City Supermarket",
        "shop": "supermarket"
      }
    },
    {
      "type": "node",
      "id": 411050499,
      "lat": 30.3216568,
      "lon": 35.4800889,
      "timestamp": "2021-07-29T16:32:51Z",
      "version": 18,
      "changeset": 108837016,
      "user": "Jobigutenburg",
      "uid": 10504312,
      "tags": {
        "int_name": "Wadi Musa",
        "is_in": "Jordan الأردن",
        "name": "وادي موسى",
        "name:ar": "وادي موسى",
        "name:de": "Wadi Musa",
        "name:en": "Wadi Musa",
        "name:es": "Wadi Musa",
        "name:fr": "Wadi Musa",
        "name:he": "ואדי מוסא",
        "name:hi": "वादी मूसा",
        "name:ml": "വാദി മൂസ",
        "name:pl": "Wadi Musa",
        "place": "city",
        "wikidata": "Q2739446"
      }
    },
    {
      "type": "node",
      "id": 499621665,
      "lat": 30.3378493,
      "lon": 35.4303728,
      "timestamp": "2009-09-17T22:42:58Z",
      "version": 1,
      "changeset": 2517435,
      "user": "he1ix",
      "uid": 7516,
      "tags": {
        "amenity": "drinking_water",
        "shop": "kiosk"
      }
    },
    {
      "type": "node",
      "id": 673367127,
      "lat": 30.6208787,
      "lon": 35.194469,
      "timestamp": "2017-06-10T05:00:14Z",
      "version": 2,
      "changeset": 49412690,
      "user": "SafwatHalaby_bot",
      "uid": 5816834,
      "tags": {
        "name": "Menta",
        "name:en": "Menta",
        "shop": "convenience"
      }
    },
    {
      "type": "node",
      "id": 695360131,
      "lat": 30.6751918,
      "lon": 35.6102818,
      "timestamp": "2019-08-15T17:42:44Z",
      "version": 8,
      "changeset": 73386441,
      "user": "zsolt d",
      "uid": 2077889,
      "tags": {
        "int_name": "Dana",
        "is_in": "Jordan, الأردن",
        "name": "ضانا",
        "name:ar": "ضانا",
        "name:de": "Dana",
        "name:en": "Dana",
        "name:fr": "Dana",
        "name:he": "דאנא",
        "name:hu": "Dana",
        "place": "village",
        "wikidata": "Q3013261",
        "wikipedia": "en:Dana, Jordan"
      }
    },
    {
      "type": "node",
      "id": 798882889,
      "lat": 30.7499355,
      "lon": 35.616672,
      "timestamp": "2011-11-01T11:55:53Z",
      "version": 3,
      "changeset": 9711862,
      "user": "lyx",
      "uid": 28237,
      "tags": {
        "int_name": "‘Ayn al Janīn; Ayn al Janin",
        "is_in": "Jordan, الأردن",
        "name": "عين الجنين",
        "name:ar": "عين الجنين",
        "name:de": "Ayn al Janin",
        "name:en": "Ayn al Janin",
        "name:fr": "Ayn al Janin",
        "natural": "spring"
      }
    },
    {
      "type": "node",
      "id": 798882912,
      "lat": 30.75,
      "lon": 35.633333,
      "timestamp": "2011-10-31T23:54:47Z",
      "version": 2,
      "changeset": 9709095,
      "user": "lyx",
      "uid": 28237,
      "tags": {
        "int_name": "‘Ain Um Sarāb; Ain Um Sarab",
        "is_in": "Jordan, الأردن",
        "name": "عين أم سراب",
        "name:ar": "عين أم سراب",
        "name:de": "Ain Um Sarab",
        "name:en": "Ain Um Sarab",
        "name:fr": "Ain Um Sarab",
        "natural": "spring"
      }
    },
    {
      "type": "node",
      "id": 798882958,
      "lat": 30.7,
      "lon": 35.6,
      "timestamp": "2011-04-21T21:08:10Z",
      "version": 2,
      "changeset": 7929371,
      "user": "lyx",
      "uid": 28237,
      "tags": {
        "int_name": "‘Ayn Laḩz̧ah, Ayn Lahzah",
        "is_in": "Jordan, الأردن",
        "name": "عين لحظة",
        "name:ar": "عين لحظة",
        "name:de": "Ayn Lahzah",
        "name:en": "Ayn Lahzah",
        "name:fr": "Ayn Lahzah",
        "natural": "spring"
      }
    },
    {
      "type": "node",
      "id": 798882990,
      "lat": 30.738463,
      "lon": 35.606386,
      "timestamp": "2011-10-31T23:54:52Z",
      "version": 2,
      "changeset": 9709095,
      "user": "lyx",
      "uid": 28237,
      "tags": {
        "int_name": "Al Buşayrah; Al Busayrah; Busayrah; Al Buseira",
        "is_in": "Jordan, الأردن",
        "name": "بصيرا",
        "name:ar": "بصيرا",
        "name:de": "Al Busayrah",
        "name:en": "Al Busayrah",
        "name:fr": "Al Busayrah",
        "place": "village"
      }
    },
    {
      "type": "node",
      "id": 798883012,
      "lat": 30.716667,
      "lon": 35.616667,
      "timestamp": "2021-07-22T07:10:52Z",
      "version": 3,
      "changeset": 108405967,
      "user": "IllerRiver",
      "uid": 11187572,
      "tags": {
        "int_name": "‘Ain Um Za‘rūra, Ain Um Zarura, Ayn Um Zururah",
        "is_in": "Jordan, الأردن",
        "name": "عين أم زعرورة",
        "name:ar": "عين أم زعرورة",
        "name:de": "Ain Um Zarura",
        "name:en": "Ain Um Zarura",
        "name:fr": "Ain Um Zarura",
        "natural": "spring"
      }
    },
    {
      "type": "node",
      "id": 798883023,
      "lat": 30.716667,
      "lon": 35.65,
      "timestamp": "2011-11-01T12:33:37Z",
      "version": 2,
      "changeset": 9712128,
      "user": "lyx",
      "uid": 28237,
      "tags": {
        "int_name": "Gharandal",
        "is_in": "Jordan, الأردن",
        "name": "غرندل",
        "name:ar": "غرندل",
        "name:de": "Gharandal",
        "name:en": "Gharandal",
        "name:fr": "Gharandal",
        "place": "village"
      }
    },
    {
      "type": "node",
      "id": 798883045,
      "lat": 30.720599,
      "lon": 35.591076,
      "timestamp": "2011-11-02T00:00:18Z",
      "version": 2,
      "changeset": 9718196,
      "user": "lyx",
      "uid": 28237,
      "tags": {
        "int_name": "Um Sa'adura; Um Saadura",
        "is_in": "Jordan, الأردن",
        "name": "أم زعرورة",
        "name:ar": "أم زعرورة",
        "name:de": "Um Saadura",
        "name:en": "Um Saadura",
        "name:fr": "Um Saadura",
        "place": "village"
      }
    },
    {
      "type": "node",
      "id": 798883058,
      "lat": 30.733333,
      "lon": 35.616667,
      "timestamp": "2011-10-31T23:54:49Z",
      "version": 2,
      "changeset": 9709095,
      "user": "lyx",
      "uid": 28237,
      "tags": {
        "int_name": "Al ‘Abr; Al Abr",
        "is_in": "Jordan, الأردن",
        "name": "العبر",
        "name:ar": "العبر",
        "name:de": "Al Abr",
        "name:en": "Al Abr",
        "name:fr": "Al Abr",
        "natural": "spring"
      }
    },
    {
      "type": "node",
      "id": 798883062,
      "lat": 30.728125,
      "lon": 35.624956,
      "timestamp": "2011-11-01T18:09:01Z",
      "version": 2,
      "changeset": 9715023,
      "user": "lyx",
      "uid": 28237,
      "tags": {
        "int_name": "Sayl Ray‘ā; Sayl Raya",
        "is_in": "Jordan, الأردن",
        "name": "سيل ريعا",
        "name:ar": "سيل ريعا",
        "name:de": "Sayl Raya",
        "name:en": "Sayl Raya",
        "name:fr": "Sayl Raya",
        "place": "village"
      }
    },
    {
      "type": "node",
      "id": 798891832,
      "lat": 30.4,
      "lon": 35.35,
      "timestamp": "2011-11-01T11:55:58Z",
      "version": 2,
      "changeset": 9711862,
      "user": "lyx",
      "uid": 28237,
      "tags": {
        "int_name": "Bi’r Madhkūr; Bir Madhkur",
        "is_in": "Jordan, الأردن",
        "name": "بئر مذكور",
        "name:ar": "بئر مذكور",
        "name:de": "Bir Madhkur",
        "name:en": "Bir Madhkur",
        "name:fr": "Bir Madhkur",
        "natural": "spring"
      }
    },
    {
      "type": "node",
      "id": 802551539,
      "lat": 30.3003044,
      "lon": 35.4663805,
      "timestamp": "2011-11-01T11:55:45Z",
      "version": 2,
      "changeset": 9711862,
      "user": "lyx",
      "uid": 28237,
      "tags": {
        "int_name": "Amaun",
        "is_in": "Jordan, الأردن",
        "name": "أمون",
        "name:ar": "أمون",
        "name:de": "Amaun",
        "name:en": "Amaun",
        "name:fr": "Amaun",
        "place": "village"
      }
    },
    {
      "type": "node",
      "id": 802551597,
      "lat": 30.343334,
      "lon": 35.45547,
      "timestamp": "2019-06-27T18:07:25Z",
      "version": 4,
      "changeset": 71682383,
      "user": "_Poliwrath_",
      "uid": 8759140,
      "tags": {
        "int_name": "Umm Şayḩūn;Um Sayhun",
        "name": "أم صيحون",
        "name:ar": "أم صيحون",
        "name:de": "Um Sayhun",
        "name:en": "Umm Sayhoun",
        "name:fr": "Um Sayhun",
        "place": "village"
      }
    },
    {
      "type": "node",
      "id": 802551607,
      "lat": 30.3222406,
      "lon": 35.4792979,
      "timestamp": "2015-03-02T04:32:43Z",
      "version": 3,
      "changeset": 29190607,
      "user": "B1mbo",
      "uid": 45652,
      "tags": {
        "int_name": "‘Ayn aş Şadr;Ayn al Sadr",
        "is_in": "Jordan, الأردن",
        "name": "عين الصدر",
        "name:ar": "عين الصدر",
        "name:de": "Ayn al Sadr",
        "name:en": "Ayn al Sadr",
        "name:es": "Ayn al Sadr",
        "name:fr": "Ayn al Sadr",
        "natural": "spring"
      }
    },
    {
      "type": "node",
      "id": 802551662,
      "lat": 30.35,
      "lon": 35.5,
      "timestamp": "2011-10-31T23:54:57Z",
      "version": 2,
      "changeset": 9709095,
      "user": "lyx",
      "uid": 28237,
      "tags": {
        "int_name": "Al Ḩayy; Al Hayy; Hai",
        "is_in": "Jordan, الأردن",
        "name": "الحي",
        "name:ar": "الحي",
        "name:de": "Al Hayy",
        "name:en": "Al Hayy",
        "name:fr": "Al Hayy",
        "place": "village"
      }
    },
    {
      "type": "node",
      "id": 802557010,
      "lat": 30.366667,
      "lon": 35.55,
      "timestamp": "2011-10-31T23:54:47Z",
      "version": 2,
      "changeset": 9709095,
      "user": "lyx",
      "uid": 28237,
      "tags": {
        "int_name": "‘Ain Duweimānī; Ain Duweimani",
        "is_in": "Jordan, الأردن",
        "name": "عين دويماني",
        "name:ar": "عين دويماني",
        "name:de": "Ain Duweimani",
        "name:en": "Ain Duweimani",
        "name:fr": "Ain Duweimani",
        "natural": "spring"
      }
    },
    {
      "type": "node",
      "id": 802557035,
      "lat": 30.2818285,
      "lon": 35.5443198,
      "timestamp": "2011-11-16T12:02:31Z",
      "version": 3,
      "changeset": 9843907,
      "user": "lyx",
      "uid": 28237,
      "tags": {
        "is_in": "Jordan, الأردن",
        "name": "روضة الأمير راشد",
        "name:ar": "روضة الأمير راشد",
        "name:de": "Raud Al Amir Rashid",
        "name:en": "Raud Al Amir Rashid",
        "name:fr": "Raud Al Amir Rashid",
        "place": "village"
      }
    },
    {
      "type": "node",
      "id": 802557117,
      "lat": 30.291283,
      "lon": 35.458037,
      "timestamp": "2011-11-01T11:55:49Z",
      "version": 2,
      "changeset": 9711862,
      "user": "lyx",
      "uid": 28237,
      "tags": {
        "int_name": "‘Ayn ’Amūn; Ayn Amun",
        "is_in": "Jordan, الأردن",
        "name": "عين أمون",
        "name:ar": "عين أمون",
        "name:de": "Ayn Amun",
        "name:en": "Ayn Amun",
        "name:fr": "Ayn Amun",
        "place": "village"
      }
    },
    {
      "type": "node",
      "id": 802576592,
      "lat": 30.383333,
      "lon": 35.516667,
      "timestamp": "2011-11-01T11:55:58Z",
      "version": 2,
      "changeset": 9711862,
      "user": "lyx",
      "uid": 28237,
      "tags": {
        "int_name": "Bi’r ‘Ayn al Jubayb; Bir Ayn al Jubayb",
        "is_in": "Jordan, الأردن",
        "name": "بئر عين الجبيب",
        "name:ar": "بئر عين الجبيب",
        "name:de": "Bir Ayn al Jubayb",
        "name:en": "Bir Ayn al Jubayb",
        "name:fr": "Bir Ayn al Jubayb",
        "natural": "spring"
      }
    },
    {
      "type": "node",
      "id": 802580358,
      "lat": 30.325966,
      "lon": 35.717001,
      "timestamp": "2011-10-31T23:54:51Z",
      "version": 2,
      "changeset": 9709095,
      "user": "lyx",
      "uid": 28237,
      "tags": {
        "int_name": "Al ‘Awaynah; Al Awaynah",
        "is_in": "Jordan, الأردن",
        "name": "العوينة",
        "name:ar": "العوينة",
        "name:de": "Al Awaynah",
        "name:en": "Al Awaynah",
        "name:fr": "Al Awaynah",
        "place": "village"
      }
    },
    {
      "type": "node",
      "id": 802580413,
      "lat": 30.339943,
      "lon": 35.595523,
      "timestamp": "2011-11-02T00:00:17Z",
      "version": 2,
      "changeset": 9718196,
      "user": "lyx",
      "uid": 28237,
      "tags": {
        "int_name": "Al Tamiy'a; Tamiy'a; Tamiya",
        "is_in": "Jordan, الأردن",
        "name": "الطميعة",
        "name:ar": "الطميعة",
        "name:de": "Tamiya",
        "name:en": "Tamiya",
        "name:fr": "Tamiya",
        "place": "village"
      }
    },
    {
      "type": "node",
      "id": 802580436,
      "lat": 30.373048,
      "lon": 35.599885,
      "timestamp": "2011-10-31T23:54:59Z",
      "version": 2,
      "changeset": 9709095,
      "user": "lyx",
      "uid": 28237,
      "tags": {
        "int_name": "Al Jarbā’ al Kabīrah; Al Jarba al Kabirah",
        "is_in": "Jordan, الأردن",
        "name": "الجرباء الكبيرة",
        "name:ar": "الجرباء الكبيرة",
        "name:de": "Al Jarba al Kabirah",
        "name:en": "Al Jarba al Kabirah",
        "name:fr": "Al Jarba al Kabirah",
        "place": "village"
      }
    },
    {
      "type": "node",
      "id": 802580556,
      "lat": 30.4,
      "lon": 35.533333,
      "timestamp": "2011-10-31T23:54:50Z",
      "version": 2,
      "changeset": 9709095,
      "user": "lyx",
      "uid": 28237,
      "tags": {
        "int_name": "Al ‘Arjā’; Al Arja",
        "is_in": "Jordan, الأردن",
        "name": "العرجا",
        "name:ar": "العرجا",
        "name:de": "Al Arja",
        "name:en": "Al Arja",
        "name:fr": "Al Arja",
        "place": "village"
      }
    },
    {
      "type": "node",
      "id": 802580583,
      "lat": 30.333333,
      "lon": 35.6,
      "timestamp": "2011-11-01T11:55:49Z",
      "version": 2,
      "changeset": 9711862,
      "user": "lyx",
      "uid": 28237,
      "tags": {
        "int_name": "‘Ayn Adhruḩ; Ayn Adhruh; Ayn Udhruh",
        "is_in": "Jordan, الأردن",
        "name": "عين أذرح",
        "name:ar": "عين أذرح",
        "name:de": "Ayn Adhruh",
        "name:en": "Ayn Adhruh",
        "name:fr": "Ayn Adhruh",
        "natural": "spring"
      }
    },
    {
      "type": "node",
      "id": 802584751,
      "lat": 30.230959,
      "lon": 35.683121,
      "timestamp": "2011-11-02T00:00:17Z",
      "version": 3,
      "changeset": 9718196,
      "user": "lyx",
      "uid": 28237,
      "tags": {
        "int_name": "Al Tahuna; Tahuna",
        "is_in": "Jordan, الأردن",
        "name": "الطاحونة",
        "name:ar": "الطاحونة",
        "name:de": "Tahuna",
        "name:en": "Tahuna",
        "name:fr": "Tahuna",
        "place": "village"
      }
    },
    {
      "type": "node",
      "id": 802584846,
      "lat": 30.18921,
      "lon": 35.723608,
      "timestamp": "2021-03-17T01:23:01Z",
      "version": 4,
      "changeset": 101149829,
      "user": "Vejoson",
      "uid": 11422772,
      "tags": {
        "name": "اسفير المحطة",
        "name:ar": "اسفير المحطة",
        "name:en": "Asfir Al Mahata",
        "name:fr": "Asfir Al Mahata",
        "place": "village"
      }
    },
    {
      "type": "node",
      "id": 802584886,
      "lat": 30.428963,
      "lon": 35.750271,
      "timestamp": "2011-11-02T00:00:16Z",
      "version": 2,
      "changeset": 9718196,
      "user": "lyx",
      "uid": 28237,
      "tags": {
        "int_name": "Al Mahmadiya; Mahmadiya",
        "is_in": "Jordan, الأردن",
        "name": "المحمدية",
        "name:ar": "المحمدية",
        "name:de": "Mahmadiya",
        "name:en": "Mahmadiya",
        "name:fr": "Mahmadiya",
        "place": "village"
      }
    },
    {
      "type": "node",
      "id": 802584976,
      "lat": 30.2,
      "lon": 35.7333329,
      "timestamp": "2021-08-02T16:39:18Z",
      "version": 17,
      "changeset": 109043559,
      "user": "Jobigutenburg",
      "uid": 10504312,
      "tags": {
        "int_name": "Ma Aan;Ma'an",
        "is_in": "Jordan, الأردن",
        "name": "معان",
        "name:ar": "معان",
        "name:de": "Ma'an",
        "name:en": "Maan",
        "name:fr": "Ma'an",
        "name:he": "מעאן",
        "name:hi": "मान",
        "name:ml": "മആൻ",
        "name:ru": "Маан",
        "place": "town",
        "wikidata": "Q31616",
        "wikipedia": "en:Ma'an"
      }
    },
    {
      "type": "node",
      "id": 802585018,
      "lat": 30.322153,
      "lon": 35.7670851,
      "timestamp": "2011-10-31T23:54:45Z",
      "version": 2,
      "changeset": 9709095,
      "user": "lyx",
      "uid": 28237,
      "tags": {
        "int_name": "Abu el Jirdhân Station; Abu al Jirdhan Station; Mahattat Abu Jirdhan",
        "is_in": "Jordan, الأردن",
        "name": "محطة أبو الجرذان",
        "name:ar": "محطة أبو الجرذان",
        "name:de": "Abu al Jirdhan Station",
        "name:en": "Abu al Jirdhan Station",
        "name:fr": "Abu al Jirdhan Station",
        "place": "village"
      }
    },
    {
      "type": "node",
      "id": 802593866,
      "lat": 30.159522,
      "lon": 35.550893,
      "timestamp": "2011-10-31T23:54:45Z",
      "version": 2,
      "changeset": 9709095,
      "user": "lyx",
      "uid": 28237,
      "tags": {
        "int_name": "Abū al ‘Iz̧ām; Abu al Izam",
        "is_in": "Jordan, الأردن",
        "name": "أبو العظام",
        "name:ar": "أبو العظام",
        "name:de": "Abu al Izam",
        "name:en": "Abu al Izam",
        "name:fr": "Abu al Izam",
        "place": "village"
      }
    },
    {
      "type": "node",
      "id": 802593877,
      "lat": 30.2570286,
      "lon": 35.5329199,
      "timestamp": "2011-10-31T23:54:44Z",
      "version": 2,
      "changeset": 9709095,
      "user": "lyx",
      "uid": 28237,
      "tags": {
        "int_name": "Abū Danna; Abu Danna; Bir Abu Dannah",
        "is_in": "Jordan, الأردن",
        "name": "بئر أبو دنة",
        "name:ar": "بئر أبو دنة",
        "name:de": "Abu Danna",
        "name:en": "Abu Danna",
        "name:fr": "Abu Danna",
        "place": "village"
      }
    },
    {
      "type": "node",
      "id": 802593900,
      "lat": 30.520762,
      "lon": 35.57271,
      "timestamp": "2019-07-01T21:05:29Z",
      "version": 5,
      "changeset": 71799833,
      "user": "CoolGuyJake",
      "uid": 7674729,
      "tags": {
        "int_name": "Al-Muthallith",
        "name": "المثلث",
        "name:ar": "المثلث",
        "name:de": "Al-Muthallith",
        "name:en": "Al-Muthallith",
        "name:fr": "Al-Muthallith",
        "place": "village"
      }
    },
    {
      "type": "node",
      "id": 802593923,
      "lat": 30.477208,
      "lon": 35.520716,
      "timestamp": "2019-07-01T21:47:42Z",
      "version": 3,
      "changeset": 71800764,
      "user": "CoolGuyJake",
      "uid": 7674729,
      "tags": {
        "int_name": "Baqa'a; Baqaa; Al Baqa'a",
        "name": "البقعة",
        "name:ar": "البقعة",
        "name:de": "Baqa'a",
        "name:en": "Baqa'a",
        "name:fr": "Baqa'a",
        "place": "village"
      }
    },
    {
      "type": "node",
      "id": 802593937,
      "lat": 30.52446,
      "lon": 35.794266,
      "timestamp": "2011-10-31T23:54:57Z",
      "version": 2,
      "changeset": 9709095,
      "user": "lyx",
      "uid": 28237,
      "tags": {
        "int_name": "Al Hashimīyah; Al Hashimiyah",
        "is_in": "Jordan, الأردن",
        "name": "الهاشمية",
        "name:ar": "الهاشمية",
        "name:de": "Al Hashimiyah",
        "name:en": "Al Hashimiyah",
        "name:fr": "Al Hashimiyah",
        "place": "village"
      }
    },
    {
      "type": "node",
      "id": 802593982,
      "lat": 30.4378127,
      "lon": 35.5444443,
      "timestamp": "2020-05-22T01:05:56Z",
      "version": 3,
      "changeset": 85577576,
      "user": "S-M-R",
      "uid": 10914036,
      "tags": {
        "int_name": "Bīr aţ Ţāfī; Bir al Tafi",
        "is_in": "Jordan, الأردن",
        "name": "بئر الطافي",
        "name:ar": "بئر الطافي",
        "name:de": "Bir al Tafi",
        "name:en": "Bir al Tafi",
        "name:fr": "Bir al Tafi",
        "place": "village"
      }
    },
    {
      "type": "node",
      "id": 802594051,
      "lat": 30.233333,
      "lon": 35.516667,
      "timestamp": "2011-11-01T11:55:49Z",
      "version": 2,
      "changeset": 9711862,
      "user": "lyx",
      "uid": 28237,
      "tags": {
        "int_name": "‘Ayn Muḩayḑirāt; Ayn Muhaydirat",
        "is_in": "Jordan, الأردن",
        "name": "عين محيدرات",
        "name:ar": "عين محيدرات",
        "name:de": "Ayn Muhaydirat",
        "name:en": "Ayn Muhaydirat",
        "name:fr": "Ayn Muhaydirat",
        "natural": "spring"
      }
    },
    {
      "type": "node",
      "id": 802594090,
      "lat": 30.49601,
      "lon": 35.525144,
      "timestamp": "2019-07-01T21:47:42Z",
      "version": 3,
      "changeset": 71800764,
      "user": "CoolGuyJake",
      "uid": 7674729,
      "tags": {
        "int_name": "Ash Shammākh; Ash Shammakh; Shammakh",
        "name": "شماخ",
        "name:ar": "شماخ",
        "name:de": "Ash Shammakh",
        "name:en": "Ash Shammakh",
        "name:fr": "Ash Shammakh",
        "place": "village"
      }
    },
    {
      "type": "node",
      "id": 802594168,
      "lat": 30.1874595,
      "lon": 35.5125612,
      "timestamp": "2011-10-31T23:54:54Z",
      "version": 3,
      "changeset": 9709095,
      "user": "lyx",
      "uid": 28237,
      "tags": {
        "int_name": "Al Fardhakh",
        "is_in": "Jordan, الأردن",
        "name": "الفرذخ",
        "name:ar": "الفرذخ",
        "name:de": "Al Fardhakh",
        "name:en": "Al Fardhakh",
        "name:fr": "Al Fardhakh",
        "place": "village"
      }
    },
    {
      "type": "node",
      "id": 802594181,
      "lat": 30.486345,
      "lon": 35.517841,
      "timestamp": "2019-07-01T21:47:42Z",
      "version": 3,
      "changeset": 71800764,
      "user": "CoolGuyJake",
      "uid": 7674729,
      "tags": {
        "int_name": "Al Junaynah; Al Junaynah",
        "name": "الجنينة",
        "name:ar": "الجنينة",
        "name:de": "Al Junaynah",
        "name:en": "Al Junaynah",
        "name:fr": "Al Junaynah",
        "place": "village"
      }
    },
    {
      "type": "node",
      "id": 802594227,
      "lat": 30.516667,
      "lon": 35.55,
      "timestamp": "2011-11-01T16:41:55Z",
      "version": 2,
      "changeset": 9714186,
      "user": "lyx",
      "uid": 28237,
      "tags": {
        "int_name": "Najl; Nijil",
        "is_in": "Jordan, الأردن",
        "name": "نجل",
        "name:ar": "نجل",
        "name:de": "Najl",
        "name:en": "Najl",
        "name:fr": "Najl",
        "place": "village"
      }
    },
    {
      "type": "node",
      "id": 802594277,
      "lat": 30.2,
      "lon": 35.533333,
      "timestamp": "2011-10-31T23:54:46Z",
      "version": 2,
      "changeset": 9709095,
      "user": "lyx",
      "uid": 28237,
      "tags": {
        "int_name": "‘Ain Abū el ‘Idhām; Ain Abu al Idham",
        "is_in": "Jordan, الأردن",
        "name": "عين أبو العظام",
        "name:ar": "عين أبو العظام",
        "name:de": "Ain Abu al Idham",
        "name:en": "Ain Abu al Idham",
        "name:fr": "Ain Abu al Idham",
        "natural": "spring"
      }
    },
    {
      "type": "node",
      "id": 802594289,
      "lat": 30.520021,
      "lon": 35.538415,
      "timestamp": "2021-08-19T16:46:56Z",
      "version": 6,
      "changeset": 109944477,
      "user": "Jobigutenburg",
      "uid": 10504312,
      "tags": {
        "int_name": "Shaubak",
        "is_in": "Jordan, الأردن",
        "name": "الشوبك",
        "name:ar": "الشوبك",
        "name:de": "Shaubak",
        "name:en": "Shaubak",
        "name:fr": "Shaubak",
        "name:ml": "ഷൗബക്ക്",
        "place": "town"
      }
    },
    {
      "type": "node",
      "id": 802594301,
      "lat": 30.504952,
      "lon": 35.562217,
      "timestamp": "2011-11-02T00:00:16Z",
      "version": 2,
      "changeset": 9718196,
      "user": "lyx",
      "uid": 28237,
      "tags": {
        "int_name": "Al Sabiriya; Sabiriya",
        "is_in": "Jordan, الأردن",
        "name": "الزبيرية",
        "name:ar": "الزبيرية",
        "name:de": "Sabiriya",
        "name:en": "Sabiriya",
        "name:fr": "Sabiriya",
        "place": "village"
      }
    },
    {
      "type": "node",
      "id": 802594329,
      "lat": 30.2061899,
      "lon": 35.5361666,
      "timestamp": "2011-11-16T11:01:03Z",
      "version": 4,
      "changeset": 9843299,
      "user": "lyx",
      "uid": 28237,
      "tags": {
        "int_name": "Aïl; Ail; 'Il",
        "is_in": "Jordan, الأردن",
        "name": "إيل",
        "name:ar": "إيل",
        "name:de": "Ail",
        "name:en": "Ail",
        "name:fr": "Ail",
        "place": "village"
      }
    },
    {
      "type": "node",
      "id": 802594339,
      "lat": 30.511109,
      "lon": 35.522462,
      "timestamp": "2011-10-31T23:54:56Z",
      "version": 2,
      "changeset": 9709095,
      "user": "lyx",
      "uid": 28237,
      "tags": {
        "int_name": "Al Ḩaddādah; Al Haddadah",
        "is_in": "Jordan, الأردن",
        "name": "الحدادة",
        "name:ar": "الحدادة",
        "name:de": "Al Haddadah",
        "name:en": "Al Haddadah",
        "name:fr": "Al Haddadah",
        "place": "village"
      }
    },
    {
      "type": "node",
      "id": 802601971,
      "lat": 30.483333,
      "lon": 35.5,
      "timestamp": "2011-11-01T18:41:45Z",
      "version": 3,
      "changeset": 9715335,
      "user": "lyx",
      "uid": 28237,
      "tags": {
        "int_name": "Um Ṣuwwāna; Um Suwwana",
        "is_in": "Jordan, الأردن",
        "name": "أم صوانة",
        "name:ar": "أم صوانة",
        "name:de": "Um Suwwana",
        "name:en": "Um Suwwana",
        "name:fr": "Um Suwwana",
        "place": "village"
      }
    },
    {
      "type": "node",
      "id": 802602584,
      "lat": 30.554592,
      "lon": 35.56471,
      "timestamp": "2011-10-31T23:55:04Z",
      "version": 2,
      "changeset": 9709095,
      "user": "lyx",
      "uid": 28237,
      "tags": {
        "int_name": "Al Muqāri‘īyah; Al Muqariiyah",
        "is_in": "Jordan, الأردن",
        "name": "المقارعية",
        "name:ar": "المقارعية",
        "name:de": "Al Muqariiyah",
        "name:en": "Al Muqariiyah",
        "name:fr": "Al Muqariiyah",
        "place": "village"
      }
    },
    {
      "type": "node",
      "id": 802602765,
      "lat": 30.553378,
      "lon": 35.678822,
      "timestamp": "2011-10-31T23:54:54Z",
      "version": 2,
      "changeset": 9709095,
      "user": "lyx",
      "uid": 28237,
      "tags": {
        "int_name": "Al Fujayj",
        "is_in": "Jordan, الأردن",
        "name": "الفجيج",
        "name:ar": "الفجيج",
        "name:de": "Al Fujayj",
        "name:en": "Al Fujayj",
        "name:fr": "Al Fujayj",
        "place": "village"
      }
    },
    {
      "type": "node",
      "id": 802602800,
      "lat": 30.5728808,
      "lon": 35.5553967,
      "timestamp": "2018-03-03T15:19:19Z",
      "version": 5,
      "changeset": 56849717,
      "user": "juestres",
      "uid": 43064,
      "tags": {
        "alt_name": "Al Mansoura",
        "int_name": "Khureiba",
        "is_in": "Jordan, الأردن",
        "loc_name": "منطقه المنصوره",
        "name": "خريبة",
        "name:ar": "خريبة",
        "name:de": "Khureiba",
        "name:en": "Khureiba",
        "name:fr": "Khureiba",
        "place": "village"
      }
    },
    {
      "type": "node",
      "id": 802604901,
      "lat": 30.581672,
      "lon": 35.720888,
      "timestamp": "2011-11-02T00:00:13Z",
      "version": 2,
      "changeset": 9718196,
      "user": "lyx",
      "uid": 28237,
      "tags": {
        "int_name": "Ad Da'ajanya; Al Daajaniya; Daajaniya",
        "is_in": "Jordan, الأردن",
        "name": "الدعجانية",
        "name:ar": "الدعجانية",
        "name:de": "Daajaniya",
        "name:en": "Daajaniya",
        "name:fr": "Daajaniya",
        "place": "village"
      }
    },
    {
      "type": "node",
      "id": 802604967,
      "lat": 30.590057,
      "lon": 35.64239,
      "timestamp": "2011-11-01T13:19:05Z",
      "version": 2,
      "changeset": 9712473,
      "user": "lyx",
      "uid": 28237,
      "tags": {
        "int_name": "Ḩadīrā; Hadira",
        "is_in": "Jordan, الأردن",
        "name": "حديرا",
        "name:ar": "حديرا",
        "name:de": "Hadira",
        "name:en": "Hadira",
        "name:fr": "Hadira",
        "place": "village"
      }
    },
    {
      "type": "node",
      "id": 802605547,
      "lat": 30.2504436,
      "lon": 35.466182,
      "timestamp": "2011-11-01T11:55:41Z",
      "version": 2,
      "changeset": 9711862,
      "user": "lyx",
      "uid": 28237,
      "tags": {
        "int_name": "Et Taiyibe; Al Taiyibe; Al Tayyibah",
        "is_in": "Jordan, الأردن",
        "name": "الطيبة",
        "name:ar": "الطيبة",
        "name:de": "Al Taiyibe",
        "name:en": "Al Taiyibe",
        "name:fr": "Al Taiyibe",
        "place": "village"
      }
    },
    {
      "type": "node",
      "id": 802605559,
      "lat": 30.639817,
      "lon": 35.338711,
      "timestamp": "2011-04-02T13:03:47Z",
      "version": 2,
      "changeset": 7743895,
      "user": "lyx",
      "uid": 28237,
      "tags": {
        "int_name": "Fīnān; Finan; Feynan; Faynan",
        "is_in": "Jordan, الأردن",
        "name": "فينان",
        "name:ar": "فينان",
        "name:de": "Finan",
        "name:en": "Finan",
        "name:fr": "Finan",
        "place": "village"
      }
    },
    {
      "type": "node",
      "id": 802605697,
      "lat": 30.190041,
      "lon": 35.4429945,
      "timestamp": "2011-10-31T23:55:07Z",
      "version": 2,
      "changeset": 9709095,
      "user": "lyx",
      "uid": 28237,
      "tags": {
        "int_name": "Ar Rājif; Al Rajif; Rajif",
        "is_in": "Jordan, الأردن",
        "name": "الراجف",
        "name:ar": "الراجف",
        "name:de": "Al Rajif",
        "name:en": "Al Rajif",
        "name:fr": "Al Rajif",
        "place": "village"
      }
    },
    {
      "type": "node",
      "id": 802605726,
      "lat": 30.191202,
      "lon": 35.442221,
      "timestamp": "2011-11-01T11:55:54Z",
      "version": 2,
      "changeset": 9711862,
      "user": "lyx",
      "uid": 28237,
      "tags": {
        "int_name": "‘Ayn ar Rājif; Ayn al Rajif",
        "is_in": "Jordan, الأردن",
        "name": "عين الراجف",
        "name:ar": "عين الراجف",
        "name:de": "Ayn al Rajif",
        "name:en": "Ayn al Rajif",
        "name:fr": "Ayn al Rajif",
        "natural": "spring"
      }
    },
    {
      "type": "node",
      "id": 802605806,
      "lat": 30.5950805,
      "lon": 35.7954434,
      "timestamp": "2011-10-31T23:54:58Z",
      "version": 3,
      "changeset": 9709095,
      "user": "lyx",
      "uid": 28237,
      "tags": {
        "int_name": "Al Ḩusaynīyah; Al Husayniyah",
        "is_in": "Jordan, الأردن",
        "name": "الحسينية",
        "name:ar": "الحسينية",
        "name:de": "Al Husayniyah",
        "name:en": "Al Husayniyah",
        "name:fr": "Al Husayniyah",
        "place": "village"
      }
    },
    {
      "type": "node",
      "id": 802610098,
      "lat": 30.1622395,
      "lon": 35.4942636,
      "timestamp": "2011-10-31T23:55:09Z",
      "version": 3,
      "changeset": 9709095,
      "user": "lyx",
      "uid": 28237,
      "tags": {
        "int_name": "Aş Şadaqah; Al Sadaqah",
        "is_in": "Jordan, الأردن",
        "name": "الصدقة",
        "name:ar": "الصدقة",
        "name:de": "Al Sadaqah",
        "name:en": "Al Sadaqah",
        "name:fr": "Al Sadaqah",
        "place": "village"
      }
    },
    {
      "type": "node",
      "id": 802610331,
      "lat": 30.183333,
      "lon": 35.433333,
      "timestamp": "2011-11-01T11:55:50Z",
      "version": 2,
      "changeset": 9711862,
      "user": "lyx",
      "uid": 28237,
      "tags": {
        "int_name": "‘Ayn Salmān; Ayn Salman",
        "is_in": "Jordan, الأردن",
        "name": "عين سلمان",
        "name:ar": "عين سلمان",
        "name:de": "Ayn Salman",
        "name:en": "Ayn Salman",
        "name:fr": "Ayn Salman",
        "natural": "spring"
      }
    },
    {
      "type": "node",
      "id": 802902264,
      "lat": 30.65593,
      "lon": 35.635427,
      "timestamp": "2020-05-22T19:35:18Z",
      "version": 3,
      "changeset": 85628665,
      "user": "S-M-R",
      "uid": 10914036,
      "tags": {
        "is_in": "Jordan, الأردن",
        "name": "القادسية",
        "name:ar": "القادسية",
        "place": "village"
      }
    },
    {
      "type": "node",
      "id": 964952986,
      "lat": 30.6871227,
      "lon": 35.5732921,
      "timestamp": "2010-10-25T15:51:10Z",
      "version": 1,
      "changeset": 6174678,
      "user": "lumex",
      "uid": 324922,
      "tags": {
        "name": "Rummana Camp",
        "tourism": "camp_site"
      }
    },
    {
      "type": "node",
      "id": 964953413,
      "lat": 30.678498,
      "lon": 35.614097,
      "timestamp": "2010-10-25T15:51:26Z",
      "version": 1,
      "changeset": 6174678,
      "user": "lumex",
      "uid": 324922,
      "tags": {
        "natural": "spring"
      }
    },
    {
      "type": "node",
      "id": 1207745237,
      "lat": 30.2293354,
      "lon": 35.21324,
      "timestamp": "2020-05-22T02:15:02Z",
      "version": 3,
      "changeset": 85578935,
      "user": "S-M-R",
      "uid": 10914036,
      "tags": {
        "name": "Al-Risheh",
        "name:ar": "الريشة",
        "place": "hamlet"
      }
    },
    {
      "type": "node",
      "id": 1812227339,
      "lat": 30.3256494,
      "lon": 35.4974724,
      "timestamp": "2012-07-04T08:24:00Z",
      "version": 1,
      "changeset": 12107642,
      "user": "adepetjo",
      "uid": 717707,
      "tags": {
        "name": "mussa spring ",
        "shop": "supermarket"
      }
    },
    {
      "type": "node",
      "id": 2528846653,
      "lat": 30.5296268,
      "lon": 35.5606703,
      "timestamp": "2019-06-10T02:47:33Z",
      "version": 3,
      "changeset": 71085252,
      "user": "FirstCreek",
      "uid": 9847980,
      "tags": {
        "amenity": "drinking_water",
        "name": "Exit of the secret well",
        "name:de": "Ausgang der geheimen Quelle. 375 Stufen führen bis hierher durch einen Geheimtunnel von der Burg hinab. (nur auf Anfrage)"
      }
    },
    {
      "type": "node",
      "id": 3053244053,
      "lat": 30.3815497,
      "lon": 35.4495047,
      "timestamp": "2019-02-26T09:01:23Z",
      "version": 2,
      "changeset": 67574866,
      "user": "Yuridiculous",
      "uid": 3930343,
      "tags": {
        "name": "Ammarin Bedouin Camp",
        "tourism": "camp_site"
      }
    },
    {
      "type": "node",
      "id": 3079695357,
      "lat": 30.4118938,
      "lon": 35.4519431,
      "timestamp": "2014-09-16T07:54:19Z",
      "version": 1,
      "changeset": 25473519,
      "user": "HAMsandwich",
      "uid": 1756006,
      "tags": {
        "name": "Rock Camp",
        "tourism": "camp_site"
      }
    },
    {
      "type": "node",
      "id": 3079926326,
      "lat": 30.6239845,
      "lon": 35.4942846,
      "timestamp": "2014-09-16T11:11:46Z",
      "version": 1,
      "changeset": 25473620,
      "user": "HAMsandwich",
      "uid": 1756006,
      "tags": {
        "tourism": "camp_site"
      }
    },
    {
      "type": "node",
      "id": 3084213595,
      "lat": 30.2016502,
      "lon": 35.3808491,
      "timestamp": "2014-09-18T07:21:59Z",
      "version": 1,
      "changeset": 25514625,
      "user": "HAMsandwich",
      "uid": 1756006,
      "tags": {
        "name": "Ein Imshit",
        "natural": "spring"
      }
    },
    {
      "type": "node",
      "id": 3429663472,
      "lat": 30.3797403,
      "lon": 35.4657495,
      "timestamp": "2015-04-01T06:18:25Z",
      "version": 2,
      "changeset": 29897114,
      "user": "islamzm",
      "uid": 642681,
      "tags": {
        "name": "Al Bayḑā",
        "name:ar": "البيضا",
        "place": "village"
      }
    },
    {
      "type": "node",
      "id": 3801855515,
      "lat": 30.629212,
      "lon": 35.404182,
      "timestamp": "2015-10-25T09:26:18Z",
      "version": 1,
      "changeset": 34855751,
      "user": "michael63",
      "uid": 462088,
      "tags": {
        "GNS:id": "10480984",
        "name": "القريقرة",
        "name:en": "Al Qurayqarah",
        "place": "village",
        "source": "GNS"
      }
    },
    {
      "type": "node",
      "id": 3801855517,
      "lat": 30.687417,
      "lon": 35.63127,
      "timestamp": "2021-03-17T01:23:01Z",
      "version": 2,
      "changeset": 101149829,
      "user": "Vejoson",
      "uid": 11422772,
      "tags": {
        "GNS:id": "12920032",
        "name": "اسكان مصنع الاسمنت",
        "name:en": "Iskān Maşna‘ al Asmant",
        "name:fr": "Iskan Masnaa Ismant",
        "place": "village",
        "source": "GNS"
      }
    },
    {
      "type": "node",
      "id": 4269760507,
      "lat": 30.5384821,
      "lon": 35.1748049,
      "timestamp": "2017-06-10T05:08:03Z",
      "version": 2,
      "changeset": 49412690,
      "user": "SafwatHalaby_bot",
      "uid": 5816834,
      "tags": {
        "name": "חניון לילה נחל עומר",
        "name:he": "חניון לילה נחל עומר",
        "tourism": "camp_site"
      }
    },
    {
      "type": "node",
      "id": 4488818904,
      "lat": 30.3252372,
      "lon": 35.4717754,
      "timestamp": "2016-11-08T14:49:39Z",
      "version": 1,
      "changeset": 43488762,
      "user": "Henkie100",
      "uid": 2249743,
      "tags": {
        "addr:city": "Wadi Musa",
        "name": "Sunrise",
        "shop": "supermarket"
      }
    },
    {
      "type": "node",
      "id": 4497041437,
      "lat": 30.4848833,
      "lon": 35.173167,
      "timestamp": "2016-11-12T16:42:36Z",
      "version": 1,
      "changeset": 43585128,
      "user": "zstadler",
      "uid": 3127,
      "tags": {
        "brand": "אלונית",
        "brand:en": "Alonit",
        "brand:he": "אלונית",
        "contact:website": "http://www.doralon.co.il/",
        "fixme": "position not accurate",
        "name": "אלונית צוקים",
        "name:en": "Alonit Tsukim",
        "name:he": "אלונית צוקים",
        "opening_hours": "24/7",
        "shop": "convenience"
      }
    },
    {
      "type": "node",
      "id": 4606003820,
      "lat": 30.5371196,
      "lon": 35.429636,
      "timestamp": "2017-01-13T17:11:18Z",
      "version": 1,
      "changeset": 45140072,
      "user": "Edmund B3",
      "uid": 374990,
      "tags": {
        "tourism": "camp_site"
      }
    },
    {
      "type": "node",
      "id": 4617737693,
      "lat": 30.2074896,
      "lon": 35.7252987,
      "timestamp": "2017-01-19T06:18:01Z",
      "version": 1,
      "changeset": 45289084,
      "user": "Emad Al Mughrabi",
      "uid": 5151959,
      "tags": {
        "name": "فيصل المغربي",
        "name:en": "faysal almograpih",
        "opening_hours": "Mo-Su 06:00-01:00",
        "shop": "supermarket"
      }
    },
    {
      "type": "node",
      "id": 4619022516,
      "lat": 30.4915764,
      "lon": 35.1662039,
      "timestamp": "2021-09-07T08:45:54Z",
      "version": 6,
      "changeset": 110843893,
      "user": "zstadler",
      "uid": 3127,
      "tags": {
        "name": "צוקים",
        "name:en": "Zukim",
        "name:fr": "Tzukim",
        "name:he": "צוקים",
        "place": "village"
      }
    },
    {
      "type": "node",
      "id": 5074083022,
      "lat": 30.3217735,
      "lon": 35.4786914,
      "timestamp": "2017-09-01T19:30:26Z",
      "version": 1,
      "changeset": 51653866,
      "user": "jorumaster",
      "uid": 2246333,
      "tags": {
        "amenity": "drinking_water",
        "name:en": "Filter water shop"
      }
    },
    {
      "type": "node",
      "id": 5745004121,
      "lat": 30.1978887,
      "lon": 35.7352936,
      "timestamp": "2018-07-07T08:30:59Z",
      "version": 1,
      "changeset": 60484394,
      "user": "Emad Al Mughrabi",
      "uid": 5151959,
      "tags": {
        "name": "الفلوجة",
        "name:ar": "الفلوجة",
        "shop": "convenience"
      }
    },
    {
      "type": "node",
      "id": 5836941485,
      "lat": 30.3700449,
      "lon": 35.4615468,
      "timestamp": "2018-08-16T18:40:11Z",
      "version": 1,
      "changeset": 61724895,
      "user": "Paul Smee",
      "uid": 3922135,
      "tags": {
        "name:en": "Petra Mars Camp",
        "tourism": "camp_site"
      }
    },
    {
      "type": "node",
      "id": 6173425542,
      "lat": 30.3378978,
      "lon": 35.4300767,
      "timestamp": "2018-12-30T19:21:18Z",
      "version": 1,
      "changeset": 65895294,
      "user": "km2bp",
      "uid": 3610826,
      "tags": {
        "natural": "cave_entrance"
      }
    },
    {
      "type": "node",
      "id": 6173425543,
      "lat": 30.3379494,
      "lon": 35.4301961,
      "timestamp": "2018-12-30T19:21:18Z",
      "version": 1,
      "changeset": 65895294,
      "user": "km2bp",
      "uid": 3610826,
      "tags": {
        "image": "https://d1cuyjsrcm0gby.cloudfront.net/gCMClCTrfmz3pYFr1IVTRg/thumb-2048.jpg",
        "mapillary": "https://www.mapillary.com/map/im/gCMClCTrfmz3pYFr1IVTRg",
        "natural": "cave_entrance"
      }
    },
    {
      "type": "node",
      "id": 6173425547,
      "lat": 30.3382525,
      "lon": 35.4286456,
      "timestamp": "2018-12-30T19:21:18Z",
      "version": 1,
      "changeset": 65895294,
      "user": "km2bp",
      "uid": 3610826,
      "tags": {
        "image": "https://d1cuyjsrcm0gby.cloudfront.net/5Rp8uL5blC51bCtWImZnrA/thumb-2048.jpg",
        "mapillary": "https://www.mapillary.com/map/im/5Rp8uL5blC51bCtWImZnrA",
        "natural": "cave_entrance"
      }
    },
    {
      "type": "node",
      "id": 6174439309,
      "lat": 30.6566139,
      "lon": 35.2337428,
      "timestamp": "2020-05-16T17:14:54Z",
      "version": 2,
      "changeset": 85311424,
      "user": "SafwatHalaby",
      "uid": 2138064,
      "tags": {
        "addr:city": "עין יהב",
        "addr:postcode": "8682000",
        "name": "מחסני השוק עין יהב",
        "name:he": "מחסני השוק עין יהב",
        "operator": "מחסני השוק",
        "payment:cash": "yes",
        "payment:credit_cards": "yes",
        "shop": "supermarket"
      }
    },
    {
      "type": "node",
      "id": 6241930068,
      "lat": 30.3621226,
      "lon": 35.1563197,
      "timestamp": "2019-01-28T15:08:38Z",
      "version": 1,
      "changeset": 66709073,
      "user": "valleyofdawn",
      "uid": 356970,
      "tags": {
        "amenity": "drinking_water"
      }
    },
    {
      "type": "node",
      "id": 6276897097,
      "lat": 30.6567736,
      "lon": 35.2338181,
      "timestamp": "2020-05-16T17:14:54Z",
      "version": 3,
      "changeset": 85311424,
      "user": "SafwatHalaby",
      "uid": 2138064,
      "tags": {
        "addr:city": "עין יהב",
        "name": "קנטינה",
        "name:he": "קנטינה",
        "opening_hours": "08:30-13:00,15:00-20:30",
        "operator": "אורן רייס",
        "payment:cash": "yes",
        "payment:credit_cards": "yes",
        "shop": "supermarket"
      }
    },
    {
      "type": "node",
      "id": 6326241285,
      "lat": 30.3189355,
      "lon": 35.4789848,
      "timestamp": "2019-03-08T21:12:50Z",
      "version": 1,
      "changeset": 67940505,
      "user": "jujuchou",
      "uid": 7384781,
      "tags": {
        "name": "Food market",
        "shop": "supermarket"
      }
    },
    {
      "type": "node",
      "id": 6364371685,
      "lat": 30.4313188,
      "lon": 35.4559751,
      "timestamp": "2019-03-27T09:18:52Z",
      "version": 1,
      "changeset": 68578534,
      "user": "islamzm",
      "uid": 642681,
      "tags": {
        "name": "الوحيدات",
        "name:en": "Wohedat",
        "tourism": "camp_site"
      }
    },
    {
      "type": "node",
      "id": 6375260268,
      "lat": 30.4915083,
      "lon": 35.1644781,
      "timestamp": "2019-04-01T06:31:11Z",
      "version": 1,
      "changeset": 68742861,
      "user": "valleyofdawn",
      "uid": 356970,
      "tags": {
        "amenity": "drinking_water"
      }
    },
    {
      "type": "node",
      "id": 6509788463,
      "lat": 30.3258523,
      "lon": 35.4737752,
      "timestamp": "2019-05-29T21:29:54Z",
      "version": 1,
      "changeset": 70749048,
      "user": "bombadil09",
      "uid": 8473507,
      "tags": {
        "name": "Movenpick",
        "shop": "supermarket"
      }
    },
    {
      "type": "node",
      "id": 6712667522,
      "lat": 30.3225992,
      "lon": 35.4848092,
      "timestamp": "2019-08-16T05:23:06Z",
      "version": 5,
      "changeset": 73398372,
      "user": "zsolt d",
      "uid": 2077889,
      "tags": {
        "fixme": "position",
        "is_in": "Wadi Musa; JO",
        "name": "Funtain Mouse",
        "name:hu": "Mózes kútja",
        "natural": "spring",
        "tourism": "attraction",
        "wheelchair": "limited"
      }
    },
    {
      "type": "node",
      "id": 7083939300,
      "lat": 30.3252371,
      "lon": 35.4716061,
      "timestamp": "2019-12-25T14:44:45Z",
      "version": 1,
      "changeset": 78849130,
      "user": "wilco83",
      "uid": 7558446,
      "tags": {
        "name": "Al-medena Supermarket",
        "shop": "convenience"
      }
    },
    {
      "type": "node",
      "id": 7083939308,
      "lat": 30.3252268,
      "lon": 35.4710373,
      "timestamp": "2019-12-25T14:44:45Z",
      "version": 1,
      "changeset": 78849130,
      "user": "wilco83",
      "uid": 7558446,
      "tags": {
        "name": "Mini Market Indiana Jones",
        "shop": "convenience"
      }
    },
    {
      "type": "node",
      "id": 7083939328,
      "lat": 30.3253004,
      "lon": 35.4694041,
      "timestamp": "2019-12-25T14:44:45Z",
      "version": 1,
      "changeset": 78849130,
      "user": "wilco83",
      "uid": 7558446,
      "tags": {
        "name": "Supermarket",
        "shop": "convenience"
      }
    },
    {
      "type": "node",
      "id": 7083943520,
      "lat": 30.3216557,
      "lon": 35.4787396,
      "timestamp": "2019-12-25T14:56:43Z",
      "version": 1,
      "changeset": 78849385,
      "user": "wilco83",
      "uid": 7558446,
      "tags": {
        "name": "Al-Diwan Supermarket",
        "shop": "convenience"
      }
    },
    {
      "type": "node",
      "id": 7114099825,
      "lat": 30.5895854,
      "lon": 35.4593628,
      "timestamp": "2020-01-07T09:56:19Z",
      "version": 1,
      "changeset": 79287612,
      "user": "Pimon",
      "uid": 7554780,
      "tags": {
        "name": "Wadi al-Malaqa Campsite",
        "tourism": "camp_site"
      }
    },
    {
      "type": "node",
      "id": 7114169186,
      "lat": 30.5122177,
      "lon": 35.46688,
      "timestamp": "2020-01-07T11:01:03Z",
      "version": 1,
      "changeset": 79290493,
      "user": "Pimon",
      "uid": 7554780,
      "tags": {
        "amenity": "drinking_water",
        "name:en": "Spring - Wadi Fayd"
      }
    },
    {
      "type": "node",
      "id": 7114217385,
      "lat": 30.5080376,
      "lon": 35.4915667,
      "timestamp": "2020-01-07T11:04:34Z",
      "version": 1,
      "changeset": 79290661,
      "user": "Pimon",
      "uid": 7554780,
      "tags": {
        "name:en": "Wild Campsite - Ras Al-Fayd",
        "tourism": "camp_site"
      }
    },
    {
      "type": "node",
      "id": 7549550926,
      "lat": 30.465656,
      "lon": 35.5164392,
      "timestamp": "2020-05-22T18:35:02Z",
      "version": 1,
      "changeset": 85626759,
      "user": "SalehR7",
      "uid": 10372709,
      "tags": {
        "name": "حوالة",
        "place": "village"
      }
    },
    {
      "type": "node",
      "id": 7549550947,
      "lat": 30.4406091,
      "lon": 35.5401286,
      "timestamp": "2020-05-22T18:35:02Z",
      "version": 1,
      "changeset": 85626759,
      "user": "SalehR7",
      "uid": 10372709,
      "tags": {
        "name": "بئر خداد",
        "place": "village"
      }
    },
    {
      "type": "node",
      "id": 7549550948,
      "lat": 30.3930868,
      "lon": 35.5309661,
      "timestamp": "2020-05-22T18:35:02Z",
      "version": 1,
      "changeset": 85626759,
      "user": "SalehR7",
      "uid": 10372709,
      "tags": {
        "name": "بئر ابو العلق",
        "place": "village"
      }
    },
    {
      "type": "node",
      "id": 7549551019,
      "lat": 30.4833346,
      "lon": 35.5680934,
      "timestamp": "2020-05-22T18:35:02Z",
      "version": 1,
      "changeset": 85626759,
      "user": "SalehR7",
      "uid": 10372709,
      "tags": {
        "name": "الزيتونة.",
        "place": "village"
      }
    },
    {
      "type": "node",
      "id": 7549551054,
      "lat": 30.3258363,
      "lon": 35.4745669,
      "timestamp": "2021-09-10T15:10:08Z",
      "version": 3,
      "changeset": 111028948,
      "user": "Olyon",
      "uid": 1443767,
      "tags": {
        "alt_name": "Raqmu",
        "name": "البتراء",
        "name:de": "Petra",
        "name:en": "Petra",
        "name:fr": "Pétra",
        "name:sco": "Petra",
        "place": "village"
      }
    },
    {
      "type": "node",
      "id": 7549551062,
      "lat": 30.5365264,
      "lon": 35.5809647,
      "timestamp": "2021-03-17T01:23:01Z",
      "version": 2,
      "changeset": 101149829,
      "user": "Vejoson",
      "uid": 11422772,
      "tags": {
        "name": "ابو مخطوب",
        "name:fr": "Abu Makhtoub",
        "place": "village",
        "wikidata": "Q33765064"
      }
    },
    {
      "type": "node",
      "id": 8010996978,
      "lat": 30.5416879,
      "lon": 35.5386647,
      "timestamp": "2020-10-15T20:12:43Z",
      "version": 1,
      "changeset": 92542310,
      "user": "Giacomo Ponticelli",
      "uid": 6891766,
      "tags": {
        "name": "Ain Sihan",
        "natural": "spring"
      }
    },
    {
      "type": "node",
      "id": 8022424311,
      "lat": 30.5265471,
      "lon": 35.5631284,
      "timestamp": "2020-10-19T15:36:13Z",
      "version": 1,
      "changeset": 92718011,
      "user": "Giacomo Ponticelli",
      "uid": 6891766,
      "tags": {
        "name": "Jayyah Camping",
        "tourism": "camp_site"
      }
    },
    {
      "type": "node",
      "id": 8404459446,
      "lat": 30.5296419,
      "lon": 35.5616498,
      "timestamp": "2021-02-08T09:57:59Z",
      "version": 1,
      "changeset": 98899032,
      "user": "Giacomo Ponticelli",
      "uid": 6891766,
      "tags": {
        "name": "Ain al-Ragayeh",
        "natural": "spring"
      }
    },
    {
      "type": "node",
      "id": 8603503817,
      "lat": 30.6450618,
      "lon": 35.2024214,
      "timestamp": "2021-04-07T18:55:47Z",
      "version": 2,
      "changeset": 102502132,
      "user": "hatul",
      "uid": 686490,
      "tags": {
        "image": "https://upload.wikimedia.org/wikipedia/commons/d/d8/IHM_חניון_לילה_נחל_נקרות.jpeg",
        "image1": "https://upload.wikimedia.org/wikipedia/commons/8/85/IHM_חניון_לילה_נחל_נקרות_1.jpeg",
        "image2": "https://upload.wikimedia.org/wikipedia/commons/4/4a/IHM_חניון_לילה_נחל_נקרות_2.jpeg",
        "image3": "https://upload.wikimedia.org/wikipedia/commons/7/7e/IHM_חניון_לילה_נחל_נקרות_3.jpeg",
        "name": "חניון לילה נחל נקרות",
        "name:he": "חניון לילה נחל נקרות",
        "tourism": "camp_site"
      }
    },
    {
      "type": "node",
      "id": 8687935618,
      "lat": 30.6175486,
      "lon": 35.1622494,
      "timestamp": "2021-05-01T13:01:02Z",
      "version": 1,
      "changeset": 103955941,
      "user": "guyru",
      "uid": 4226084,
      "tags": {
        "image": "https://upload.wikimedia.org/wikipedia/commons/7/7a/IHM_קלדרה.jpeg",
        "name": "קלדרה",
        "name:he": "קלדרה",
        "natural": "cave_entrance"
      }
    },
    {
      "type": "way",
      "id": 60130883,
      "timestamp": "2021-09-07T08:45:54Z",
      "version": 22,
      "changeset": 110843893,
      "user": "zstadler",
      "uid": 3127,
      "center": {
        "lat": 30.3625645,
        "lon": 35.1553108
      },
      "nodes": [],
      "tags": {
        "fixme": "name, name:he mismatch. Flagged by SafwatHalaby_bot-nameCopy",
        "landuse": "residential",
        "name": "פארן",
        "name:en": "Paran",
        "name:he": "פארן",
        "note": "Pharan or Faran is not a valid pronunciation in Hebrew",
        "place": "village"
      }
    },
    {
      "type": "way",
      "id": 60134938,
      "timestamp": "2021-09-07T08:45:54Z",
      "version": 11,
      "changeset": 110843893,
      "user": "zstadler",
      "uid": 3127,
      "center": {
        "lat": 30.6136402,
        "lon": 35.1842582
      },
      "nodes": [],
      "tags": {
        "landuse": "residential",
        "name": "ספיר",
        "name:en": "Sappir",
        "name:he": "ספיר",
        "place": "village",
        "wikipedia": "en:Sapir, Israel"
      }
    },
    {
      "type": "way",
      "id": 60199776,
      "timestamp": "2021-09-15T07:40:02Z",
      "version": 14,
      "changeset": 111229257,
      "user": "OrDal",
      "uid": 10294500,
      "center": {
        "lat": 30.6584763,
        "lon": 35.2374738
      },
      "nodes": [],
      "tags": {
        "landuse": "residential",
        "name": "עין יהב",
        "name:en": "Ein Yahav",
        "name:he": "עין יהב",
        "place": "village"
      }
    },
    {
      "type": "way",
      "id": 93441852,
      "timestamp": "2021-09-07T08:45:54Z",
      "version": 10,
      "changeset": 110843893,
      "user": "zstadler",
      "uid": 3127,
      "center": {
        "lat": 30.4906651,
        "lon": 35.1673754
      },
      "nodes": [],
      "tags": {
        "landuse": "residential",
        "name": "צוקים",
        "name:en": "Tzukim",
        "name:en2": "Tsukim",
        "name:he": "צוקים",
        "place": "village",
        "wikipedia": "en:Tzukim"
      }
    },
    {
      "type": "way",
      "id": 617418487,
      "timestamp": "2021-09-07T08:45:54Z",
      "version": 3,
      "changeset": 110843893,
      "user": "zstadler",
      "uid": 3127,
      "center": {
        "lat": 30.5601781,
        "lon": 35.1803526
      },
      "nodes": [],
      "tags": {
        "landuse": "residential",
        "name": "צופר",
        "name:en": "Zofar",
        "name:he": "צופר",
        "place": "village",
        "wikipedia": "en:Tzofar"
      }
    },
    {
      "type": "way",
      "id": 859439962,
      "timestamp": "2020-10-15T20:17:16Z",
      "version": 1,
      "changeset": 92542490,
      "user": "Giacomo Ponticelli",
      "uid": 6891766,
      "center": {
        "lat": 30.5401186,
        "lon": 35.5390929
      },
      "nodes": [],
      "tags": {
        "name": "SIhan",
        "place": "hamlet"
      }
    }
  ]
}