{
  "osm3s": {
    "timestamp_osm_date": "2021-07-06T23:59:59Z",
    "timestamp_osm_base": "2021-07-07T05:22:00Z",
    "copyright": "The data included in this document is from www.openstreetmap.org. The data is made available under ODbL."
  },
  "elements": [
    {
      "type": "node",
      "id": 274596911,
      "lat": 30.7916672,
      "lon": 34.4722219,
      "timestamp": "2021-03-22T23:46:51Z",
      "version": 7,
      "changeset": 101533721,
      "user": "Vejoson",
      "uid": 11422772,
      "tags": {
        "accuracy": "minutes",
        "alt_name:en": "Ezuz",
        "gns_ref": "-779793",
        "name": "עזוז",
        "name:ar": "عزوز",
        "name:en": "Ezuz",
        "name:fr": "Ezuz",
        "name:he": "עזוז",
        "place": "village",
        "population": "75",
        "source": "GEOnet Names Server (gns);https://www.cbs.gov.il/he/publications/doclib/2017/population_madaf/population_madaf_2019_1.xlsx",
        "start_date": "1984",
        "wikidata": "Q2889580",
        "wikipedia": "en:Ezuz"
      }
    },
    {
      "type": "node",
      "id": 275232511,
      "lat": 31.3041665,
      "lon": 34.521977,
      "timestamp": "2021-02-21T21:50:48Z",
      "version": 6,
      "changeset": 99700639,
      "user": "Vejoson",
      "uid": 11422772,
      "tags": {
        "accuracy": "minutes",
        "gns_ref": "-781663",
        "name": "אורים",
        "name:ar": "أوريم",
        "name:en": "Urim",
        "name:fr": "Urim",
        "name:he": "אורים",
        "place": "village",
        "population": "502",
        "source": "GEOnet Names Server (gns);_Israel#cite_note-Israelpopulations-1",
        "wikidata": "Q1018892",
        "wikipedia": "en:Urim, Israel"
      }
    },
    {
      "type": "node",
      "id": 275283306,
      "lat": 31.0686612,
      "lon": 35.0366482,
      "timestamp": "2021-06-02T10:35:42Z",
      "version": 13,
      "changeset": 105717815,
      "user": "Jobigutenburg",
      "uid": 10504312,
      "tags": {
        "accuracy": "minutes",
        "ele": "463",
        "gns_ref": "-779575",
        "name": "דימונה",
        "name:ar": "ديمونة",
        "name:cs": "Dimona",
        "name:en": "Dimona",
        "name:fr": "Dimona",
        "name:he": "דימונה",
        "name:hi": "डिमोना",
        "name:ru": "Димона",
        "place": "city",
        "population": "34500",
        "source": "GEOnet Names Server (gns);https://www.cbs.gov.il/he/publications/doclib/2017/population_madaf/population_madaf_2019_1.xlsx",
        "start_date": "1955",
        "website": "http://www.dimona.muni.il/",
        "wikidata": "Q152396",
        "wikipedia": "he:דימונה"
      }
    },
    {
      "type": "node",
      "id": 275589911,
      "lat": 31.2225371,
      "lon": 34.8807983,
      "timestamp": "2021-03-25T00:19:52Z",
      "version": 6,
      "changeset": 101679007,
      "user": "Vejoson",
      "uid": 11422772,
      "tags": {
        "alt_name:ar": "نڤاطيم",
        "gns_ref": "-780868",
        "name": "נבטים",
        "name:ar": "نفاطيم",
        "name:en": "Nevatim",
        "name:fr": "Nevatim",
        "name:he": "נבטים",
        "place": "village",
        "population": "996",
        "source": "GEOnet Names Server (gns);https://www.cbs.gov.il/he/publications/doclib/2017/population_madaf/population_madaf_2019_1.xlsx",
        "wikidata": "Q2467017",
        "wikipedia": "en:Nevatim"
      }
    },
    {
      "type": "node",
      "id": 275589919,
      "lat": 31.3253422,
      "lon": 34.5885811,
      "timestamp": "2021-03-26T23:45:36Z",
      "version": 6,
      "changeset": 101821772,
      "user": "Vejoson",
      "uid": 11422772,
      "tags": {
        "gns_ref": "-780609",
        "name": "מסלול",
        "name:ar": "مسلول",
        "name:en": "Maslul",
        "name:fr": "Maslul",
        "name:he": "מסלול",
        "place": "village",
        "population": "859",
        "source": "GEOnet Names Server (gns);https://www.cbs.gov.il/he/publications/doclib/2017/population_madaf/population_madaf_2019_1.xlsx",
        "wikidata": "Q2889703",
        "wikipedia": "en:Maslul",
        "wikipedia:he": "מסלול (מושב)"
      }
    },
    {
      "type": "node",
      "id": 278469677,
      "lat": 30.8009739,
      "lon": 34.5793004,
      "timestamp": "2020-04-28T20:30:16Z",
      "version": 6,
      "changeset": 84290189,
      "user": "Edward",
      "uid": 364,
      "tags": {
        "accuracy": "minutes",
        "ele": "515",
        "gns_ref": "-781259",
        "name": "הר רות",
        "name:en": "Mt. Rut",
        "name:en1": "Eth Thamila",
        "name:he": "הר רות",
        "natural": "peak",
        "source": "GEOnet Names Server (gns)",
        "wikidata": "Q26762716"
      }
    },
    {
      "type": "node",
      "id": 278469889,
      "lat": 30.8737395,
      "lon": 34.7925947,
      "timestamp": "2021-03-20T23:14:27Z",
      "version": 10,
      "changeset": 101421503,
      "user": "Vejoson",
      "uid": 11422772,
      "tags": {
        "gns_ref": "-781308",
        "name": "שדה בוקר",
        "name:ar": "سدي بوكير",
        "name:en": "Sde Boker",
        "name:fr": "Sde Boker",
        "name:he": "שדה בוקר",
        "place": "village",
        "population": "479",
        "source": "GEOnet Names Server (gns);https://www.cbs.gov.il/he/publications/doclib/2017/population_madaf/population_madaf_2019_1.xlsx",
        "wikidata": "Q1026531",
        "wikipedia": "en:Sde Boker"
      }
    },
    {
      "type": "node",
      "id": 278470002,
      "lat": 31.3277011,
      "lon": 34.612047,
      "timestamp": "2021-03-22T19:01:56Z",
      "version": 7,
      "changeset": 101524452,
      "user": "Vejoson",
      "uid": 11422772,
      "tags": {
        "accuracy": "minutes",
        "alt_name:ar": "پدوييم",
        "alt_name:en": "Pduyim;Peduyim;Peduyyim",
        "gns_ref": "-780999",
        "name": "פדויים",
        "name:ar": "بدوييم",
        "name:en": "Peduim",
        "name:fr": "Peduim",
        "name:he": "פדויים",
        "place": "village",
        "population": "520",
        "source": "GEOnet Names Server (gns);https://www.cbs.gov.il/he/publications/doclib/2017/population_madaf/population_madaf_2019_1.xlsx",
        "wikidata": "Q2889047",
        "wikipedia": "en:Peduim"
      }
    },
    {
      "type": "node",
      "id": 278470315,
      "lat": 31.3078898,
      "lon": 34.4900263,
      "timestamp": "2021-04-29T14:36:47Z",
      "version": 7,
      "changeset": 103852139,
      "user": "hatul",
      "uid": 686490,
      "tags": {
        "accuracy": "minutes",
        "gns_ref": "-779410",
        "name": "עין בשור",
        "name:en": "Ein Besor",
        "name:en1": "`En Habesor",
        "name:en2": "`En esh Shallala",
        "name:he": "עין בשור",
        "natural": "spring",
        "source": "GEOnet Names Server (gns)",
        "wikipedia": "he:עין הבשור (מעיין)",
        "wikipedia:he": "עין הבשור (מעיין)"
      }
    },
    {
      "type": "node",
      "id": 278470324,
      "lat": 31.3342804,
      "lon": 34.6344922,
      "timestamp": "2021-02-25T01:52:46Z",
      "version": 7,
      "changeset": 99937148,
      "user": "Vejoson",
      "uid": 11422772,
      "tags": {
        "accuracy": "minutes",
        "alt_name:en": "Bitha;Bitcha",
        "gns_ref": "-779502",
        "name": "בטחה",
        "name:ar": "بتحا",
        "name:en": "Bitkha",
        "name:fr": "Bitha",
        "name:he": "בטחה",
        "place": "village",
        "population": "777",
        "source": "GEOnet Names Server (gns);https://www.cbs.gov.il/he/publications/doclib/2017/population_madaf/population_madaf_2019_1.xlsx",
        "wikidata": "Q2889005"
      }
    },
    {
      "type": "node",
      "id": 278471766,
      "lat": 31.183328,
      "lon": 35.1166657,
      "timestamp": "2020-04-28T20:32:37Z",
      "version": 5,
      "changeset": 84290297,
      "user": "Edward",
      "uid": 364,
      "tags": {
        "accuracy": "minutes",
        "gns_ref": "-780598",
        "name": "גבעות מסך",
        "name:en": "Giv'at Masakh",
        "name:he": "גבעות מסך",
        "natural": "peak",
        "source": "GEOnet Names Server (gns)",
        "wikidata": "Q26763559"
      }
    },
    {
      "type": "node",
      "id": 278473111,
      "lat": 30.9638905,
      "lon": 34.7002742,
      "timestamp": "2021-02-25T01:52:46Z",
      "version": 5,
      "changeset": 99937148,
      "user": "Vejoson",
      "uid": 11422772,
      "tags": {
        "accuracy": "minutes",
        "gns_ref": "9245573",
        "name": "אשלים",
        "name:ar": "أشاليم",
        "name:de": "Aschalim",
        "name:en": "Ashalim",
        "name:fr": "Ashalim",
        "name:he": "אשלים",
        "place": "village",
        "population": "568",
        "source": "GEOnet Names Server (gns);https://www.cbs.gov.il/he/publications/doclib/2017/population_madaf/population_madaf_2019_1.xlsx",
        "wikidata": "Q656253"
      }
    },
    {
      "type": "node",
      "id": 278473173,
      "lat": 31.2405613,
      "lon": 34.713591,
      "timestamp": "2021-05-19T04:47:34Z",
      "version": 10,
      "changeset": 104925875,
      "user": "StenSoft",
      "uid": 255936,
      "tags": {
        "alt_name:en": "Hatserim;Hatzerim",
        "name": "חצרים",
        "name:ar": "حتسريم",
        "name:cs": "Chacerim",
        "name:de": "Chazerim",
        "name:en": "Hazerim",
        "name:fr": "Hatzerim",
        "name:he": "חצרים",
        "old_name:en": "Hatsofim Gimel;Qiltah",
        "place": "village",
        "population": "852",
        "source": "GEOnet Names Server (gns);https://www.cbs.gov.il/he/publications/doclib/2017/population_madaf/population_madaf_2019_1.xlsx",
        "wikidata": "Q1018902"
      }
    },
    {
      "type": "node",
      "id": 278473194,
      "lat": 30.8790975,
      "lon": 34.5371096,
      "timestamp": "2020-12-24T14:23:20Z",
      "version": 6,
      "changeset": 96391606,
      "user": "pizzaiolo",
      "uid": 1772368,
      "tags": {
        "accuracy": "minutes",
        "ele": "313",
        "gns_ref": "-781258",
        "name": "גבעת רות",
        "name:en": "Giv'at Rut",
        "name:en1": "Tell Abu Rutha",
        "name:he": "גבעת רות",
        "natural": "peak",
        "source": "GEOnet Names Server (gns)",
        "wikidata": "Q26762715"
      }
    },
    {
      "type": "node",
      "id": 278473198,
      "lat": 30.7571297,
      "lon": 35.0078506,
      "timestamp": "2019-02-21T15:42:21Z",
      "version": 7,
      "changeset": 67433840,
      "user": "zstadler",
      "uid": 3127,
      "tags": {
        "accuracy": "minutes",
        "gns_ref": "-780959",
        "name": "עין אורחות",
        "name:en": "Ein Orhot",
        "name:en1": "Ain Gatter",
        "name:he": "עין אורחות",
        "natural": "spring",
        "source": "GEOnet Names Server (gns)"
      }
    },
    {
      "type": "node",
      "id": 278473358,
      "lat": 30.765319,
      "lon": 34.7853611,
      "timestamp": "2020-04-28T20:30:39Z",
      "version": 8,
      "changeset": 84290189,
      "user": "Edward",
      "uid": 364,
      "tags": {
        "accuracy": "minutes",
        "ele": "653",
        "gns_ref": "9005703",
        "name": "הר מידד",
        "name:en": "Mt. Meidad",
        "name:he": "הר מידד",
        "natural": "peak",
        "source": "GEOnet Names Server (gns)",
        "wikidata": "Q26764246"
      }
    },
    {
      "type": "node",
      "id": 278473555,
      "lat": 31.2036632,
      "lon": 34.5338387,
      "timestamp": "2021-03-22T02:00:11Z",
      "version": 12,
      "changeset": 101463127,
      "user": "Vejoson",
      "uid": 11422772,
      "tags": {
        "accuracy": "minutes",
        "alt_name:ar": "تسئيليم;تساليم",
        "alt_name:en": "Ze'elim",
        "gns_ref": "-781839",
        "name": "צאלים",
        "name:ar": "تسئليم",
        "name:en": "Ze'elim",
        "name:fr": "Tzéélim",
        "name:he": "צאלים",
        "place": "village",
        "population": "471",
        "source": "GEOnet Names Server (gns);https://www.cbs.gov.il/he/publications/doclib/2017/population_madaf/population_madaf_2019_1.xlsx",
        "wikidata": "Q2916631",
        "wikipedia": "en:Tze'elim"
      }
    },
    {
      "type": "node",
      "id": 278473560,
      "lat": 31.0032681,
      "lon": 34.7861244,
      "timestamp": "2021-03-25T00:19:52Z",
      "version": 7,
      "changeset": 101679007,
      "user": "Vejoson",
      "uid": 11422772,
      "tags": {
        "alt_name:en": "Mashabei Sadeh",
        "gns_ref": "-780599",
        "name": "משאבי שדה",
        "name:ar": "مشابي سادي",
        "name:en": "Mashabei Sade",
        "name:fr": "Mashabei Sadeh",
        "name:he": "משאבי שדה",
        "place": "village",
        "population": "481",
        "source": "GEOnet Names Server (gns);https://www.cbs.gov.il/he/publications/doclib/2017/population_madaf/population_madaf_2019_1.xlsx",
        "wikidata": "Q690804"
      }
    },
    {
      "type": "node",
      "id": 278473687,
      "lat": 30.8683249,
      "lon": 34.9342851,
      "timestamp": "2020-04-28T20:30:20Z",
      "version": 5,
      "changeset": 84290189,
      "user": "Edward",
      "uid": 364,
      "tags": {
        "accuracy": "minutes",
        "ele": "452",
        "gns_ref": "-780531",
        "name": "גבעת מדור",
        "name:en": "Giv`at Mador",
        "name:en1": "El Madariya",
        "name:he": "גבעת מדור",
        "natural": "peak",
        "source": "GEOnet Names Server (gns)",
        "wikidata": "Q26763546"
      }
    },
    {
      "type": "node",
      "id": 278473882,
      "lat": 31.3273849,
      "lon": 34.5602722,
      "timestamp": "2021-03-22T02:00:11Z",
      "version": 9,
      "changeset": 101463127,
      "user": "Vejoson",
      "uid": 11422772,
      "tags": {
        "accuracy": "minutes",
        "alt_name:en": "Pattish",
        "gns_ref": "-780996",
        "name": "פטיש",
        "name:ar": "بطيش",
        "name:en": "Patish",
        "name:fr": "Patish",
        "name:he": "פטיש",
        "place": "village",
        "population": "947",
        "source": "GEOnet Names Server (gns)",
        "wikidata": "Q936197",
        "wikipedia": "he:פטיש (מושב)",
        "wikipedia:he": "פטיש (מושב)"
      }
    },
    {
      "type": "node",
      "id": 278473945,
      "lat": 31.166667,
      "lon": 34.783333,
      "timestamp": "2020-12-24T14:23:23Z",
      "version": 5,
      "changeset": 96391606,
      "user": "pizzaiolo",
      "uid": 1772368,
      "tags": {
        "accuracy": "minutes",
        "gns_ref": "-780823",
        "name": "הר נעים",
        "name:en": "Mt. Naim",
        "name:en1": "Har Noam",
        "name:he": "הר נעים",
        "natural": "peak",
        "source": "GEOnet Names Server (gns)",
        "wikidata": "Q26763473"
      }
    },
    {
      "type": "node",
      "id": 278474129,
      "lat": 30.961111,
      "lon": 35.1138889,
      "timestamp": "2020-04-28T20:32:42Z",
      "version": 3,
      "changeset": 84290297,
      "user": "Edward",
      "uid": 364,
      "tags": {
        "accuracy": "minutes",
        "gns_ref": "-779225",
        "name": "רוגם עקרבים",
        "name:en": "Rogem `Aqrabbim",
        "name:en1": "Rogem `Aqrabim",
        "name:he": "רוגם עקרבים",
        "natural": "peak",
        "source": "GEOnet Names Server (gns)",
        "wikidata": "Q26764174"
      }
    },
    {
      "type": "node",
      "id": 278474215,
      "lat": 30.8188939,
      "lon": 34.734996,
      "timestamp": "2020-04-28T20:30:26Z",
      "version": 4,
      "changeset": 84290189,
      "user": "Edward",
      "uid": 364,
      "tags": {
        "accuracy": "minutes",
        "ele": "634",
        "gns_ref": "-780722",
        "name": "מחיה",
        "name:en": "Mihya",
        "name:he": "מחיה",
        "natural": "peak",
        "source": "GEOnet Names Server (gns)",
        "wikidata": "Q26763579"
      }
    },
    {
      "type": "node",
      "id": 278474639,
      "lat": 31.3125831,
      "lon": 34.6208537,
      "timestamp": "2021-02-25T23:48:29Z",
      "version": 14,
      "changeset": 100008112,
      "user": "Vejoson",
      "uid": 11422772,
      "tags": {
        "gns_ref": "-780939",
        "name": "אופקים",
        "name:ar": "أوفاكيم",
        "name:cs": "Ofakim",
        "name:de": "Ofakim",
        "name:en": "Ofakim",
        "name:en1": "Ofaqim",
        "name:es": "Ofakim",
        "name:fr": "Ofaqim",
        "name:he": "אופקים",
        "name:ru": "Офаким",
        "place": "town",
        "population": "30662",
        "source": "GEOnet Names Server (gns);https://www.cbs.gov.il/he/publications/doclib/2017/population_madaf/population_madaf_2019_1.xlsx",
        "wikidata": "Q167632"
      }
    },
    {
      "type": "node",
      "id": 278474879,
      "lat": 30.927221,
      "lon": 34.6272247,
      "timestamp": "2020-12-24T14:23:17Z",
      "version": 4,
      "changeset": 96391606,
      "user": "pizzaiolo",
      "uid": 1772368,
      "tags": {
        "accuracy": "minutes",
        "gns_ref": "-781453",
        "name": "משלט שיבטה",
        "name:en": "Mishlat Shivta",
        "name:he": "משלט שיבטה",
        "natural": "peak",
        "source": "GEOnet Names Server (gns)",
        "wikidata": "Q26762488"
      }
    },
    {
      "type": "node",
      "id": 278475586,
      "lat": 31.3253413,
      "lon": 34.6977854,
      "timestamp": "2021-02-25T01:52:46Z",
      "version": 6,
      "changeset": 99937148,
      "user": "Vejoson",
      "uid": 11422772,
      "tags": {
        "gns_ref": "-779737",
        "name": "אשל הנשיא",
        "name:ar": "إيشيل هنسي",
        "name:en": "Eshel HaNasi",
        "name:fr": "Eshel HaNasi",
        "name:he": "אשל הנשיא",
        "place": "village",
        "population": "652",
        "source": "GEOnet Names Server (gns);https://www.cbs.gov.il/he/publications/doclib/2017/population_madaf/population_madaf_2019_1.xlsx",
        "wikidata": "Q2889072",
        "wikipedia": "en:Eshel HaNasi"
      }
    },
    {
      "type": "node",
      "id": 278475833,
      "lat": 30.9136125,
      "lon": 34.8303316,
      "timestamp": "2020-04-28T20:30:27Z",
      "version": 6,
      "changeset": 84290189,
      "user": "Edward",
      "uid": 364,
      "tags": {
        "accuracy": "minutes",
        "gns_ref": "-779995",
        "name": "הר חלוקים",
        "name:en": "Mt. Haluqim",
        "name:en1": "Jebel Haleiqim",
        "name:he": "הר חלוקים",
        "natural": "peak",
        "source": "GEOnet Names Server (gns)",
        "wikidata": "Q26763729"
      }
    },
    {
      "type": "node",
      "id": 278475937,
      "lat": 30.89088,
      "lon": 35.0717882,
      "timestamp": "2020-04-28T20:30:31Z",
      "version": 5,
      "changeset": 84290189,
      "user": "Edward",
      "uid": 364,
      "tags": {
        "accuracy": "minutes",
        "ele": "480",
        "gns_ref": "-779935",
        "name": "הר גולחן",
        "name:en": "Mt. Golehan",
        "name:en1": "Ras Adlikhan",
        "name:en2": "Ras Ijlikhan",
        "name:he": "הר גולחן",
        "natural": "peak",
        "source": "GEOnet Names Server (gns)",
        "wikidata": "Q26763856"
      }
    },
    {
      "type": "node",
      "id": 278475940,
      "lat": 30.9763889,
      "lon": 34.6644441,
      "timestamp": "2020-04-28T20:32:38Z",
      "version": 4,
      "changeset": 84290297,
      "user": "Edward",
      "uid": 364,
      "tags": {
        "accuracy": "minutes",
        "gns_ref": "-780086",
        "name": "גבעת חיל",
        "name:en": "Giv`at Hayil",
        "name:en1": "Ras el Huwel",
        "name:en2": "Ras el Huwil",
        "name:en3": "Giv'at Bayil",
        "name:he": "גבעת חיל",
        "natural": "peak",
        "source": "GEOnet Names Server (gns)",
        "wikidata": "Q26763766"
      }
    },
    {
      "type": "node",
      "id": 278475999,
      "lat": 31.0383092,
      "lon": 34.8309174,
      "timestamp": "2020-04-28T20:30:17Z",
      "version": 8,
      "changeset": 84290189,
      "user": "Edward",
      "uid": 364,
      "tags": {
        "accuracy": "minutes",
        "ele": "475",
        "gns_ref": "-781369",
        "name": "הר שחר",
        "name:en": "Mt. Shahar",
        "name:he": "הר שחר",
        "natural": "peak",
        "source": "GEOnet Names Server (gns)",
        "wikidata": "Q26762745"
      }
    },
    {
      "type": "node",
      "id": 278476039,
      "lat": 31.2111135,
      "lon": 34.4652467,
      "timestamp": "2021-03-20T00:06:56Z",
      "version": 7,
      "changeset": 101366524,
      "user": "Vejoson",
      "uid": 11422772,
      "tags": {
        "accuracy": "minutes",
        "alt_name:ar": "جبولوت",
        "gns_ref": "-779878",
        "name": "גבולות",
        "name:ar": "غفولوت",
        "name:en": "Gvulot",
        "name:fr": "Gvulot",
        "name:he": "גבולות",
        "place": "village",
        "population": "358",
        "source": "GEOnet Names Server (gns);https://www.cbs.gov.il/he/publications/doclib/2017/population_madaf/population_madaf_2019_1.xlsx",
        "wikidata": "Q2890725",
        "wikipedia": "en:Gvulot"
      }
    },
    {
      "type": "node",
      "id": 278476042,
      "lat": 30.7630559,
      "lon": 34.4588889,
      "timestamp": "2020-12-24T14:23:56Z",
      "version": 6,
      "changeset": 96391606,
      "user": "pizzaiolo",
      "uid": 1772368,
      "tags": {
        "accuracy": "minutes",
        "gns_ref": "418739",
        "name": "גבעת שליט",
        "name:en": "Giv'at Salit",
        "name:he": "גבעת שליט",
        "natural": "peak",
        "source": "GEOnet Names Server (gns)",
        "wikidata": "Q26764259"
      }
    },
    {
      "type": "node",
      "id": 278476185,
      "lat": 30.9572992,
      "lon": 34.8680334,
      "timestamp": "2020-04-28T20:30:19Z",
      "version": 6,
      "changeset": 84290189,
      "user": "Edward",
      "uid": 364,
      "tags": {
        "accuracy": "minutes",
        "ele": "652",
        "gns_ref": "-781137",
        "name": "הר רחמה",
        "name:en": "Mt. Rahama",
        "name:en1": "Jebel Rakhama",
        "name:en2": "Jebel Rekhme",
        "name:he": "הר רחמה",
        "natural": "peak",
        "source": "GEOnet Names Server (gns)",
        "wikidata": "Q26762870"
      }
    },
    {
      "type": "node",
      "id": 278476351,
      "lat": 31.3520796,
      "lon": 34.4971043,
      "timestamp": "2021-04-17T23:22:34Z",
      "version": 8,
      "changeset": 103120532,
      "user": "Vejoson",
      "uid": 11422772,
      "tags": {
        "accuracy": "minutes",
        "gns_ref": "-781507",
        "name": "טל אור",
        "name:ar": "طل أور",
        "name:en": "Tal Or",
        "name:fr": "Tal Or",
        "name:he": "טל אור",
        "place": "hamlet",
        "source": "GEOnet Names Server (gns)"
      }
    },
    {
      "type": "node",
      "id": 278476510,
      "lat": 30.9411109,
      "lon": 34.561944,
      "timestamp": "2020-04-28T20:32:39Z",
      "version": 5,
      "changeset": 84290297,
      "user": "Edward",
      "uid": 364,
      "tags": {
        "accuracy": "minutes",
        "gns_ref": "-780278",
        "name": "גבעות אבחה",
        "name:en": "Giv'at Ivha",
        "name:en1": "El Baha",
        "name:he": "גבעות אבחה",
        "natural": "peak",
        "source": "GEOnet Names Server (gns)",
        "wikidata": "Q26763800"
      }
    },
    {
      "type": "node",
      "id": 278476529,
      "lat": 30.8143654,
      "lon": 34.8134155,
      "timestamp": "2021-03-03T04:10:53Z",
      "version": 16,
      "changeset": 100314711,
      "user": "GorALexeY",
      "uid": 11765454,
      "tags": {
        "accuracy": "minutes",
        "description": "אחד המעיינות הגדולים בנגב, המים מטפטים כל ימות השנה אל בריכה רחבה ועמוקה במיוחד, מעל 8 מטרים עומקה. \n",
        "description:he": "אחד המעיינות הגדולים בנגב, המים מטפטים כל ימות השנה אל בריכה רחבה ועמוקה במיוחד, מעל 8 מטרים עומקה. \n",
        "gns_ref": "-779157",
        "image": "https://upload.wikimedia.org/wikipedia/commons/5/5c/Israel_Hiking_Map_%D7%A2%D7%99%D7%9F_%D7%A2%D7%A7%D7%91.jpeg",
        "image1": "https://upload.wikimedia.org/wikipedia/commons/2/21/En_Akev.jpg",
        "image10": "https://upload.wikimedia.org/wikipedia/commons/0/0a/IHM_עין_עקב_5.jpeg",
        "image2": "https://upload.wikimedia.org/wikipedia/commons/2/2a/Israel_Hiking_Map_%D7%A2%D7%99%D7%9F_%D7%A2%D7%A7%D7%91_1.jpeg",
        "image3": "https://inature.info/w/images/e/ee/Ein_akev.jpg",
        "image4": "https://upload.wikimedia.org/wikipedia/commons/4/43/Israel_Hiking_Map_%D7%A2%D7%99%D7%9F_%D7%A2%D7%A7%D7%91_2.jpeg",
        "image5": "https://upload.wikimedia.org/wikipedia/commons/e/e0/IHM_עין_עקב.jpeg",
        "image6": "https://upload.wikimedia.org/wikipedia/commons/0/0d/IHM_עין_עקב_1.jpeg",
        "image7": "https://upload.wikimedia.org/wikipedia/commons/6/6e/IHM_עין_עקב_2.jpeg",
        "image8": "https://upload.wikimedia.org/wikipedia/commons/c/c8/IHM_עין_עקב_3.jpeg",
        "image9": "https://upload.wikimedia.org/wikipedia/commons/9/95/IHM_עין_עקב_4.jpeg",
        "name": "עין עקב",
        "name:en": "Ein Aqev",
        "name:en1": "En Umm Ka`ab",
        "name:en2": "Ain Akev",
        "name:he": "עין עקב",
        "natural": "spring",
        "source": "GEOnet Names Server (gns)",
        "website": "http://www.nelech.co.il/%D7%9E%D7%A2%D7%99%D7%99%D7%A0%D7%95%D7%AA/%D7%9E%D7%99%D7%93%D7%A2/%D7%A2%D7%99%D7%9F-%D7%A2%D7%A7%D7%91",
        "website1": "https://inature.info/wiki/%D7%A2%D7%99%D7%9F%20%D7%A2%D7%A7%D7%91",
        "wikidata": "Q6621126",
        "wikipedia": "he:עין עקב",
        "wikipedia:he": "עין עקב"
      }
    },
    {
      "type": "node",
      "id": 278476772,
      "lat": 30.8330281,
      "lon": 34.7705729,
      "timestamp": "2020-12-24T14:23:32Z",
      "version": 6,
      "changeset": 96391606,
      "user": "pizzaiolo",
      "uid": 1772368,
      "tags": {
        "accuracy": "minutes",
        "gns_ref": "-780772",
        "name": "עין מור",
        "name:en": "Ein Mor",
        "name:en1": "En el Murra",
        "name:he": "עין מור",
        "natural": "spring",
        "source": "GEOnet Names Server (gns)",
        "wikidata": "Q26763588"
      }
    },
    {
      "type": "node",
      "id": 278476947,
      "lat": 30.8267036,
      "lon": 34.7646141,
      "timestamp": "2020-12-24T14:21:43Z",
      "version": 13,
      "changeset": 96391606,
      "user": "pizzaiolo",
      "uid": 1772368,
      "tags": {
        "accuracy": "minutes",
        "gns_ref": "-779284",
        "image": "https://upload.wikimedia.org/wikipedia/he/5/5d/EIN-OVDAT69.jpg",
        "image1": "https://upload.wikimedia.org/wikipedia/commons/b/be/Um%2C_Wow.jpg",
        "name": "עין עבדת",
        "name:en": "Ein Avdat",
        "name:en1": "En Avdat",
        "name:en2": "En Avedat",
        "name:en3": "En el Mureifij",
        "name:en4": "Ein Avdat",
        "name:he": "עין עבדת",
        "name:ru": "Эйн Авдат",
        "natural": "spring",
        "source": "GEOnet Names Server (gns)",
        "tourism": "attraction",
        "wikidata": "Q1339871",
        "wikipedia": "he:עין עבדת",
        "wikipedia:en": "Ein Avdat",
        "wikipedia:he": "עין עבדת"
      }
    },
    {
      "type": "node",
      "id": 278476980,
      "lat": 30.7591346,
      "lon": 34.6031721,
      "timestamp": "2020-04-28T20:30:16Z",
      "version": 7,
      "changeset": 84290189,
      "user": "Edward",
      "uid": 364,
      "tags": {
        "accuracy": "minutes",
        "gns_ref": "-781220",
        "name": "הר רסיסים",
        "name:en": "Mt. Resisim",
        "name:en1": "Jebel Erseisiya",
        "name:en2": "Jebel Irseisiya",
        "name:he": "הר רסיסים",
        "natural": "peak",
        "source": "GEOnet Names Server (gns)",
        "wikidata": "Q26762704"
      }
    },
    {
      "type": "node",
      "id": 278477115,
      "lat": 31.2666671,
      "lon": 35.0166669,
      "timestamp": "2020-04-28T20:32:38Z",
      "version": 8,
      "changeset": 84290297,
      "user": "Edward",
      "uid": 364,
      "tags": {
        "accuracy": "minutes",
        "gns_ref": "-780264",
        "name": "הרי עירא",
        "name:ar": "جبل عيرا",
        "name:en": "Mt. Ira",
        "name:he": "הרי עירא",
        "natural": "peak",
        "source": "GEOnet Names Server (gns)",
        "wikidata": "Q26763796"
      }
    },
    {
      "type": "node",
      "id": 278477200,
      "lat": 30.7735067,
      "lon": 34.7635135,
      "timestamp": "2020-04-28T20:30:35Z",
      "version": 6,
      "changeset": 84290189,
      "user": "Edward",
      "uid": 364,
      "tags": {
        "accuracy": "minutes",
        "ele": "653",
        "gns_ref": "-779632",
        "name": "הר אלדד",
        "name:en": "Mt. Eldad",
        "name:en1": "Har Elbad",
        "name:he": "הר אלדד",
        "natural": "peak",
        "source": "GEOnet Names Server (gns)",
        "wikidata": "Q26764044"
      }
    },
    {
      "type": "node",
      "id": 278477237,
      "lat": 30.8733327,
      "lon": 34.7180594,
      "timestamp": "2020-04-28T20:30:34Z",
      "version": 5,
      "changeset": 84290189,
      "user": "Edward",
      "uid": 364,
      "tags": {
        "accuracy": "minutes",
        "gns_ref": "-779510",
        "name": "הר בוקר",
        "name:en": "Mt. Boqer",
        "name:en1": "Shajarat el Baqqar",
        "name:he": "הר בוקר",
        "natural": "peak",
        "source": "GEOnet Names Server (gns)",
        "wikidata": "Q26764013"
      }
    },
    {
      "type": "node",
      "id": 278477903,
      "lat": 31.2659365,
      "lon": 34.847616,
      "timestamp": "2021-02-15T00:48:17Z",
      "version": 8,
      "changeset": 99271551,
      "user": "Vejoson",
      "uid": 11422772,
      "tags": {
        "accuracy": "minutes",
        "gns_ref": "-780949",
        "name": "עומר",
        "name:ar": "عومر",
        "name:en": "Omer",
        "name:fr": "Omer",
        "name:he": "עומר",
        "place": "town",
        "population": "7530",
        "source": "GEOnet Names Server (gns);https://www.cbs.gov.il/he/publications/doclib/2017/population_madaf/population_madaf_2019_1.xlsx",
        "wikidata": "Q1968636",
        "wikipedia": "en:Omer, Israel"
      }
    },
    {
      "type": "node",
      "id": 278477955,
      "lat": 30.8316954,
      "lon": 35.0576462,
      "timestamp": "2021-02-06T21:51:07Z",
      "version": 11,
      "changeset": 98830546,
      "user": "GorALexeY",
      "uid": 11765454,
      "tags": {
        "accuracy": "minutes",
        "ele": "268",
        "gns_ref": "-779985",
        "image": "https://upload.wikimedia.org/wikipedia/commons/e/ee/%D7%9B%D7%93%D7%95%D7%A8%D7%99_%D7%90%D7%9C%D7%99%D7%94%D7%95_%D7%91%D7%94%D7%A8_%D7%A6%D7%99%D7%9F_%D7%94%D7%A8_%D7%94%D7%94%D7%A8_2.jpg",
        "image1": "https://upload.wikimedia.org/wikipedia/commons/1/1a/IHM_הר_צין.jpeg",
        "image10": "https://upload.wikimedia.org/wikipedia/commons/e/e0/IHM_הר_צין_9.jpeg",
        "image2": "https://upload.wikimedia.org/wikipedia/commons/0/06/IHM_הר_צין_1.jpeg",
        "image3": "https://upload.wikimedia.org/wikipedia/commons/6/68/IHM_הר_צין_2.jpeg",
        "image4": "https://upload.wikimedia.org/wikipedia/commons/e/e5/IHM_הר_צין_3.jpeg",
        "image5": "https://upload.wikimedia.org/wikipedia/commons/b/b2/IHM_הר_צין_4.jpeg",
        "image6": "https://upload.wikimedia.org/wikipedia/commons/e/e7/IHM_הר_צין_5.jpeg",
        "image7": "https://upload.wikimedia.org/wikipedia/commons/0/0c/IHM_הר_צין_6.jpeg",
        "image8": "https://upload.wikimedia.org/wikipedia/commons/3/3b/IHM_הר_צין_7.jpeg",
        "image9": "https://upload.wikimedia.org/wikipedia/commons/6/6f/IHM_הר_צין_8.jpeg",
        "name": "הר צין",
        "name:en": "Hor HaHar",
        "name:en1": "Jebel el Madra",
        "name:en3": "Har Zin",
        "name:he": "הר צין",
        "name:he1": "הור ההר",
        "natural": "peak",
        "source": "GEOnet Names Server (gns)",
        "wikidata": "Q26763722",
        "wikipedia": "he:הר צין",
        "wikipedia:he": "הר צין"
      }
    },
    {
      "type": "node",
      "id": 278478022,
      "lat": 31.276111,
      "lon": 34.4925,
      "timestamp": "2020-12-24T14:23:15Z",
      "version": 6,
      "changeset": 96391606,
      "user": "pizzaiolo",
      "uid": 1772368,
      "tags": {
        "accuracy": "minutes",
        "gns_ref": "-781394",
        "name": "עין שרוחן",
        "name:en": "Ein Sharuhen",
        "name:en1": "Kamli",
        "name:en2": "`En el Qamla",
        "name:en3": "Bir Qamle",
        "name:en4": "`En el Qamle",
        "name:en5": "`En Sharahen",
        "name:he": "עין שרוחן",
        "natural": "spring",
        "source": "GEOnet Names Server (gns)",
        "wikidata": "Q26762469"
      }
    },
    {
      "type": "node",
      "id": 278478101,
      "lat": 30.853056,
      "lon": 34.6941669,
      "timestamp": "2020-12-24T14:23:13Z",
      "version": 3,
      "changeset": 96391606,
      "user": "pizzaiolo",
      "uid": 1772368,
      "tags": {
        "accuracy": "minutes",
        "gns_ref": "-781893",
        "name": "רמת ציפורים",
        "name:en": "Ramat Zipporim",
        "name:en1": "Ramat Tsiporim",
        "name:en2": "Ramat Tsipporim",
        "name:he": "רמת ציפורים",
        "natural": "peak",
        "source": "GEOnet Names Server (gns)",
        "wikidata": "Q26762172"
      }
    },
    {
      "type": "node",
      "id": 278478108,
      "lat": 30.9943511,
      "lon": 34.4916237,
      "timestamp": "2020-12-24T14:23:55Z",
      "version": 9,
      "changeset": 96391606,
      "user": "pizzaiolo",
      "uid": 1772368,
      "tags": {
        "accuracy": "minutes",
        "ele": "367",
        "gns_ref": "418751",
        "name": "הר קרן",
        "name:en": "Mt. Qeren",
        "name:en1": "Jebel Garn",
        "name:en2": "Jabal Kayrin",
        "name:en3": "Jebel Qarn",
        "name:he": "הר קרן",
        "natural": "peak",
        "source": "GEOnet Names Server (gns)",
        "wikidata": "Q26764254"
      }
    },
    {
      "type": "node",
      "id": 278478119,
      "lat": 30.8125734,
      "lon": 34.7220542,
      "timestamp": "2020-12-24T14:23:19Z",
      "version": 5,
      "changeset": 96391606,
      "user": "pizzaiolo",
      "uid": 1772368,
      "tags": {
        "accuracy": "minutes",
        "ele": "678",
        "gns_ref": "-781222",
        "name": "הר רתמים",
        "name:en": "Mt. Retamim",
        "name:he": "הר רתמים",
        "natural": "peak",
        "source": "GEOnet Names Server (gns)",
        "wikidata": "Q26762705"
      }
    },
    {
      "type": "node",
      "id": 278478159,
      "lat": 30.8447154,
      "lon": 34.5572298,
      "timestamp": "2020-04-28T20:32:35Z",
      "version": 5,
      "changeset": 84290297,
      "user": "Edward",
      "uid": 364,
      "tags": {
        "accuracy": "minutes",
        "gns_ref": "-781196",
        "name": "הר רביב",
        "name:en": "Mt. Raviv",
        "name:en1": "Jebel Umm Irtheima",
        "name:he": "הר רביב",
        "natural": "peak",
        "source": "GEOnet Names Server (gns)",
        "wikidata": "Q26762693"
      }
    },
    {
      "type": "node",
      "id": 278478206,
      "lat": 30.8519439,
      "lon": 34.673889,
      "timestamp": "2020-12-24T14:23:24Z",
      "version": 4,
      "changeset": 96391606,
      "user": "pizzaiolo",
      "uid": 1772368,
      "tags": {
        "accuracy": "minutes",
        "gns_ref": "-780891",
        "name": "הר נצר",
        "name:en": "Mt. Nezer",
        "name:en1": "Jebel el Insuriya",
        "name:en2": "Insuriye",
        "name:en3": "Har Netser",
        "name:he": "הר נצר",
        "natural": "peak",
        "source": "GEOnet Names Server (gns)",
        "wikidata": "Q26763482"
      }
    },
    {
      "type": "node",
      "id": 278478214,
      "lat": 31.3377917,
      "lon": 34.6004634,
      "timestamp": "2021-03-20T00:06:56Z",
      "version": 6,
      "changeset": 101366524,
      "user": "Vejoson",
      "uid": 11422772,
      "tags": {
        "alt_name:en": "Rannen",
        "gns_ref": "-781184",
        "name": "רנן",
        "name:ar": "رانن",
        "name:en": "Ranen",
        "name:fr": "Ranen",
        "name:he": "רנן",
        "place": "village",
        "population": "703",
        "source": "GEOnet Names Server (gns);https://www.cbs.gov.il/he/publications/doclib/2017/population_madaf/population_madaf_2019_1.xlsx",
        "wikidata": "Q2889917",
        "wikipedia": "en:Ranen"
      }
    },
    {
      "type": "node",
      "id": 278478229,
      "lat": 31.0338842,
      "lon": 34.8579892,
      "timestamp": "2020-10-24T19:56:11Z",
      "version": 7,
      "changeset": 92998515,
      "user": "גלעד אטקס",
      "uid": 12051101,
      "tags": {
        "accuracy": "minutes",
        "ele": "532",
        "gns_ref": "-781834",
        "image": "https://upload.wikimedia.org/wikipedia/commons/0/08/%D7%9E%D7%A4%D7%AA_%D7%94%D7%A8_%D7%A6%D7%91%D7%95%D7%A2.jpg",
        "name": "הר צבוע",
        "name:en": "Mt. Zavoa`",
        "name:en1": "Rujm ed Dab`a",
        "name:en2": "Har Hatsavoa`",
        "name:he": "הר צבוע",
        "natural": "peak",
        "source": "GEOnet Names Server (gns)",
        "wikidata": "Q26762150",
        "wikipedia": "he:הר צבוע",
        "wikipedia:he": "הר צבוע"
      }
    },
    {
      "type": "node",
      "id": 278478289,
      "lat": 31.3246082,
      "lon": 34.6778882,
      "timestamp": "2021-02-22T23:57:46Z",
      "version": 8,
      "changeset": 99778570,
      "user": "Vejoson",
      "uid": 11422772,
      "tags": {
        "gns_ref": "-781623",
        "name": "תפרח",
        "name:ar": "تفراح",
        "name:cs": "Tifrach",
        "name:en": "Tifrah",
        "name:fr": "Tifrach",
        "name:he": "תפרח",
        "name:nn": "Tifrah",
        "name:pl": "Tifrach",
        "place": "village",
        "population": "2178",
        "source": "GEOnet Names Server (gns);https://www.cbs.gov.il/he/publications/doclib/2017/population_madaf/population_madaf_2019_1.xlsx",
        "wikidata": "Q2889874",
        "wikipedia": "en:Tifrah"
      }
    },
    {
      "type": "node",
      "id": 278478346,
      "lat": 31.2104322,
      "lon": 34.882813,
      "timestamp": "2020-04-28T20:32:42Z",
      "version": 5,
      "changeset": 84290297,
      "user": "Edward",
      "uid": 364,
      "tags": {
        "ele": "395",
        "gns_ref": "-779300",
        "name": "כתף אברהם",
        "name:en": "Ketef Avraham",
        "name:he": "כתף אברהם",
        "natural": "peak",
        "source": "Bing;GEOnet Names Server (gns)",
        "wikidata": "Q26764202"
      }
    },
    {
      "type": "node",
      "id": 278478399,
      "lat": 30.9919058,
      "lon": 34.7700732,
      "timestamp": "2021-03-29T01:18:55Z",
      "version": 8,
      "changeset": 101894044,
      "user": "Vejoson",
      "uid": 11422772,
      "tags": {
        "alt_name:en": "Telalim",
        "gns_ref": "9245578",
        "name": "טללים",
        "name:ar": "تلاليم",
        "name:en": "Tlalim",
        "name:fr": "Tlalim",
        "name:he": "טללים",
        "place": "village",
        "population": "543",
        "source": "GEOnet Names Server (gns);https://www.cbs.gov.il/he/publications/doclib/2017/population_madaf/population_madaf_2019_1.xlsx",
        "wikidata": "Q2890019"
      }
    },
    {
      "type": "node",
      "id": 278478460,
      "lat": 30.833333,
      "lon": 34.55,
      "timestamp": "2020-12-24T14:23:20Z",
      "version": 3,
      "changeset": 96391606,
      "user": "pizzaiolo",
      "uid": 1772368,
      "tags": {
        "accuracy": "minutes",
        "gns_ref": "-781261",
        "name": "רמת רות",
        "name:en": "Ramat Rut",
        "name:en1": "Abu Rutha",
        "name:he": "רמת רות",
        "natural": "peak",
        "source": "GEOnet Names Server (gns)",
        "wikidata": "Q26762717"
      }
    },
    {
      "type": "node",
      "id": 278478533,
      "lat": 31.329171,
      "lon": 34.6516508,
      "timestamp": "2021-03-28T00:38:40Z",
      "version": 7,
      "changeset": 101858319,
      "user": "Vejoson",
      "uid": 11422772,
      "tags": {
        "alt_name:ar": "گيلات;چيلات",
        "gns_ref": "-779895",
        "name": "גילת",
        "name:ar": "جيلات",
        "name:en": "Gilat",
        "name:fr": "Gilat",
        "name:he": "גילת",
        "place": "village",
        "population": "1451",
        "source": "GEOnet Names Server (gns);https://www.cbs.gov.il/he/publications/doclib/2017/population_madaf/population_madaf_2019_1.xlsx",
        "wikidata": "Q2701184",
        "wikipedia": "en:Gilat"
      }
    },
    {
      "type": "node",
      "id": 278478612,
      "lat": 30.9938828,
      "lon": 34.9201161,
      "timestamp": "2020-04-28T20:32:34Z",
      "version": 5,
      "changeset": 84290297,
      "user": "Edward",
      "uid": 364,
      "tags": {
        "accuracy": "minutes",
        "ele": "506",
        "gns_ref": "-781742",
        "name": "גבעת ירוחם",
        "name:en": "Giv`at Yeroham",
        "name:en1": "Tell Rakhma",
        "name:he": "גבעת ירוחם",
        "natural": "peak",
        "source": "GEOnet Names Server (gns)",
        "wikidata": "Q26762113"
      }
    },
    {
      "type": "node",
      "id": 278478845,
      "lat": 30.800886,
      "lon": 34.8508746,
      "timestamp": "2016-10-20T12:09:56Z",
      "version": 6,
      "changeset": 43030437,
      "user": "homebuilt",
      "uid": 4642201,
      "tags": {
        "accuracy": "minutes",
        "gns_ref": "-781894",
        "name": "עין זיק",
        "name:en": "Ein Zik",
        "name:en1": "En Shahabiya",
        "name:he": "עין זיק",
        "natural": "spring",
        "source": "GEOnet Names Server (gns)"
      }
    },
    {
      "type": "node",
      "id": 382127991,
      "lat": 30.8505651,
      "lon": 34.7831673,
      "timestamp": "2019-08-21T17:35:53Z",
      "version": 4,
      "changeset": 73591078,
      "user": "Eliff",
      "uid": 365939,
      "tags": {
        "amenity": "drinking_water"
      }
    },
    {
      "type": "node",
      "id": 536507510,
      "lat": 31.3270854,
      "lon": 34.9384389,
      "timestamp": "2021-02-15T00:48:17Z",
      "version": 10,
      "changeset": 99271551,
      "user": "Vejoson",
      "uid": 11422772,
      "tags": {
        "name": "מיתר",
        "name:ar": "ميتار",
        "name:en": "Meitar",
        "name:fr": "Meitar",
        "name:he": "מיתר",
        "place": "town",
        "population": "9418",
        "source": "https://www.cbs.gov.il/he/publications/doclib/2017/population_madaf/population_madaf_2019_1.xlsx",
        "wikidata": "Q1246119",
        "wikipedia": "en:Meitar"
      }
    },
    {
      "type": "node",
      "id": 558575432,
      "lat": 31.3003168,
      "lon": 34.9332789,
      "timestamp": "2021-02-15T00:48:17Z",
      "version": 9,
      "changeset": 99271551,
      "user": "Vejoson",
      "uid": 11422772,
      "tags": {
        "name": "حورة",
        "name:ar": "حورة",
        "name:en": "Hura",
        "name:fr": "Khura",
        "name:he": "חורה",
        "name:ru": "Хура",
        "place": "town",
        "population": "22337",
        "source": "https://www.cbs.gov.il/he/publications/doclib/2017/population_madaf/population_madaf_2019_1.xlsx",
        "wikidata": "Q1638374",
        "wikipedia": "ar:حورة (إسرائيل)",
        "wikipedia:ar": "حورة (إسرائيل)"
      }
    },
    {
      "type": "node",
      "id": 599556378,
      "lat": 31.1613665,
      "lon": 35.0236916,
      "timestamp": "2021-02-15T12:21:06Z",
      "version": 11,
      "changeset": 99309096,
      "user": "Vejoson",
      "uid": 11422772,
      "tags": {
        "name": "عرعرة النقب",
        "name:ar": "عرعرة النقب",
        "name:en": "Ar'arat an-Naqab",
        "name:en1": "Ararat a Naqb",
        "name:fr": "Arara Benegev",
        "name:he": "ערערה בנגב",
        "place": "village",
        "population": "18332",
        "short_name:ar": "عرعرة",
        "source": "https://www.cbs.gov.il/he/publications/doclib/2017/population_madaf/population_madaf_2019_1.xlsx",
        "wikidata": "Q2915541",
        "wikipedia": "en:Ar'arat an-Naqab"
      }
    },
    {
      "type": "node",
      "id": 599556533,
      "lat": 31.0793738,
      "lon": 34.9848798,
      "timestamp": "2021-06-30T15:42:43Z",
      "version": 9,
      "changeset": 107216086,
      "user": "hatul",
      "uid": 686490,
      "tags": {
        "name": "قصر السر",
        "name:ar": "قصر السر",
        "name:cs": "Kasr as-Sirr",
        "name:en": "Qasr al-Sir",
        "name:fr": "Qasr al-Sir",
        "name:he": "קצר א סיר",
        "name:nl": "Qasr al-Sir",
        "name:nn": "Qasr al-Sir",
        "name:pl": "Kasr as-Sirr",
        "name:ro": "Qasr as-Sir",
        "name:ru": "Каср-эс-Сир",
        "place": "village",
        "population": "2460",
        "source": "https://www.cbs.gov.il/he/publications/doclib/2017/population_madaf/population_madaf_2019_1.xlsx",
        "wikidata": "Q2633179",
        "wikipedia": "en:Qasr al-Sir",
        "wikipedia:he": "קסר א-סיר"
      }
    },
    {
      "type": "node",
      "id": 599556920,
      "lat": 31.2465374,
      "lon": 35.0930574,
      "timestamp": "2021-02-15T12:21:06Z",
      "version": 7,
      "changeset": 99309096,
      "user": "Vejoson",
      "uid": 11422772,
      "tags": {
        "name": "كسيفة",
        "name:ar": "كسيفة",
        "name:ca": "Kseifa",
        "name:cs": "Kesejfa",
        "name:de": "Kuseife",
        "name:en": "Kuseife",
        "name:es": "Kuseife",
        "name:fa": "کسیفه",
        "name:fr": "Kseife",
        "name:he": "כסיפה",
        "name:nn": "Kuseife",
        "name:pl": "Kusejfa",
        "name:ru": "Кусейфе",
        "place": "village",
        "population": "21866",
        "source": "https://www.cbs.gov.il/he/publications/doclib/2017/population_madaf/population_madaf_2019_1.xlsx",
        "wikidata": "Q2652222",
        "wikipedia": "en:Kuseife"
      }
    },
    {
      "type": "node",
      "id": 599577806,
      "lat": 31.2008757,
      "lon": 34.8400872,
      "timestamp": "2021-02-15T12:21:06Z",
      "version": 7,
      "changeset": 99309096,
      "user": "Vejoson",
      "uid": 11422772,
      "tags": {
        "name": "شقيب السلام",
        "name:ar": "شقيب السلام",
        "name:en": "Shaqib al-Salam",
        "name:en1": "Shakib al Salam",
        "name:en2": "Segev Shalom",
        "name:fr": "Segev Shalom",
        "name:he": "שגב שלום",
        "name:he1": "שוקייב א סאלם",
        "place": "village"
      }
    },
    {
      "type": "node",
      "id": 599579503,
      "lat": 31.2456487,
      "lon": 34.8577683,
      "timestamp": "2021-02-15T00:48:17Z",
      "version": 6,
      "changeset": 99271551,
      "user": "Vejoson",
      "uid": 11422772,
      "tags": {
        "alt_name:en": "Tel Sheva;Telsheba",
        "name": "تل السبع",
        "name:ar": "تل السبع",
        "name:en": "Tal as-Sabi",
        "name:fr": "Tel Sheva",
        "name:he": "תל שבע",
        "name:ru": "Тель-Шева",
        "place": "town",
        "population": "20808",
        "source": "https://www.cbs.gov.il/he/publications/doclib/2017/population_madaf/population_madaf_2019_1.xlsx",
        "wikidata": "Q2298534",
        "wikipedia": "en:Tel Sheva"
      }
    },
    {
      "type": "node",
      "id": 599588524,
      "lat": 31.1771389,
      "lon": 34.8153922,
      "timestamp": "2021-04-17T23:22:34Z",
      "version": 7,
      "changeset": 103120532,
      "user": "Vejoson",
      "uid": 11422772,
      "tags": {
        "name": "الوليدي",
        "name:ar": "الوليدي",
        "name:en": "Al Walidi",
        "name:fr": "Al Walidi",
        "name:he": "אל ולידי",
        "place": "hamlet"
      }
    },
    {
      "type": "node",
      "id": 599589725,
      "lat": 31.1446272,
      "lon": 34.8229761,
      "timestamp": "2021-02-15T19:27:32Z",
      "version": 6,
      "changeset": 99329576,
      "user": "Vejoson",
      "uid": 11422772,
      "tags": {
        "name": "الجرجاوي",
        "name:ar": "الجرجاوي",
        "name:en": "Al Jarjawi",
        "name:fr": "El-Gergawi",
        "name:he": "אל ג'רג'אווי",
        "place": "village"
      }
    },
    {
      "type": "node",
      "id": 599590033,
      "lat": 31.1315391,
      "lon": 34.8164018,
      "timestamp": "2021-02-20T00:51:08Z",
      "version": 6,
      "changeset": 99622580,
      "user": "Vejoson",
      "uid": 11422772,
      "tags": {
        "name": "الدنفيري",
        "name:ar": "الدنفيري",
        "name:en": "Al Danfiri",
        "name:fr": "Al Danfiri",
        "name:he": "אל דנפירי",
        "place": "village"
      }
    },
    {
      "type": "node",
      "id": 605985669,
      "lat": 31.3426169,
      "lon": 35.1021887,
      "timestamp": "2021-03-28T01:21:43Z",
      "version": 4,
      "changeset": 101858757,
      "user": "Vejoson",
      "uid": 11422772,
      "tags": {
        "name": "הר עמשא",
        "name:en": "Har Amasa",
        "name:fr": "Har Amasa",
        "name:he": "הר עמשא",
        "place": "village",
        "wikidata": "Q2916521",
        "wikipedia": "he:הר עמשא (יישוב)"
      }
    },
    {
      "type": "node",
      "id": 666283754,
      "lat": 30.8886192,
      "lon": 34.828885,
      "timestamp": "2021-03-25T00:19:52Z",
      "version": 8,
      "changeset": 101679007,
      "user": "Vejoson",
      "uid": 11422772,
      "tags": {
        "description": "מֶרְחַב עַם הוא יישוב קהילתי דתי בנגב.",
        "description:he": "מֶרְחַב עַם הוא יישוב קהילתי דתי בנגב.",
        "image": "https://upload.wikimedia.org/wikipedia/he/6/69/%D7%9C%D7%95%D7%92%D7%95_%D7%9E%D7%A8%D7%97%D7%91_%D7%A2%D7%9D.jpg",
        "name": "מרחב עם",
        "name:ar": "مرحاڤ عام",
        "name:en": "Merhav Am",
        "name:fr": "Merhav Am",
        "name:he": "מרחב עם",
        "place": "village",
        "population": "501",
        "source": "https://www.cbs.gov.il/he/publications/doclib/2017/population_madaf/population_madaf_2019_1.xlsx",
        "wikidata": "Q2777042",
        "wikipedia": "en:Merhav Am",
        "wikipedia:he": "מרחב עם"
      }
    },
    {
      "type": "node",
      "id": 738723480,
      "lat": 31.2457442,
      "lon": 34.7925181,
      "timestamp": "2021-06-29T09:28:41Z",
      "version": 36,
      "changeset": 107136447,
      "user": "hatul",
      "uid": 686490,
      "tags": {
        "alt_name:ar": "بئر شبع;بئير شيبع",
        "alt_name:cs": "Beerševa",
        "alt_name:en": "Beer Sheva;Be'er Sheva;Beer Sheba;Beersheva;Bir es-Seba;Beerseba;Beer Seba",
        "alt_name:fr": "Bersabée",
        "alt_name:hr": "Beersheba",
        "alt_name:ru": "Вирсавия",
        "capital": "4",
        "contact:website": "http://www.beer-sheva.muni.il",
        "gns_ref": "-779367",
        "name": "באר שבע",
        "name:ar": "بئر السبع",
        "name:cs": "Beer Ševa",
        "name:de": "Beerscheba",
        "name:el": "Μπερ Σεβά",
        "name:en": "Beersheba",
        "name:es": "Beerseba",
        "name:et": "Be’ér-Sheva",
        "name:fi": "Beer Sheva",
        "name:fr": "Beer-Sheva",
        "name:he": "באר שבע",
        "name:hi": "बीरशेबा",
        "name:hr": "Beršeba",
        "name:it": "Bersabea",
        "name:lt": "Beer Ševa",
        "name:ru": "Беэр-Шева",
        "name:sr": "Биршеба",
        "name:tr": "Be'er Šeba",
        "name:zh-Hans": "贝尔谢巴",
        "name:zh-Hant": "貝爾謝巴",
        "official_name:en": "Beer Sheva",
        "place": "city",
        "population": "209687",
        "source": "GEOnet Names Server (gns);https://www.cbs.gov.il/he/publications/doclib/2017/population_madaf/population_madaf_2019_1.xlsx",
        "website": "http://www.beer-sheva.muni.il",
        "wikidata": "Q41843",
        "wikipedia": "en:Beersheba",
        "wikipedia:he": "באר שבע"
      }
    },
    {
      "type": "node",
      "id": 739191371,
      "lat": 30.9887409,
      "lon": 34.9264631,
      "timestamp": "2021-06-02T10:35:42Z",
      "version": 15,
      "changeset": 105717815,
      "user": "Jobigutenburg",
      "uid": 10504312,
      "tags": {
        "gns_ref": "-781740",
        "name": "ירוחם",
        "name:ar": "يروحام",
        "name:cs": "Jerucham",
        "name:de": "Jerocham",
        "name:en": "Yerocham",
        "name:fr": "Yeruham",
        "name:he": "ירוחם",
        "name:hi": "येरोहाम",
        "name:pl": "Yeruham",
        "name:ru": "Йерухам",
        "name:sv": "Yeroẖam",
        "note": "Clearly one of \"the largest settlements within a territory\", as defined by the OSM wiki https://wiki.openstreetmap.org/wiki/Tag:place%3Dcity Please keep its place=city tag",
        "place": "city",
        "population": "10294",
        "source": "GEOnet Names Server (gns);https://www.cbs.gov.il/he/publications/doclib/2017/population_madaf/population_madaf_2019_1.xlsx",
        "wikidata": "Q1687708",
        "wikipedia": "en:Yeruham"
      }
    },
    {
      "type": "node",
      "id": 831255892,
      "lat": 31.2587764,
      "lon": 34.7480384,
      "timestamp": "2021-04-17T23:22:34Z",
      "version": 5,
      "changeset": 103120532,
      "user": "Vejoson",
      "uid": 11422772,
      "tags": {
        "name": "כפר רפאל",
        "name:en": "Kfar Refael",
        "name:fr": "Kfar Refael",
        "name:he": "כפר רפאל",
        "note": "Any better tagging than place=village?",
        "place": "hamlet",
        "wikidata": "Q97213653"
      }
    },
    {
      "type": "node",
      "id": 945971135,
      "lat": 31.2508277,
      "lon": 34.7797479,
      "timestamp": "2021-06-12T18:54:17Z",
      "version": 11,
      "changeset": 106262958,
      "user": "Slava Sukhochev",
      "uid": 12787189,
      "tags": {
        "brand": "Shufersal",
        "brand:wikidata": "Q4523181",
        "brand:wikipedia": "en:Shufersal",
        "name": "שופרסל שלי",
        "name:en": "Shufersal Sheli",
        "name:he": "שופרסל שלי",
        "name:ru": "Шуферсаль Шели",
        "opening_hours": "Su-Th 07:00-21:00; Fr 07:00-15:30",
        "shop": "supermarket",
        "website": "https://www.shufersal.co.il"
      }
    },
    {
      "type": "node",
      "id": 987097273,
      "lat": 31.2397471,
      "lon": 34.7747807,
      "timestamp": "2017-06-10T05:00:17Z",
      "version": 4,
      "changeset": 49412690,
      "user": "SafwatHalaby_bot",
      "uid": 5816834,
      "tags": {
        "name": "פינת תאיר",
        "name:en": "Tair's Corner",
        "name:he": "פינת תאיר",
        "opening_hours": "24/7",
        "shop": "convenience"
      }
    },
    {
      "type": "node",
      "id": 987097332,
      "lat": 31.2360092,
      "lon": 34.7751072,
      "timestamp": "2017-06-10T05:00:17Z",
      "version": 3,
      "changeset": 49412690,
      "user": "SafwatHalaby_bot",
      "uid": 5816834,
      "tags": {
        "name": "מחסני השוק",
        "name:en": "Village Market",
        "name:he": "מחסני השוק",
        "shop": "supermarket"
      }
    },
    {
      "type": "node",
      "id": 989113934,
      "lat": 31.2541095,
      "lon": 34.7766325,
      "timestamp": "2017-06-10T05:00:18Z",
      "version": 3,
      "changeset": 49412690,
      "user": "SafwatHalaby_bot",
      "uid": 5816834,
      "tags": {
        "name": "T&T",
        "name:en": "T&T",
        "opening_hours": "24/7",
        "shop": "convenience"
      }
    },
    {
      "type": "node",
      "id": 989114036,
      "lat": 31.2466376,
      "lon": 34.7768661,
      "timestamp": "2017-09-25T06:32:22Z",
      "version": 4,
      "changeset": 52345502,
      "user": "SafwatHalaby",
      "uid": 2138064,
      "tags": {
        "brand": "Mega",
        "brand:wikidata": "Q12403907",
        "brand:wikipedia": "he:מגה קמעונאות",
        "name": "מגה בעיר",
        "name:en": "Mega Ba'Ir",
        "name:he": "מגה בעיר",
        "name:ru": "Мега Ба'Ир",
        "shop": "supermarket",
        "website": "http://www.mega-bair.co.il/"
      }
    },
    {
      "type": "node",
      "id": 989114150,
      "lat": 31.2569994,
      "lon": 34.7740348,
      "timestamp": "2010-11-17T00:22:00Z",
      "version": 2,
      "changeset": 6389658,
      "user": "yrtimiD",
      "uid": 331840,
      "tags": {
        "name": "מרקט 24",
        "name:en": "Market 24",
        "name:he": "מרקט 24",
        "opening_hours": "24/7",
        "shop": "convenience"
      }
    },
    {
      "type": "node",
      "id": 992021281,
      "lat": 31.2596997,
      "lon": 34.7803701,
      "timestamp": "2016-06-30T21:35:07Z",
      "version": 2,
      "changeset": 40403447,
      "user": "BMM994",
      "uid": 189946,
      "tags": {
        "name": "מחסני השוק",
        "name:en": "Village Market",
        "name:he": "מחסני השוק",
        "shop": "supermarket"
      }
    },
    {
      "type": "node",
      "id": 992021294,
      "lat": 31.259788,
      "lon": 34.7797701,
      "timestamp": "2016-06-30T21:35:07Z",
      "version": 4,
      "changeset": 40403447,
      "user": "BMM994",
      "uid": 189946,
      "tags": {
        "cuisine": "לא כשר",
        "name": "מרכול גום",
        "name:en": "Gum",
        "name:he": "מרכול גום",
        "name:ru": "Гум",
        "shop": "convenience"
      }
    },
    {
      "type": "node",
      "id": 992087572,
      "lat": 31.2657172,
      "lon": 34.7636819,
      "timestamp": "2017-09-25T06:40:09Z",
      "version": 6,
      "changeset": 52345661,
      "user": "SafwatHalaby",
      "uid": 2138064,
      "tags": {
        "brand": "Shufersal",
        "brand:wikidata": "Q4523181",
        "brand:wikipedia": "en:Shufersal",
        "name": "שופרסל שלי",
        "name:en": "Shufersal Sheli",
        "name:he": "שופרסל שלי",
        "name:ru": "Шуферсаль Шели",
        "shop": "supermarket",
        "website": "https://www.shufersal.co.il"
      }
    },
    {
      "type": "node",
      "id": 992964902,
      "lat": 31.2536768,
      "lon": 34.7722825,
      "timestamp": "2021-03-20T15:48:20Z",
      "version": 6,
      "changeset": 101392381,
      "user": "SafwatHalaby",
      "uid": 2138064,
      "tags": {
        "name": "FOOD מרקט",
        "name:he": "FOOD מרקט",
        "opening_hours": "Su-We 08:00-21:30; Th 08:00-23:00; Fr 08:00-15:00+",
        "shop": "supermarket"
      }
    },
    {
      "type": "node",
      "id": 993803380,
      "lat": 31.2550597,
      "lon": 34.7763425,
      "timestamp": "2010-11-22T08:02:04Z",
      "version": 3,
      "changeset": 6429369,
      "user": "yrtimiD",
      "uid": 331840,
      "tags": {
        "name": "סופר יעלים",
        "name:en": "Super Ye'elim",
        "name:he": "סופר יעלים",
        "name:ru": "Супер Яалим",
        "shop": "convenience"
      }
    },
    {
      "type": "node",
      "id": 1002894253,
      "lat": 31.2455212,
      "lon": 34.7824286,
      "timestamp": "2010-11-24T19:17:54Z",
      "version": 1,
      "changeset": 6449340,
      "user": "yrtimiD",
      "uid": 331840,
      "tags": {
        "name": "תמיד זול",
        "name:en": "Tamid Zol",
        "name:he": "תמיד זול",
        "shop": "supermarket"
      }
    },
    {
      "type": "node",
      "id": 1002894258,
      "lat": 31.2454471,
      "lon": 34.7823896,
      "timestamp": "2010-11-24T19:17:54Z",
      "version": 1,
      "changeset": 6449340,
      "user": "yrtimiD",
      "uid": 331840,
      "tags": {
        "name": "מפגש ספיר",
        "name:en": "Mifgash Sapir",
        "name:he": "מפגש ספיר",
        "shop": "convenience"
      }
    },
    {
      "type": "node",
      "id": 1012407970,
      "lat": 31.2412897,
      "lon": 34.8115892,
      "timestamp": "2017-06-10T05:00:21Z",
      "version": 4,
      "changeset": 49412690,
      "user": "SafwatHalaby_bot",
      "uid": 5816834,
      "tags": {
        "name": "יו",
        "name:en": "You",
        "name:he": "יו",
        "shop": "supermarket"
      }
    },
    {
      "type": "node",
      "id": 1023851628,
      "lat": 31.2783207,
      "lon": 35.1260365,
      "timestamp": "2010-12-05T21:50:32Z",
      "version": 1,
      "changeset": 6557361,
      "user": "dimka",
      "uid": 254593,
      "tags": {
        "amenity": "drinking_water"
      }
    },
    {
      "type": "node",
      "id": 1061646298,
      "lat": 30.7923915,
      "lon": 34.4678459,
      "timestamp": "2018-05-06T09:15:19Z",
      "version": 4,
      "changeset": 58724872,
      "user": "zstadler",
      "uid": 3127,
      "tags": {
        "name": "חניון בארותיים",
        "name:en": "Beerotayim camp site",
        "name:he": "חניון בארותיים",
        "phone": "1800-350550",
        "tourism": "camp_site"
      }
    },
    {
      "type": "node",
      "id": 1075537606,
      "lat": 31.3445481,
      "lon": 34.7380505,
      "timestamp": "2021-02-20T22:37:54Z",
      "version": 12,
      "changeset": 99662628,
      "user": "Vejoson",
      "uid": 11422772,
      "tags": {
        "alt_name:ar": "ترابين",
        "name": "ترابين الصانع",
        "name:ar": "ترابين الصانع",
        "name:cs": "Tarabin as-Sani",
        "name:en": "Tarabin as-Sana",
        "name:fr": "Tirabin al-Sana",
        "name:he": "תראבין א-צאנע",
        "name:nl": "Tirabin al-Sana",
        "name:nn": "Tirabin al-Sana",
        "name:pl": "Tirabin al-Sana",
        "place": "village",
        "population": "1139",
        "source": "https://www.cbs.gov.il/he/publications/doclib/2017/population_madaf/population_madaf_2019_1.xlsx",
        "wikidata": "Q2619870",
        "wikipedia": "en:Tirabin al-Sana"
      }
    },
    {
      "type": "node",
      "id": 1075567824,
      "lat": 31.2819176,
      "lon": 35.0709948,
      "timestamp": "2021-05-19T20:47:06Z",
      "version": 5,
      "changeset": 104984251,
      "user": "hatul",
      "uid": 686490,
      "tags": {
        "name": "مكحول",
        "name:ar": "مكحول",
        "name:cs": "Makchul",
        "name:en": "Makchul",
        "name:fr": "Makhul",
        "name:he": "מכחול",
        "name:nl": "Makhul",
        "name:nn": "Makhul",
        "name:pl": "Makhul",
        "place": "village",
        "population": "839",
        "source": "https://www.cbs.gov.il/he/publications/doclib/2017/population_madaf/population_madaf_2019_1.xlsx",
        "wikidata": "Q2916277",
        "wikipedia": "en:Makhul",
        "wikipedia:he": "מכחול (יישוב)"
      }
    },
    {
      "type": "node",
      "id": 1075567954,
      "lat": 31.3005896,
      "lon": 35.0753744,
      "timestamp": "2021-02-20T22:37:54Z",
      "version": 8,
      "changeset": 99662628,
      "user": "Vejoson",
      "uid": 11422772,
      "tags": {
        "name": "دريجات",
        "name:ar": "دريجات",
        "name:cs": "Dridžat",
        "name:en": "Drijat",
        "name:fr": "Drijat",
        "name:he": "דריג'את",
        "name:nl": "Derig'at",
        "name:nn": "Drijat",
        "name:pl": "Durajdżat",
        "place": "village",
        "population": "1224",
        "source": "https://www.cbs.gov.il/he/publications/doclib/2017/population_madaf/population_madaf_2019_1.xlsx",
        "wikidata": "Q2473572",
        "wikipedia": "en:Drijat",
        "wikipedia:en": "Drijat",
        "wikipedia:he": "דריג'את"
      }
    },
    {
      "type": "node",
      "id": 1075584516,
      "lat": 31.2778856,
      "lon": 34.8818062,
      "timestamp": "2021-02-15T00:48:17Z",
      "version": 5,
      "changeset": 99271551,
      "user": "Vejoson",
      "uid": 11422772,
      "tags": {
        "name": "أم بطين",
        "name:ar": "أم بطين",
        "name:en": "Um Batin",
        "name:fr": "Um Bitin",
        "name:he": "אום בטין",
        "place": "town",
        "population": "4277",
        "source": "https://www.cbs.gov.il/he/publications/doclib/2017/population_madaf/population_madaf_2019_1.xlsx",
        "wikidata": "Q2672180",
        "wikipedia": "en:Umm Batin"
      }
    },
    {
      "type": "node",
      "id": 1075631885,
      "lat": 31.0539263,
      "lon": 34.690428,
      "timestamp": "2021-03-20T23:14:27Z",
      "version": 8,
      "changeset": 101421503,
      "user": "Vejoson",
      "uid": 11422772,
      "tags": {
        "name": "רתמים",
        "name:ar": "رتميم",
        "name:en": "Rettamim",
        "name:fr": "Retamim",
        "name:he": "רתמים",
        "place": "village",
        "population": "537",
        "source": "https://www.cbs.gov.il/he/publications/doclib/2017/population_madaf/population_madaf_2019_1.xlsx",
        "wikidata": "Q2889527"
      }
    },
    {
      "type": "node",
      "id": 1075632005,
      "lat": 31.0262625,
      "lon": 34.7031024,
      "timestamp": "2021-02-20T22:37:54Z",
      "version": 10,
      "changeset": 99662628,
      "user": "Vejoson",
      "uid": 11422772,
      "tags": {
        "name": "بئر هداج",
        "name:ar": "بئر هداج",
        "name:cs": "B'ir Hadádž",
        "name:en": "Bir Hadaj",
        "name:fr": "Bir Hadaj",
        "name:he": "ביר הדאג'",
        "name:nl": "Bir Hadaj",
        "name:nn": "Bir Hadaj",
        "name:pl": "Bir Hadadż",
        "name:ru": "Бир-Хададж",
        "place": "village",
        "population": "5874",
        "source": "https://www.cbs.gov.il/he/publications/doclib/2017/population_madaf/population_madaf_2019_1.xlsx",
        "wikidata": "Q2623238",
        "wikipedia": "en:Bir Hadaj"
      }
    },
    {
      "type": "node",
      "id": 1076973891,
      "lat": 31.2299216,
      "lon": 34.8462926,
      "timestamp": "2021-02-22T19:09:57Z",
      "version": 4,
      "changeset": 99766924,
      "user": "Vejoson",
      "uid": 11422772,
      "tags": {
        "name": "אבו עמרה",
        "name:en": "Abu Amra",
        "name:fr": "Abu Amra",
        "name:he": "אבו עמרה",
        "note": "Location not accurate",
        "place": "village",
        "wikidata": "Q6544570",
        "wikipedia": "he:אבו עמרה"
      }
    },
    {
      "type": "node",
      "id": 1076985592,
      "lat": 31.1804252,
      "lon": 35.0723485,
      "timestamp": "2021-02-15T19:27:32Z",
      "version": 4,
      "changeset": 99329576,
      "user": "Vejoson",
      "uid": 11422772,
      "tags": {
        "name": "أبو جويد",
        "name:ar": "أبو جويد",
        "name:en": "Abu Juwayid",
        "name:fr": "Abu Jawad",
        "name:he": "אבו ג'ווייעד",
        "place": "village"
      }
    },
    {
      "type": "node",
      "id": 1076997401,
      "lat": 31.2598457,
      "lon": 34.8638208,
      "timestamp": "2021-02-15T19:27:32Z",
      "version": 4,
      "changeset": 99329576,
      "user": "Vejoson",
      "uid": 11422772,
      "tags": {
        "name": "أبو رقيق",
        "name:ar": "أبو رقيق",
        "name:en": "Abu Rukayk",
        "name:fr": "Abu Rafik",
        "name:he": "אבו רוקייק",
        "place": "village"
      }
    },
    {
      "type": "node",
      "id": 1077051472,
      "lat": 31.2873986,
      "lon": 35.1082102,
      "timestamp": "2021-04-17T23:22:34Z",
      "version": 6,
      "changeset": 103120532,
      "user": "Vejoson",
      "uid": 11422772,
      "tags": {
        "name": "الجنابب",
        "name:ar": "الجنابب",
        "name:en": "Janabib",
        "name:fr": "Janabib",
        "name:he": "ג'נאביב",
        "place": "hamlet"
      }
    },
    {
      "type": "node",
      "id": 1077075650,
      "lat": 31.0931741,
      "lon": 34.9796767,
      "timestamp": "2021-04-17T23:22:34Z",
      "version": 5,
      "changeset": 103120532,
      "user": "Vejoson",
      "uid": 11422772,
      "tags": {
        "name": "هواشلة",
        "name:ar": "هواشلة",
        "name:en": "Hawashila",
        "name:fr": "Hawashla",
        "name:he": "הוואשלה",
        "place": "hamlet"
      }
    },
    {
      "type": "node",
      "id": 1077150046,
      "lat": 31.2377831,
      "lon": 35.0269573,
      "timestamp": "2021-04-17T23:22:34Z",
      "version": 6,
      "changeset": 103120532,
      "user": "Vejoson",
      "uid": 11422772,
      "tags": {
        "name": "زبرجا",
        "name:ar": "زبرجا",
        "name:en": "Zabarigha",
        "name:fr": "Zbarga",
        "name:he": "זבארגה",
        "place": "hamlet"
      }
    },
    {
      "type": "node",
      "id": 1077209317,
      "lat": 31.324666,
      "lon": 34.8661185,
      "timestamp": "2021-02-20T00:51:08Z",
      "version": 5,
      "changeset": 99622580,
      "user": "Vejoson",
      "uid": 11422772,
      "tags": {
        "name": "اللقية",
        "name:ar": "اللقية",
        "name:ca": "Laqiya",
        "name:cs": "Lakija",
        "name:en": "Lakiya",
        "name:es": "Lakiya",
        "name:fr": "Lakiya",
        "name:he": "לקיה",
        "name:it": "Lakiya",
        "name:nn": "Lakiya",
        "name:pl": "Lakija",
        "name:ru": "Лакия",
        "place": "village",
        "wikidata": "Q925908",
        "wikipedia": "he:לקיה"
      }
    },
    {
      "type": "node",
      "id": 1077222704,
      "lat": 31.242973,
      "lon": 35.030224,
      "timestamp": "2021-04-17T23:22:34Z",
      "version": 6,
      "changeset": 103120532,
      "user": "Vejoson",
      "uid": 11422772,
      "tags": {
        "name": "النصاصرة",
        "name:ar": "النصاصرة",
        "name:en": "Nasasra",
        "name:fr": "Nasasra",
        "name:he": "נצאצרה",
        "place": "hamlet"
      }
    },
    {
      "type": "node",
      "id": 1077230520,
      "lat": 31.2945366,
      "lon": 34.901081,
      "timestamp": "2021-02-20T00:51:08Z",
      "version": 4,
      "changeset": 99622580,
      "user": "Vejoson",
      "uid": 11422772,
      "tags": {
        "name": "العظيم",
        "name:ar": "العظيم",
        "name:en": "Aazem",
        "name:fr": "El Azim",
        "name:he": "אעצם",
        "place": "village"
      }
    },
    {
      "type": "node",
      "id": 1077230535,
      "lat": 31.2830139,
      "lon": 34.9312162,
      "timestamp": "2021-02-21T00:46:48Z",
      "version": 5,
      "changeset": 99664779,
      "user": "Vejoson",
      "uid": 11422772,
      "tags": {
        "name": "عوقبي",
        "name:ar": "عوقبي",
        "name:en": "Ukbi",
        "name:fr": "Uqbi",
        "name:he": "עוקבי",
        "place": "village"
      }
    },
    {
      "type": "node",
      "id": 1077256690,
      "lat": 31.2986217,
      "lon": 35.120706,
      "timestamp": "2021-02-17T00:12:51Z",
      "version": 4,
      "changeset": 99410550,
      "user": "Vejoson",
      "uid": 11422772,
      "tags": {
        "name": "قشكار نباري",
        "name:ar": "قشكار نباري",
        "name:en": "Kishkar Nabari",
        "name:fr": "Kishkar Nabari",
        "name:he": "קשכר נבארי",
        "place": "village"
      }
    },
    {
      "type": "node",
      "id": 1077259656,
      "lat": 31.324457,
      "lon": 35.0273199,
      "timestamp": "2021-02-21T00:46:48Z",
      "version": 6,
      "changeset": 99664779,
      "user": "Vejoson",
      "uid": 11422772,
      "tags": {
        "name": "عتير",
        "name:ar": "عتير",
        "name:en": "Atir",
        "name:fr": "Atir",
        "name:he": "עתיר",
        "note": "This locality remains unrecognized by the State of Israel.",
        "place": "village",
        "source": "https://7amleh.org/ms/Links/2.jpg;http://ftpmirror.your.org/pub/wikimedia/images/wikipedia/ar/7/7d/Naqab-map-ar.jpg;https://zochrot.org/uploads/uploads/a4d148c2755d37acb6f3e20ea920d683.jpg"
      }
    },
    {
      "type": "node",
      "id": 1095447426,
      "lat": 30.8222218,
      "lon": 34.7644768,
      "timestamp": "2020-12-24T14:24:25Z",
      "version": 7,
      "changeset": 96391606,
      "user": "pizzaiolo",
      "uid": 1772368,
      "tags": {
        "image": "https://upload.wikimedia.org/wikipedia/commons/3/3e/Israel_Hiking_Map_%D7%A2%D7%99%D7%9F_%D7%9E%D7%A2%D7%A8%D7%99%D7%A3.jpeg",
        "image1": "https://upload.wikimedia.org/wikipedia/commons/4/4c/Israel_Hiking_Map_%D7%A2%D7%99%D7%9F_%D7%9E%D7%A2%D7%A8%D7%99%D7%A3_1.jpeg",
        "name": "עין מעריף",
        "name:en": "Maarif spring",
        "name:he": "עין מעריף",
        "natural": "spring",
        "wikidata": "Q26768968"
      }
    },
    {
      "type": "node",
      "id": 1095683927,
      "lat": 30.8283936,
      "lon": 34.7510047,
      "timestamp": "2019-03-23T21:03:35Z",
      "version": 3,
      "changeset": 68455233,
      "user": "b-jazz-bot",
      "uid": 9451067,
      "tags": {
        "name": "חאן השיירות",
        "name:en": "Chan HaShayarot",
        "name:he": "חאן השיירות",
        "tourism": "camp_site",
        "website": "https://www.shayarot.co.il/"
      }
    },
    {
      "type": "node",
      "id": 1404061567,
      "lat": 31.3275521,
      "lon": 34.9390733,
      "timestamp": "2017-06-10T05:00:28Z",
      "version": 3,
      "changeset": 49412690,
      "user": "SafwatHalaby_bot",
      "uid": 5816834,
      "tags": {
        "name": "דוקן",
        "name:en": "Dukan",
        "name:he": "דוקן",
        "shop": "convenience"
      }
    },
    {
      "type": "node",
      "id": 1404061569,
      "lat": 31.3275292,
      "lon": 34.9391967,
      "timestamp": "2017-09-25T06:40:36Z",
      "version": 6,
      "changeset": 52345661,
      "user": "SafwatHalaby",
      "uid": 2138064,
      "tags": {
        "brand": "Shufersal",
        "brand:wikidata": "Q4523181",
        "brand:wikipedia": "en:Shufersal",
        "name": "שופרסל",
        "name:en": "Shufersal",
        "name:he": "שופרסל",
        "name:ru": "Шуферсаль",
        "shop": "supermarket",
        "website": "https://www.shufersal.co.il"
      }
    },
    {
      "type": "node",
      "id": 1594983411,
      "lat": 31.2570228,
      "lon": 34.771941,
      "timestamp": "2017-06-10T05:00:29Z",
      "version": 4,
      "changeset": 49412690,
      "user": "SafwatHalaby_bot",
      "uid": 5816834,
      "tags": {
        "alt_name": "Супер Радак",
        "int_name": "Super Radak",
        "name": "סופר רדק",
        "name:he": "סופר רדק",
        "shop": "supermarket"
      }
    },
    {
      "type": "node",
      "id": 1657282941,
      "lat": 31.3337124,
      "lon": 34.9181346,
      "timestamp": "2021-03-27T19:13:38Z",
      "version": 4,
      "changeset": 101850879,
      "user": "Vejoson",
      "uid": 11422772,
      "tags": {
        "name": "כרמים",
        "name:en": "Kramim",
        "name:fr": "Kramim",
        "name:he": "כרמים",
        "place": "village",
        "wikidata": "Q261686"
      }
    },
    {
      "type": "node",
      "id": 1667896705,
      "lat": 31.2585546,
      "lon": 34.7946399,
      "timestamp": "2020-05-16T17:14:51Z",
      "version": 4,
      "changeset": 85311424,
      "user": "SafwatHalaby",
      "uid": 2138064,
      "tags": {
        "name": "Robert's store",
        "name:en": "Robert's store",
        "shop": "convenience"
      }
    },
    {
      "type": "node",
      "id": 1667896742,
      "lat": 31.2642659,
      "lon": 34.7930839,
      "timestamp": "2016-05-15T19:06:15Z",
      "version": 3,
      "changeset": 39337269,
      "user": "BMM994",
      "uid": 189946,
      "tags": {
        "name": "סופר מזוז",
        "name:en": "Super Mazuz",
        "name:he": "סופר מזוז",
        "shop": "convenience"
      }
    },
    {
      "type": "node",
      "id": 1705751764,
      "lat": 31.3095153,
      "lon": 34.89836,
      "timestamp": "2012-04-07T13:17:23Z",
      "version": 1,
      "changeset": 11213841,
      "user": "yrtimiD",
      "uid": 331840,
      "tags": {
        "name": "שוקת",
        "name:en": "Shoket",
        "name:he": "שוקת",
        "opening_hours": "24/7",
        "operator": "Yellow",
        "shop": "convenience"
      }
    },
    {
      "type": "node",
      "id": 1705751769,
      "lat": 31.3049245,
      "lon": 34.8984769,
      "timestamp": "2019-03-20T14:16:57Z",
      "version": 3,
      "changeset": 68337880,
      "user": "b-jazz-bot",
      "uid": 9451067,
      "tags": {
        "internet_access": "wlan",
        "name": "תל שוקת",
        "name:ar": "تل شوكت",
        "name:en": "Tel Shoket",
        "name:he": "תל שוקת",
        "opening_hours": "24/7",
        "operator": "מנטע",
        "operator:en": "Menta",
        "operator:he": "מנטע",
        "shop": "convenience",
        "website": "https://www.delek.co.il/"
      }
    },
    {
      "type": "node",
      "id": 1706375020,
      "lat": 31.2926233,
      "lon": 34.9248699,
      "timestamp": "2019-03-20T14:16:58Z",
      "version": 3,
      "changeset": 68337880,
      "user": "b-jazz-bot",
      "uid": 9451067,
      "tags": {
        "fixme": "inaccurate position",
        "internet_access": "wlan",
        "name": "حورة",
        "name:ar": "حورة",
        "name:en": "Hura",
        "name:he": "חורה",
        "opening_hours": "24/7",
        "operator": "سوغد",
        "shop": "convenience",
        "website": "https://www.sonol.co.il/",
        "wheelchair": "yes"
      }
    },
    {
      "type": "node",
      "id": 1706375023,
      "lat": 31.3449301,
      "lon": 34.8688249,
      "timestamp": "2012-04-07T21:38:15Z",
      "version": 1,
      "changeset": 11219055,
      "user": "yrtimiD",
      "uid": 331840,
      "tags": {
        "name": "להב",
        "name:en": "Lahav",
        "name:he": "להב",
        "opening_hours": "24/7",
        "operator": "אלונית",
        "operator:en": "Alonit",
        "operator:he": "אלונית",
        "shop": "convenience",
        "website": "http://www.doralon.co.il"
      }
    },
    {
      "type": "node",
      "id": 1746673099,
      "lat": 31.0016511,
      "lon": 34.7654842,
      "timestamp": "2021-03-20T18:47:02Z",
      "version": 7,
      "changeset": 101411781,
      "user": "Vejoson",
      "uid": 11422772,
      "tags": {
        "name": "שיזף",
        "name:en": "Shizaf",
        "name:fr": "Shizaf",
        "name:he": "שיזף",
        "note": "FIXME!",
        "place": "village",
        "website": "http://sheizafcommunity.com/",
        "wikidata": "Q18192204",
        "wikipedia": "he:שיזף (יישוב)"
      }
    },
    {
      "type": "node",
      "id": 1746685176,
      "lat": 31.3475146,
      "lon": 35.0605823,
      "timestamp": "2021-03-27T19:13:38Z",
      "version": 5,
      "changeset": 101850879,
      "user": "Vejoson",
      "uid": 11422772,
      "tags": {
        "alt_name:en": "Mahane Yatir",
        "alt_name:he": "מחנה יתיר",
        "name": "לב יתיר",
        "name:ar": "مخيم يتير",
        "name:en": "Lev Yatir",
        "name:fr": "Mahane Yatir",
        "name:he": "לב יתיר",
        "place": "village",
        "wikidata": "Q21198015",
        "wikipedia": "en:Mahane Yatir"
      }
    },
    {
      "type": "node",
      "id": 1766302503,
      "lat": 31.252527,
      "lon": 34.7861646,
      "timestamp": "2012-05-26T15:11:11Z",
      "version": 1,
      "changeset": 11707439,
      "user": "yrtimiD",
      "uid": 331840,
      "tags": {
        "contact:website": "http://www.yellow.co.il/",
        "internet_access": "wlan",
        "name": "אצטדיון באר שבע",
        "name:en": "Beer Sheva Stadium",
        "name:he": "אצטדיון באר שבע",
        "opening_hours": "24/7",
        "operator": "Yellow",
        "operator:en": "Yellow",
        "shop": "convenience"
      }
    },
    {
      "type": "node",
      "id": 1852664860,
      "lat": 30.9518989,
      "lon": 35.0256764,
      "timestamp": "2021-04-13T06:55:51Z",
      "version": 6,
      "changeset": 102847299,
      "user": "Ilya Kogan",
      "uid": 280322,
      "tags": {
        "capacity": "100",
        "fee": "no",
        "name": "חניון לילה חולות צבעוניים",
        "name:en": "Colored Sands Campground",
        "name:he": "חניון לילה חולות צבעוניים",
        "tourism": "camp_site"
      }
    },
    {
      "type": "node",
      "id": 2219924417,
      "lat": 31.2434853,
      "lon": 34.7826338,
      "timestamp": "2015-09-09T20:26:05Z",
      "version": 2,
      "changeset": 33919199,
      "user": "Ilanride22",
      "uid": 2376044,
      "tags": {
        "amenity": "drinking_water"
      }
    },
    {
      "type": "node",
      "id": 2430832701,
      "lat": 31.3315994,
      "lon": 34.8935332,
      "timestamp": "2021-03-27T19:13:38Z",
      "version": 2,
      "changeset": 101850879,
      "user": "Vejoson",
      "uid": 11422772,
      "tags": {
        "name": "כרמית",
        "name:en": "Carmit",
        "name:fr": "Carmit",
        "name:he": "כרמית",
        "place": "village",
        "wikidata": "Q5043724"
      }
    },
    {
      "type": "node",
      "id": 2465810344,
      "lat": 30.9007014,
      "lon": 34.5372912,
      "timestamp": "2020-01-04T05:45:52Z",
      "version": 3,
      "changeset": 79181110,
      "user": "Ori Mey Raz",
      "uid": 3426578,
      "tags": {
        "description": "מערה חצובה. מסדרון קטן נמצא בהמשך נחחל המרכזי",
        "description:he": "מערה חצובה. מסדרון קטן נמצא בהמשך נחחל המרכזי",
        "image": "https://upload.wikimedia.org/wikipedia/commons/4/46/Israel_Hiking_Map_20200103_083706.jpeg",
        "name": "מערה חצובה",
        "name:he": "מערה חצובה",
        "natural": "cave_entrance"
      }
    },
    {
      "type": "node",
      "id": 2619083128,
      "lat": 30.9460094,
      "lon": 35.040989,
      "timestamp": "2021-03-22T09:49:26Z",
      "version": 3,
      "changeset": 101491389,
      "user": "zstadler",
      "uid": 3127,
      "tags": {
        "name": "חניון לילה עין ירקעם",
        "name:en": "Ein Yorke'am Night Camp",
        "name:he": "חניון לילה עין ירקעם",
        "tourism": "camp_site"
      }
    },
    {
      "type": "node",
      "id": 2619083140,
      "lat": 30.9381161,
      "lon": 35.0407372,
      "timestamp": "2021-05-16T02:31:17Z",
      "version": 13,
      "changeset": 104753188,
      "user": "pizzaiolo",
      "uid": 1772368,
      "tags": {
        "description": "עין ירקעם הינו מעיין וגב מים, בו יש מים בכל ימות השנה והוא מהווה נקודת עצירה וטיול המתאימים לכל המשפחה.",
        "description:he": "עין ירקעם הינו מעיין וגב מים, בו יש מים בכל ימות השנה והוא מהווה נקודת עצירה וטיול המתאימים לכל המשפחה.",
        "image": "https://upload.wikimedia.org/wikipedia/commons/c/c2/Israel_Hiking_Map_%D7%A2%D7%99%D7%9F_%D7%99%D7%A8%D7%A7%D7%A2%D7%9D.jpeg",
        "image1": "https://upload.wikimedia.org/wikipedia/commons/e/ef/Ein_Yorke%27am%2C_Negev%2C_Israel_%D7%A2%D7%99%D7%9F_%D7%99%D7%A8%D7%A7%D7%A2%D7%9D%2C_%D7%94%D7%A0%D7%92%D7%91_-_panoramio.jpg",
        "image2": "https://upload.wikimedia.org/wikipedia/commons/f/f5/Israel_Hiking_Map_%D7%A2%D7%99%D7%9F_%D7%99%D7%A8%D7%A7%D7%A2%D7%9D_1.jpeg",
        "image3": "https://upload.wikimedia.org/wikipedia/commons/2/28/IHM_עין_ירקעם.jpeg",
        "image4": "https://inature.info/w/images/6/69/Ein_yorkeam1.jpg",
        "name": "עין ירקעם",
        "name:en": "Ein Yorke'am",
        "name:he": "עין ירקעם",
        "natural": "spring",
        "source": "GPS",
        "website": "http://nelech.co.il/2020/04/21/%d7%a2%d7%99%d7%9f-%d7%99%d7%a8%d7%a7%d7%a2%d7%9d/",
        "website1": "https://inature.info/wiki/%D7%A2%D7%99%D7%9F%20%D7%99%D7%A8%D7%A7%D7%A2%D7%9D",
        "wikidata": "Q26762134",
        "wikipedia": "he:עין ירקעם",
        "wikipedia:he": "עין ירקעם"
      }
    },
    {
      "type": "node",
      "id": 2720468088,
      "lat": 30.8431854,
      "lon": 34.7809448,
      "timestamp": "2020-07-24T13:31:26Z",
      "version": 4,
      "changeset": 88460896,
      "user": "hatul",
      "uid": 686490,
      "tags": {
        "description": "בחניון יש שני תאי שירותים אקולוגים, אין ברז מים.",
        "description:he": "בחניון יש שני תאי שירותים אקולוגים, אין ברז מים.",
        "fee": "no",
        "name": "חניון לילה סרפנטינות",
        "name:en": "Serpantinot Night Camping",
        "name:he": "חניון לילה סרפנטינות",
        "tourism": "camp_site"
      }
    },
    {
      "type": "node",
      "id": 2868432517,
      "lat": 30.7604279,
      "lon": 34.8700805,
      "timestamp": "2021-06-26T12:14:43Z",
      "version": 7,
      "changeset": 107000463,
      "user": "zstadler",
      "uid": 3127,
      "tags": {
        "alt_name": "מאגורות נחש צמא",
        "alt_name:he": "מאגורות נחש צמא",
        "description": "מאגורות נחש צמא",
        "description:he": "מאגורות נחש צמא",
        "name": "מחפרות צינים",
        "name:he": "מחפרות צינים",
        "natural": "cave_entrance"
      }
    },
    {
      "type": "node",
      "id": 2961124559,
      "lat": 31.2329007,
      "lon": 34.7971242,
      "timestamp": "2017-09-25T06:41:34Z",
      "version": 7,
      "changeset": 52345661,
      "user": "SafwatHalaby",
      "uid": 2138064,
      "tags": {
        "brand": "Rami Levy",
        "brand:wikidata": "Q6035779",
        "brand:wikipedia": "en:Rami Levy Hashikma Marketing",
        "name": "רמי לוי",
        "name:en": "Rami Levy",
        "name:he": "רמי לוי",
        "name:ru": "Рами Леви",
        "shop": "supermarket",
        "website": "https://www.rami-levy.co.il"
      }
    },
    {
      "type": "node",
      "id": 3027823356,
      "lat": 31.2094849,
      "lon": 35.0538475,
      "timestamp": "2014-08-19T16:23:07Z",
      "version": 1,
      "changeset": 24863932,
      "user": "valleyofdawn",
      "uid": 356970,
      "tags": {
        "amenity": "drinking_water",
        "tourism": "picnic_site"
      }
    },
    {
      "type": "node",
      "id": 3131924408,
      "lat": 30.9624391,
      "lon": 34.7787906,
      "timestamp": "2020-06-28T08:39:33Z",
      "version": 4,
      "changeset": 87243945,
      "user": "shay trails",
      "uid": 2769154,
      "tags": {
        "description": "חוות נאות הוקמה באוקטובר 2003 ברמת הנגב, על כביש 40, בואכה שדה בוקר. חלום ישן שלנו – לאה וגדי נחימוב. בחווה מגוון ביקתות ללינה למטיילי המדבר",
        "description:he": "חוות נאות הוקמה באוקטובר 2003 ברמת הנגב, על כביש 40, בואכה שדה בוקר. חלום ישן שלנו – לאה וגדי נחימוב. בחווה מגוון ביקתות ללינה למטיילי המדבר",
        "name": "חוות נאות",
        "name:en": "Maot farm",
        "name:he": "חוות נאות",
        "place": "isolated_dwelling",
        "tourism": "camp_site",
        "website": "http://www.naotfarm.co.il/"
      }
    },
    {
      "type": "node",
      "id": 3137342849,
      "lat": 31.3342012,
      "lon": 34.8807588,
      "timestamp": "2014-12-16T18:45:19Z",
      "version": 2,
      "changeset": 27513640,
      "user": "fischhonig",
      "uid": 41113,
      "tags": {
        "ele": "416",
        "natural": "cave_entrance",
        "source": "GPS"
      }
    },
    {
      "type": "node",
      "id": 3177942292,
      "lat": 30.7950916,
      "lon": 34.8123436,
      "timestamp": "2020-09-24T13:02:05Z",
      "version": 11,
      "changeset": 91437071,
      "user": "hatul",
      "uid": 686490,
      "tags": {
        "description": "מעיין שנובע כל השנה. רוב המים מוסתרים בקנים ובצמחיית נחל.",
        "description:he": "מעיין שנובע כל השנה. רוב המים מוסתרים בקנים ובצמחיית נחל.",
        "image": "https://upload.wikimedia.org/wikipedia/commons/d/d2/Israel_Hiking_Map_%D7%A2%D7%99%D7%9F_%D7%A2%D7%A7%D7%91_%D7%A2%D7%9C%D7%99%D7%95%D7%9F.jpeg",
        "name": "עין עקב עליון",
        "name:en": "Ein Akev",
        "name:he": "עין עקב עליון",
        "natural": "spring",
        "source": "GPS"
      }
    },
    {
      "type": "node",
      "id": 3183382196,
      "lat": 30.8062801,
      "lon": 34.8510361,
      "timestamp": "2020-07-24T13:31:26Z",
      "version": 4,
      "changeset": 88460896,
      "user": "hatul",
      "uid": 686490,
      "tags": {
        "description": "חניון שקט במיקום מבודד ומדהים\n\nגישה - 4X4 או ברגל בלבד",
        "description:he": "חניון שקט במיקום מבודד ומדהים\n\nגישה - 4X4 או ברגל בלבד",
        "fee": "no",
        "name": "חניון לילה עין זיק",
        "name:en": "Ein Zik Night Camp",
        "name:he": "חניון לילה עין זיק",
        "tourism": "camp_site"
      }
    },
    {
      "type": "node",
      "id": 3183382221,
      "lat": 30.791563,
      "lon": 34.8510208,
      "timestamp": "2020-12-24T14:24:25Z",
      "version": 4,
      "changeset": 96391606,
      "user": "pizzaiolo",
      "uid": 1772368,
      "tags": {
        "name": "עין שביב",
        "name:en": "Ein Shaviv",
        "name:he": "עין שביב",
        "natural": "spring",
        "wikidata": "Q26768966"
      }
    },
    {
      "type": "node",
      "id": 3218399999,
      "lat": 31.126494,
      "lon": 35.1533604,
      "timestamp": "2014-12-04T06:54:29Z",
      "version": 1,
      "changeset": 27219002,
      "user": "valleyofdawn",
      "uid": 356970,
      "tags": {
        "FIXME": "position",
        "amenity": "drinking_water"
      }
    },
    {
      "type": "node",
      "id": 3258747189,
      "lat": 30.8991016,
      "lon": 34.8284073,
      "timestamp": "2014-12-29T19:13:44Z",
      "version": 1,
      "changeset": 27784763,
      "user": "zstadler",
      "uid": 3127,
      "tags": {
        "name": "חניון לילה נחל חצץ",
        "name:en": "Nahal Hatsats Campsite",
        "name:he": "חניון לילה נחל חצץ",
        "tourism": "camp_site"
      }
    },
    {
      "type": "node",
      "id": 3406841273,
      "lat": 30.8297219,
      "lon": 34.7497305,
      "timestamp": "2015-08-13T15:51:43Z",
      "version": 2,
      "changeset": 33316093,
      "user": "sivan00",
      "uid": 2045570,
      "tags": {
        "name": "חוות נחל חווארים",
        "name:en": "Nachal Chavarim ranch",
        "name:he": "חוות נחל חווארים",
        "tourism": "camp_site"
      }
    },
    {
      "type": "node",
      "id": 3415965299,
      "lat": 30.7633761,
      "lon": 34.9955348,
      "timestamp": "2020-04-28T20:30:39Z",
      "version": 4,
      "changeset": 84290189,
      "user": "Edward",
      "uid": 364,
      "tags": {
        "ele": "429",
        "name": "הר ארחות",
        "name:en": "Mt. Arhot",
        "name:he": "הר ארחות",
        "natural": "peak",
        "wikidata": "Q26764227"
      }
    },
    {
      "type": "node",
      "id": 3431549739,
      "lat": 30.9179089,
      "lon": 34.7292235,
      "timestamp": "2017-06-10T05:07:46Z",
      "version": 2,
      "changeset": 49412690,
      "user": "SafwatHalaby_bot",
      "uid": 5816834,
      "tags": {
        "name": "מערת האוצר",
        "name:he": "מערת האוצר",
        "natural": "cave_entrance"
      }
    },
    {
      "type": "node",
      "id": 3463832617,
      "lat": 30.8177834,
      "lon": 34.9447861,
      "timestamp": "2018-06-19T12:45:21Z",
      "version": 6,
      "changeset": 59977993,
      "user": "valleyofdawn",
      "uid": 356970,
      "tags": {
        "description": "מעיין רדוד בערוץ נחל זרחן. לידו תאנה קטנה שנותנת לו את שמו ומעט צל. מרופש בקיץ, עמוק אחרי שטפונות.",
        "description:he": "מעיין רדוד בערוץ נחל זרחן. לידו תאנה קטנה שנותנת לו את שמו ומעט צל. מרופש בקיץ, עמוק אחרי שטפונות.",
        "ele": "220",
        "image": "https://i.imgur.com/hLQ2JJZ.jpg",
        "name": "עין אום תינה",
        "name:en": "Ein Umm Tina",
        "name:he": "עין אום תינה",
        "natural": "spring",
        "source": "GPS"
      }
    },
    {
      "type": "node",
      "id": 3474843457,
      "lat": 31.059727,
      "lon": 35.0210022,
      "timestamp": "2015-04-24T11:55:08Z",
      "version": 1,
      "changeset": 30452245,
      "user": "sivan00",
      "uid": 2045570,
      "tags": {
        "name": "מחסני השוק",
        "name:en": "Machsanay Hashook",
        "name:he": "מחסני השוק",
        "shop": "supermarket"
      }
    },
    {
      "type": "node",
      "id": 3671210145,
      "lat": 30.9011453,
      "lon": 35.1411304,
      "timestamp": "2020-09-24T13:02:05Z",
      "version": 5,
      "changeset": 91437071,
      "user": "hatul",
      "uid": 686490,
      "tags": {
        "name": "חניון לילה נחל עקרבים",
        "name:he": "חניון לילה נחל עקרבים",
        "tourism": "camp_site"
      }
    },
    {
      "type": "node",
      "id": 3672200320,
      "lat": 30.7630215,
      "lon": 34.9092712,
      "timestamp": "2020-07-24T13:31:26Z",
      "version": 4,
      "changeset": 88460896,
      "user": "hatul",
      "uid": 686490,
      "tags": {
        "fee": "no",
        "image": "https://upload.wikimedia.org/wikipedia/commons/2/25/Israel_Hiking_Map_%D7%97%D7%A0%D7%99%D7%95%D7%9F_%D7%A2%D7%99%D7%9F_%D7%A9%D7%A8%D7%91.jpeg",
        "name": "חניון עין שרב",
        "name:he": "חניון עין שרב",
        "tourism": "camp_site"
      }
    },
    {
      "type": "node",
      "id": 3799441057,
      "lat": 30.8755034,
      "lon": 34.7859293,
      "timestamp": "2020-12-14T11:06:00Z",
      "version": 5,
      "changeset": 95804606,
      "user": "valleyofdawn",
      "uid": 356970,
      "tags": {
        "image": "https://inature.info/w/images/2/26/Haroa_parking.jpg",
        "name": "חניון הרועה",
        "name:he": "חניון הרועה",
        "tourism": "camp_site",
        "website": "https://inature.info/wiki/%D7%97%D7%A0%D7%99%D7%95%D7%9F%20%D7%94%D7%A8%D7%95%D7%A2%D7%94"
      }
    },
    {
      "type": "node",
      "id": 3836215926,
      "lat": 30.8289204,
      "lon": 34.8250618,
      "timestamp": "2021-06-26T12:14:43Z",
      "version": 9,
      "changeset": 107000463,
      "user": "zstadler",
      "uid": 3127,
      "tags": {
        "description": "אחת הכיפות המפורסמות ביותר בארץ בזכות השביל הלבן העולה אל פיסגתה. הכיפה הפכה להיות אחד הסמלים של שדה בוקר בפרט ובקעת צין בכלל.",
        "description:he": "אחת הכיפות המפורסמות ביותר בארץ בזכות השביל הלבן העולה אל פיסגתה. הכיפה הפכה להיות אחד הסמלים של שדה בוקר בפרט ובקעת צין בכלל.",
        "ele": "574",
        "image": "https://upload.wikimedia.org/wikipedia/commons/3/3e/Israel_Hiking_Map_חוד_עקב.jpeg",
        "image1": "https://upload.wikimedia.org/wikipedia/commons/0/0b/Israel_Hiking_Map_חוד_עקב_1.jpeg",
        "image2": "https://upload.wikimedia.org/wikipedia/commons/8/8e/IHM_חוד_עקב.jpeg",
        "image3": "https://upload.wikimedia.org/wikipedia/commons/5/57/IHM_חוד_עקב_1.jpeg",
        "image4": "https://upload.wikimedia.org/wikipedia/commons/2/25/IHM_חוד_עקב_2.jpeg",
        "image5": "https://upload.wikimedia.org/wikipedia/commons/a/a0/IHM_חוד_עקב_3.jpeg",
        "image6": "https://upload.wikimedia.org/wikipedia/commons/f/f0/IHM_חוד_עקב_4.jpeg",
        "name": "חוד עקב",
        "name:en": "Hod Akev (Needle of the hill)",
        "name:he": "חוד עקב",
        "natural": "peak",
        "note": "GPS Height converted to MSL",
        "source": "GPS",
        "tourism": "viewpoint",
        "wikidata": "Q12407315"
      }
    },
    {
      "type": "node",
      "id": 3844760716,
      "lat": 31.0378527,
      "lon": 34.7178376,
      "timestamp": "2015-11-19T15:59:09Z",
      "version": 1,
      "changeset": 35438820,
      "user": "tiberX",
      "uid": 82240,
      "tags": {
        "natural": "cave_entrance"
      }
    },
    {
      "type": "node",
      "id": 3844760717,
      "lat": 31.0379515,
      "lon": 34.7180548,
      "timestamp": "2015-11-19T15:59:09Z",
      "version": 1,
      "changeset": 35438820,
      "user": "tiberX",
      "uid": 82240,
      "tags": {
        "natural": "cave_entrance"
      }
    },
    {
      "type": "node",
      "id": 3921214991,
      "lat": 31.3461717,
      "lon": 34.7796999,
      "timestamp": "2021-02-17T00:12:51Z",
      "version": 12,
      "changeset": 99410550,
      "user": "Vejoson",
      "uid": 11422772,
      "tags": {
        "alt_name": "Al Araqib",
        "name": "قرية العراقيب",
        "name:ar": "قرية العراقيب",
        "name:en": "al-Araqeeb",
        "name:fr": "Al Arakib",
        "name:he": "אל-עראקיב",
        "place": "village",
        "short_name": "العراقيب",
        "short_name:ar": "العراقيب",
        "wikidata": "Q4702222",
        "wikipedia": "ar:العراقيب (بئر السبع)"
      }
    },
    {
      "type": "node",
      "id": 4115797229,
      "lat": 30.9824439,
      "lon": 34.9340202,
      "timestamp": "2019-07-11T19:09:29Z",
      "version": 3,
      "changeset": 72148649,
      "user": "BMM994",
      "uid": 189946,
      "tags": {
        "name": "סופר חברתי",
        "name:he": "סופר חברתי",
        "shop": "supermarket"
      }
    },
    {
      "type": "node",
      "id": 4118392310,
      "lat": 31.3206289,
      "lon": 34.6219673,
      "timestamp": "2017-09-25T06:33:34Z",
      "version": 4,
      "changeset": 52345502,
      "user": "SafwatHalaby",
      "uid": 2138064,
      "tags": {
        "brand": "Mega",
        "brand:wikidata": "Q12403907",
        "brand:wikipedia": "he:מגה קמעונאות",
        "name": "מגה בול",
        "name:en": "Mega Bul",
        "name:he": "מגה בול",
        "name:ru": "Мега Буль",
        "shop": "supermarket",
        "website": "https://www.mega.co.il"
      }
    },
    {
      "type": "node",
      "id": 4127510443,
      "lat": 30.8235482,
      "lon": 35.0643466,
      "timestamp": "2021-03-04T15:48:16Z",
      "version": 5,
      "changeset": 100432835,
      "user": "hatul",
      "uid": 686490,
      "tags": {
        "description": "חניון לילה הר ההר הינה חניון לילה הנמצא בגבול שמורת טבע הר צין. החניון מוגבל על ידי בולבוסים שנאספו מהאזור.\nבחניון אין תשתיות ואינו מוגן מרוח. מומלץ להביא אוהל שעמיד בפני רוחות חזקות.",
        "description:he": "חניון לילה הר ההר הינה חניון לילה הנמצא בגבול שמורת טבע הר צין. החניון מוגבל על ידי בולבוסים שנאספו מהאזור.\nבחניון אין תשתיות ואינו מוגן מרוח. מומלץ להביא אוהל שעמיד בפני רוחות חזקות.",
        "image": "https://upload.wikimedia.org/wikipedia/commons/2/29/IHM_חניון_לילה_הר_ההר.jpeg",
        "name": "חניון לילה הר ההר",
        "name:en": "Hor HaHar camp site",
        "name:he": "חניון לילה הר ההר",
        "tourism": "camp_site"
      }
    },
    {
      "type": "node",
      "id": 4127510493,
      "lat": 30.8845272,
      "lon": 35.1420612,
      "timestamp": "2021-02-23T14:24:17Z",
      "version": 2,
      "changeset": 99834736,
      "user": "hatul",
      "uid": 686490,
      "tags": {
        "fee": "no",
        "name": "חניון לילה נחל צין תחתון",
        "name:he": "חניון לילה נחל צין תחתון",
        "tourism": "camp_site"
      }
    },
    {
      "type": "node",
      "id": 4127510583,
      "lat": 30.8903487,
      "lon": 35.1559098,
      "timestamp": "2021-02-23T14:42:24Z",
      "version": 4,
      "changeset": 99835900,
      "user": "hatul",
      "uid": 686490,
      "tags": {
        "description": "מי תהום גבוהים ומזוהמים בפוספטים מהמפעלים.",
        "description:he": "מי תהום גבוהים ומזוהמים בפוספטים מהמפעלים.",
        "gns_ref": "-779223",
        "name": "עין עקרבים",
        "name:en": "Ein Aqrabbim",
        "name:en1": "`En `Aqrabim",
        "name:en2": "`En Fiqra",
        "name:he": "עין עקרבים",
        "natural": "spring",
        "source": "GEOnet Names Server (gns)",
        "wikidata": "Q26764172"
      }
    },
    {
      "type": "node",
      "id": 4128492729,
      "lat": 30.8412304,
      "lon": 34.9312325,
      "timestamp": "2018-01-11T17:59:45Z",
      "version": 5,
      "changeset": 55359100,
      "user": "עדן",
      "uid": 5239753,
      "tags": {
        "fee": "no",
        "name": "חניון לילה נחל מדור",
        "name:en": "Mador Night Camp",
        "name:he": "חניון לילה נחל מדור",
        "tourism": "camp_site"
      }
    },
    {
      "type": "node",
      "id": 4171825093,
      "lat": 31.2548211,
      "lon": 34.8143539,
      "timestamp": "2017-09-25T06:33:36Z",
      "version": 5,
      "changeset": 52345502,
      "user": "SafwatHalaby",
      "uid": 2138064,
      "tags": {
        "brand": "Victory",
        "brand:wikidata": "Q6564842",
        "brand:wikipedia": "he:ויקטורי (רשת מרכולים)",
        "name": "ויקטורי",
        "name:en": "Victory",
        "name:he": "ויקטורי",
        "name:ru": "Виктори",
        "shop": "supermarket",
        "website": "https://www.victory.co.il"
      }
    },
    {
      "type": "node",
      "id": 4259880830,
      "lat": 31.3423778,
      "lon": 34.9461907,
      "timestamp": "2020-01-26T08:00:46Z",
      "version": 3,
      "changeset": 80090636,
      "user": "zstadler",
      "uid": 3127,
      "tags": {
        "amenity": "drinking_water"
      }
    },
    {
      "type": "node",
      "id": 4426108472,
      "lat": 31.2517069,
      "lon": 34.8195487,
      "timestamp": "2017-06-10T05:08:05Z",
      "version": 3,
      "changeset": 49412690,
      "user": "SafwatHalaby_bot",
      "uid": 5816834,
      "tags": {
        "brand": "Sogood",
        "brand:en": "Sogood",
        "contact:website": "http://www.sonol.co.il/",
        "name": "So good",
        "name:en": "So good",
        "shop": "convenience"
      }
    },
    {
      "type": "node",
      "id": 4426108473,
      "lat": 31.2520606,
      "lon": 34.8199883,
      "timestamp": "2016-10-03T20:43:00Z",
      "version": 2,
      "changeset": 42615077,
      "user": "yrtimiD",
      "uid": 331840,
      "tags": {
        "addr:housenumber": "10",
        "addr:street": "חברון",
        "brand": "מנטה",
        "brand:en": "Menta",
        "brand:he": "מנטה",
        "contact:website": "http://www.delek.co.il",
        "internet_access": "wlan",
        "name": "מנטה עומרים",
        "name:en": "Menta Omrim",
        "name:he": "מנטה עומרים",
        "opening_hours": "24/7",
        "shop": "convenience"
      }
    },
    {
      "type": "node",
      "id": 4452296248,
      "lat": 30.9853631,
      "lon": 34.9618328,
      "timestamp": "2021-04-17T23:22:34Z",
      "version": 5,
      "changeset": 103120532,
      "user": "Vejoson",
      "uid": 11422772,
      "tags": {
        "name": "تجمع البدوي",
        "name:ar": "تجمع البدوي",
        "name:en": "Bedouin Settlement",
        "name:fr": "Colonie bédouine",
        "name:he": "ישוב בדואי",
        "note": "This locality remains unrecognized by the State of Israel.",
        "place": "hamlet",
        "source": "https://7amleh.org/ms/Links/2.jpg;http://ftpmirror.your.org/pub/wikimedia/images/wikipedia/ar/7/7d/Naqab-map-ar.jpg;https://zochrot.org/uploads/uploads/a4d148c2755d37acb6f3e20ea920d683.jpg"
      }
    },
    {
      "type": "node",
      "id": 4497971721,
      "lat": 31.350252,
      "lon": 35.0666589,
      "timestamp": "2016-11-13T08:29:29Z",
      "version": 1,
      "changeset": 43597910,
      "user": "valleyofdawn",
      "uid": 356970,
      "tags": {
        "amenity": "drinking_water"
      }
    },
    {
      "type": "node",
      "id": 4497971722,
      "lat": 31.3512797,
      "lon": 35.0646262,
      "timestamp": "2016-11-13T08:29:29Z",
      "version": 1,
      "changeset": 43597910,
      "user": "valleyofdawn",
      "uid": 356970,
      "tags": {
        "amenity": "drinking_water"
      }
    },
    {
      "type": "node",
      "id": 4497971723,
      "lat": 31.3048005,
      "lon": 35.082563,
      "timestamp": "2016-11-13T08:29:29Z",
      "version": 1,
      "changeset": 43597910,
      "user": "valleyofdawn",
      "uid": 356970,
      "tags": {
        "natural": "cave_entrance"
      }
    },
    {
      "type": "node",
      "id": 4513476402,
      "lat": 30.8450992,
      "lon": 35.0865283,
      "timestamp": "2016-11-21T10:44:34Z",
      "version": 1,
      "changeset": 43843588,
      "user": "valleyofdawn",
      "uid": 356970,
      "tags": {
        "amenity": "drinking_water"
      }
    },
    {
      "type": "node",
      "id": 4516527729,
      "lat": 30.8002418,
      "lon": 34.6945107,
      "timestamp": "2020-12-24T14:23:26Z",
      "version": 3,
      "changeset": 96391606,
      "user": "pizzaiolo",
      "uid": 1772368,
      "tags": {
        "ele": "668",
        "name": "הר לבן",
        "name:en": "Mt. Lavan",
        "name:he": "הר לבן",
        "natural": "peak",
        "wikidata": "Q26763541"
      }
    },
    {
      "type": "node",
      "id": 4516959221,
      "lat": 30.914631,
      "lon": 35.01824,
      "timestamp": "2016-11-23T12:07:52Z",
      "version": 1,
      "changeset": 43894323,
      "user": "zstadler",
      "uid": 3127,
      "tags": {
        "amenity": "drinking_water",
        "source": "GPS"
      }
    },
    {
      "type": "node",
      "id": 4516959475,
      "lat": 30.939227,
      "lon": 35.15021,
      "timestamp": "2016-11-23T12:07:54Z",
      "version": 1,
      "changeset": 43894323,
      "user": "zstadler",
      "uid": 3127,
      "tags": {
        "amenity": "drinking_water",
        "source": "GPS"
      }
    },
    {
      "type": "node",
      "id": 4540011471,
      "lat": 31.1328129,
      "lon": 35.0121954,
      "timestamp": "2021-02-17T00:12:51Z",
      "version": 7,
      "changeset": 99410550,
      "user": "Vejoson",
      "uid": 11422772,
      "tags": {
        "name": "غيندل",
        "name:ar": "غيندل",
        "name:en": "Gindal",
        "name:fr": "Gindal",
        "name:he": "גינדל",
        "place": "village"
      }
    },
    {
      "type": "node",
      "id": 4548815454,
      "lat": 30.860293,
      "lon": 34.821201,
      "timestamp": "2020-04-28T20:30:38Z",
      "version": 7,
      "changeset": 84290189,
      "user": "Edward",
      "uid": 364,
      "tags": {
        "description": "שיא הגובה של הר צרור שטוח לחלוטין וכשמו מרוצף באבני צור, תצפית נהדרת על בקעת צין. בכל תחילת שנה מקיים כאן התיכון לחינוך סביבתי טקס זריחה.",
        "description:he": "שיא הגובה של הר צרור שטוח לחלוטין וכשמו מרוצף באבני צור, תצפית נהדרת על בקעת צין. בכל תחילת שנה מקיים כאן התיכון לחינוך סביבתי טקס זריחה.",
        "ele": "539",
        "gns_ref": "9245639",
        "image": "https://upload.wikimedia.org/wikipedia/commons/f/fd/Israel_Hiking_Map_הר_צרור.jpeg",
        "name": "הר צרור",
        "name:en": "Mt. Zaror",
        "name:he": "הר צרור",
        "natural": "peak",
        "source": "GPS",
        "tourism": "viewpoint",
        "wikidata": "Q26764223"
      }
    },
    {
      "type": "node",
      "id": 4548823992,
      "lat": 30.8359507,
      "lon": 34.8164272,
      "timestamp": "2020-04-28T20:30:46Z",
      "version": 4,
      "changeset": 84290189,
      "user": "Edward",
      "uid": 364,
      "tags": {
        "ele": "435",
        "name": "קרן עקב",
        "name:en": "Keren Akev",
        "name:he": "קרן עקב",
        "natural": "peak",
        "wikidata": "Q26768964"
      }
    },
    {
      "type": "node",
      "id": 4682365006,
      "lat": 30.9073399,
      "lon": 34.7761917,
      "timestamp": "2017-02-12T20:43:45Z",
      "version": 1,
      "changeset": 46029940,
      "user": "oriori",
      "uid": 3807973,
      "tags": {
        "amenity": "drinking_water"
      }
    },
    {
      "type": "node",
      "id": 4682365007,
      "lat": 30.8339477,
      "lon": 34.7357759,
      "timestamp": "2017-02-12T20:43:45Z",
      "version": 1,
      "changeset": 46029940,
      "user": "oriori",
      "uid": 3807973,
      "tags": {
        "amenity": "drinking_water"
      }
    },
    {
      "type": "node",
      "id": 4713049830,
      "lat": 31.1857494,
      "lon": 34.9651766,
      "timestamp": "2021-04-17T23:22:34Z",
      "version": 6,
      "changeset": 103120532,
      "user": "Vejoson",
      "uid": 11422772,
      "tags": {
        "name": "أبو عمار",
        "name:ar": "أبو عمار",
        "name:en": "Abu Amar",
        "name:fr": "Abu Amar",
        "name:he": "אבו עמר",
        "place": "hamlet"
      }
    },
    {
      "type": "node",
      "id": 4713049831,
      "lat": 31.1678803,
      "lon": 34.9685077,
      "timestamp": "2021-04-17T23:22:34Z",
      "version": 6,
      "changeset": 103120532,
      "user": "Vejoson",
      "uid": 11422772,
      "tags": {
        "name": "العمراني‎",
        "name:ar": "العمراني‎",
        "name:en": "Al Amrani",
        "name:fr": "El-Amrani",
        "name:he": "אל עמראני",
        "place": "hamlet"
      }
    },
    {
      "type": "node",
      "id": 4713049832,
      "lat": 31.1654987,
      "lon": 34.9803695,
      "timestamp": "2021-04-17T23:22:34Z",
      "version": 5,
      "changeset": 103120532,
      "user": "Vejoson",
      "uid": 11422772,
      "tags": {
        "name": "ابو جامدة",
        "name:ar": "ابو جامدة",
        "name:en": "Abu Jamada",
        "name:fr": "Abu Jamada",
        "name:he": "אבו ג'אמדה",
        "place": "hamlet"
      }
    },
    {
      "type": "node",
      "id": 4716996563,
      "lat": 30.794172,
      "lon": 34.7718572,
      "timestamp": "2017-09-14T04:18:37Z",
      "version": 4,
      "changeset": 52025378,
      "user": "SafwatHalaby_bot",
      "uid": 5816834,
      "tags": {
        "historic": "ruins",
        "name": "מערות אחסון",
        "name:en": "Store caves",
        "name:he": "מערות אחסון",
        "natural": "cave_entrance"
      }
    },
    {
      "type": "node",
      "id": 4716996564,
      "lat": 30.7942818,
      "lon": 34.7718739,
      "timestamp": "2017-09-14T04:18:37Z",
      "version": 4,
      "changeset": 52025378,
      "user": "SafwatHalaby_bot",
      "uid": 5816834,
      "tags": {
        "historic": "ruins",
        "name": "מערות אחסון",
        "name:en": "Store caves",
        "name:he": "מערות אחסון",
        "natural": "cave_entrance"
      }
    },
    {
      "type": "node",
      "id": 4724115233,
      "lat": 30.7732999,
      "lon": 34.7265615,
      "timestamp": "2017-03-23T20:43:47Z",
      "version": 2,
      "changeset": 47107460,
      "user": "Aleks-Berlin",
      "uid": 85218,
      "tags": {
        "ele": "573",
        "natural": "cave_entrance",
        "source": "GPS"
      }
    },
    {
      "type": "node",
      "id": 4741305905,
      "lat": 31.3476037,
      "lon": 35.0507237,
      "timestamp": "2020-08-30T14:12:35Z",
      "version": 2,
      "changeset": 90146534,
      "user": "hatul",
      "uid": 686490,
      "tags": {
        "amenity": "drinking_water"
      }
    },
    {
      "type": "node",
      "id": 4741305907,
      "lat": 31.3473298,
      "lon": 35.0506454,
      "timestamp": "2017-03-18T10:52:19Z",
      "version": 1,
      "changeset": 46952708,
      "user": "zstadler",
      "uid": 3127,
      "tags": {
        "amenity": "drinking_water",
        "tourism": "picnic_site"
      }
    },
    {
      "type": "node",
      "id": 4741308943,
      "lat": 31.3392319,
      "lon": 35.0215828,
      "timestamp": "2020-11-23T16:18:36Z",
      "version": 3,
      "changeset": 94649212,
      "user": "hatul",
      "uid": 686490,
      "tags": {
        "image": "https://upload.wikimedia.org/wikipedia/commons/9/92/IHM_cave_1.jpeg",
        "natural": "cave_entrance"
      }
    },
    {
      "type": "node",
      "id": 4767689650,
      "lat": 31.044202,
      "lon": 34.7215106,
      "timestamp": "2021-03-20T23:14:27Z",
      "version": 3,
      "changeset": 101421503,
      "user": "Vejoson",
      "uid": 11422772,
      "tags": {
        "name": "רביבים",
        "name:ar": "رفيفيم",
        "name:en": "Revivim",
        "name:fr": "Revivim",
        "name:he": "רביבים",
        "place": "village",
        "population": "1075",
        "source": "https://www.cbs.gov.il/he/publications/doclib/2017/population_madaf/population_madaf_2019_1.xlsx",
        "wikidata": "Q745981"
      }
    },
    {
      "type": "node",
      "id": 4770776830,
      "lat": 31.1699696,
      "lon": 35.1457138,
      "timestamp": "2020-04-28T20:30:45Z",
      "version": 6,
      "changeset": 84290189,
      "user": "Edward",
      "uid": 364,
      "tags": {
        "ele": "525",
        "image": "https://upload.wikimedia.org/wikipedia/commons/d/d5/Israel_Hiking_Map_%D7%94%D7%A8_%D7%9B%D7%9E%D7%A8%D7%99%D7%A8.jpeg",
        "name": "הר כמריר",
        "name:en": "Mt. Kamrir",
        "name:he": "הר כמריר",
        "natural": "peak",
        "wikidata": "Q26768890"
      }
    },
    {
      "type": "node",
      "id": 4867585330,
      "lat": 31.3223695,
      "lon": 34.7491721,
      "timestamp": "2021-04-17T23:22:34Z",
      "version": 3,
      "changeset": 103120532,
      "user": "Vejoson",
      "uid": 11422772,
      "tags": {
        "name": "العراقيب",
        "name:ar": "العراقيب",
        "name:en": "Al Arakib",
        "name:fr": "Al-Arakib",
        "name:he": "אל-עראקיב",
        "place": "hamlet"
      }
    },
    {
      "type": "node",
      "id": 4867591665,
      "lat": 31.2968646,
      "lon": 34.8554991,
      "timestamp": "2021-04-17T23:22:34Z",
      "version": 2,
      "changeset": 103120532,
      "user": "Vejoson",
      "uid": 11422772,
      "tags": {
        "name": "المكيمن",
        "name:ar": "المكيمن",
        "name:en": "Al Mkiman",
        "name:fr": "Al-Makiman",
        "name:he": "אל-מכימן",
        "place": "hamlet"
      }
    },
    {
      "type": "node",
      "id": 4867604104,
      "lat": 31.2314737,
      "lon": 34.9003974,
      "timestamp": "2021-04-17T23:22:34Z",
      "version": 2,
      "changeset": 103120532,
      "user": "Vejoson",
      "uid": 11422772,
      "tags": {
        "name": "بير الحمام",
        "name:ar": "بير الحمام",
        "name:en": "Bir Al Hamam",
        "name:fr": "Bir Al Hamam",
        "name:he": "ביר אל חמאם",
        "place": "hamlet"
      }
    },
    {
      "type": "node",
      "id": 4867606076,
      "lat": 31.2553602,
      "lon": 34.9237786,
      "timestamp": "2021-04-17T23:22:34Z",
      "version": 2,
      "changeset": 103120532,
      "user": "Vejoson",
      "uid": 11422772,
      "tags": {
        "name": "خربة الوطن",
        "name:ar": "خربة الوطن",
        "name:en": "Khirbat Al Wattan",
        "name:fr": "Khirbat Al Wattan",
        "name:he": "ח'רבת אל-ווטן",
        "place": "hamlet"
      }
    },
    {
      "type": "node",
      "id": 4867609849,
      "lat": 31.2354834,
      "lon": 34.9627438,
      "timestamp": "2021-02-20T00:51:08Z",
      "version": 3,
      "changeset": 99622580,
      "user": "Vejoson",
      "uid": 11422772,
      "tags": {
        "name": "الغراء",
        "name:ar": "الغراء",
        "name:en": "Al Gharrah",
        "name:fr": "El Ghara",
        "name:he": "אל-ע'רא",
        "place": "village"
      }
    },
    {
      "type": "node",
      "id": 4867761457,
      "lat": 31.2702263,
      "lon": 34.9613324,
      "timestamp": "2021-04-17T23:22:34Z",
      "version": 4,
      "changeset": 103120532,
      "user": "Vejoson",
      "uid": 11422772,
      "tags": {
        "name": "سعوة",
        "name:ar": "سعوة",
        "name:en": "Sa'wah",
        "name:fr": "Sawa",
        "name:he": "סעוה",
        "place": "hamlet"
      }
    },
    {
      "type": "node",
      "id": 4867772940,
      "lat": 31.2684876,
      "lon": 35.0297366,
      "timestamp": "2021-04-17T23:22:34Z",
      "version": 3,
      "changeset": 103120532,
      "user": "Vejoson",
      "uid": 11422772,
      "tags": {
        "name": "الباط",
        "name:ar": "الباط",
        "name:en": "Al Bat",
        "name:fr": "Al-Bat",
        "name:he": "אל-באט",
        "place": "hamlet"
      }
    },
    {
      "type": "node",
      "id": 4867785197,
      "lat": 31.2593192,
      "lon": 35.0251278,
      "timestamp": "2021-04-17T23:22:34Z",
      "version": 2,
      "changeset": 103120532,
      "user": "Vejoson",
      "uid": 11422772,
      "tags": {
        "name": "باط الصرايعة",
        "name:ar": "باط الصرايعة",
        "name:en": "Bat Al Saraya'ah",
        "name:fr": "Bat Al Saraya'ah",
        "name:he": "באט אל-סראיעה",
        "place": "hamlet"
      }
    },
    {
      "type": "node",
      "id": 4867786202,
      "lat": 31.2388607,
      "lon": 35.1241917,
      "timestamp": "2021-02-20T00:51:08Z",
      "version": 4,
      "changeset": 99622580,
      "user": "Vejoson",
      "uid": 11422772,
      "tags": {
        "name": "الزعرورة",
        "name:ar": "الزعرورة",
        "name:en": "Al Za'arurah",
        "name:fr": "Ez Zaaroura",
        "name:he": "אל-זערורה",
        "note": "This locality remains unrecognized by the State of Israel.",
        "place": "village",
        "source": "https://7amleh.org/ms/Links/2.jpg;http://ftpmirror.your.org/pub/wikimedia/images/wikipedia/ar/7/7d/Naqab-map-ar.jpg;https://zochrot.org/uploads/uploads/a4d148c2755d37acb6f3e20ea920d683.jpg"
      }
    },
    {
      "type": "node",
      "id": 4867792022,
      "lat": 31.231942,
      "lon": 35.0037757,
      "timestamp": "2021-04-17T23:22:34Z",
      "version": 3,
      "changeset": 103120532,
      "user": "Vejoson",
      "uid": 11422772,
      "tags": {
        "name": "تل الملح",
        "name:ar": "تل الملح",
        "name:en": "Tal Al Malah",
        "name:fr": "Tal Al Malah",
        "name:he": "תל-אלמלח",
        "note": "This locality remains unrecognized by the State of Israel.",
        "place": "hamlet",
        "source": "https://7amleh.org/ms/Links/2.jpg;http://ftpmirror.your.org/pub/wikimedia/images/wikipedia/ar/7/7d/Naqab-map-ar.jpg;https://zochrot.org/uploads/uploads/a4d148c2755d37acb6f3e20ea920d683.jpg"
      }
    },
    {
      "type": "node",
      "id": 4867802905,
      "lat": 31.2420972,
      "lon": 35.0167466,
      "timestamp": "2021-02-20T00:51:08Z",
      "version": 3,
      "changeset": 99622580,
      "user": "Vejoson",
      "uid": 11422772,
      "tags": {
        "name": "السرة",
        "name:ar": "السرة",
        "name:en": "Al Sirah",
        "name:fr": "El Sira",
        "name:he": "אל סירה",
        "note": "This locality remains unrecognized by the State of Israel.",
        "place": "village",
        "source": "https://7amleh.org/ms/Links/2.jpg;http://ftpmirror.your.org/pub/wikimedia/images/wikipedia/ar/7/7d/Naqab-map-ar.jpg;https://zochrot.org/uploads/uploads/a4d148c2755d37acb6f3e20ea920d683.jpg"
      }
    },
    {
      "type": "node",
      "id": 4867816233,
      "lat": 31.2169652,
      "lon": 35.090984,
      "timestamp": "2021-04-17T23:22:34Z",
      "version": 3,
      "changeset": 103120532,
      "user": "Vejoson",
      "uid": 11422772,
      "tags": {
        "name": "البحيرة",
        "name:ar": "البحيرة",
        "name:en": "Al Bhirah",
        "name:fr": "Al Bhira",
        "name:he": "אל-בחירה",
        "note": "This locality remains unrecognized by the State of Israel.",
        "place": "hamlet",
        "source": "https://7amleh.org/ms/Links/2.jpg;http://ftpmirror.your.org/pub/wikimedia/images/wikipedia/ar/7/7d/Naqab-map-ar.jpg;https://zochrot.org/uploads/uploads/a4d148c2755d37acb6f3e20ea920d683.jpg"
      }
    },
    {
      "type": "node",
      "id": 4867855456,
      "lat": 31.2339602,
      "lon": 35.1437012,
      "timestamp": "2021-02-20T00:51:08Z",
      "version": 2,
      "changeset": 99622580,
      "user": "Vejoson",
      "uid": 11422772,
      "tags": {
        "name": "الفرعة",
        "name:ar": "الفرعة",
        "name:en": "Al Fur'ah",
        "name:fr": "El Faraa",
        "name:he": "אל-פורעה",
        "place": "village"
      }
    },
    {
      "type": "node",
      "id": 4867867786,
      "lat": 31.2128503,
      "lon": 35.1341916,
      "timestamp": "2021-02-17T00:12:51Z",
      "version": 3,
      "changeset": 99410550,
      "user": "Vejoson",
      "uid": 11422772,
      "tags": {
        "name": "غزة",
        "name:ar": "غزة",
        "name:en": "Ghazzah",
        "name:fr": "Ghazzah",
        "name:he": "ע'זה",
        "note": "This locality remains unrecognized by the State of Israel.",
        "place": "village",
        "source": "https://7amleh.org/ms/Links/2.jpg;http://ftpmirror.your.org/pub/wikimedia/images/wikipedia/ar/7/7d/Naqab-map-ar.jpg;https://zochrot.org/uploads/uploads/a4d148c2755d37acb6f3e20ea920d683.jpg"
      }
    },
    {
      "type": "node",
      "id": 4867875319,
      "lat": 31.1730943,
      "lon": 35.0949609,
      "timestamp": "2021-02-20T00:51:08Z",
      "version": 3,
      "changeset": 99622580,
      "user": "Vejoson",
      "uid": 11422772,
      "tags": {
        "name": "القطامات",
        "name:ar": "القطامات",
        "name:en": "Al Gatamat",
        "name:fr": "Al Gatamat",
        "name:he": "אל-קטמאת",
        "note": "This locality remains unrecognized by the State of Israel.",
        "place": "village",
        "source": "https://7amleh.org/ms/Links/2.jpg;http://ftpmirror.your.org/pub/wikimedia/images/wikipedia/ar/7/7d/Naqab-map-ar.jpg;https://zochrot.org/uploads/uploads/a4d148c2755d37acb6f3e20ea920d683.jpg"
      }
    },
    {
      "type": "node",
      "id": 4867882301,
      "lat": 31.1115791,
      "lon": 35.021432,
      "timestamp": "2021-02-20T00:51:08Z",
      "version": 3,
      "changeset": 99622580,
      "user": "Vejoson",
      "uid": 11422772,
      "tags": {
        "name": "ام رتام",
        "name:ar": "ام رتام",
        "name:en": "Um Rattam",
        "name:fr": "Um Rattam",
        "name:he": "אום רתאם",
        "note": "This locality remains unrecognized by the State of Israel.",
        "place": "village",
        "source": "https://7amleh.org/ms/Links/2.jpg;http://ftpmirror.your.org/pub/wikimedia/images/wikipedia/ar/7/7d/Naqab-map-ar.jpg;https://zochrot.org/uploads/uploads/a4d148c2755d37acb6f3e20ea920d683.jpg"
      }
    },
    {
      "type": "node",
      "id": 4867894499,
      "lat": 31.1697692,
      "lon": 34.9895431,
      "timestamp": "2021-04-17T23:22:34Z",
      "version": 2,
      "changeset": 103120532,
      "user": "Vejoson",
      "uid": 11422772,
      "tags": {
        "name": "الصدير",
        "name:ar": "الصدير",
        "name:en": "Al Sdir",
        "name:fr": "Al-Sadir",
        "name:he": "אל-סדיר",
        "place": "hamlet"
      }
    },
    {
      "type": "node",
      "id": 4867897933,
      "lat": 31.1947025,
      "lon": 34.9543775,
      "timestamp": "2021-02-20T00:51:08Z",
      "version": 4,
      "changeset": 99622580,
      "user": "Vejoson",
      "uid": 11422772,
      "tags": {
        "name": "بئر المشاش",
        "name:ar": "بئر المشاش",
        "name:en": "Bir Al Mshash",
        "name:fr": "Bir Al Mshash",
        "name:he": "ביר אל-משאש",
        "note": "This locality remains unrecognized by the State of Israel.",
        "place": "village",
        "source": "https://7amleh.org/ms/Links/2.jpg;http://ftpmirror.your.org/pub/wikimedia/images/wikipedia/ar/7/7d/Naqab-map-ar.jpg"
      }
    },
    {
      "type": "node",
      "id": 4867898792,
      "lat": 31.2040057,
      "lon": 34.9252059,
      "timestamp": "2021-02-20T00:51:08Z",
      "version": 2,
      "changeset": 99622580,
      "user": "Vejoson",
      "uid": 11422772,
      "tags": {
        "name": "الزرنوق",
        "name:ar": "الزرنوق",
        "name:en": "Al Zarnug",
        "name:fr": "Al Zarnug",
        "name:he": "אל-זרנוק",
        "place": "village"
      }
    },
    {
      "type": "node",
      "id": 4867901428,
      "lat": 31.2037865,
      "lon": 34.8904084,
      "timestamp": "2021-02-20T22:37:54Z",
      "version": 3,
      "changeset": 99662628,
      "user": "Vejoson",
      "uid": 11422772,
      "tags": {
        "name": "خشم زنة",
        "name:ar": "خشم زنة",
        "name:en": "Khashim Zannih",
        "name:fr": "Khashem Zaneh",
        "name:he": "ח'אשם זאנה",
        "note": "This locality remains unrecognized by the State of Israel.",
        "place": "village",
        "source": "https://7amleh.org/ms/Links/2.jpg;http://ftpmirror.your.org/pub/wikimedia/images/wikipedia/ar/7/7d/Naqab-map-ar.jpg;https://zochrot.org/uploads/uploads/a4d148c2755d37acb6f3e20ea920d683.jpg"
      }
    },
    {
      "type": "node",
      "id": 4867904270,
      "lat": 31.1861956,
      "lon": 34.9128014,
      "timestamp": "2021-02-15T19:27:32Z",
      "version": 3,
      "changeset": 99329576,
      "user": "Vejoson",
      "uid": 11422772,
      "tags": {
        "name": "ابو تلول الشهبي",
        "name:ar": "ابو تلول الشهبي",
        "name:en": "Abu Tlul Al Shahbi",
        "name:fr": "Abu Talul",
        "name:he": "אבו תלול",
        "name:nn": "Abu Talul",
        "name:ru": "Абу-Талуль",
        "place": "village",
        "population": "2023",
        "source": "https://www.cbs.gov.il/he/publications/doclib/2017/population_madaf/population_madaf_2019_1.xlsx",
        "wikidata": "Q16207439",
        "wikipedia": "en:Abu Talul"
      }
    },
    {
      "type": "node",
      "id": 4867907758,
      "lat": 31.1845053,
      "lon": 34.8805489,
      "timestamp": "2021-02-21T00:46:48Z",
      "version": 3,
      "changeset": 99664779,
      "user": "Vejoson",
      "uid": 11422772,
      "tags": {
        "name": "صواوين",
        "name:ar": "صواوين",
        "name:en": "Swawin",
        "name:fr": "Swawin",
        "name:he": "סוואווין",
        "note": "This locality remains unrecognized by the State of Israel.",
        "place": "village",
        "source": "https://7amleh.org/ms/Links/2.jpg;http://ftpmirror.your.org/pub/wikimedia/images/wikipedia/ar/7/7d/Naqab-map-ar.jpg;https://zochrot.org/uploads/uploads/a4d148c2755d37acb6f3e20ea920d683.jpg"
      }
    },
    {
      "type": "node",
      "id": 4867924265,
      "lat": 31.1969017,
      "lon": 34.8067083,
      "timestamp": "2021-02-20T00:51:08Z",
      "version": 2,
      "changeset": 99622580,
      "user": "Vejoson",
      "uid": 11422772,
      "tags": {
        "name": "السر",
        "name:ar": "السر",
        "name:en": "Al Sir",
        "name:fr": "Al Sir",
        "name:he": "אל-סיר",
        "place": "village"
      }
    },
    {
      "type": "node",
      "id": 4867937789,
      "lat": 31.2601562,
      "lon": 34.9730275,
      "timestamp": "2021-06-30T15:45:35Z",
      "version": 5,
      "changeset": 107216217,
      "user": "hatul",
      "uid": 686490,
      "tags": {
        "name": "مولدا",
        "name:ar": "مولدا",
        "name:ar1": "مولداه",
        "name:cs": "Mulada",
        "name:en": "Moladah",
        "name:fr": "Molada",
        "name:he": "סעווה",
        "name:nl": "Mulada",
        "name:nn": "Mulada",
        "name:pl": "Mulada",
        "place": "village",
        "population": "1867",
        "source": "https://www.cbs.gov.il/he/publications/doclib/2017/population_madaf/population_madaf_2019_1.xlsx",
        "wikidata": "Q2431762",
        "wikipedia": "en:Mulada",
        "wikipedia:he": "סעווה (יישוב)"
      }
    },
    {
      "type": "node",
      "id": 4867942081,
      "lat": 30.7521979,
      "lon": 34.7764715,
      "timestamp": "2021-02-23T00:12:40Z",
      "version": 3,
      "changeset": 99778757,
      "user": "Vejoson",
      "uid": 11422772,
      "tags": {
        "name": "عبدة شرقا",
        "name:ar": "عبدة شرقا",
        "name:en": "Eastern Abdah",
        "name:fr": "Abdah oriental",
        "name:he": "עבדה מזרחית",
        "note": "This locality remains unrecognized by the State of Israel.",
        "place": "hamlet",
        "source": "https://7amleh.org/ms/Links/2.jpg;http://ftpmirror.your.org/pub/wikimedia/images/wikipedia/ar/7/7d/Naqab-map-ar.jpg"
      }
    },
    {
      "type": "node",
      "id": 4867951512,
      "lat": 31.2906154,
      "lon": 35.0549787,
      "timestamp": "2021-06-17T15:30:58Z",
      "version": 5,
      "changeset": 106539341,
      "user": "hatul",
      "uid": 686490,
      "tags": {
        "name": "كحلة",
        "name:ar": "كحلة",
        "name:cs": "Kochlija",
        "name:en": "Kuhlih",
        "name:fr": "Kokhla",
        "name:he": "כוחלה",
        "name:nn": "Kukhleh",
        "place": "village",
        "population": "429",
        "source": "https://www.cbs.gov.il/he/publications/doclib/2017/population_madaf/population_madaf_2019_1.xlsx",
        "wikidata": "Q7214177",
        "wikipedia": "en:Kukhleh",
        "wikipedia:he": "כוחלה (כפר)"
      }
    },
    {
      "type": "node",
      "id": 4868030045,
      "lat": 30.848957,
      "lon": 34.7362894,
      "timestamp": "2021-02-15T19:27:32Z",
      "version": 7,
      "changeset": 99329576,
      "user": "Vejoson",
      "uid": 11422772,
      "tags": {
        "name": "البقار",
        "name:ar": "البقار",
        "name:en": "Al-Baqar",
        "name:fr": "El-Baqar",
        "name:he": "אל-בקאר",
        "note": "This locality remains unrecognized by the State of Israel.",
        "place": "village",
        "source": "https://7amleh.org/ms/Links/2.jpg;http://ftpmirror.your.org/pub/wikimedia/images/wikipedia/ar/7/7d/Naqab-map-ar.jpg"
      }
    },
    {
      "type": "node",
      "id": 4889196743,
      "lat": 30.9146786,
      "lon": 35.0181427,
      "timestamp": "2020-07-24T13:31:26Z",
      "version": 5,
      "changeset": 88460896,
      "user": "hatul",
      "uid": 686490,
      "tags": {
        "description": "Parking lot with water taps and tables adjacent to the factory entrance",
        "description:he": "Parking lot with water taps and tables adjacent to the factory entrance",
        "fee": "no",
        "image": "https://upload.wikimedia.org/wikipedia/commons/9/9a/Israel_Hiking_Map_חניון_שער_אורון.jpeg",
        "name": "חניון שער אורון",
        "name:en": "Oron gate campsite",
        "name:he": "חניון שער אורון",
        "tourism": "camp_site"
      }
    },
    {
      "type": "node",
      "id": 4889863123,
      "lat": 30.9344196,
      "lon": 35.1498795,
      "timestamp": "2021-02-23T14:21:12Z",
      "version": 11,
      "changeset": 99834499,
      "user": "hatul",
      "uid": 686490,
      "tags": {
        "description": "חניון מסודר עם סהרונים. יש מכל מים ליד שער הבסיס במרחק של 200 מטר מהחניון.",
        "description:he": "חניון מסודר עם סהרונים. יש מכל מים ליד שער הבסיס במרחק של 200 מטר מהחניון.",
        "fee": "no",
        "name": "חניון לילה מצפה המכתש",
        "name:he": "חניון לילה מצפה המכתש",
        "tourism": "camp_site"
      }
    },
    {
      "type": "node",
      "id": 4943887319,
      "lat": 31.0053142,
      "lon": 34.9541838,
      "timestamp": "2021-06-30T11:07:55Z",
      "version": 8,
      "changeset": 107201853,
      "user": "hatul",
      "uid": 686490,
      "tags": {
        "name": "الرحمة",
        "name:ar": "الرحمة",
        "name:en": "Rahma",
        "name:fr": "Rahma",
        "name:he": "רח'מה",
        "note": "This locality remains unrecognized by the State of Israel.",
        "place": "village",
        "source": "https://7amleh.org/ms/Links/2.jpg;http://ftpmirror.your.org/pub/wikimedia/images/wikipedia/ar/7/7d/Naqab-map-ar.jpg;https://zochrot.org/uploads/uploads/a4d148c2755d37acb6f3e20ea920d683.jpg",
        "wikipedia": "he:רכמה",
        "wikipedia:he": "רכמה"
      }
    },
    {
      "type": "node",
      "id": 4944470648,
      "lat": 31.1262385,
      "lon": 34.9692571,
      "timestamp": "2021-02-15T19:27:32Z",
      "version": 6,
      "changeset": 99329576,
      "user": "Vejoson",
      "uid": 11422772,
      "tags": {
        "name": "أم متنان",
        "name:ar": "أم متنان",
        "name:en": "Umm Mitnan",
        "name:fr": "Um Mitnan",
        "name:he": "אום מיתנאן",
        "place": "village"
      }
    },
    {
      "type": "node",
      "id": 4944470649,
      "lat": 31.1249343,
      "lon": 34.9587107,
      "timestamp": "2021-04-17T23:22:34Z",
      "version": 6,
      "changeset": 103120532,
      "user": "Vejoson",
      "uid": 11422772,
      "tags": {
        "name": "أبو عسيبة",
        "name:ar": "أبو عسيبة",
        "name:en": "Abu Asiba",
        "name:fr": "Abu Asheiba",
        "name:he": "אבו עשיבה",
        "place": "hamlet"
      }
    },
    {
      "type": "node",
      "id": 4944471686,
      "lat": 31.1242639,
      "lon": 34.9964869,
      "timestamp": "2021-04-17T23:22:34Z",
      "version": 7,
      "changeset": 103120532,
      "user": "Vejoson",
      "uid": 11422772,
      "tags": {
        "name": "الغول",
        "name:ar": "الغول",
        "name:en": "Al Ghul",
        "name:fr": "El-Ghul",
        "name:he": "אל ע'ול",
        "place": "hamlet"
      }
    },
    {
      "type": "node",
      "id": 4944474336,
      "lat": 31.1034773,
      "lon": 34.9907577,
      "timestamp": "2021-04-17T23:22:34Z",
      "version": 5,
      "changeset": 103120532,
      "user": "Vejoson",
      "uid": 11422772,
      "tags": {
        "name": "أبو رشد",
        "name:ar": "أبو رشد",
        "name:en": "Abu Rashd",
        "name:fr": "Abu Rushd",
        "name:he": "אבו ראשד",
        "place": "hamlet"
      }
    },
    {
      "type": "node",
      "id": 4956762728,
      "lat": 31.2542141,
      "lon": 34.7974444,
      "timestamp": "2020-02-28T12:10:52Z",
      "version": 3,
      "changeset": 81589490,
      "user": "rony321",
      "uid": 9485999,
      "tags": {
        "brand:wikidata": "Q16132717",
        "brand:wikipedia": "he:קופיקס",
        "name": "קופיקס",
        "name:en": "Cofix",
        "name:he": "קופיקס",
        "operator": "קופיקס",
        "shop": "supermarket"
      }
    },
    {
      "type": "node",
      "id": 5038964933,
      "lat": 31.0102148,
      "lon": 35.0380823,
      "timestamp": "2020-04-28T20:30:15Z",
      "version": 4,
      "changeset": 84290189,
      "user": "Edward",
      "uid": 364,
      "tags": {
        "ele": "657",
        "name": "הר ציד",
        "name:en": "Mt. Tsayd",
        "name:he": "הר ציד",
        "natural": "peak",
        "wikidata": "Q26762151"
      }
    },
    {
      "type": "node",
      "id": 5063557450,
      "lat": 31.1581299,
      "lon": 35.1304847,
      "timestamp": "2020-04-28T20:30:46Z",
      "version": 4,
      "changeset": 84290189,
      "user": "Edward",
      "uid": 364,
      "tags": {
        "ele": "572",
        "name": "הר קדים",
        "name:en": "Mt. Kadim",
        "name:he": "הר קדים",
        "natural": "peak",
        "wikidata": "Q26768891"
      }
    },
    {
      "type": "node",
      "id": 5110958621,
      "lat": 30.8185993,
      "lon": 34.7497129,
      "timestamp": "2017-09-17T12:35:39Z",
      "version": 1,
      "changeset": 52116506,
      "user": "shay trails",
      "uid": 2769154,
      "tags": {
        "description": "אירוח בדואי וקמפינג אצל סלאם אל וואג', אפשר לישון בואהלי אירוח או לעשות קמפינג ולהשתמש בשרותי המקום",
        "description:he": "אירוח בדואי וקמפינג אצל סלאם אל וואג', אפשר לישון בואהלי אירוח או לעשות קמפינג ולהשתמש בשרותי המקום",
        "name": "יאללה קמפ",
        "name:he": "יאללה קמפ",
        "tourism": "camp_site"
      }
    },
    {
      "type": "node",
      "id": 5159576819,
      "lat": 31.2725624,
      "lon": 34.8105295,
      "timestamp": "2017-10-19T17:57:03Z",
      "version": 2,
      "changeset": 53077295,
      "user": "SafwatHalaby_bot",
      "uid": 5816834,
      "tags": {
        "name": "שופרסל הר בוקר",
        "name:he": "שופרסל הר בוקר",
        "shop": "supermarket"
      }
    },
    {
      "type": "node",
      "id": 5164767221,
      "lat": 31.0181478,
      "lon": 34.7728872,
      "timestamp": "2017-10-13T09:41:17Z",
      "version": 2,
      "changeset": 52884199,
      "user": "Mosh Feu",
      "uid": 5096120,
      "tags": {
        "description": "האגם שבתוך חוות הנעורים",
        "description:he": "האגם שבתוך חוות הנעורים",
        "image": "https://upload.wikimedia.org/wikipedia/commons/3/3b/Israel_Hiking_Map_%D7%90%D7%92%D7%9D_%D7%97%D7%95%D7%95%D7%AA_%D7%94%D7%A0%D7%A2%D7%95%D7%A8%D7%99%D7%9D.jpeg",
        "name": "אגם חוות מעיין הנעורים",
        "name:he": "אגם חוות מעיין הנעורים",
        "natural": "spring"
      }
    },
    {
      "type": "node",
      "id": 5190541386,
      "lat": 31.3392617,
      "lon": 35.0392586,
      "timestamp": "2017-10-26T10:08:56Z",
      "version": 1,
      "changeset": 53259169,
      "user": "mk4th",
      "uid": 4279036,
      "tags": {
        "amenity": "drinking_water"
      }
    },
    {
      "type": "node",
      "id": 5383716278,
      "lat": 31.3027627,
      "lon": 34.4862663,
      "timestamp": "2018-02-03T18:14:55Z",
      "version": 1,
      "changeset": 56036010,
      "user": "oriori",
      "uid": 3807973,
      "tags": {
        "amenity": "drinking_water"
      }
    },
    {
      "type": "node",
      "id": 5475393923,
      "lat": 31.17092,
      "lon": 35.150716,
      "timestamp": "2018-03-13T11:06:13Z",
      "version": 1,
      "changeset": 57141585,
      "user": "offa72",
      "uid": 2410665,
      "tags": {
        "name": "קטר שביב",
        "name:he": "קטר שביב",
        "natural": "spring"
      }
    },
    {
      "type": "node",
      "id": 5476005967,
      "lat": 31.3350789,
      "lon": 35.0353045,
      "timestamp": "2018-03-13T16:32:36Z",
      "version": 1,
      "changeset": 57150608,
      "user": "posix99",
      "uid": 6146005,
      "tags": {
        "amenity": "drinking_water"
      }
    },
    {
      "type": "node",
      "id": 5486703624,
      "lat": 30.8646765,
      "lon": 34.8271603,
      "timestamp": "2019-11-28T16:14:00Z",
      "version": 2,
      "changeset": 77692143,
      "user": "hatul",
      "uid": 686490,
      "tags": {
        "desc": "ע\"ש אליאב ארבל 1978-2008\"המדבר והשמים היו לה כבית וזרמו בעורקיה\"פינה זו בחבל הארץ שכה אהבה הוקמה לזכרה ע\"י משפחתה וחבריה",
        "name": "חורשת מעין",
        "name:he": "חורשת מעין",
        "tourism": "camp_site"
      }
    },
    {
      "type": "node",
      "id": 5486703641,
      "lat": 30.8915112,
      "lon": 34.8370537,
      "timestamp": "2018-03-18T16:14:42Z",
      "version": 1,
      "changeset": 57294634,
      "user": "zstadler",
      "uid": 3127,
      "tags": {
        "name": "חניון לילה לא מוסדר",
        "name:en": "unofficial camp site",
        "name:he": "חניון לילה לא מוסדר",
        "tourism": "camp_site"
      }
    },
    {
      "type": "node",
      "id": 5502692911,
      "lat": 31.3278317,
      "lon": 34.9465412,
      "timestamp": "2018-03-25T09:55:45Z",
      "version": 1,
      "changeset": 57503655,
      "user": "Orr Gvili",
      "uid": 1039254,
      "tags": {
        "amenity": "drinking_water"
      }
    },
    {
      "type": "node",
      "id": 5568650845,
      "lat": 31.3464736,
      "lon": 34.7673197,
      "timestamp": "2021-04-17T23:22:34Z",
      "version": 2,
      "changeset": 103120532,
      "user": "Vejoson",
      "uid": 11422772,
      "tags": {
        "name": "كركور",
        "name:ar": "كركور",
        "name:en": "Karkour",
        "name:fr": "Karkour",
        "name:he": "כרכור",
        "place": "hamlet"
      }
    },
    {
      "type": "node",
      "id": 5749331326,
      "lat": 30.9421997,
      "lon": 34.6963005,
      "timestamp": "2021-06-26T12:14:43Z",
      "version": 5,
      "changeset": 107000463,
      "user": "zstadler",
      "uid": 3127,
      "tags": {
        "description": "מערת נחל בשור הינה מערה קטנה המורכבת בעיקרה ממסדרון מוארך ומספר מחילות משנה. אורכה הכולל של המערה עומד על 35 מ' ועומקה המרבי מגיע ל-6 מ'. כיפות המסה וסימני המסה מעוגלים מעידים כי המערה נוצרה מתחת למי התהום, באקוויפר הכלוא של תצורת שבטה.",
        "description:he": "מערת נחל בשור הינה מערה קטנה המורכבת בעיקרה ממסדרון מוארך ומספר מחילות משנה. אורכה הכולל של המערה עומד על 35 מ' ועומקה המרבי מגיע ל-6 מ'. כיפות המסה וסימני המסה מעוגלים מעידים כי המערה נוצרה מתחת למי התהום, באקוויפר הכלוא של תצורת שבטה.",
        "image": "https://upload.wikimedia.org/wikipedia/commons/0/0f/Israel_Hiking_Map_%D7%9E%D7%A2%D7%A8%D7%AA_%D7%A0%D7%97%D7%9C_%D7%94%D7%91%D7%A9%D7%95%D7%A8.jpeg",
        "name": "מערת נחל הבשור",
        "name:he": "מערת נחל הבשור",
        "natural": "cave_entrance",
        "website": "https://www.malham.info/nahalhabsor"
      }
    },
    {
      "type": "node",
      "id": 5808432153,
      "lat": 31.2674072,
      "lon": 34.7929944,
      "timestamp": "2020-05-16T17:14:51Z",
      "version": 2,
      "changeset": 85311424,
      "user": "SafwatHalaby",
      "uid": 2138064,
      "tags": {
        "name": "פיצוציה שכונתית",
        "name:en": "Neighborhood supermarket",
        "name:he": "פיצוציה שכונתית",
        "opening_hours": "Mo-Su 08:00-00:00",
        "shop": "supermarket"
      }
    },
    {
      "type": "node",
      "id": 5816326325,
      "lat": 31.314682,
      "lon": 34.59729,
      "timestamp": "2021-04-17T23:22:34Z",
      "version": 6,
      "changeset": 103120532,
      "user": "Vejoson",
      "uid": 11422772,
      "tags": {
        "name": "עלה נגב - נחלת ערן",
        "name:ar": "عالي نقب",
        "name:en": "Aleh Negev",
        "name:fr": "Aleh Negev",
        "name:he": "עלה נגב - נחלת ערן",
        "place": "hamlet",
        "wikidata": "Q2903014",
        "wikipedia": "he:עדי נגב"
      }
    },
    {
      "type": "node",
      "id": 5971844953,
      "lat": 31.2421631,
      "lon": 34.8603759,
      "timestamp": "2020-05-16T17:14:54Z",
      "version": 3,
      "changeset": 85311424,
      "user": "SafwatHalaby",
      "uid": 2138064,
      "tags": {
        "name": "בסאם סופר מרקט",
        "name:he": "בסאם סופר מרקט",
        "payment:cash": "yes",
        "shop": "supermarket"
      }
    },
    {
      "type": "node",
      "id": 5972499099,
      "lat": 31.2473597,
      "lon": 34.8557875,
      "timestamp": "2020-05-16T17:14:54Z",
      "version": 3,
      "changeset": 85311424,
      "user": "SafwatHalaby",
      "uid": 2138064,
      "tags": {
        "healthcare:speciality": "תל_שבע",
        "name": "רפוס םסעאלא",
        "name:he": "רפוס םסעאלא",
        "shop": "supermarket"
      }
    },
    {
      "type": "node",
      "id": 6154242487,
      "lat": 30.9434948,
      "lon": 34.7391472,
      "timestamp": "2018-12-23T18:45:45Z",
      "version": 2,
      "changeset": 65722079,
      "user": "zstadler",
      "uid": 3127,
      "tags": {
        "image": "https://upload.wikimedia.org/wikipedia/commons/9/97/Israel_Hiking_Map_%D7%9E%D7%A2%D7%A8%D7%AA_%D7%90%D7%A9%D7%9C%D7%99%D7%9D.jpeg",
        "name": "מערת אשלים",
        "name:he": "מערת אשלים",
        "natural": "cave_entrance",
        "website": "https://www.malham.info/ashalim"
      }
    },
    {
      "type": "node",
      "id": 6174907664,
      "lat": 31.0783629,
      "lon": 35.1324534,
      "timestamp": "2020-04-28T20:30:44Z",
      "version": 2,
      "changeset": 84290189,
      "user": "Edward",
      "uid": 364,
      "tags": {
        "ele": "595",
        "name": "הר שרף",
        "name:en": "har saraf",
        "name:he": "הר שרף",
        "natural": "peak",
        "wikidata": "Q26768777"
      }
    },
    {
      "type": "node",
      "id": 6174913555,
      "lat": 31.0586416,
      "lon": 35.1096869,
      "timestamp": "2020-05-16T17:14:54Z",
      "version": 2,
      "changeset": 85311424,
      "user": "SafwatHalaby",
      "uid": 2138064,
      "tags": {
        "intermittent": "yes",
        "name": "קטר פעי",
        "name:he": "קטר פעי",
        "natural": "spring"
      }
    },
    {
      "type": "node",
      "id": 6274187749,
      "lat": 30.8312603,
      "lon": 34.7412101,
      "timestamp": "2020-06-22T05:37:41Z",
      "version": 3,
      "changeset": 86957539,
      "user": "shay trails",
      "uid": 2769154,
      "tags": {
        "tourism": "camp_site"
      }
    },
    {
      "type": "node",
      "id": 6274187750,
      "lat": 30.80839,
      "lon": 34.761899,
      "timestamp": "2021-04-07T21:35:27Z",
      "version": 3,
      "changeset": 102507529,
      "user": "hatul",
      "uid": 686490,
      "tags": {
        "name": "חניון לילה המחצבה",
        "name:he": "חניון לילה המחצבה",
        "tourism": "camp_site"
      }
    },
    {
      "type": "node",
      "id": 6319284885,
      "lat": 30.9325008,
      "lon": 35.0791664,
      "timestamp": "2020-09-24T13:02:05Z",
      "version": 9,
      "changeset": 91437071,
      "user": "hatul",
      "uid": 686490,
      "tags": {
        "image": "https://upload.wikimedia.org/wikipedia/commons/c/cc/Israel_Hiking_Map_%D7%A1%D7%93%D7%A7_%D7%91%D7%9E%D7%A2%D7%9C%D7%94_%D7%99%D7%9E%D7%99%D7%9F.jpeg",
        "image1": "https://upload.wikimedia.org/wikipedia/commons/5/58/Israel_Hiking_Map_%D7%A1%D7%93%D7%A7_%D7%91%D7%9E%D7%A2%D7%9C%D7%94_%D7%99%D7%9E%D7%99%D7%9F_1.jpeg",
        "image2": "https://upload.wikimedia.org/wikipedia/commons/a/a1/Israel_Hiking_Map_%D7%A1%D7%93%D7%A7_%D7%91%D7%9E%D7%A2%D7%9C%D7%94_%D7%99%D7%9E%D7%99%D7%9F_2.jpeg",
        "image3": "https://upload.wikimedia.org/wikipedia/commons/c/cf/Israel_Hiking_Map_סדק_במעלה_ימין_6.jpeg",
        "name": "סדק במעלה ימין",
        "name:he": "סדק במעלה ימין",
        "natural": "cave_entrance"
      }
    },
    {
      "type": "node",
      "id": 6786008450,
      "lat": 30.7919517,
      "lon": 34.7745082,
      "timestamp": "2020-06-03T19:18:17Z",
      "version": 2,
      "changeset": 86150707,
      "user": "valleyofdawn",
      "uid": 356970,
      "tags": {
        "historic": "tomb",
        "name": "Burial cave",
        "name:en": "Burial cave",
        "name:he": "מערת קבורה",
        "natural": "cave_entrance",
        "opening_hours": "24/7",
        "wheelchair": "no"
      }
    },
    {
      "type": "node",
      "id": 6822139999,
      "lat": 31.3375457,
      "lon": 35.0341043,
      "timestamp": "2019-09-25T09:02:19Z",
      "version": 1,
      "changeset": 74896705,
      "user": "hatul",
      "uid": 686490,
      "tags": {
        "amenity": "drinking_water"
      }
    },
    {
      "type": "node",
      "id": 6888725185,
      "lat": 30.9097614,
      "lon": 34.7590332,
      "timestamp": "2019-10-17T10:32:01Z",
      "version": 2,
      "changeset": 75827478,
      "user": "zstadler",
      "uid": 3127,
      "tags": {
        "image": "https://upload.wikimedia.org/wikipedia/commons/0/05/Israel_Hiking_Map_cave.jpeg",
        "natural": "cave_entrance"
      }
    },
    {
      "type": "node",
      "id": 6907072586,
      "lat": 31.3510319,
      "lon": 35.0668346,
      "timestamp": "2019-10-22T21:07:38Z",
      "version": 2,
      "changeset": 76069743,
      "user": "hatul",
      "uid": 686490,
      "tags": {
        "amenity": "drinking_water",
        "image": "https://upload.wikimedia.org/wikipedia/commons/d/d0/Israel_Hiking_Map_ברז_1.jpeg"
      }
    },
    {
      "type": "node",
      "id": 6957872592,
      "lat": 31.2594571,
      "lon": 34.8061272,
      "timestamp": "2019-11-08T14:43:58Z",
      "version": 1,
      "changeset": 76817348,
      "user": "anchorsense",
      "uid": 8288643,
      "tags": {
        "amenity": "shelter",
        "shelter_type": "bomb_shelter"
      }
    },
    {
      "type": "node",
      "id": 6970487019,
      "lat": 31.2599122,
      "lon": 34.8063426,
      "timestamp": "2019-11-13T02:06:08Z",
      "version": 1,
      "changeset": 76988220,
      "user": "anchorsense",
      "uid": 8288643,
      "tags": {
        "amenity": "shelter",
        "shelter_type": "bomb_shelter"
      }
    },
    {
      "type": "node",
      "id": 7167784296,
      "lat": 31.2651533,
      "lon": 34.8016222,
      "timestamp": "2020-05-16T17:14:59Z",
      "version": 2,
      "changeset": 85311424,
      "user": "SafwatHalaby",
      "uid": 2138064,
      "tags": {
        "name": "מרכול האוניברסיטה",
        "name:he": "מרכול האוניברסיטה",
        "shop": "convenience"
      }
    },
    {
      "type": "node",
      "id": 7220890418,
      "lat": 31.2861563,
      "lon": 34.9138666,
      "timestamp": "2021-02-15T00:48:17Z",
      "version": 5,
      "changeset": 99271551,
      "user": "Vejoson",
      "uid": 11422772,
      "tags": {
        "alt_name:ar": "القرين",
        "alt_name:en": "Al-Qarin",
        "alt_name:he": "אל-קרין",
        "name": "السيد",
        "name:ar": "السيد",
        "name:en": "al-Sayyid",
        "name:fr": "Al-Sayyid",
        "name:he": "א-סייד",
        "place": "town",
        "population": "5875",
        "source": "https://www.cbs.gov.il/he/publications/doclib/2017/population_madaf/population_madaf_2019_1.xlsx",
        "wikidata": "Q246995",
        "wikipedia": "en:Al-Sayyid, Israel"
      }
    },
    {
      "type": "node",
      "id": 7233464862,
      "lat": 31.2590233,
      "lon": 34.7894996,
      "timestamp": "2020-05-16T17:14:59Z",
      "version": 2,
      "changeset": 85311424,
      "user": "SafwatHalaby",
      "uid": 2138064,
      "tags": {
        "name": "מפגש ליאור",
        "name:he": "מפגש ליאור",
        "shop": "convenience"
      }
    },
    {
      "type": "node",
      "id": 7233476616,
      "lat": 31.2604429,
      "lon": 34.787445,
      "timestamp": "2020-05-16T17:14:59Z",
      "version": 2,
      "changeset": 85311424,
      "user": "SafwatHalaby",
      "uid": 2138064,
      "tags": {
        "name": "מפגש אופיר",
        "name:he": "מפגש אופיר",
        "shop": "convenience"
      }
    },
    {
      "type": "node",
      "id": 7239548486,
      "lat": 30.7584172,
      "lon": 34.8976023,
      "timestamp": "2020-12-24T14:24:24Z",
      "version": 2,
      "changeset": 96391606,
      "user": "pizzaiolo",
      "uid": 1772368,
      "tags": {
        "image": "https://upload.wikimedia.org/wikipedia/commons/9/9e/Israel_Hiking_Map_עין_שרב.jpeg",
        "name": "עין שרב",
        "name:he": "עין שרב",
        "natural": "spring",
        "wikidata": "Q26768761"
      }
    },
    {
      "type": "node",
      "id": 7321803685,
      "lat": 30.970307,
      "lon": 34.9740077,
      "timestamp": "2021-04-07T06:39:05Z",
      "version": 3,
      "changeset": 102452870,
      "user": "Sanniu",
      "uid": 1206509,
      "tags": {
        "description": "Boulder with trickling water undernearth in spring. Great place for a short break",
        "description:he": "Boulder with trickling water undernearth in spring. Great place for a short break",
        "image": "https://upload.wikimedia.org/wikipedia/commons/3/36/Israel_Hiking_Map_Cover_from_sun.jpeg",
        "natural": "cave_entrance"
      }
    },
    {
      "type": "node",
      "id": 7446977302,
      "lat": 30.8515927,
      "lon": 34.7825759,
      "timestamp": "2021-03-26T23:45:36Z",
      "version": 4,
      "changeset": 101821772,
      "user": "Vejoson",
      "uid": 11422772,
      "tags": {
        "addr:postcode": "84900",
        "name": "מדרשת בן גוריון",
        "name:ar": "كلية بن غوريون",
        "name:en": "Midreshet Ben-Gurion",
        "name:fr": "Midreshet Ben-Gurion",
        "name:he": "מדרשת בן גוריון",
        "place": "village",
        "population": "1972",
        "source": "https://www.cbs.gov.il/he/publications/doclib/2017/population_madaf/population_madaf_2019_1.xlsx",
        "wikidata": "Q2776759",
        "wikipedia": "en:Midreshet Ben-Gurion"
      }
    },
    {
      "type": "node",
      "id": 7448017104,
      "lat": 31.1344594,
      "lon": 34.7917406,
      "timestamp": "2021-03-25T00:19:52Z",
      "version": 2,
      "changeset": 101679007,
      "user": "Vejoson",
      "uid": 11422772,
      "tags": {
        "name": "נאות חובב",
        "name:en": "Neot Hovav",
        "name:fr": "Ramat Hovav",
        "name:he": "נאות חובב",
        "place": "village",
        "wikidata": "Q1000978"
      }
    },
    {
      "type": "node",
      "id": 7448385573,
      "lat": 30.8330364,
      "lon": 34.8117294,
      "timestamp": "2020-07-24T13:31:26Z",
      "version": 2,
      "changeset": 88460896,
      "user": "hatul",
      "uid": 686490,
      "tags": {
        "fee": "no",
        "name": "חניון לילה המשטחים הלבנים",
        "name:en": "the white ground campsite",
        "name:he": "חניון לילה המשטחים הלבנים",
        "tourism": "camp_site"
      }
    },
    {
      "type": "node",
      "id": 7456857402,
      "lat": 30.809602,
      "lon": 34.7560859,
      "timestamp": "2021-06-16T16:09:28Z",
      "version": 6,
      "changeset": 106479358,
      "user": "hatul",
      "uid": 686490,
      "tags": {
        "name": "عبدة",
        "name:ar": "عبدة",
        "name:cs": "Avdat",
        "name:de": "Avdat",
        "name:en": "Avdat",
        "name:es": "Avdat",
        "name:fi": "Avdat",
        "name:fr": "Avdat",
        "name:he": "עבדה",
        "name:it": "Avdat",
        "name:ja": "アヴダト",
        "name:lt": "Avdatas",
        "name:mn": "Авдат",
        "name:nl": "Avdat",
        "name:pl": "Oboda",
        "name:pt": "Obodate",
        "name:ru": "Авдат",
        "name:sl": "Avdat",
        "name:tr": "Avdat",
        "name:uk": "Авдат",
        "name:vi": "Avdat",
        "note": "This locality remains unrecognized by the State of Israel.",
        "place": "village",
        "wikidata": "Q791665",
        "wikipedia": "he:עבדה",
        "wikipedia:he": "עבדה"
      }
    },
    {
      "type": "node",
      "id": 7642076084,
      "lat": 30.8477507,
      "lon": 34.7541031,
      "timestamp": "2020-06-22T05:37:41Z",
      "version": 1,
      "changeset": 86957539,
      "user": "shay trails",
      "uid": 2769154,
      "tags": {
        "tourism": "camp_site"
      }
    },
    {
      "type": "node",
      "id": 7845566304,
      "lat": 31.2546774,
      "lon": 34.7975097,
      "timestamp": "2020-09-25T10:32:22Z",
      "version": 2,
      "changeset": 91502029,
      "user": "SafwatHalaby",
      "uid": 2138064,
      "tags": {
        "name": "רמי לוי בשכונה",
        "name:he": "רמי לוי בשכונה",
        "shop": "supermarket"
      }
    },
    {
      "type": "node",
      "id": 7875910025,
      "lat": 31.330547,
      "lon": 34.948023,
      "timestamp": "2020-09-04T15:12:01Z",
      "version": 1,
      "changeset": 90422389,
      "user": "hatul",
      "uid": 686490,
      "tags": {
        "amenity": "drinking_water"
      }
    },
    {
      "type": "node",
      "id": 7875955553,
      "lat": 31.3397336,
      "lon": 34.9384348,
      "timestamp": "2020-09-04T15:26:17Z",
      "version": 1,
      "changeset": 90422886,
      "user": "hatul",
      "uid": 686490,
      "tags": {
        "amenity": "drinking_water"
      }
    },
    {
      "type": "node",
      "id": 8059210885,
      "lat": 30.9143906,
      "lon": 35.063577,
      "timestamp": "2021-01-18T08:41:52Z",
      "version": 2,
      "changeset": 97681841,
      "user": "zstadler",
      "uid": 3127,
      "tags": {
        "image": "https://upload.wikimedia.org/wikipedia/commons/c/cc/Israel_Hiking_Map_%D7%9E%D7%A4%D7%9C_%D7%92%D7%95%D7%9C%D7%97%D7%9F.jpeg",
        "name": "מפל גולחן",
        "name:he": "מפל גולחן",
        "natural": "cave_entrance"
      }
    },
    {
      "type": "node",
      "id": 8107667617,
      "lat": 31.2626403,
      "lon": 34.7428873,
      "timestamp": "2020-11-11T10:21:22Z",
      "version": 1,
      "changeset": 93918369,
      "user": "SlavaSBC",
      "uid": 12154474,
      "tags": {
        "description": "אגם שנוצר עקב גשם בחורף מקום טבעי בין כפלי ההרים...",
        "description:he": "אגם שנוצר עקב גשם בחורף מקום טבעי בין כפלי ההרים...",
        "name": "אגם שנוצר עקב גשם בחורף",
        "name:he": "אגם שנוצר עקב גשם בחורף",
        "natural": "spring"
      }
    },
    {
      "type": "node",
      "id": 8107844731,
      "lat": 31.2626403,
      "lon": 34.7428873,
      "timestamp": "2020-11-11T11:26:38Z",
      "version": 1,
      "changeset": 93923492,
      "user": "SlavaSBC",
      "uid": 12154474,
      "tags": {
        "amenity": "drinking_water"
      }
    },
    {
      "type": "node",
      "id": 8113838186,
      "lat": 31.2557212,
      "lon": 34.8165327,
      "timestamp": "2021-03-20T15:48:20Z",
      "version": 2,
      "changeset": 101392381,
      "user": "SafwatHalaby",
      "uid": 2138064,
      "tags": {
        "name": "א.נ.א פתרונות מזון ועוד",
        "name:he": "א.נ.א פתרונות מזון ועוד",
        "phone": "+972 8 633 3307",
        "shop": "convenience"
      }
    },
    {
      "type": "node",
      "id": 8151325117,
      "lat": 30.7972464,
      "lon": 34.9741943,
      "timestamp": "2021-01-02T08:06:48Z",
      "version": 3,
      "changeset": 96797071,
      "user": "אילן נחום",
      "uid": 4148784,
      "tags": {
        "description": "חניון לילה גדול ונוח מוגן רוח\nכולל מחסה מפני גשם תחת המסילה\nללא קליטה",
        "description:he": "חניון לילה גדול ונוח מוגן רוח\nכולל מחסה מפני גשם תחת המסילה\nללא קליטה",
        "fee": "no",
        "image": "https://upload.wikimedia.org/wikipedia/commons/e/eb/IHM_חניון_לילה_נחל_חווה_תחתון.jpeg",
        "name": "חניון לילה נחל חווה תחתון",
        "name:he": "חניון לילה נחל חווה תחתון",
        "tourism": "camp_site"
      }
    },
    {
      "type": "node",
      "id": 8155216217,
      "lat": 31.3395337,
      "lon": 35.0219874,
      "timestamp": "2020-11-23T16:21:00Z",
      "version": 2,
      "changeset": 94649325,
      "user": "hatul",
      "uid": 686490,
      "tags": {
        "image": "https://upload.wikimedia.org/wikipedia/commons/8/8f/IHM_cave_2.jpeg",
        "image1": "https://upload.wikimedia.org/wikipedia/commons/8/81/IHM_cave_3.jpeg",
        "natural": "cave_entrance"
      }
    },
    {
      "type": "node",
      "id": 8242302350,
      "lat": 31.0810276,
      "lon": 34.8477767,
      "timestamp": "2021-04-17T23:22:34Z",
      "version": 4,
      "changeset": 103120532,
      "user": "Vejoson",
      "uid": 11422772,
      "tags": {
        "name": "وادي المشاش",
        "name:ar": "وادي المشاش",
        "name:en": "Havat MaShash",
        "name:fr": "Havat MaShash",
        "name:he": "דאחיה",
        "note": "This locality remains unrecognized by the State of Israel.",
        "place": "hamlet",
        "source": "https://7amleh.org/ms/Links/2.jpg;http://ftpmirror.your.org/pub/wikimedia/images/wikipedia/ar/7/7d/Naqab-map-ar.jpg;https://zochrot.org/uploads/uploads/a4d148c2755d37acb6f3e20ea920d683.jpg"
      }
    },
    {
      "type": "node",
      "id": 8242302351,
      "lat": 31.1503381,
      "lon": 35.080532,
      "timestamp": "2021-04-17T23:22:34Z",
      "version": 2,
      "changeset": 103120532,
      "user": "Vejoson",
      "uid": 11422772,
      "tags": {
        "name": "المزرة",
        "name:ar": "المزرة",
        "name:fr": "Mazra",
        "place": "hamlet",
        "source": "https://7amleh.org/ms/Links/2.jpg"
      }
    },
    {
      "type": "node",
      "id": 8242302352,
      "lat": 31.2918996,
      "lon": 35.1452866,
      "timestamp": "2021-02-20T22:37:54Z",
      "version": 3,
      "changeset": 99662628,
      "user": "Vejoson",
      "uid": 11422772,
      "tags": {
        "name": "تل عراد",
        "name:ar": "تل عراد",
        "name:en": "Tel A'rad",
        "name:fr": "Tel Arad",
        "name:he": "תל ערד",
        "note": "This locality remains unrecognized by the State of Israel.",
        "place": "village",
        "source": "https://7amleh.org/ms/Links/2.jpg;http://ftpmirror.your.org/pub/wikimedia/images/wikipedia/ar/7/7d/Naqab-map-ar.jpg;https://zochrot.org/uploads/uploads/a4d148c2755d37acb6f3e20ea920d683.jpg"
      }
    },
    {
      "type": "node",
      "id": 8301402034,
      "lat": 30.9814585,
      "lon": 34.7335391,
      "timestamp": "2021-04-17T23:22:34Z",
      "version": 2,
      "changeset": 103120532,
      "user": "Vejoson",
      "uid": 11422772,
      "tags": {
        "name": "רוח מדבר",
        "name:ar": "روح مدبار",
        "name:en": "Ruah Midbar",
        "name:fr": "Ruah Midbar",
        "name:he": "רוח מדבר",
        "official_name:he": "כפר שיקומי רוח מדבר",
        "place": "hamlet",
        "population": "53",
        "source": "https://www.cbs.gov.il/he/publications/doclib/2017/population_madaf/population_madaf_2019_1.xlsx",
        "wikidata": "Q20502849",
        "wikipedia": "en:Ruah Midbar"
      }
    },
    {
      "type": "node",
      "id": 8301402035,
      "lat": 30.8314616,
      "lon": 34.735963,
      "timestamp": "2021-04-17T23:22:34Z",
      "version": 2,
      "changeset": 103120532,
      "user": "Vejoson",
      "uid": 11422772,
      "tags": {
        "name": "שלווה במדבר",
        "name:ar": "شلواء بميدبار",
        "name:en": "Shalva BaMidbar",
        "name:fr": "Shalva BaMidbar",
        "name:he": "שלווה במדבר",
        "place": "hamlet",
        "wikidata": "Q20502904",
        "wikipedia": "he:שלווה במדבר"
      }
    },
    {
      "type": "node",
      "id": 8306186254,
      "lat": 31.2982638,
      "lon": 34.8927382,
      "timestamp": "2021-04-09T23:32:23Z",
      "version": 2,
      "changeset": 102674449,
      "user": "Vejoson",
      "uid": 11422772,
      "tags": {
        "landuse": "residential",
        "name": "أبو عيسى",
        "name:ar": "أبو عيسى",
        "name:en": "Abu 'Isa",
        "name:fr": "Abu Issa",
        "name:he": "אבו עיסא",
        "place": "hamlet"
      }
    },
    {
      "type": "node",
      "id": 8306198479,
      "lat": 31.1818308,
      "lon": 34.9525055,
      "timestamp": "2021-02-20T00:51:08Z",
      "version": 2,
      "changeset": 99622580,
      "user": "Vejoson",
      "uid": 11422772,
      "tags": {
        "image": "https://www.aljazeera.net/wp-content/uploads/2013/05/663836ad-e3ec-4c76-8ab3-a9d1f63535fd.jpeg",
        "name": "المذبح",
        "name:ar": "المذبح",
        "name:en": "Al Madbah",
        "name:fr": "Al Madhbah",
        "name:he": "אל-מד'בח",
        "note": "This locality remains unrecognized by the State of Israel.",
        "place": "village",
        "source": "https://7amleh.org/ms/Links/2.jpg;http://ftpmirror.your.org/pub/wikimedia/images/wikipedia/ar/7/7d/Naqab-map-ar.jpg"
      }
    },
    {
      "type": "node",
      "id": 8306198480,
      "lat": 31.13591,
      "lon": 34.9629768,
      "timestamp": "2021-06-29T17:02:56Z",
      "version": 3,
      "changeset": 107161065,
      "user": "hatul",
      "uid": 686490,
      "tags": {
        "name": "أبو قرينات",
        "name:ar": "أبو قرينات",
        "name:cs": "Abú Kurajnát",
        "name:en": "Abu Quraynat",
        "name:fa": "ابو قرینات",
        "name:fr": "Abu Qrenat",
        "name:he": "אבו-קרינאת",
        "name:nl": "Abu Qrenat",
        "name:nn": "Abu Qrenat",
        "name:pl": "Abu Kurajnat",
        "name:ru": "Абу-Кринат",
        "place": "village",
        "population": "1904",
        "source": "https://www.cbs.gov.il/he/publications/doclib/2017/population_madaf/population_madaf_2019_1.xlsx",
        "wikidata": "Q2747921",
        "wikipedia": "en:Abu Qrenat",
        "wikipedia:he": "אבו קרינאת"
      }
    },
    {
      "type": "node",
      "id": 8306198668,
      "lat": 31.3442147,
      "lon": 34.8600272,
      "timestamp": "2021-04-17T23:22:34Z",
      "version": 3,
      "changeset": 103120532,
      "user": "Vejoson",
      "uid": 11422772,
      "tags": {
        "name": "المساعدية",
        "name:ar": "المساعدية",
        "name:en": "Al-Musa'idiya",
        "name:fr": "El-Messadia",
        "name:he": "דאחיה",
        "note": "This locality remains unrecognized by th",
        "place": "hamlet",
        "source": "https://7amleh.org/ms/Links/2.jpg;http://ftpmirror.your.org/pub/wikimedia/images/wikipedia/ar/7/7d/Naqab-map-ar.jpg"
      }
    },
    {
      "type": "node",
      "id": 8306198669,
      "lat": 31.3060472,
      "lon": 34.8469229,
      "timestamp": "2021-05-31T13:01:32Z",
      "version": 4,
      "changeset": 105625843,
      "user": "Guy A",
      "uid": 1685003,
      "tags": {
        "name": "عوجان",
        "name:ar": "عوجان",
        "name:en": "'Awajan",
        "name:fr": "Awajan",
        "name:he": "עוג'אן",
        "place": "village",
        "source": "https://7amleh.org/ms/Links/2.jpg;http://ftpmirror.your.org/pub/wikimedia/images/wikipedia/ar/7/7d/Naqab-map-ar.jpg"
      }
    },
    {
      "type": "node",
      "id": 8306198704,
      "lat": 31.1358996,
      "lon": 35.049789,
      "timestamp": "2021-04-17T23:22:34Z",
      "version": 2,
      "changeset": 103120532,
      "user": "Vejoson",
      "uid": 11422772,
      "tags": {
        "name": "المزرعة",
        "name:ar": "المزرعة",
        "name:en": "Al Mazra'ah",
        "name:fr": "Al Mazra'ah",
        "name:he": "אל-מזרעה",
        "note": "This locality remains unrecognized by the State of Israel.",
        "place": "hamlet",
        "source": "https://7amleh.org/ms/Links/2.jpg;http://ftpmirror.your.org/pub/wikimedia/images/wikipedia/ar/7/7d/Naqab-map-ar.jpg;https://zochrot.org/uploads/uploads/a4d148c2755d37acb6f3e20ea920d683.jpg"
      }
    },
    {
      "type": "node",
      "id": 8306199059,
      "lat": 31.2618772,
      "lon": 35.0712547,
      "timestamp": "2021-02-20T00:51:08Z",
      "version": 2,
      "changeset": 99622580,
      "user": "Vejoson",
      "uid": 11422772,
      "tags": {
        "name": "الحمرة",
        "name:ar": "الحمرة",
        "name:en": "Al Humrah",
        "name:fr": "El Hamra",
        "name:he": "אל-חומרה",
        "note": "This locality remains unrecognized by the State of Israel.",
        "place": "village",
        "source": "https://7amleh.org/ms/Links/2.jpg;http://ftpmirror.your.org/pub/wikimedia/images/wikipedia/ar/7/7d/Naqab-map-ar.jpg;https://zochrot.org/uploads/uploads/a4d148c2755d37acb6f3e20ea920d683.jpg"
      }
    },
    {
      "type": "node",
      "id": 8306199098,
      "lat": 31.2819342,
      "lon": 35.0392054,
      "timestamp": "2021-04-17T23:22:34Z",
      "version": 2,
      "changeset": 103120532,
      "user": "Vejoson",
      "uid": 11422772,
      "tags": {
        "name": "أبو ربية",
        "name:ar": "أبو ربية",
        "name:fr": "Abu Rabia",
        "place": "hamlet"
      }
    },
    {
      "type": "node",
      "id": 8306199150,
      "lat": 31.3159389,
      "lon": 34.996175,
      "timestamp": "2021-02-15T19:27:32Z",
      "version": 2,
      "changeset": 99329576,
      "user": "Vejoson",
      "uid": 11422772,
      "tags": {
        "name": "أم الحيران",
        "name:ar": "أم الحيران",
        "name:en": "Um Al Hiran",
        "name:fr": "Um al-Hiran",
        "name:he": "אום אל-חיראן",
        "note": "This locality remains unrecognized by the State of Israel.",
        "place": "village",
        "source": "https://7amleh.org/ms/Links/2.jpg;http://ftpmirror.your.org/pub/wikimedia/images/wikipedia/ar/7/7d/Naqab-map-ar.jpg;https://zochrot.org/uploads/uploads/a4d148c2755d37acb6f3e20ea920d683.jpg",
        "wikidata": "Q16122068"
      }
    },
    {
      "type": "node",
      "id": 8306199259,
      "lat": 31.1618112,
      "lon": 34.8129512,
      "timestamp": "2021-05-16T02:30:54Z",
      "version": 3,
      "changeset": 104753188,
      "user": "pizzaiolo",
      "uid": 1772368,
      "tags": {
        "name": "وادي النعم",
        "name:ar": "وادي النعم",
        "name:en": "Wadi Al-Na'am",
        "name:fr": "Wadi al Naeem",
        "name:he": "ואדי אל-נעם",
        "note": "This locality remains unrecognized by the State of Israel.",
        "place": "village",
        "source": "https://7amleh.org/ms/Links/2.jpg;http://ftpmirror.your.org/pub/wikimedia/images/wikipedia/ar/7/7d/Naqab-map-ar.jpg;https://zochrot.org/uploads/uploads/a4d148c2755d37acb6f3e20ea920d683.jpg",
        "wikidata": "Q7959259"
      }
    },
    {
      "type": "node",
      "id": 8343407919,
      "lat": 31.0221165,
      "lon": 34.6787401,
      "timestamp": "2021-01-20T22:21:44Z",
      "version": 1,
      "changeset": 97863161,
      "user": "romiz",
      "uid": 12519782,
      "tags": {
        "description": "מערה גדולה אשר שימשה כאורווה, פתח המערה פונה מזרחי ונסתר בשל שקע",
        "description:he": "מערה גדולה אשר שימשה כאורווה, פתח המערה פונה מזרחי ונסתר בשל שקע",
        "name": "מערת האורווה",
        "name:he": "מערת האורווה",
        "natural": "cave_entrance"
      }
    },
    {
      "type": "node",
      "id": 8454847180,
      "lat": 31.3387707,
      "lon": 35.0386364,
      "timestamp": "2021-02-24T16:36:54Z",
      "version": 1,
      "changeset": 99919096,
      "user": "hatul",
      "uid": 686490,
      "tags": {
        "amenity": "drinking_water",
        "tourism": "picnic_site"
      }
    },
    {
      "type": "node",
      "id": 8454847181,
      "lat": 31.3397069,
      "lon": 35.0394043,
      "timestamp": "2021-02-24T16:36:54Z",
      "version": 1,
      "changeset": 99919096,
      "user": "hatul",
      "uid": 686490,
      "tags": {
        "amenity": "drinking_water"
      }
    },
    {
      "type": "node",
      "id": 8540600718,
      "lat": 30.9526095,
      "lon": 35.0817813,
      "timestamp": "2021-03-20T11:11:01Z",
      "version": 1,
      "changeset": 101382534,
      "user": "zstadler",
      "uid": 3127,
      "tags": {
        "description": "חניון לא מוכרז מחוץ לשמורה",
        "description:he": "חניון לא מוכרז מחוץ לשמורה",
        "tourism": "camp_site"
      }
    },
    {
      "type": "node",
      "id": 8590259051,
      "lat": 31.3389818,
      "lon": 34.9459806,
      "timestamp": "2021-04-03T18:51:28Z",
      "version": 1,
      "changeset": 102247952,
      "user": "Orr Gvili",
      "uid": 1039254,
      "tags": {
        "amenity": "drinking_water"
      }
    },
    {
      "type": "node",
      "id": 8602003051,
      "lat": 31.216667,
      "lon": 34.9,
      "timestamp": "2021-04-07T09:28:36Z",
      "version": 1,
      "changeset": 102468107,
      "user": "fayezessa",
      "uid": 13019430,
      "tags": {
        "amenity": "drinking_water"
      }
    },
    {
      "type": "node",
      "id": 8624848455,
      "lat": 30.9882646,
      "lon": 34.9249448,
      "timestamp": "2021-04-13T06:55:51Z",
      "version": 1,
      "changeset": 102847299,
      "user": "Ilya Kogan",
      "uid": 280322,
      "tags": {
        "amenity": "drinking_water"
      }
    },
    {
      "type": "node",
      "id": 8667071422,
      "lat": 31.0305894,
      "lon": 34.973607,
      "timestamp": "2021-04-26T07:46:19Z",
      "version": 1,
      "changeset": 103615512,
      "user": "ramiguitar",
      "uid": 8312888,
      "tags": {
        "amenity": "drinking_water"
      }
    },
    {
      "type": "node",
      "id": 8883484506,
      "lat": 31.2345504,
      "lon": 34.7922488,
      "timestamp": "2021-07-01T16:57:48Z",
      "version": 1,
      "changeset": 107271131,
      "user": "Sanniu",
      "uid": 1206509,
      "tags": {
        "amenity": "drinking_water"
      }
    },
    {
      "type": "node",
      "id": 8883484508,
      "lat": 31.2347893,
      "lon": 34.7920319,
      "timestamp": "2021-07-01T16:57:48Z",
      "version": 1,
      "changeset": 107271131,
      "user": "Sanniu",
      "uid": 1206509,
      "tags": {
        "amenity": "drinking_water"
      }
    },
    {
      "type": "way",
      "id": 58533605,
      "timestamp": "2021-02-26T23:16:27Z",
      "version": 11,
      "changeset": 100078463,
      "user": "Vejoson",
      "uid": 11422772,
      "center": {
        "lat": 31.2448851,
        "lon": 35.0911885
      },
      "nodes": [],
      "tags": {
        "landuse": "residential",
        "name": "كسيفة",
        "name:ar": "كسيفة",
        "name:en": "Kuseife",
        "name:fr": "Kseife",
        "name:he": "כסיפה",
        "place": "village"
      }
    },
    {
      "type": "way",
      "id": 82487456,
      "timestamp": "2021-03-30T22:20:15Z",
      "version": 12,
      "changeset": 102011577,
      "user": "Vejoson",
      "uid": 11422772,
      "center": {
        "lat": 31.0040584,
        "lon": 34.7868919
      },
      "nodes": [],
      "tags": {
        "landuse": "residential",
        "name": "משאבי שדה",
        "name:fr": "Mashabei Sadeh",
        "name:he": "משאבי שדה",
        "place": "village"
      }
    },
    {
      "type": "way",
      "id": 82487485,
      "timestamp": "2021-03-29T22:12:04Z",
      "version": 14,
      "changeset": 101942398,
      "user": "Vejoson",
      "uid": 11422772,
      "center": {
        "lat": 31.2033331,
        "lon": 34.5346988
      },
      "nodes": [],
      "tags": {
        "landuse": "residential",
        "name": "צאלים",
        "name:fr": "Tzéélim",
        "name:he": "צאלים",
        "place": "village"
      }
    },
    {
      "type": "way",
      "id": 82487534,
      "timestamp": "2021-03-20T15:48:22Z",
      "version": 13,
      "changeset": 101392381,
      "user": "SafwatHalaby",
      "uid": 2138064,
      "center": {
        "lat": 31.2102075,
        "lon": 34.4652921
      },
      "nodes": [],
      "tags": {
        "landuse": "residential",
        "name": "גבולות",
        "name:fr": "Gvulot",
        "name:he": "גבולות",
        "place": "village"
      }
    },
    {
      "type": "way",
      "id": 82487879,
      "timestamp": "2021-03-29T22:12:04Z",
      "version": 6,
      "changeset": 101942398,
      "user": "Vejoson",
      "uid": 11422772,
      "center": {
        "lat": 31.3520791,
        "lon": 34.497614
      },
      "nodes": [],
      "tags": {
        "landuse": "residential",
        "name": "טל אור",
        "name:en": "Tal Or",
        "name:fr": "Tal Or",
        "name:he": "טל אור",
        "place": "village"
      }
    },
    {
      "type": "way",
      "id": 92481639,
      "timestamp": "2021-02-26T23:16:27Z",
      "version": 8,
      "changeset": 100078463,
      "user": "Vejoson",
      "uid": 11422772,
      "center": {
        "lat": 31.1316888,
        "lon": 34.8159941
      },
      "nodes": [],
      "tags": {
        "landuse": "residential",
        "name": "الدنفيري",
        "name:ar": "الدنفيري",
        "name:en": "Al Danfiri",
        "name:fr": "Al Danfiri",
        "name:he": "אל דנפירי",
        "place": "village"
      }
    },
    {
      "type": "way",
      "id": 92878919,
      "timestamp": "2021-02-22T19:09:57Z",
      "version": 5,
      "changeset": 99766924,
      "user": "Vejoson",
      "uid": 11422772,
      "center": {
        "lat": 31.2300133,
        "lon": 34.8469803
      },
      "nodes": [],
      "tags": {
        "landuse": "residential",
        "name": "אבו עמרה",
        "name:en": "Abu Amra",
        "name:fr": "Abu Amra",
        "name:he": "אבו עמרה",
        "place": "village"
      }
    },
    {
      "type": "way",
      "id": 92880152,
      "timestamp": "2021-02-26T23:16:27Z",
      "version": 5,
      "changeset": 100078463,
      "user": "Vejoson",
      "uid": 11422772,
      "center": {
        "lat": 31.2598724,
        "lon": 34.8640804
      },
      "nodes": [],
      "tags": {
        "landuse": "residential",
        "name": "أبو رقيق",
        "name:ar": "أبو رقيق",
        "name:en": "Abu Rukayk",
        "name:fr": "Abu Rafik",
        "name:he": "אבו רוקייק",
        "place": "village"
      }
    },
    {
      "type": "way",
      "id": 93226102,
      "timestamp": "2021-04-09T23:32:23Z",
      "version": 14,
      "changeset": 102674449,
      "user": "Vejoson",
      "uid": 11422772,
      "center": {
        "lat": 31.356095,
        "lon": 34.7588739
      },
      "nodes": [],
      "tags": {
        "landuse": "residential",
        "name": "גבעות בר",
        "name:fr": "Giv'ot Bar",
        "place": "village"
      }
    },
    {
      "type": "way",
      "id": 94397947,
      "timestamp": "2021-03-20T15:48:22Z",
      "version": 12,
      "changeset": 101392381,
      "user": "SafwatHalaby",
      "uid": 2138064,
      "center": {
        "lat": 31.3252635,
        "lon": 34.6975606
      },
      "nodes": [],
      "tags": {
        "landuse": "residential",
        "name": "אשל הנשיא",
        "name:fr": "Eshel HaNasi",
        "name:he": "אשל הנשיא",
        "place": "village"
      }
    },
    {
      "type": "way",
      "id": 94520462,
      "timestamp": "2021-03-29T22:12:04Z",
      "version": 8,
      "changeset": 101942398,
      "user": "Vejoson",
      "uid": 11422772,
      "center": {
        "lat": 31.3430688,
        "lon": 35.101806
      },
      "nodes": [],
      "tags": {
        "landuse": "residential",
        "name": "הר עמשא",
        "name:en": "Har Amasa",
        "name:fr": "Har Amasa",
        "name:he": "הר עמשא",
        "place": "village",
        "wikidata": "Q2916521",
        "wikipedia": "he:הר עמשא (יישוב)"
      }
    },
    {
      "type": "way",
      "id": 94721069,
      "timestamp": "2021-04-17T23:22:34Z",
      "version": 8,
      "changeset": 103120532,
      "user": "Vejoson",
      "uid": 11422772,
      "center": {
        "lat": 31.2586485,
        "lon": 34.747968
      },
      "nodes": [],
      "tags": {
        "landuse": "residential",
        "name": "כפר רפאל",
        "name:en": "Kfar Refael",
        "name:fr": "Kfar Refael",
        "name:he": "כפר רפאל",
        "place": "hamlet"
      }
    },
    {
      "type": "way",
      "id": 154226673,
      "timestamp": "2017-06-10T05:09:08Z",
      "version": 4,
      "changeset": 49412690,
      "user": "SafwatHalaby_bot",
      "uid": 5816834,
      "center": {
        "lat": 31.2541525,
        "lon": 34.8177874
      },
      "nodes": [],
      "tags": {
        "building": "yes",
        "name": "יו",
        "name:en": "You",
        "name:he": "יו",
        "shop": "supermarket"
      }
    },
    {
      "type": "way",
      "id": 154226678,
      "timestamp": "2020-03-09T18:01:23Z",
      "version": 10,
      "changeset": 81976967,
      "user": "anchorsense",
      "uid": 8288643,
      "center": {
        "lat": 31.2543048,
        "lon": 34.8149073
      },
      "nodes": [],
      "tags": {
        "brand": "Shufersal",
        "brand:wikidata": "Q4523181",
        "brand:wikipedia": "en:Shufersal",
        "building": "yes",
        "name": "שופרסל",
        "name:en": "Shufersal",
        "name:he": "שופרסל",
        "name:ru": "Шуферсаль",
        "shop": "supermarket",
        "website": "https://www.shufersal.co.il"
      }
    },
    {
      "type": "way",
      "id": 154226714,
      "timestamp": "2017-06-10T05:09:08Z",
      "version": 5,
      "changeset": 49412690,
      "user": "SafwatHalaby_bot",
      "uid": 5816834,
      "center": {
        "lat": 31.2555817,
        "lon": 34.8187442
      },
      "nodes": [],
      "tags": {
        "building": "yes",
        "name": "מחסני השוק",
        "name:en": "Machsanay HaShuk",
        "name:he": "מחסני השוק",
        "shop": "supermarket"
      }
    },
    {
      "type": "way",
      "id": 165741399,
      "timestamp": "2017-09-25T06:33:51Z",
      "version": 6,
      "changeset": 52345502,
      "user": "SafwatHalaby",
      "uid": 2138064,
      "center": {
        "lat": 31.2415291,
        "lon": 34.8096793
      },
      "nodes": [],
      "tags": {
        "brand": "Tiv Ta'am",
        "brand:wikidata": "Q2903718",
        "brand:wikipedia": "en:Tiv Ta'am",
        "building": "retail",
        "name": "טיב טעם",
        "name:en": "Tiv Ta'am",
        "name:he": "טיב טעם",
        "name:ru": "Тив Та'ам",
        "shop": "supermarket",
        "website": "https://www.tivtaam.co.il"
      }
    },
    {
      "type": "way",
      "id": 276928513,
      "timestamp": "2017-09-25T06:42:25Z",
      "version": 6,
      "changeset": 52345661,
      "user": "SafwatHalaby",
      "uid": 2138064,
      "center": {
        "lat": 31.0742569,
        "lon": 35.0322767
      },
      "nodes": [],
      "tags": {
        "brand": "Shufersal",
        "brand:wikidata": "Q4523181",
        "brand:wikipedia": "en:Shufersal",
        "building": "yes",
        "name": "שופרסל דיל",
        "name:en": "Shufersal Deal",
        "name:he": "שופרסל דיל",
        "name:ru": "Шуферсаль Диль",
        "shop": "supermarket",
        "website": "https://www.shufersal.co.il"
      }
    },
    {
      "type": "way",
      "id": 289935759,
      "timestamp": "2018-06-13T07:07:52Z",
      "version": 6,
      "changeset": 59799861,
      "user": "sivan00",
      "uid": 2045570,
      "center": {
        "lat": 31.0614785,
        "lon": 35.0240753
      },
      "nodes": [],
      "tags": {
        "brand": "Mega",
        "brand:wikidata": "Q12403907",
        "brand:wikipedia": "he:מגה קמעונאות",
        "building": "yes",
        "name": "ויקטורי",
        "name:en": "Victory",
        "name:he": "ויקטורי",
        "name:ru": "Мега Буль",
        "shop": "supermarket",
        "website": "https://www.mega.co.il"
      }
    },
    {
      "type": "way",
      "id": 312480189,
      "timestamp": "2021-04-25T10:08:14Z",
      "version": 9,
      "changeset": 103566986,
      "user": "hatul",
      "uid": 686490,
      "center": {
        "lat": 30.836666,
        "lon": 34.8322995
      },
      "nodes": [],
      "tags": {
        "description": "חניון לילה חוד עקב, מעט מוגן מרוח בזכות סוללת עפר. שקט בדרך כלל, יכול להיות קצת עמוס בחגים. במקום שירותי קומפוסט ושלט.",
        "description:he": "חניון לילה חוד עקב, מעט מוגן מרוח בזכות סוללת עפר. שקט בדרך כלל, יכול להיות קצת עמוס בחגים. במקום שירותי קומפוסט ושלט.",
        "fee": "no",
        "name": "חניון לילה חוד עקב",
        "name:en": "Night campground - Hod Akev",
        "name:he": "חניון לילה חוד עקב",
        "source": "Bing",
        "tourism": "camp_site"
      }
    },
    {
      "type": "way",
      "id": 362808980,
      "timestamp": "2017-09-25T06:42:28Z",
      "version": 8,
      "changeset": 52345661,
      "user": "SafwatHalaby",
      "uid": 2138064,
      "center": {
        "lat": 31.2453619,
        "lon": 34.7980401
      },
      "nodes": [],
      "tags": {
        "brand": "Shufersal",
        "brand:wikidata": "Q4523181",
        "brand:wikipedia": "en:Shufersal",
        "building": "yes",
        "building:levels": "2",
        "name": "שופרסל דיל",
        "name:en": "Shufersal Deal",
        "name:he": "שופרסל דיל",
        "name:ru": "Шуферсаль Диль",
        "shop": "supermarket",
        "website": "https://www.shufersal.co.il"
      }
    },
    {
      "type": "way",
      "id": 362811812,
      "timestamp": "2017-06-10T05:10:58Z",
      "version": 5,
      "changeset": 49412690,
      "user": "SafwatHalaby_bot",
      "uid": 5816834,
      "center": {
        "lat": 31.2462562,
        "lon": 34.7974744
      },
      "nodes": [],
      "tags": {
        "building": "yes",
        "building:levels": "6",
        "name": "מחסני מכר",
        "name:he": "מחסני מכר",
        "shop": "supermarket"
      }
    },
    {
      "type": "way",
      "id": 366663786,
      "timestamp": "2019-11-11T21:37:30Z",
      "version": 2,
      "changeset": 76931081,
      "user": "anchorsense",
      "uid": 8288643,
      "center": {
        "lat": 31.2572515,
        "lon": 34.7952992
      },
      "nodes": [],
      "tags": {
        "amenity": "shelter",
        "building": "yes",
        "shelter_type": "bomb_shelter"
      }
    },
    {
      "type": "way",
      "id": 381243751,
      "timestamp": "2019-03-20T14:14:49Z",
      "version": 4,
      "changeset": 68337781,
      "user": "b-jazz-bot",
      "uid": 9451067,
      "center": {
        "lat": 31.0164151,
        "lon": 34.7573492
      },
      "nodes": [],
      "tags": {
        "name": "Desert Ship",
        "name:en": "Desert Ship",
        "tourism": "camp_site",
        "website": "https://www.weekend.co.il/negev/sfinatamidbar/"
      }
    },
    {
      "type": "way",
      "id": 388250864,
      "timestamp": "2017-09-25T06:42:30Z",
      "version": 7,
      "changeset": 52345661,
      "user": "SafwatHalaby",
      "uid": 2138064,
      "center": {
        "lat": 31.3182289,
        "lon": 34.6254082
      },
      "nodes": [],
      "tags": {
        "addr:street": "ז'בוטינסקי",
        "brand": "Shufersal",
        "brand:wikidata": "Q4523181",
        "brand:wikipedia": "en:Shufersal",
        "building": "yes",
        "name": "שופרסל דיל",
        "name:en": "Shufersal Deal",
        "name:he": "שופרסל דיל",
        "name:ru": "Шуферсаль Диль",
        "shop": "supermarket",
        "website": "https://www.shufersal.co.il"
      }
    },
    {
      "type": "way",
      "id": 415104752,
      "timestamp": "2020-05-16T17:15:15Z",
      "version": 3,
      "changeset": 85311424,
      "user": "SafwatHalaby",
      "uid": 2138064,
      "center": {
        "lat": 31.2584486,
        "lon": 34.8085651
      },
      "nodes": [],
      "tags": {
        "addr:housenumber": "14",
        "addr:street": "חביבה רייך",
        "building": "yes",
        "name": "מיני מרקט השכונתית",
        "name:he": "מיני מרקט השכונתית",
        "shop": "convenience"
      }
    },
    {
      "type": "way",
      "id": 431562800,
      "timestamp": "2020-05-17T12:48:00Z",
      "version": 3,
      "changeset": 85333544,
      "user": "rony321",
      "uid": 9485999,
      "center": {
        "lat": 31.2559651,
        "lon": 34.8023039
      },
      "nodes": [],
      "tags": {
        "addr:city": "באר שבע",
        "addr:housenumber": "66",
        "addr:street": "וינגייט",
        "building": "yes",
        "name": "V מרקט",
        "name:he": "V מרקט",
        "shop": "convenience"
      }
    },
    {
      "type": "way",
      "id": 451782914,
      "timestamp": "2019-11-08T16:05:27Z",
      "version": 3,
      "changeset": 76821109,
      "user": "anchorsense",
      "uid": 8288643,
      "center": {
        "lat": 31.2589272,
        "lon": 34.8080657
      },
      "nodes": [],
      "tags": {
        "amenity": "shelter",
        "building": "yes",
        "shelter_type": "bomb_shelter"
      }
    },
    {
      "type": "way",
      "id": 478492911,
      "timestamp": "2020-11-29T21:41:49Z",
      "version": 5,
      "changeset": 95001877,
      "user": "hatul",
      "uid": 686490,
      "center": {
        "lat": 31.0273514,
        "lon": 35.0657956
      },
      "nodes": [],
      "tags": {
        "description": "חניון לינה בתשלום בשטח או במבנים.",
        "description:he": "חניון לינה בתשלום בשטח או במבנים.",
        "fee": "yes",
        "name": "Mamshit National Park Nabataean Khan",
        "name:en": "Mamshit National Park Nabataean Khan",
        "name:he": "חניון לילה ממשית",
        "name_1": "חניון לילה גן לאומי ממשית – החאן הנבטי",
        "tourism": "camp_site",
        "website": "https://www.parks.org.il/camping/%d7%97%d7%a0%d7%99%d7%95%d7%9f-%d7%9c%d7%99%d7%9c%d7%94-%d7%92%d7%9f-%d7%9c%d7%90%d7%95%d7%9e%d7%99-%d7%9e%d7%9e%d7%a9%d7%99%d7%aa-%d7%94%d7%97%d7%90%d7%9f-%d7%94%d7%a0%d7%91%d7%98%d7%99/"
      }
    },
    {
      "type": "way",
      "id": 605917282,
      "timestamp": "2021-02-26T23:16:27Z",
      "version": 4,
      "changeset": 100078463,
      "user": "Vejoson",
      "uid": 11422772,
      "center": {
        "lat": 31.1946283,
        "lon": 34.8387776
      },
      "nodes": [],
      "tags": {
        "landuse": "residential",
        "name": "شقيب السلام",
        "name:ar": "شقيب السلام",
        "name:en": "Shaqib al-Salam",
        "name:en1": "Segev Shalom",
        "name:fr": "Segev Shalom",
        "name:he": "שגב שלום",
        "place": "village"
      }
    },
    {
      "type": "way",
      "id": 638024033,
      "timestamp": "2021-03-30T22:20:15Z",
      "version": 3,
      "changeset": 102011577,
      "user": "Vejoson",
      "uid": 11422772,
      "center": {
        "lat": 31.3341842,
        "lon": 34.9182358
      },
      "nodes": [],
      "tags": {
        "landuse": "residential",
        "name": "כרמים",
        "name:ar": "كراميم",
        "name:en": "Kramim",
        "name:fr": "Kramim",
        "name:he": "כרמים",
        "place": "village",
        "population": "489",
        "source": "https://www.cbs.gov.il/he/publications/doclib/2017/population_madaf/population_madaf_2019_1.xlsx",
        "wikidata": "Q261686",
        "wikipedia": "en:Kramim"
      }
    },
    {
      "type": "way",
      "id": 687850602,
      "timestamp": "2021-03-29T22:12:04Z",
      "version": 5,
      "changeset": 101942398,
      "user": "Vejoson",
      "uid": 11422772,
      "center": {
        "lat": 31.3276001,
        "lon": 34.5598089
      },
      "nodes": [],
      "tags": {
        "landuse": "residential",
        "name": "פטיש",
        "name:fr": "Patish",
        "name:he": "פטיש",
        "place": "village"
      }
    },
    {
      "type": "way",
      "id": 699580454,
      "timestamp": "2021-03-29T22:12:04Z",
      "version": 5,
      "changeset": 101942398,
      "user": "Vejoson",
      "uid": 11422772,
      "center": {
        "lat": 31.3259694,
        "lon": 34.6766442
      },
      "nodes": [],
      "tags": {
        "landuse": "residential",
        "name": "תפרח",
        "name:fr": "Tifrach",
        "name:he": "תפרח",
        "place": "village"
      }
    },
    {
      "type": "way",
      "id": 706414432,
      "timestamp": "2021-03-30T22:20:15Z",
      "version": 4,
      "changeset": 102011577,
      "user": "Vejoson",
      "uid": 11422772,
      "center": {
        "lat": 31.33228,
        "lon": 34.8942466
      },
      "nodes": [],
      "tags": {
        "landuse": "residential",
        "name": "כרמית",
        "name:en": "Karmit",
        "name:fr": "Carmit",
        "name:he": "כרמית",
        "place": "village"
      }
    },
    {
      "type": "way",
      "id": 707236045,
      "timestamp": "2021-03-29T22:12:04Z",
      "version": 5,
      "changeset": 101942398,
      "user": "Vejoson",
      "uid": 11422772,
      "center": {
        "lat": 31.3275064,
        "lon": 34.6115504
      },
      "nodes": [],
      "tags": {
        "landuse": "residential",
        "name": "פדויים",
        "name:fr": "Peduim",
        "name:he": "פדויים",
        "place": "village"
      }
    },
    {
      "type": "way",
      "id": 707396589,
      "timestamp": "2021-03-20T15:48:27Z",
      "version": 6,
      "changeset": 101392381,
      "user": "SafwatHalaby",
      "uid": 2138064,
      "center": {
        "lat": 31.3349556,
        "lon": 34.6332225
      },
      "nodes": [],
      "tags": {
        "landuse": "residential",
        "name": "ביטחה",
        "name:fr": "Bitha",
        "name:he": "ביטחה",
        "place": "village"
      }
    },
    {
      "type": "way",
      "id": 707398172,
      "timestamp": "2021-03-29T22:12:04Z",
      "version": 5,
      "changeset": 101942398,
      "user": "Vejoson",
      "uid": 11422772,
      "center": {
        "lat": 31.3285277,
        "lon": 34.6525644
      },
      "nodes": [],
      "tags": {
        "landuse": "residential",
        "name": "גילת",
        "name:fr": "Gilat",
        "name:he": "גילת",
        "place": "village"
      }
    },
    {
      "type": "way",
      "id": 707428926,
      "timestamp": "2021-03-20T15:48:27Z",
      "version": 5,
      "changeset": 101392381,
      "user": "SafwatHalaby",
      "uid": 2138064,
      "center": {
        "lat": 31.3372281,
        "lon": 34.601793
      },
      "nodes": [],
      "tags": {
        "landuse": "residential",
        "name": "רנן",
        "name:fr": "Ranen",
        "name:he": "רנן",
        "place": "village"
      }
    },
    {
      "type": "way",
      "id": 707431113,
      "timestamp": "2021-03-30T22:20:15Z",
      "version": 6,
      "changeset": 102011577,
      "user": "Vejoson",
      "uid": 11422772,
      "center": {
        "lat": 31.323478,
        "lon": 34.589349
      },
      "nodes": [],
      "tags": {
        "landuse": "residential",
        "name": "מסלול",
        "name:fr": "Maslul",
        "name:he": "מסלול",
        "place": "village"
      }
    },
    {
      "type": "way",
      "id": 751105341,
      "timestamp": "2020-05-16T17:15:39Z",
      "version": 2,
      "changeset": 85311424,
      "user": "SafwatHalaby",
      "uid": 2138064,
      "center": {
        "lat": 31.3038474,
        "lon": 34.5239526
      },
      "nodes": [],
      "tags": {
        "building": "yes",
        "name": "קניונית אורים",
        "name:he": "קניונית אורים",
        "payment:cash": "yes",
        "payment:credit_cards": "yes",
        "shop": "supermarket"
      }
    },
    {
      "type": "way",
      "id": 825807896,
      "timestamp": "2021-03-20T18:47:02Z",
      "version": 4,
      "changeset": 101411781,
      "user": "Vejoson",
      "uid": 11422772,
      "center": {
        "lat": 31.3555811,
        "lon": 35.0698585
      },
      "nodes": [],
      "tags": {
        "ele": "697",
        "landuse": "residential",
        "name": "שני ליבנה",
        "name:en": "Shani Livne",
        "name:fr": "Livna",
        "name:he": "שני ליבנה",
        "place": "village",
        "population": "471",
        "start_date": "1982/1989"
      }
    },
    {
      "type": "way",
      "id": 920663129,
      "timestamp": "2021-03-22T07:59:32Z",
      "version": 1,
      "changeset": 101482311,
      "user": "imirs",
      "uid": 484785,
      "center": {
        "lat": 31.2241933,
        "lon": 34.881477
      },
      "nodes": [],
      "tags": {
        "name": "נבטים",
        "name:en": "Nevatim",
        "place": "village"
      }
    },
    {
      "type": "way",
      "id": 920697639,
      "timestamp": "2021-03-22T09:49:26Z",
      "version": 1,
      "changeset": 101491389,
      "user": "zstadler",
      "uid": 3127,
      "center": {
        "lat": 30.9539883,
        "lon": 35.0771446
      },
      "nodes": [],
      "tags": {
        "description": "החניון פתוח לגמרי וממוקם במרכז מישור ימין ולכן חשוף לרוחות. אין צל ולכן בימים חמים חשוב להתמקם במקום עם צלייה. הלנים בחניון מתבקשים לקחת את הפסולת אתם.",
        "description:he": "החניון פתוח לגמרי וממוקם במרכז מישור ימין ולכן חשוף לרוחות. אין צל ולכן בימים חמים חשוב להתמקם במקום עם צלייה. הלנים בחניון מתבקשים לקחת את הפסולת אתם.",
        "image": "https://upload.wikimedia.org/wikipedia/commons/a/a9/Israel_Hiking_Map_חניון_לילה_מישור_ימין.jpeg",
        "image1": "https://upload.wikimedia.org/wikipedia/commons/3/30/Israel_Hiking_Map_חניון_לילה_מישור_ימין_1.jpeg",
        "name": "חניון לילה מישור ימין",
        "name:en": "Mishor Yemin campsite",
        "name:he": "חניון לילה מישור ימין",
        "tourism": "camp_site"
      }
    }
  ]
}