{
  "osm3s": {
    "timestamp_osm_date": "2021-11-23T23:59:59Z",
    "timestamp_osm_base": "2021-11-24T05:49:52Z",
    "copyright": "The data included in this document is from www.openstreetmap.org. The data is made available under ODbL."
  },
  "elements": [
    {
      "type": "node",
      "id": 274596897,
      "lat": 30.5722139,
      "lon": 34.8540708,
      "timestamp": "2021-06-13T15:58:38Z",
      "version": 10,
      "changeset": 106288512,
      "user": "GorALexeY",
      "uid": 11765454,
      "tags": {
        "accuracy": "minutes",
        "ele": "693",
        "gns_ref": "-781176",
        "image": "https://upload.wikimedia.org/wikipedia/commons/9/99/Israel_Hiking_Map_שן_רמון.jpeg",
        "image1": "https://upload.wikimedia.org/wikipedia/commons/e/e5/IHM_שן_רמון_4.jpeg",
        "name": "שן רמון",
        "name:en": "Shen Ramon",
        "name:he": "שן רמון",
        "natural": "peak",
        "source": "GEOnet Names Server (gns)",
        "wikidata": "Q26762876"
      }
    },
    {
      "type": "node",
      "id": 274607817,
      "lat": 30.498611,
      "lon": 34.8075,
      "timestamp": "2020-04-28T20:32:42Z",
      "version": 3,
      "changeset": 84290297,
      "user": "Edward",
      "uid": 364,
      "tags": {
        "accuracy": "minutes",
        "gns_ref": "9007027",
        "name": "רכס קינן",
        "name:en": "Rekhes Qenan",
        "name:he": "רכס קינן",
        "natural": "peak",
        "source": "GEOnet Names Server (gns)",
        "wikidata": "Q26764226"
      }
    },
    {
      "type": "node",
      "id": 274607843,
      "lat": 30.3750971,
      "lon": 34.6153116,
      "timestamp": "2020-04-28T20:30:20Z",
      "version": 4,
      "changeset": 84290189,
      "user": "Edward",
      "uid": 364,
      "tags": {
        "accuracy": "minutes",
        "ele": "975",
        "gns_ref": "-780850",
        "name": "הר נס",
        "name:en": "Har Nes",
        "name:he": "הר נס",
        "natural": "peak",
        "source": "GEOnet Names Server (gns)",
        "wikidata": "Q26763477"
      }
    },
    {
      "type": "node",
      "id": 278470701,
      "lat": 30.4305549,
      "lon": 34.5719498,
      "timestamp": "2020-12-24T14:23:34Z",
      "version": 4,
      "changeset": 96391606,
      "user": "pizzaiolo",
      "uid": 1772368,
      "tags": {
        "accuracy": "minutes",
        "gns_ref": "-780005",
        "name": "הר המערה",
        "name:en": "Har HaMe`ara",
        "name:en1": "Jebel Maghara",
        "name:he": "הר המערה",
        "natural": "peak",
        "source": "GEOnet Names Server (gns)",
        "wikidata": "Q26763736"
      }
    },
    {
      "type": "node",
      "id": 278471661,
      "lat": 30.3306594,
      "lon": 34.77515,
      "timestamp": "2020-04-28T20:30:41Z",
      "version": 7,
      "changeset": 84290189,
      "user": "Edward",
      "uid": 364,
      "tags": {
        "accuracy": "minutes",
        "ele": "734",
        "gns_ref": "417279",
        "name": "הר שזר",
        "name:en": "Mt. Shazzar",
        "name:he": "הר שזר",
        "natural": "peak",
        "source": "GEOnet Names Server (gns)",
        "wikidata": "Q26764269"
      }
    },
    {
      "type": "node",
      "id": 278473209,
      "lat": 30.648933,
      "lon": 34.5154814,
      "timestamp": "2020-04-28T20:32:40Z",
      "version": 6,
      "changeset": 84290297,
      "user": "Edward",
      "uid": 364,
      "tags": {
        "accuracy": "minutes",
        "ele": "603",
        "gns_ref": "-779337",
        "name": "גבעת ברנע",
        "name:en": "Giv`at Barnea`",
        "name:he": "גבעת ברנע",
        "natural": "peak",
        "source": "GEOnet Names Server (gns)",
        "wikidata": "Q26763989"
      }
    },
    {
      "type": "node",
      "id": 278473405,
      "lat": 30.5750001,
      "lon": 35.105278,
      "timestamp": "2020-04-28T20:30:35Z",
      "version": 4,
      "changeset": 84290189,
      "user": "Edward",
      "uid": 364,
      "tags": {
        "accuracy": "minutes",
        "gns_ref": "-779548",
        "name": "הר דרגה",
        "name:en": "Mt. Darga",
        "name:en1": "Har Hadarga",
        "name:he": "הר דרגה",
        "natural": "peak",
        "source": "GEOnet Names Server (gns)",
        "wikidata": "Q26764021"
      }
    },
    {
      "type": "node",
      "id": 278473684,
      "lat": 30.6522222,
      "lon": 34.7797219,
      "timestamp": "2020-04-28T20:30:38Z",
      "version": 6,
      "changeset": 84290189,
      "user": "Edward",
      "uid": 364,
      "tags": {
        "accuracy": "minutes",
        "gns_ref": "-779251",
        "name": "הר אריכה",
        "name:en": "Mt. Arikha",
        "name:en1": "Jebel el Tawila",
        "name:he": "הר אריכה",
        "name:he1": "הר אריכא",
        "natural": "peak",
        "source": "GEOnet Names Server (gns)",
        "wikidata": "Q26764188"
      }
    },
    {
      "type": "node",
      "id": 278473701,
      "lat": 30.6556571,
      "lon": 34.8818685,
      "timestamp": "2020-04-28T20:32:43Z",
      "version": 7,
      "changeset": 84290297,
      "user": "Edward",
      "uid": 364,
      "tags": {
        "accuracy": "minutes",
        "ele": "535",
        "gns_ref": "9005623",
        "name": "גבעת געש",
        "name:en": "Giv'at Ga'ash",
        "name:he": "גבעת געש",
        "natural": "peak",
        "source": "GEOnet Names Server (gns)",
        "wikidata": "Q26764247"
      }
    },
    {
      "type": "node",
      "id": 278473715,
      "lat": 30.5762634,
      "lon": 34.8950691,
      "timestamp": "2021-07-04T03:39:10Z",
      "version": 8,
      "changeset": 107374222,
      "user": "GorALexeY",
      "uid": 11765454,
      "tags": {
        "accuracy": "minutes",
        "description": "הר משאר ועליו כתובות של צוותי סיירת מטכ\"ל",
        "description:he": "הר משאר ועליו כתובות של צוותי סיירת מטכ\"ל",
        "ele": "547",
        "gns_ref": "9004881",
        "image": "https://upload.wikimedia.org/wikipedia/commons/3/3c/IHM_הר_קטום.jpeg",
        "image1": "https://upload.wikimedia.org/wikipedia/commons/9/97/IHM_הר_קטום_1.jpeg",
        "image2": "https://upload.wikimedia.org/wikipedia/commons/6/65/IHM_הר_קטום_2.jpeg",
        "image3": "https://upload.wikimedia.org/wikipedia/commons/e/e5/IHM_הר_קטום_3.jpeg",
        "name": "הר קטום",
        "name:en": "Mt. Katum",
        "name:he": "הר קטום",
        "natural": "peak",
        "source": "GEOnet Names Server (gns)",
        "wikidata": "Q26764250"
      }
    },
    {
      "type": "node",
      "id": 278473719,
      "lat": 30.4571434,
      "lon": 34.8565754,
      "timestamp": "2020-12-24T14:23:56Z",
      "version": 4,
      "changeset": 96391606,
      "user": "pizzaiolo",
      "uid": 1772368,
      "tags": {
        "accuracy": "minutes",
        "ele": "515",
        "gns_ref": "417459",
        "name": "גבעת צהבון",
        "name:en": "Giv`at Tzahavon",
        "name:he": "גבעת צהבון",
        "natural": "peak",
        "source": "GEOnet Names Server (gns)",
        "wikidata": "Q26764260"
      }
    },
    {
      "type": "node",
      "id": 278474027,
      "lat": 30.3629891,
      "lon": 34.7195646,
      "timestamp": "2020-04-28T20:30:40Z",
      "version": 7,
      "changeset": 84290189,
      "user": "Edward",
      "uid": 364,
      "tags": {
        "accuracy": "minutes",
        "ele": "737",
        "gns_ref": "417291",
        "name": "הר מיכאל",
        "name:en": "Har Mikhael",
        "name:he": "הר מיכאל",
        "natural": "peak",
        "source": "GEOnet Names Server (gns)",
        "wikidata": "Q26764266"
      }
    },
    {
      "type": "node",
      "id": 278474106,
      "lat": 30.6961607,
      "lon": 34.7527382,
      "timestamp": "2020-12-24T14:23:32Z",
      "version": 7,
      "changeset": 96391606,
      "user": "pizzaiolo",
      "uid": 1772368,
      "tags": {
        "accuracy": "minutes",
        "ele": "842",
        "gns_ref": "-780795",
        "name": "הר נפחה",
        "name:en": "Mt. Nafha",
        "name:en1": "Jebel Tiwal en Nafkh",
        "name:en2": "Tiwal en Nofkh",
        "name:he": "הר נפחה",
        "natural": "peak",
        "source": "GEOnet Names Server (gns)",
        "wikidata": "Q26763590"
      }
    },
    {
      "type": "node",
      "id": 278474107,
      "lat": 30.6408844,
      "lon": 34.9508133,
      "timestamp": "2021-01-16T18:33:46Z",
      "version": 8,
      "changeset": 97615764,
      "user": "GorALexeY",
      "uid": 11765454,
      "tags": {
        "accuracy": "minutes",
        "description": "הר ארדון - טיול למיטיבי לכת אל ההר הגבוה במזרח מכתש רמון.",
        "description:he": "הר ארדון - טיול למיטיבי לכת אל ההר הגבוה במזרח מכתש רמון.",
        "ele": "722",
        "gns_ref": "-779246",
        "image": "https://inature.info/w/images/f/f7/Har_ardon1.jpg",
        "image1": "https://upload.wikimedia.org/wikipedia/commons/e/e8/Makhtesh-ramon-mount-ardon.JPG",
        "image2": "https://upload.wikimedia.org/wikipedia/commons/0/07/IHM_הר_ארדון.jpeg",
        "image3": "https://upload.wikimedia.org/wikipedia/commons/d/dc/IHM_הר_ארדון_1.jpeg",
        "image4": "https://upload.wikimedia.org/wikipedia/commons/7/7f/IHM_גבעת_חרוט_1.jpeg",
        "name": "הר ארדון",
        "name:en": "Mt. Ardon",
        "name:en1": "Ras Irdeiha",
        "name:he": "הר ארדון",
        "natural": "peak",
        "source": "GEOnet Names Server (gns)",
        "website": "https://inature.info/wiki/%D7%94%D7%A8%20%D7%90%D7%A8%D7%93%D7%95%D7%9F",
        "wikidata": "Q26764184",
        "wikipedia": "he:הר ארדון",
        "wikipedia:he": "הר ארדון"
      }
    },
    {
      "type": "node",
      "id": 278474179,
      "lat": 30.4549662,
      "lon": 34.842774,
      "timestamp": "2020-04-28T20:30:18Z",
      "version": 5,
      "changeset": 84290189,
      "user": "Edward",
      "uid": 364,
      "tags": {
        "accuracy": "minutes",
        "ele": "612",
        "gns_ref": "-781084",
        "name": "הר קירטון",
        "name:en": "Mt. Qirton",
        "name:he": "הר קירטון",
        "natural": "peak",
        "source": "GEOnet Names Server (gns)",
        "wikidata": "Q26762867"
      }
    },
    {
      "type": "node",
      "id": 278474211,
      "lat": 30.3055477,
      "lon": 34.7872962,
      "timestamp": "2020-04-28T20:30:30Z",
      "version": 6,
      "changeset": 84290189,
      "user": "Edward",
      "uid": 364,
      "tags": {
        "accuracy": "minutes",
        "ele": "671",
        "gns_ref": "-780051",
        "name": "הר חרוז",
        "name:en": "Mt. Haroz",
        "name:he": "הר חרוז",
        "natural": "peak",
        "source": "GEOnet Names Server (gns)",
        "wikidata": "Q26763754"
      }
    },
    {
      "type": "node",
      "id": 278474306,
      "lat": 30.5547236,
      "lon": 34.9272516,
      "timestamp": "2020-04-28T20:32:39Z",
      "version": 7,
      "changeset": 84290297,
      "user": "Edward",
      "uid": 364,
      "tags": {
        "accuracy": "minutes",
        "ele": "625",
        "gns_ref": "-779944",
        "name": "הרי גובי",
        "name:en": "Mt. Govay",
        "name:en1": "Har Govai",
        "name:en2": "Umm Jarad",
        "name:he": "הרי גובי",
        "natural": "peak",
        "source": "GEOnet Names Server (gns)",
        "wikidata": "Q26763859"
      }
    },
    {
      "type": "node",
      "id": 278474327,
      "lat": 30.4847629,
      "lon": 34.9267631,
      "timestamp": "2020-04-28T20:30:36Z",
      "version": 7,
      "changeset": 84290189,
      "user": "Edward",
      "uid": 364,
      "tags": {
        "accuracy": "minutes",
        "ele": "455",
        "gns_ref": "-779160",
        "name": "גבעת אגודל",
        "name:en": "Giv'at Agudal",
        "name:he": "גבעת אגודל",
        "natural": "peak",
        "source": "GEOnet Names Server (gns)",
        "wikidata": "Q26764156"
      }
    },
    {
      "type": "node",
      "id": 278474361,
      "lat": 30.3728934,
      "lon": 34.7181483,
      "timestamp": "2020-04-28T20:30:40Z",
      "version": 5,
      "changeset": 84290189,
      "user": "Edward",
      "uid": 364,
      "tags": {
        "accuracy": "minutes",
        "ele": "715",
        "gns_ref": "417290",
        "name": "הר חספס",
        "name:en": "Har Haspas",
        "name:he": "הר חספס",
        "natural": "peak",
        "source": "GEOnet Names Server (gns)",
        "wikidata": "Q26764267"
      }
    },
    {
      "type": "node",
      "id": 278474413,
      "lat": 30.1767668,
      "lon": 35.0164837,
      "timestamp": "2021-09-07T08:45:54Z",
      "version": 9,
      "changeset": 110843893,
      "user": "zstadler",
      "uid": 3127,
      "tags": {
        "gns_ref": "44947",
        "name": "שיטים",
        "name:en": "Shittim",
        "name:fr": "Shitim",
        "name:he": "שיטים",
        "place": "hamlet",
        "source": "GEOnet Names Server (gns)",
        "wikidata": "Q6586491",
        "wikipedia": "he:שיטים"
      }
    },
    {
      "type": "node",
      "id": 278474937,
      "lat": 30.5047644,
      "lon": 34.6853078,
      "timestamp": "2021-08-17T08:32:40Z",
      "version": 14,
      "changeset": 109794982,
      "user": "hatul",
      "uid": 686490,
      "tags": {
        "accuracy": "minutes",
        "description": "תצפית למכתש רמון מצד אחד ונחל עודד מהצד השני. בפסגת ההר רגמים רבים שבנו מטיילים.",
        "description:he": "תצפית למכתש רמון מצד אחד ונחל עודד מהצד השני. בפסגת ההר רגמים רבים שבנו מטיילים.",
        "ele": "959",
        "gns_ref": "9004799",
        "image": "https://upload.wikimedia.org/wikipedia/commons/e/e9/Israel_Hiking_Map_הר_עידו.jpeg",
        "image1": "https://upload.wikimedia.org/wikipedia/commons/b/b6/IHM_%D7%94%D7%A8_%D7%A2%D7%99%D7%93%D7%95.jpeg",
        "image10": "https://upload.wikimedia.org/wikipedia/commons/6/61/IHM_הר_עידו_1.jpeg",
        "image2": "https://upload.wikimedia.org/wikipedia/commons/e/ee/IHM_הר_עידו_2.jpeg",
        "image3": "https://upload.wikimedia.org/wikipedia/commons/d/dd/IHM_הר_עידו_3.jpeg",
        "image4": "https://upload.wikimedia.org/wikipedia/commons/8/8e/IHM_הר_עידו_4.jpeg",
        "image5": "https://upload.wikimedia.org/wikipedia/commons/5/55/IHM_הר_עידו_5.jpeg",
        "image6": "https://upload.wikimedia.org/wikipedia/commons/c/c3/IHM_הר_עידו_6.jpeg",
        "image7": "https://upload.wikimedia.org/wikipedia/commons/f/f1/IHM_הר_עידו_7.jpeg",
        "image8": "https://upload.wikimedia.org/wikipedia/commons/5/58/IHM_הר_עידו_8.jpeg",
        "image9": "https://upload.wikimedia.org/wikipedia/commons/b/b8/IHM_הר_עידו_9.jpeg",
        "name": "הר עידו",
        "name:en": "Har Iddo",
        "name:he": "הר עידו",
        "natural": "peak",
        "source": "GEOnet Names Server (gns)",
        "tourism": "viewpoint",
        "wikidata": "Q26764252"
      }
    },
    {
      "type": "node",
      "id": 278475014,
      "lat": 30.3573975,
      "lon": 34.70875,
      "timestamp": "2020-04-28T20:30:40Z",
      "version": 7,
      "changeset": 84290189,
      "user": "Edward",
      "uid": 364,
      "tags": {
        "accuracy": "minutes",
        "ele": "776",
        "gns_ref": "417292",
        "name": "הר גבריאל",
        "name:en": "Har Gavriel",
        "name:he": "הר גבריאל",
        "natural": "peak",
        "source": "GEOnet Names Server (gns)",
        "wikidata": "Q26764265"
      }
    },
    {
      "type": "node",
      "id": 278475690,
      "lat": 30.6237728,
      "lon": 34.6774014,
      "timestamp": "2020-04-28T20:30:36Z",
      "version": 6,
      "changeset": 84290189,
      "user": "Edward",
      "uid": 364,
      "tags": {
        "accuracy": "minutes",
        "ele": "835",
        "gns_ref": "-779226",
        "name": "הר עקרב",
        "name:en": "Mt. `Aqrav",
        "name:he": "הר עקרב",
        "natural": "peak",
        "source": "GEOnet Names Server (gns)",
        "wikidata": "Q26764175"
      }
    },
    {
      "type": "node",
      "id": 278475756,
      "lat": 30.6979123,
      "lon": 34.8826603,
      "timestamp": "2020-04-28T20:30:31Z",
      "version": 6,
      "changeset": 84290189,
      "user": "Edward",
      "uid": 364,
      "tags": {
        "accuracy": "minutes",
        "ele": "782",
        "gns_ref": "-779856",
        "name": "הר גרפון",
        "name:en": "Mt. Gerafon",
        "name:en1": "Ras Umm Jurfan",
        "name:he": "הר גרפון",
        "natural": "peak",
        "source": "GEOnet Names Server (gns)",
        "wikidata": "Q26763844"
      }
    },
    {
      "type": "node",
      "id": 278475758,
      "lat": 30.4130516,
      "lon": 34.5513916,
      "timestamp": "2020-12-24T14:23:34Z",
      "version": 8,
      "changeset": 96391606,
      "user": "pizzaiolo",
      "uid": 1772368,
      "tags": {
        "accuracy": "minutes",
        "description": "עין המערה נסתמה בעפר לאחר מספר מקרי טביעה. במקום היה חלל פנימי שחייב כניסה בצלילה.",
        "description:he": "עין המערה נסתמה בעפר לאחר מספר מקרי טביעה. במקום היה חלל פנימי שחייב כניסה בצלילה.",
        "gns_ref": "-780004",
        "name": "עין המערה",
        "name:en": "Ein HaMeara",
        "name:en1": "Ain Maghara",
        "name:he": "עין המערה",
        "natural": "spring",
        "source": "GEOnet Names Server (gns)",
        "wikidata": "Q26763735"
      }
    },
    {
      "type": "node",
      "id": 278475925,
      "lat": 30.3075298,
      "lon": 35.1352113,
      "timestamp": "2021-02-25T01:52:46Z",
      "version": 10,
      "changeset": 99937148,
      "user": "Vejoson",
      "uid": 11422772,
      "tags": {
        "gns_ref": "-779360",
        "name": "באר מנוחה",
        "name:en": "Beer Menuha",
        "name:fr": "Beer Menuha",
        "name:he": "באר מנוחה",
        "note": "fixme",
        "place": "village",
        "source": "GEOnet Names Server (gns)"
      }
    },
    {
      "type": "node",
      "id": 278476011,
      "lat": 30.5800328,
      "lon": 34.9075152,
      "timestamp": "2020-04-28T20:30:24Z",
      "version": 6,
      "changeset": 84290189,
      "user": "Edward",
      "uid": 364,
      "tags": {
        "accuracy": "minutes",
        "gns_ref": "-780592",
        "name": "הר מרפק",
        "name:en": "Mt. Marpek",
        "name:he": "הר מרפק",
        "natural": "peak",
        "source": "GEOnet Names Server (gns)",
        "wikidata": "Q26763555"
      }
    },
    {
      "type": "node",
      "id": 278476234,
      "lat": 30.6325417,
      "lon": 35.0329141,
      "timestamp": "2021-05-16T02:31:20Z",
      "version": 12,
      "changeset": 104753188,
      "user": "pizzaiolo",
      "uid": 1772368,
      "tags": {
        "accuracy": "minutes",
        "description": "מעיין קטן בעומק של כ־20 ס״מ. יבש לעתים קרובות.",
        "description:he": "מעיין קטן בעומק של כ־20 ס״מ. יבש לעתים קרובות.",
        "gns_ref": "-779848",
        "image": "https://upload.wikimedia.org/wikipedia/commons/d/d2/%D7%A2%D7%99%D7%9F_%D7%92%D7%9C%D7%93.jpg",
        "name": "עין גלד",
        "name:en": "Ein Geled",
        "name:en1": "`En Jaladat",
        "name:he": "עין גלד",
        "natural": "spring",
        "source": "GEOnet Names Server (gns)",
        "wikidata": "Q26763843"
      }
    },
    {
      "type": "node",
      "id": 278476344,
      "lat": 30.5972728,
      "lon": 35.0284199,
      "timestamp": "2020-12-24T14:23:54Z",
      "version": 6,
      "changeset": 96391606,
      "user": "pizzaiolo",
      "uid": 1772368,
      "tags": {
        "accuracy": "minutes",
        "gns_ref": "-779317",
        "name": "הר בדד",
        "name:en": "Mt. Badad",
        "name:en1": "Jebel el Mustaqilla",
        "name:he": "הר בדד",
        "natural": "peak",
        "source": "GEOnet Names Server (gns)",
        "wikidata": "Q26764207"
      }
    },
    {
      "type": "node",
      "id": 278476450,
      "lat": 30.436667,
      "lon": 34.993611,
      "timestamp": "2020-04-28T20:32:38Z",
      "version": 3,
      "changeset": 84290297,
      "user": "Edward",
      "uid": 364,
      "tags": {
        "accuracy": "minutes",
        "gns_ref": "-780010",
        "name": "מצפה המישר",
        "name:en": "Mizpe HaMeshar",
        "name:he": "מצפה המישר",
        "natural": "peak",
        "source": "GEOnet Names Server (gns)",
        "wikidata": "Q26763740"
      }
    },
    {
      "type": "node",
      "id": 278476477,
      "lat": 30.5547498,
      "lon": 34.905571,
      "timestamp": "2020-04-28T20:32:43Z",
      "version": 6,
      "changeset": 84290297,
      "user": "Edward",
      "uid": 364,
      "tags": {
        "accuracy": "minutes",
        "ele": "551",
        "gns_ref": "9006229",
        "name": "הר ילק",
        "name:en": "Mt. Yeleq",
        "name:he": "הר ילק",
        "natural": "peak",
        "source": "GEOnet Names Server (gns)",
        "wikidata": "Q26764238"
      }
    },
    {
      "type": "node",
      "id": 278476501,
      "lat": 30.3277734,
      "lon": 35.1082056,
      "timestamp": "2020-12-24T14:23:36Z",
      "version": 7,
      "changeset": 96391606,
      "user": "pizzaiolo",
      "uid": 1772368,
      "tags": {
        "accuracy": "minutes",
        "ele": "330",
        "gns_ref": "-779738",
        "name": "הר עשת",
        "name:en": "Mt. Eshet",
        "name:he": "הר עשת",
        "natural": "peak",
        "source": "GEOnet Names Server (gns)",
        "wikidata": "Q26763958"
      }
    },
    {
      "type": "node",
      "id": 278476514,
      "lat": 30.5259382,
      "lon": 34.5764099,
      "timestamp": "2020-04-28T20:30:30Z",
      "version": 5,
      "changeset": 84290189,
      "user": "Edward",
      "uid": 364,
      "tags": {
        "accuracy": "minutes",
        "gns_ref": "-780227",
        "name": "ראש חורשה",
        "name:en": "Rosh Horesha",
        "name:en1": "Rosh Horsha",
        "name:en2": "Ras el Khorasha",
        "name:en3": "Ras el Khurasha",
        "name:he": "ראש חורשה",
        "natural": "peak",
        "source": "GEOnet Names Server (gns)",
        "wikidata": "Q26763793"
      }
    },
    {
      "type": "node",
      "id": 278476521,
      "lat": 30.7118161,
      "lon": 34.8233181,
      "timestamp": "2020-04-28T20:30:17Z",
      "version": 6,
      "changeset": 84290189,
      "user": "Edward",
      "uid": 364,
      "tags": {
        "accuracy": "minutes",
        "ele": "795",
        "gns_ref": "-781264",
        "name": "הר סעד",
        "name:en": "Mt. Sa'ad",
        "name:en1": "Jebel Umm Sa`id",
        "name:he": "הר סעד",
        "natural": "peak",
        "source": "GEOnet Names Server (gns)",
        "wikidata": "Q26762718"
      }
    },
    {
      "type": "node",
      "id": 278476813,
      "lat": 30.51931,
      "lon": 34.7280045,
      "timestamp": "2020-04-28T20:30:20Z",
      "version": 8,
      "changeset": 84290189,
      "user": "Edward",
      "uid": 364,
      "tags": {
        "accuracy": "minutes",
        "ele": "945",
        "gns_ref": "-780936",
        "image": "https://upload.wikimedia.org/wikipedia/commons/8/84/Israel_Hiking_Map_%D7%94%D7%A8_%D7%A2%D7%95%D7%93%D7%93.jpeg",
        "name": "הר עודד",
        "name:en": "Mt. `Oded",
        "name:he": "הר עודד",
        "natural": "peak",
        "source": "GEOnet Names Server (gns)",
        "wikidata": "Q26763492"
      }
    },
    {
      "type": "node",
      "id": 278476839,
      "lat": 30.3626131,
      "lon": 35.1538972,
      "timestamp": "2021-09-07T08:45:54Z",
      "version": 12,
      "changeset": 110843893,
      "user": "zstadler",
      "uid": 3127,
      "tags": {
        "accuracy": "minutes",
        "gns_ref": "44326",
        "name": "פארן",
        "name:en": "Paran",
        "name:fr": "Paran",
        "name:he": "פארן",
        "note": "Pharan or Faran is not a valid pronunciation in Hebrew",
        "place": "village",
        "source": "GEOnet Names Server (gns)"
      }
    },
    {
      "type": "node",
      "id": 278477187,
      "lat": 30.3421992,
      "lon": 35.1546368,
      "timestamp": "2020-04-28T20:32:39Z",
      "version": 6,
      "changeset": 84290297,
      "user": "Edward",
      "uid": 364,
      "tags": {
        "accuracy": "minutes",
        "ele": "295",
        "gns_ref": "-779739",
        "name": "כיפת עשת",
        "name:en": "Kippat `Eshet",
        "name:he": "כיפת עשת",
        "natural": "peak",
        "source": "GEOnet Names Server (gns)",
        "wikidata": "Q26763959"
      }
    },
    {
      "type": "node",
      "id": 278477454,
      "lat": 30.6804925,
      "lon": 34.5002318,
      "timestamp": "2020-04-28T20:30:17Z",
      "version": 5,
      "changeset": 84290189,
      "user": "Edward",
      "uid": 364,
      "tags": {
        "accuracy": "minutes",
        "ele": "640",
        "gns_ref": "-781033",
        "name": "שלוחת קדש ברנע",
        "name:en": "Sheluhat Qadesh Barnea`",
        "name:he": "שלוחת קדש ברנע",
        "natural": "peak",
        "source": "GEOnet Names Server (gns)",
        "source:ele": "SRTM Thunderforest Landscape",
        "wikidata": "Q26762854"
      }
    },
    {
      "type": "node",
      "id": 278477530,
      "lat": 30.5945918,
      "lon": 35.1213488,
      "timestamp": "2020-04-28T20:30:31Z",
      "version": 6,
      "changeset": 84290189,
      "user": "Edward",
      "uid": 364,
      "tags": {
        "accuracy": "minutes",
        "ele": "305",
        "gns_ref": "-779876",
        "name": "הר גבים",
        "name:en": "Mt. Gevim",
        "name:en1": "Ras el Jeib",
        "name:he": "הר גבים",
        "natural": "peak",
        "source": "GEOnet Names Server (gns)",
        "wikidata": "Q26763847"
      }
    },
    {
      "type": "node",
      "id": 278477539,
      "lat": 30.6356539,
      "lon": 35.0686764,
      "timestamp": "2020-04-28T20:30:14Z",
      "version": 6,
      "changeset": 84290189,
      "user": "Edward",
      "uid": 364,
      "tags": {
        "accuracy": "minutes",
        "ele": "366",
        "gns_ref": "-781697",
        "name": "הר יהב",
        "name:en": "Mt. Yahav",
        "name:en1": "Jebel el Weiba",
        "name:he": "הר יהב",
        "natural": "peak",
        "source": "GEOnet Names Server (gns)",
        "wikidata": "Q26762101"
      }
    },
    {
      "type": "node",
      "id": 278477683,
      "lat": 30.6832856,
      "lon": 34.5613518,
      "timestamp": "2020-04-28T20:30:28Z",
      "version": 6,
      "changeset": 84290189,
      "user": "Edward",
      "uid": 364,
      "tags": {
        "accuracy": "minutes",
        "gns_ref": "-780019",
        "name": "הר חמרן",
        "name:en": "Mt. Hamran",
        "name:en1": "Jebel Humra el Hafir",
        "name:en2": "Humrat el Hafir",
        "name:he": "הר חמרן",
        "natural": "peak",
        "source": "GEOnet Names Server (gns)",
        "wikidata": "Q26763744"
      }
    },
    {
      "type": "node",
      "id": 278477710,
      "lat": 30.6033823,
      "lon": 34.9374341,
      "timestamp": "2021-06-26T12:14:43Z",
      "version": 9,
      "changeset": 107000463,
      "user": "zstadler",
      "uid": 3127,
      "tags": {
        "description": "נביעה עונתית עם זרימה בחורפים גשומים. מסביבה גדלה צמחיית מים רבה.",
        "description:he": "נביעה עונתית עם זרימה בחורפים גשומים. מסביבה גדלה צמחיית מים רבה.",
        "gns_ref": "9006236",
        "image": "https://upload.wikimedia.org/wikipedia/commons/e/ed/Israel_Hiking_Map_עין_סהרונים.jpeg",
        "image1": "https://upload.wikimedia.org/wikipedia/commons/f/f6/IHM_עין_סהרונים.jpeg",
        "name": "עין סהרונים",
        "name:en": "Ein Saharonim",
        "name:he": "עין סהרונים",
        "natural": "spring",
        "source": "GEOnet Names Server (gns)",
        "website": "https://mitzpe-ramon.co.il/listing/nekarot/"
      }
    },
    {
      "type": "node",
      "id": 278477977,
      "lat": 30.3279686,
      "lon": 34.8619795,
      "timestamp": "2020-04-28T20:30:41Z",
      "version": 5,
      "changeset": 84290189,
      "user": "Edward",
      "uid": 364,
      "tags": {
        "accuracy": "minutes",
        "ele": "555",
        "gns_ref": "417287",
        "name": "הר צוריעז",
        "name:en": "Mt. Zuri'az",
        "name:he": "הר צוריעז",
        "natural": "peak",
        "source": "GEOnet Names Server (gns)",
        "wikidata": "Q26764268"
      }
    },
    {
      "type": "node",
      "id": 278478023,
      "lat": 30.6952437,
      "lon": 34.6653775,
      "timestamp": "2020-04-28T20:30:18Z",
      "version": 6,
      "changeset": 84290189,
      "user": "Edward",
      "uid": 364,
      "tags": {
        "accuracy": "minutes",
        "gns_ref": "-781066",
        "name": "הר קמר",
        "name:en": "Mt. Qemer",
        "name:he": "הר קמר",
        "natural": "peak",
        "source": "GEOnet Names Server (gns)",
        "wikidata": "Q26762862"
      }
    },
    {
      "type": "node",
      "id": 278478038,
      "lat": 30.5501253,
      "lon": 34.8146614,
      "timestamp": "2021-08-23T18:40:40Z",
      "version": 9,
      "changeset": 110132598,
      "user": "GorALexeY",
      "uid": 11765454,
      "tags": {
        "accuracy": "minutes",
        "ele": "696",
        "gns_ref": "-781021",
        "image": "https://upload.wikimedia.org/wikipedia/commons/f/f8/IHM_הר_פיטם.jpeg",
        "image1": "https://upload.wikimedia.org/wikipedia/commons/6/67/IHM_הר_פיטם_1.jpeg",
        "image2": "https://upload.wikimedia.org/wikipedia/commons/c/c4/IHM_הר_פיטם_2.jpeg",
        "name": "הר פיטם",
        "name:en": "Mt. Pitam",
        "name:he": "הר פיטם",
        "natural": "peak",
        "source": "GEOnet Names Server (gns)",
        "wikidata": "Q26762851"
      }
    },
    {
      "type": "node",
      "id": 278478054,
      "lat": 30.5769465,
      "lon": 34.8738943,
      "timestamp": "2020-12-24T14:23:55Z",
      "version": 5,
      "changeset": 96391606,
      "user": "pizzaiolo",
      "uid": 1772368,
      "tags": {
        "accuracy": "minutes",
        "ele": "624",
        "gns_ref": "9004880",
        "name": "הר טריז",
        "name:en": "Mt. Teriz",
        "name:he": "הר טריז",
        "natural": "peak",
        "source": "GEOnet Names Server (gns)",
        "wikidata": "Q26764251"
      }
    },
    {
      "type": "node",
      "id": 278478092,
      "lat": 30.7035049,
      "lon": 34.5134648,
      "timestamp": "2020-04-28T20:30:32Z",
      "version": 7,
      "changeset": 84290189,
      "user": "Edward",
      "uid": 364,
      "tags": {
        "accuracy": "minutes",
        "ele": "615",
        "gns_ref": "-779794",
        "name": "הר עזוז",
        "name:en": "Mt. `Ezuz",
        "name:en1": "Ras el `Azeizi",
        "name:he": "הר עזוז",
        "natural": "peak",
        "source": "GEOnet Names Server (gns)",
        "wikidata": "Q26763963"
      }
    },
    {
      "type": "node",
      "id": 278478369,
      "lat": 30.2966365,
      "lon": 34.6924361,
      "timestamp": "2020-04-28T20:30:35Z",
      "version": 6,
      "changeset": 84290189,
      "user": "Edward",
      "uid": 364,
      "tags": {
        "accuracy": "minutes",
        "ele": "781",
        "gns_ref": "-779565",
        "name": "הר דלעת",
        "name:en": "Mt. Dlaat",
        "name:en1": "Jebel Dibba",
        "name:he": "הר דלעת",
        "natural": "peak",
        "source": "GEOnet Names Server (gns)",
        "wikidata": "Q26764024"
      }
    },
    {
      "type": "node",
      "id": 278478389,
      "lat": 30.6119687,
      "lon": 34.8012169,
      "timestamp": "2021-07-29T16:31:39Z",
      "version": 21,
      "changeset": 108836971,
      "user": "Jobigutenburg",
      "uid": 10504312,
      "tags": {
        "alt_name:cs": "Vyhlídka na Ramon",
        "alt_name:en": "Mahane Ramon;Mizpe Ramon;Mitzpe Ramon",
        "gns_ref": "-780762",
        "name": "מצפה רמון",
        "name:ar": "متسبي رمون",
        "name:cs": "Micpe Ramon",
        "name:en": "Mitspe Ramon",
        "name:fr": "Mitzpe Ramon",
        "name:he": "מצפה רמון",
        "name:hi": "मित्ज़पे रमोन",
        "name:lv": "Micpe Ramona",
        "name:ml": "മിറ്റ്സ്പെ റമോൺ",
        "note": "Clearly one of \"the largest settlements within a territory\", as defined by the OSM wiki https://wiki.openstreetmap.org/wiki/Tag:place%3Dcity Please keep its place=city tag",
        "place": "city",
        "population": "5211",
        "source": "GEOnet Names Server (gns)",
        "wikidata": "Q741793",
        "wikipedia": "en:Mitzpe Ramon"
      }
    },
    {
      "type": "node",
      "id": 278478395,
      "lat": 30.2677522,
      "lon": 34.8200477,
      "timestamp": "2020-04-28T20:30:27Z",
      "version": 7,
      "changeset": 84290189,
      "user": "Edward",
      "uid": 364,
      "tags": {
        "accuracy": "minutes",
        "ele": "504",
        "gns_ref": "-779991",
        "name": "הר חלמיש",
        "name:en": "Mt. Hallamish",
        "name:en1": "Har Halamish",
        "name:he": "הר חלמיש",
        "natural": "peak",
        "source": "GEOnet Names Server (gns)",
        "wikidata": "Q26763727"
      }
    },
    {
      "type": "node",
      "id": 278478615,
      "lat": 30.423056,
      "lon": 34.987222,
      "timestamp": "2020-04-28T20:30:28Z",
      "version": 5,
      "changeset": 84290189,
      "user": "Edward",
      "uid": 364,
      "tags": {
        "accuracy": "minutes",
        "ele": "536",
        "gns_ref": "-780008",
        "name": "הר המישר",
        "name:en": "Mt. HaMeshar",
        "name:en1": "Jebel el Qireiq",
        "name:he": "הר המישר",
        "natural": "peak",
        "source": "GEOnet Names Server (gns)",
        "wikidata": "Q26763738"
      }
    },
    {
      "type": "node",
      "id": 278478690,
      "lat": 30.7245779,
      "lon": 35.0292999,
      "timestamp": "2020-04-28T20:30:24Z",
      "version": 6,
      "changeset": 84290189,
      "user": "Edward",
      "uid": 364,
      "tags": {
        "accuracy": "minutes",
        "gns_ref": "-780596",
        "name": "הר מרזבה",
        "name:en": "Mt. Marzeva",
        "name:he": "הר מרזבה",
        "natural": "peak",
        "source": "GEOnet Names Server (gns)",
        "wikidata": "Q26763558"
      }
    },
    {
      "type": "node",
      "id": 278478704,
      "lat": 30.4026625,
      "lon": 34.701384,
      "timestamp": "2020-12-24T14:23:57Z",
      "version": 6,
      "changeset": 96391606,
      "user": "pizzaiolo",
      "uid": 1772368,
      "tags": {
        "accuracy": "minutes",
        "ele": "765",
        "gns_ref": "417299",
        "name": "הר חסון",
        "name:en": "Mt. Hissun",
        "name:he": "הר חסון",
        "natural": "peak",
        "source": "GEOnet Names Server (gns)",
        "wikidata": "Q26764263"
      }
    },
    {
      "type": "node",
      "id": 728363973,
      "lat": 30.6323153,
      "lon": 35.1118667,
      "timestamp": "2018-06-16T04:56:31Z",
      "version": 4,
      "changeset": 59888038,
      "user": "ATGardner",
      "uid": 287860,
      "tags": {
        "description:he": "יש מקום בשפע ועצים לרוב ללא מים או שירותים",
        "image": "https://upload.wikimedia.org/wikipedia/commons/a/a6/Israel_Hiking_Map_%D7%97%D7%A0%D7%99%D7%95%D7%9F_%D7%9C%D7%99%D7%9C%D7%94_%D7%A0%D7%97%D7%9C_%D7%A6%D7%91%D7%99%D7%A8%D7%94.jpeg",
        "name": "חניון לילה נחל צבירה",
        "name:en": "Nahal Zevira campground",
        "name:he": "חניון לילה נחל צבירה",
        "tourism": "camp_site"
      }
    },
    {
      "type": "node",
      "id": 768561856,
      "lat": 30.391667,
      "lon": 34.476111,
      "timestamp": "2020-11-25T22:51:52Z",
      "version": 2,
      "changeset": 94801163,
      "user": "مصطفى بلقاسم",
      "uid": 9535554,
      "tags": {
        "alt_name": "بئر بيضاء",
        "int_name": "Bir Beida, Bir Beida",
        "name": "بئر بيضاء",
        "name:ar": "بئر بيضاء",
        "name:ar1": "بئر بيضاء",
        "name:de": "Bir Beida",
        "name:en": "Bir Beida",
        "name:fr": "Bir Beida",
        "natural": "spring"
      }
    },
    {
      "type": "node",
      "id": 768561862,
      "lat": 30.384722,
      "lon": 34.539444,
      "timestamp": "2020-11-25T22:51:52Z",
      "version": 2,
      "changeset": 94801163,
      "user": "مصطفى بلقاسم",
      "uid": 9535554,
      "tags": {
        "alt_name": "بئر المعين",
        "int_name": "Bi’r al Mu‘ayn, Bir al Muayn",
        "name": "بئر المعين",
        "name:ar": "بئر المعين",
        "name:ar1": "بئر المعين",
        "name:de": "Bir al Muayn",
        "name:en": "Bir al Muayn",
        "name:fr": "Bir al Muayn",
        "natural": "spring"
      }
    },
    {
      "type": "node",
      "id": 768793283,
      "lat": 30.633333,
      "lon": 34.483333,
      "timestamp": "2020-11-25T22:51:52Z",
      "version": 2,
      "changeset": 94801163,
      "user": "مصطفى بلقاسم",
      "uid": 9535554,
      "tags": {
        "alt_name": "حاووظ المصبة",
        "int_name": "Hâwûz el Maṣbah, Hawuz al Masbah",
        "name": "حاووظ المصبة",
        "name:ar": "حاووظ المصبة",
        "name:ar1": "حاووظ المصبة",
        "name:de": "Hawuz al Masbah",
        "name:en": "Hawuz al Masbah",
        "name:fr": "Hawuz al Masbah",
        "natural": "spring"
      }
    },
    {
      "type": "node",
      "id": 768793290,
      "lat": 30.584167,
      "lon": 34.485833,
      "timestamp": "2020-11-25T22:51:52Z",
      "version": 3,
      "changeset": 94801163,
      "user": "مصطفى بلقاسم",
      "uid": 9535554,
      "tags": {
        "alt_name": "عين قديس",
        "int_name": "‘Ain Qadeis, Ain Qadeis",
        "name": "عين قديس",
        "name:ar": "عين قديس",
        "name:ar1": "عين قديس",
        "name:de": "Ain Qadeis",
        "name:en": "Ain Qadeis",
        "name:fr": "Ain Qadeis",
        "natural": "spring",
        "wikidata": "Q80523382"
      }
    },
    {
      "type": "node",
      "id": 1064257177,
      "lat": 30.5137272,
      "lon": 34.6085472,
      "timestamp": "2021-03-22T17:02:14Z",
      "version": 8,
      "changeset": 101519295,
      "user": "hatul",
      "uid": 686490,
      "tags": {
        "description": "חניון לילה ובו מחסות וסככות לשינה וגם שירותים וברז מים.",
        "description:he": "חניון לילה ובו מחסות וסככות לשינה וגם שירותים וברז מים.",
        "fee": "no",
        "image": "https://upload.wikimedia.org/wikipedia/commons/4/45/Israel_Hiking_Map_חניון_לילה_בורות_לוץ.jpeg",
        "image1": "https://upload.wikimedia.org/wikipedia/commons/d/d6/IHM_חניון_לילה_בורות_לוץ.jpeg",
        "name": "חניון לילה בורות לוץ",
        "name:en": "Borot Lots",
        "name:he": "חניון לילה בורות לוץ",
        "source": "bing",
        "tourism": "camp_site"
      }
    },
    {
      "type": "node",
      "id": 1082989631,
      "lat": 30.6162071,
      "lon": 34.9477433,
      "timestamp": "2020-12-24T14:24:24Z",
      "version": 5,
      "changeset": 96391606,
      "user": "pizzaiolo",
      "uid": 1772368,
      "tags": {
        "name": "עין ארדון",
        "name:en": "Ein Ardon",
        "name:he": "עין ארדון",
        "natural": "spring",
        "wikidata": "Q26768758"
      }
    },
    {
      "type": "node",
      "id": 1100955120,
      "lat": 30.6188126,
      "lon": 34.9496078,
      "timestamp": "2021-06-26T12:14:43Z",
      "version": 13,
      "changeset": 107000463,
      "user": "zstadler",
      "uid": 3127,
      "tags": {
        "description": "גבעת בזלת חרוטית עם נוף היקפי למכתש והר ארדון.",
        "description:he": "גבעת בזלת חרוטית עם נוף היקפי למכתש והר ארדון.",
        "gns_ref": "9006336",
        "image": "https://upload.wikimedia.org/wikipedia/commons/f/f0/Israel_Hiking_Map_%D7%92%D7%91%D7%A2%D7%AA_%D7%97%D7%A8%D7%95%D7%98.jpeg",
        "image1": "https://upload.wikimedia.org/wikipedia/commons/f/f7/Israel_Hiking_Map_עליה_לגבעת_חרוט.jpeg",
        "image2": "https://upload.wikimedia.org/wikipedia/commons/5/55/IHM_גבעת_חרוט.jpeg",
        "image3": "https://upload.wikimedia.org/wikipedia/commons/7/7f/IHM_גבעת_חרוט_1.jpeg",
        "image4": "https://upload.wikimedia.org/wikipedia/commons/9/93/IHM_גבעת_חרוט_2.jpeg",
        "name": "גבעת חרוט",
        "name:en": "Giv`at Harut",
        "name:he": "גבעת חרוט",
        "natural": "peak",
        "source": "GPS",
        "tourism": "viewpoint",
        "wikidata": "Q26764233"
      }
    },
    {
      "type": "node",
      "id": 2241653346,
      "lat": 30.324566,
      "lon": 34.903595,
      "timestamp": "2016-04-07T20:45:24Z",
      "version": 5,
      "changeset": 38391995,
      "user": "Harel M",
      "uid": 1257210,
      "tags": {
        "ele": "297.2",
        "name": "חניון לילה באר עדה",
        "name:en": "Be'er Ada campsite",
        "name:he": "חניון לילה באר עדה",
        "tourism": "camp_site"
      }
    },
    {
      "type": "node",
      "id": 2242278222,
      "lat": 30.4162191,
      "lon": 34.6989872,
      "timestamp": "2020-11-02T14:21:56Z",
      "version": 8,
      "changeset": 93425775,
      "user": "zstadler",
      "uid": 3127,
      "tags": {
        "name": "חניון לילה נחל מעזר",
        "name:he": "חניון לילה נחל מעזר",
        "tourism": "camp_site"
      }
    },
    {
      "type": "node",
      "id": 2242319015,
      "lat": 30.454253,
      "lon": 34.666695,
      "timestamp": "2013-04-01T13:44:36Z",
      "version": 1,
      "changeset": 15567088,
      "user": "zstadler",
      "uid": 3127,
      "tags": {
        "ele": "793.9",
        "name": "חניון לילה מצוקי לוץ",
        "name:he": "חניון לילה מצוקי לוץ",
        "tourism": "camp_site"
      }
    },
    {
      "type": "node",
      "id": 2242383582,
      "lat": 30.494256,
      "lon": 34.68052,
      "timestamp": "2021-08-14T16:01:36Z",
      "version": 4,
      "changeset": 109675379,
      "user": "GorALexeY",
      "uid": 11765454,
      "tags": {
        "ele": "798.6",
        "fee": "no",
        "image": "https://upload.wikimedia.org/wikipedia/commons/a/a1/IHM_חניון_לילה_הר_עידו.jpeg",
        "image1": "https://upload.wikimedia.org/wikipedia/commons/8/85/IHM_חניון_לילה_הר_עידו_1.jpeg",
        "name": "חניון לילה הר עידו",
        "name:en": "Har Iddo camp site",
        "name:he": "חניון לילה הר עידו",
        "tourism": "camp_site"
      }
    },
    {
      "type": "node",
      "id": 2242638169,
      "lat": 30.5653615,
      "lon": 34.8863176,
      "timestamp": "2021-03-31T04:52:36Z",
      "version": 6,
      "changeset": 102022511,
      "user": "zstadler",
      "uid": 3127,
      "tags": {
        "description": "Several seltered parking spaces",
        "fee": "no",
        "name": "חניון לילה נקרות מערב פנימי",
        "name:en": "Nahal Nekarot West Inner camp site",
        "name:he": "חניון לילה נקרות מערב פנימי",
        "tourism": "camp_site"
      }
    },
    {
      "type": "node",
      "id": 2242638272,
      "lat": 30.5661487,
      "lon": 34.8896785,
      "timestamp": "2021-03-31T04:52:36Z",
      "version": 9,
      "changeset": 102022511,
      "user": "zstadler",
      "uid": 3127,
      "tags": {
        "description": "large open area, no wind shelters",
        "description:he": "חניון גדול מאוד עם מחסות וחביות להדלקת מדורות. קרוב לכביש ורועש.",
        "fee": "no",
        "image": "https://upload.wikimedia.org/wikipedia/commons/5/52/IHM_חניון_לילה_נחל_נקרות_מזרח.jpeg",
        "name": "חניון לילה נחל נקרות מערב",
        "name:en": "Nahal Nekarot West camp site",
        "name:he": "חניון לילה נחל נקרות מערב",
        "tourism": "camp_site"
      }
    },
    {
      "type": "node",
      "id": 2273623677,
      "lat": 30.5915897,
      "lon": 34.9177094,
      "timestamp": "2021-06-26T12:14:43Z",
      "version": 11,
      "changeset": 107000463,
      "user": "zstadler",
      "uid": 3127,
      "tags": {
        "description": "חניון לילה ללא מים עם מחסות חצובים בסלע האדום. במקום גם שירותים אקולוגים.",
        "description:he": "חניון לילה ללא מים עם מחסות חצובים בסלע האדום. במקום גם שירותים אקולוגים.",
        "fee": "no",
        "image": "https://upload.wikimedia.org/wikipedia/commons/b/b2/Israel_Hiking_Map_%D7%97%D7%A0%D7%99%D7%95%D7%9F_%D7%9C%D7%99%D7%9C%D7%94_%D7%A0%D7%97%D7%9C_%D7%92%D7%95%D7%95%D7%A0%D7%99%D7%9D.jpeg",
        "image1": "https://upload.wikimedia.org/wikipedia/commons/2/23/IHM_חניון_לילה_נחל_גוונים.jpeg",
        "name": "חניון לילה נחל גוונים",
        "name:en": "Gevanim Night Camp",
        "name:he": "חניון לילה נחל גוונים",
        "tourism": "camp_site"
      }
    },
    {
      "type": "node",
      "id": 2522187401,
      "lat": 30.6984272,
      "lon": 35.037281,
      "timestamp": "2020-06-29T16:41:27Z",
      "version": 3,
      "changeset": 87304649,
      "user": "zstadler",
      "uid": 3127,
      "tags": {
        "description": "עין אום סאלח",
        "description:he": "עין אום סאלח",
        "image": "https://upload.wikimedia.org/wikipedia/commons/e/e7/Israel_Hiking_Map_עין_אום_צאלח.jpeg",
        "image1": "https://upload.wikimedia.org/wikipedia/commons/e/e0/IHM_עין_אום_צאלח.jpeg",
        "name": "עין אום צאלח",
        "name:en": "Ein Um Saleh",
        "name:he": "עין אום צאלח",
        "natural": "spring"
      }
    },
    {
      "type": "node",
      "id": 2526646310,
      "lat": 30.5729492,
      "lon": 35.0089322,
      "timestamp": "2021-03-23T05:00:02Z",
      "version": 4,
      "changeset": 101542101,
      "user": "GorALexeY",
      "uid": 11765454,
      "tags": {
        "image": "https://upload.wikimedia.org/wikipedia/commons/7/78/IHM_חניון_לילה_מצד_נקרות.jpeg",
        "name": "חניון לילה מצד נקרות",
        "name:he": "חניון לילה מצד נקרות",
        "operator": "רשות הטבע והגנים",
        "tourism": "camp_site"
      }
    },
    {
      "type": "node",
      "id": 2526674907,
      "lat": 30.5752584,
      "lon": 35.068472,
      "timestamp": "2020-04-28T20:32:37Z",
      "version": 3,
      "changeset": 84290297,
      "user": "Edward",
      "uid": 364,
      "tags": {
        "ele": "415",
        "name": "הר משא",
        "name:en": "Mt. Masa",
        "name:he": "הר משא",
        "natural": "peak",
        "wikidata": "Q26763561"
      }
    },
    {
      "type": "node",
      "id": 3039554810,
      "lat": 30.4258934,
      "lon": 34.7339737,
      "timestamp": "2020-11-02T14:21:56Z",
      "version": 5,
      "changeset": 93425775,
      "user": "zstadler",
      "uid": 3127,
      "tags": {
        "description": "אחת הפסגות היפות ביותר בנגב, גובהה 956 מ', והתצפית מפסגתה מרשימה.",
        "description:he": "אחת הפסגות היפות ביותר בנגב, גובהה 956 מ', והתצפית מפסגתה מרשימה.",
        "ele": "956",
        "image": "https://upload.wikimedia.org/wikipedia/commons/b/b4/Israel_Hiking_Map_%D7%94%D7%A8_%D7%A2%D7%A8%D7%99%D7%A3_2.jpeg",
        "image1": "https://upload.wikimedia.org/wikipedia/commons/a/a2/Israel_Hiking_Map_%D7%94%D7%A8_%D7%A2%D7%A8%D7%99%D7%A3_1.jpeg",
        "image2": "https://upload.wikimedia.org/wikipedia/commons/b/b2/Israel_Hiking_Map_%D7%94%D7%A8_%D7%A2%D7%A8%D7%99%D7%A3.jpeg",
        "image3": "https://upload.wikimedia.org/wikipedia/commons/3/3e/Israel_Hiking_Map_%D7%94%D7%A8_%D7%A2%D7%A8%D7%99%D7%A3_3.jpeg",
        "name": "הר עריף",
        "name:en": "Mt. Arif",
        "name:he": "הר עריף",
        "natural": "peak",
        "wikidata": "Q26764186"
      }
    },
    {
      "type": "node",
      "id": 3101424995,
      "lat": 30.4711781,
      "lon": 35.0172997,
      "timestamp": "2020-04-28T20:30:24Z",
      "version": 5,
      "changeset": 84290189,
      "user": "Edward",
      "uid": 364,
      "tags": {
        "ele": "462",
        "image": "https://upload.wikimedia.org/wikipedia/commons/1/17/Israel_Hiking_Map_%D7%94%D7%A8_%D7%9E%D7%9B%D7%91%D7%99%D7%A8.jpeg",
        "name": "הר מכביר",
        "name:en": "Mt. Machbir",
        "name:en2": "jabel al mukhabarat",
        "name:he": "הר מכביר",
        "natural": "peak",
        "wikidata": "Q26763551"
      }
    },
    {
      "type": "node",
      "id": 3109089641,
      "lat": 30.5850336,
      "lon": 34.6234622,
      "timestamp": "2017-06-10T05:07:42Z",
      "version": 2,
      "changeset": 49412690,
      "user": "SafwatHalaby_bot",
      "uid": 5816834,
      "tags": {
        "name": "חניון לילה נחל עקרב",
        "name:he": "חניון לילה נחל עקרב",
        "tourism": "camp_site"
      }
    },
    {
      "type": "node",
      "id": 3236390495,
      "lat": 30.495895,
      "lon": 34.5590811,
      "timestamp": "2021-05-16T02:30:30Z",
      "version": 4,
      "changeset": 104753188,
      "user": "pizzaiolo",
      "uid": 1772368,
      "tags": {
        "alt_name": "Gabel Kharuf",
        "int_name": "Har H̱arif, Har Harif",
        "name": "הר חריף",
        "name:ar": "جبل رأس خروف",
        "name:de": "Har Harif",
        "name:en": "Har Harif",
        "name:fr": "Har Harif",
        "name:he": "הר חריף",
        "natural": "peak",
        "wikidata": "Q2899908"
      }
    },
    {
      "type": "node",
      "id": 3277592857,
      "lat": 30.595926,
      "lon": 34.8763091,
      "timestamp": "2020-08-31T12:00:01Z",
      "version": 3,
      "changeset": 90190851,
      "user": "hatul",
      "uid": 686490,
      "tags": {
        "fee": "no",
        "name": "חניון לילה הגבס",
        "name:en": "HaGeves Night Camp",
        "name:he": "חניון לילה הגבס",
        "tourism": "camp_site"
      }
    },
    {
      "type": "node",
      "id": 3280808261,
      "lat": 30.5025318,
      "lon": 34.6360406,
      "timestamp": "2020-05-26T09:54:04Z",
      "version": 4,
      "changeset": 85761528,
      "user": "hatul",
      "uid": 686490,
      "tags": {
        "description": "הר רמון (בערבית: ראס רמאן), פסגה בהר הנגב בגובה 1,037 מטר מעל פני הים.",
        "description:he": "הר רמון (בערבית: ראס רמאן), פסגה בהר הנגב בגובה 1,037 מטר מעל פני הים.",
        "ele": "1035",
        "gns_ref": "-781170",
        "image": "https://upload.wikimedia.org/wikipedia/commons/9/99/Ramon2004b.jpg",
        "image1": "https://upload.wikimedia.org/wikipedia/commons/8/81/Israel_Hiking_Map_הר_רמון.jpeg",
        "image2": "https://upload.wikimedia.org/wikipedia/commons/f/f1/Israel_Hiking_Map_הר_רמון_1.jpeg",
        "name": "הר רמון",
        "name:ar": "Ras Raman",
        "name:en": "Ramon",
        "name:he": "הר רמון",
        "natural": "peak",
        "note": "Junction with Black trail to the North East",
        "sou": "GPS",
        "source": "GEOnet Names Server (gns)",
        "wikidata": "Q1571275",
        "wikipedia": "he:הר רמון",
        "wikipedia:he": "הר רמון"
      }
    },
    {
      "type": "node",
      "id": 3463931001,
      "lat": 30.6597972,
      "lon": 34.9555576,
      "timestamp": "2021-06-26T12:14:43Z",
      "version": 5,
      "changeset": 107000463,
      "user": "zstadler",
      "uid": 3127,
      "tags": {
        "description": "חניון לילה גדול עם כמה מפלסים וגומחות סלעים לאוהלים. יש גם שירותים אקולוגיים ונוף יפה למכתש.",
        "description:he": "חניון לילה גדול עם כמה מפלסים וגומחות סלעים לאוהלים. יש גם שירותים אקולוגיים ונוף יפה למכתש.",
        "image": "https://upload.wikimedia.org/wikipedia/commons/2/2d/IHM_חניון_לילה_הר_ארדון.jpeg",
        "image1": "https://upload.wikimedia.org/wikipedia/commons/b/b4/IHM_חניון_לילה_הר_ארדון_1.jpeg",
        "image2": "https://upload.wikimedia.org/wikipedia/commons/1/14/IHM_חניון_לילה_הר_ארדון_2.jpeg",
        "name": "חניון לילה הר ארדון",
        "name:en": "Mt. Ardon Night Camp",
        "name:he": "חניון לילה הר ארדון",
        "tourism": "camp_site"
      }
    },
    {
      "type": "node",
      "id": 3464478431,
      "lat": 30.5679068,
      "lon": 34.8945937,
      "timestamp": "2017-06-10T05:07:47Z",
      "version": 3,
      "changeset": 49412690,
      "user": "SafwatHalaby_bot",
      "uid": 5816834,
      "tags": {
        "ele": "503",
        "name": "עין ילק",
        "name:en": "Ein Mt. Katum",
        "name:he": "עין ילק",
        "natural": "spring",
        "source": "GPS"
      }
    },
    {
      "type": "node",
      "id": 3464591742,
      "lat": 30.5721474,
      "lon": 35.0752182,
      "timestamp": "2019-06-01T10:09:45Z",
      "version": 5,
      "changeset": 70832005,
      "user": "mfelger",
      "uid": 9960975,
      "tags": {
        "description": "Mt. Masa Campground",
        "description:en": "Mt. Masa Campground",
        "image": "https://upload.wikimedia.org/wikipedia/commons/1/11/Israel_Hiking_Map_חניון_לילה_הר_משא.jpeg",
        "name": "Mt. Masa Campground",
        "name:en": "Mt. Masa Campground",
        "name:he": "חניון לילה הר משא",
        "tourism": "camp_site"
      }
    },
    {
      "type": "node",
      "id": 3468127952,
      "lat": 30.3162641,
      "lon": 35.009175,
      "timestamp": "2017-06-10T05:07:47Z",
      "version": 3,
      "changeset": 49412690,
      "user": "SafwatHalaby_bot",
      "uid": 5816834,
      "tags": {
        "ele": "219",
        "name": "חניון לילה מפגש ציחור-פארן",
        "name:en": "Paran Night Camp",
        "name:he": "חניון לילה מפגש ציחור-פארן",
        "source": "GPS",
        "tourism": "camp_site"
      }
    },
    {
      "type": "node",
      "id": 3468128701,
      "lat": 30.3338986,
      "lon": 34.9552121,
      "timestamp": "2017-06-10T05:07:47Z",
      "version": 3,
      "changeset": 49412690,
      "user": "SafwatHalaby_bot",
      "uid": 5816834,
      "tags": {
        "ele": "259.0",
        "name": "חניון לילה באר אשלים",
        "name:he": "חניון לילה באר אשלים",
        "source": "GPS",
        "tourism": "camp_site"
      }
    },
    {
      "type": "node",
      "id": 3468128950,
      "lat": 30.3313179,
      "lon": 35.1012039,
      "timestamp": "2021-06-26T12:14:43Z",
      "version": 5,
      "changeset": 107000463,
      "user": "zstadler",
      "uid": 3127,
      "tags": {
        "description": "פינת ישיבה וחניון לילה לא רשמי צמודים למפל יהושע לזכרו של הרצל יהושע ממושב פארן",
        "description:he": "פינת ישיבה וחניון לילה לא רשמי צמודים למפל יהושע לזכרו של הרצל יהושע ממושב פארן",
        "image": "https://upload.wikimedia.org/wikipedia/commons/d/d4/Israel_Hiking_Map_%D7%9E%D7%A4%D7%9C%D7%99_%D7%99%D7%94%D7%95%D7%A9%D7%A2.jpeg",
        "name": "מפלי יהושע",
        "name:en": "Yehushua waterfals",
        "name:he": "מפלי יהושע",
        "tourism": "camp_site"
      }
    },
    {
      "type": "node",
      "id": 3468129095,
      "lat": 30.3324236,
      "lon": 34.9548323,
      "timestamp": "2017-06-10T05:07:47Z",
      "version": 2,
      "changeset": 49412690,
      "user": "SafwatHalaby_bot",
      "uid": 5816834,
      "tags": {
        "name": "חניון לילה נחל פארן",
        "name:he": "חניון לילה נחל פארן",
        "tourism": "camp_site"
      }
    },
    {
      "type": "node",
      "id": 3570039427,
      "lat": 30.7324867,
      "lon": 34.917923,
      "timestamp": "2017-12-13T17:21:21Z",
      "version": 4,
      "changeset": 54602422,
      "user": "BZVPNR",
      "uid": 2580007,
      "tags": {
        "description": "מומלץ לשים את הראש מתחת לטיפטוף מהשיח",
        "description:he": "מומלץ לשים את הראש מתחת לטיפטוף מהשיח",
        "image": "https://upload.wikimedia.org/wikipedia/commons/3/30/Israel_Hiking_Map_%D7%A2%D7%99%D7%9F_%D7%97%D7%95%D7%95%D7%94.jpeg",
        "name": "עין חווה",
        "name:en": "Ein Hava",
        "name:he": "עין חווה",
        "natural": "spring"
      }
    },
    {
      "type": "node",
      "id": 3715259502,
      "lat": 30.5298443,
      "lon": 34.6918678,
      "timestamp": "2020-04-28T20:30:44Z",
      "version": 6,
      "changeset": 84290189,
      "user": "Edward",
      "uid": 364,
      "tags": {
        "ele": "945",
        "image": "https://upload.wikimedia.org/wikipedia/commons/b/bd/Israel_Hiking_Map_%D7%94%D7%A8_%D7%A2%D7%A8%D7%95%D7%93.jpeg",
        "name": "הר ערוד",
        "name:en": "Mt. Arod",
        "name:he": "הר ערוד",
        "natural": "peak",
        "wikidata": "Q26768833"
      }
    },
    {
      "type": "node",
      "id": 3832560922,
      "lat": 30.4159584,
      "lon": 35.1416664,
      "timestamp": "2021-06-26T12:14:43Z",
      "version": 6,
      "changeset": 107000463,
      "user": "zstadler",
      "uid": 3127,
      "tags": {
        "description": "חניון הלילה בנחל ברק הוקם לזכרו של ברק רודבסקי מרחובות שנעלם בנהר האפורימק בפרו בתאריך 08 05 2003.החניון הוקם על ידי המשפחה חברים ובסיוע רשות הטבע.......",
        "description:he": "חניון הלילה בנחל ברק הוקם לזכרו של ברק רודבסקי מרחובות שנעלם בנהר האפורימק בפרו בתאריך 08 05 2003.החניון הוקם על ידי המשפחה חברים ובסיוע רשות הטבע.......",
        "name": "חניון לילה נחל ברק",
        "name:en": "Barak Night Camp",
        "name:he": "חניון לילה נחל ברק",
        "tourism": "camp_site"
      }
    },
    {
      "type": "node",
      "id": 3874957595,
      "lat": 30.5287107,
      "lon": 34.6068478,
      "timestamp": "2020-04-28T20:30:45Z",
      "version": 5,
      "changeset": 84290189,
      "user": "Edward",
      "uid": 364,
      "tags": {
        "ele": "973",
        "name": "ראש אלות",
        "name:en": "Rosh Alot",
        "name:he": "ראש אלות",
        "natural": "peak",
        "wikidata": "Q26768840"
      }
    },
    {
      "type": "node",
      "id": 3888207339,
      "lat": 30.2050886,
      "lon": 34.9131783,
      "timestamp": "2015-12-11T20:23:19Z",
      "version": 1,
      "changeset": 35892538,
      "user": "zstadler",
      "uid": 3127,
      "tags": {
        "name": "חניון לילה נחל ציחור",
        "name:en": "Nahal Tzihor campsite",
        "name:he": "חניון לילה נחל ציחור",
        "tourism": "camp_site"
      }
    },
    {
      "type": "node",
      "id": 3903677587,
      "lat": 30.3163212,
      "lon": 35.037117,
      "timestamp": "2020-04-28T20:30:43Z",
      "version": 3,
      "changeset": 84290189,
      "user": "Edward",
      "uid": 364,
      "tags": {
        "name": "כפת פארן",
        "name:en": "Kipat Paran",
        "name:he": "כפת פארן",
        "natural": "peak",
        "wikidata": "Q26766787"
      }
    },
    {
      "type": "node",
      "id": 3922132394,
      "lat": 30.2898111,
      "lon": 35.0555262,
      "timestamp": "2020-04-28T20:30:43Z",
      "version": 3,
      "changeset": 84290189,
      "user": "Edward",
      "uid": 364,
      "tags": {
        "name": "הר מנוחה",
        "name:en": "Mt. Menucha",
        "name:he": "הר מנוחה",
        "natural": "peak",
        "wikidata": "Q26766783"
      }
    },
    {
      "type": "node",
      "id": 4055329540,
      "lat": 30.5359062,
      "lon": 34.789861,
      "timestamp": "2021-03-22T17:08:51Z",
      "version": 8,
      "changeset": 101519602,
      "user": "hatul",
      "uid": 686490,
      "tags": {
        "description": "חניון לילה קטן ושקט בדרך כלל",
        "description:he": "חניון לילה קטן ושקט בדרך כלל",
        "fee": "no",
        "image": "https://upload.wikimedia.org/wikipedia/commons/6/63/IHM_חניון_לילה_מפער_פיטם.jpeg",
        "name": "חניון לילה מפער פיטם",
        "name:en": "Pitam gap camp site",
        "name:he": "חניון לילה מפער פיטם",
        "tourism": "camp_site"
      }
    },
    {
      "type": "node",
      "id": 4060493026,
      "lat": 30.3011582,
      "lon": 34.7276202,
      "timestamp": "2021-01-20T10:40:53Z",
      "version": 6,
      "changeset": 97830195,
      "user": "zstadler",
      "uid": 3127,
      "tags": {
        "image": "https://upload.wikimedia.org/wikipedia/commons/b/bb/Israel_Hiking_Map_%D7%97%D7%A0%D7%99%D7%95%D7%9F_%D7%9C%D7%99%D7%9C%D7%94_%D7%94%D7%A8_%D7%9B%D7%A8%D7%9B%D7%95%D7%9D.jpeg",
        "name": "חניון לילה הר כרכום",
        "name:en": "Mount Karkom Campground",
        "name:he": "חניון לילה הר כרכום",
        "tourism": "camp_site"
      }
    },
    {
      "type": "node",
      "id": 4268556108,
      "lat": 30.3994919,
      "lon": 35.0294301,
      "timestamp": "2021-07-04T03:41:28Z",
      "version": 5,
      "changeset": 107374240,
      "user": "GorALexeY",
      "uid": 11765454,
      "tags": {
        "name": "חניון לילה הר כיפה (סגור)",
        "name:en": "Mt. Kipa campsite",
        "name:he": "חניון לילה הר כיפה (סגור)",
        "tourism": "camp_site"
      }
    },
    {
      "type": "node",
      "id": 4270440135,
      "lat": 30.4905183,
      "lon": 34.7273938,
      "timestamp": "2020-11-24T16:15:39Z",
      "version": 3,
      "changeset": 94717505,
      "user": "hatul",
      "uid": 686490,
      "tags": {
        "fee": "no",
        "name": "חניון לילה בארות עודד",
        "name:en": "Be'erot Oded camp site",
        "name:he": "חניון לילה בארות עודד",
        "tourism": "camp_site"
      }
    },
    {
      "type": "node",
      "id": 4360561381,
      "lat": 30.3325578,
      "lon": 34.9525523,
      "timestamp": "2016-08-21T20:18:13Z",
      "version": 1,
      "changeset": 41601137,
      "user": "valleyofdawn",
      "uid": 356970,
      "tags": {
        "amenity": "drinking_water"
      }
    },
    {
      "type": "node",
      "id": 4393171478,
      "lat": 30.447311,
      "lon": 35.0517702,
      "timestamp": "2021-08-01T02:46:54Z",
      "version": 5,
      "changeset": 108961063,
      "user": "GorALexeY",
      "uid": 11765454,
      "tags": {
        "ele": "425",
        "image": "https://upload.wikimedia.org/wikipedia/commons/1/13/IHM_הר_נשפה.jpeg",
        "image1": "https://upload.wikimedia.org/wikipedia/commons/9/9a/IHM_הר_נשפה_1.jpeg",
        "name": "הר נשפה",
        "name:en": "Mt. Nashfa",
        "name:he": "הר נשפה",
        "natural": "peak",
        "wikidata": "Q26763484"
      }
    },
    {
      "type": "node",
      "id": 4497446255,
      "lat": 30.352157,
      "lon": 34.7340716,
      "timestamp": "2016-11-12T21:06:31Z",
      "version": 1,
      "changeset": 43590162,
      "user": "zstadler",
      "uid": 3127,
      "tags": {
        "name": "חניון לילה באר כרכום",
        "name:en": "Beer Karkom campsite",
        "name:he": "חניון לילה באר כרכום",
        "source": "GPS",
        "tourism": "camp_site"
      }
    },
    {
      "type": "node",
      "id": 4528402278,
      "lat": 30.7291994,
      "lon": 34.8954833,
      "timestamp": "2020-07-24T13:31:26Z",
      "version": 3,
      "changeset": 88460896,
      "user": "hatul",
      "uid": 686490,
      "tags": {
        "fee": "no",
        "name": "חניון לילה נחל חוה",
        "name:he": "חניון לילה נחל חוה",
        "tourism": "camp_site"
      }
    },
    {
      "type": "node",
      "id": 4724114798,
      "lat": 30.7028008,
      "lon": 35.0949734,
      "timestamp": "2021-05-31T18:37:38Z",
      "version": 2,
      "changeset": 105639979,
      "user": "hatul",
      "uid": 686490,
      "tags": {
        "name": "חניון לילה נחל מרזבה",
        "name:en": "Nahal Marzeva",
        "name:he": "חניון לילה נחל מרזבה",
        "tourism": "camp_site"
      }
    },
    {
      "type": "node",
      "id": 5034915351,
      "lat": 30.51529,
      "lon": 34.8068298,
      "timestamp": "2020-04-28T20:30:44Z",
      "version": 4,
      "changeset": 84290189,
      "user": "Edward",
      "uid": 364,
      "tags": {
        "ele": "752",
        "name": "הר שמעי",
        "name:en": "Mt. Sham'ay",
        "name:he": "הר שמעי",
        "natural": "peak",
        "wikidata": "Q26768834"
      }
    },
    {
      "type": "node",
      "id": 5034915352,
      "lat": 30.5102044,
      "lon": 34.8042117,
      "timestamp": "2020-04-28T20:30:45Z",
      "version": 3,
      "changeset": 84290189,
      "user": "Edward",
      "uid": 364,
      "tags": {
        "ele": "773",
        "name": "הר לבני",
        "name:he": "הר לבני",
        "natural": "peak",
        "wikidata": "Q26768835"
      }
    },
    {
      "type": "node",
      "id": 5097262022,
      "lat": 30.5660855,
      "lon": 34.8913615,
      "timestamp": "2021-03-20T22:30:09Z",
      "version": 3,
      "changeset": 101420500,
      "user": "hatul",
      "uid": 686490,
      "tags": {
        "amenity": "drinking_water",
        "fixme": "yes"
      }
    },
    {
      "type": "node",
      "id": 5154865147,
      "lat": 30.633379,
      "lon": 35.0515022,
      "timestamp": "2019-11-05T22:25:15Z",
      "version": 3,
      "changeset": 76669972,
      "user": "Hezi Refaeli",
      "uid": 10440586,
      "tags": {
        "description": "יש מקום בשפע ועצים לרוב\nללא מים או שירותים\nאין קליטה עד הר יהב/ האוכף ליד עין גלד",
        "description:he": "יש מקום בשפע ועצים לרוב\nללא מים או שירותים\nאין קליטה עד הר יהב/ האוכף ליד עין גלד",
        "image": "https://upload.wikimedia.org/wikipedia/commons/6/6b/Israel_Hiking_Map_%D7%97%D7%A0%D7%99%D7%95%D7%9F_%D7%9C%D7%99%D7%9C%D7%94_%D7%A0%D7%97%D7%9C_%D7%97%D7%95%D7%9C%D7%99%D7%AA.jpeg",
        "name": "חניון לילה נחל חולית",
        "name:en": "Nahal Holit campground",
        "name:he": "חניון לילה נחל חולית",
        "tourism": "camp_site"
      }
    },
    {
      "type": "node",
      "id": 5470378498,
      "lat": 30.5950481,
      "lon": 34.6990158,
      "timestamp": "2019-04-05T17:38:49Z",
      "version": 4,
      "changeset": 68930982,
      "user": "Vl-Sher",
      "uid": 439772,
      "tags": {
        "amenity": "drinking_water",
        "description": "ברז מים למטיילים"
      }
    },
    {
      "type": "node",
      "id": 5588734265,
      "lat": 30.6404629,
      "lon": 34.795784,
      "timestamp": "2021-06-26T12:14:43Z",
      "version": 6,
      "changeset": 107000463,
      "user": "zstadler",
      "uid": 3127,
      "tags": {
        "addr:city": "מצפה רמון",
        "addr:postcode": "80600",
        "addr:street": "חוות נועם במדבר",
        "capacity": "1-200",
        "description": "החווה ממוקמת סמוך למצפה רמון ובקרבת מכתש רמון. בחווה,יש גידולים של מטעי זיתים, כרמי ענבים, מטעי רימונים ותפוחים צמחי תבלין ועוד. בחווה יש מתחמי לינה לקבוצות ולמשפחתיים בודדות",
        "description:he": "החווה ממוקמת סמוך למצפה רמון ובקרבת מכתש רמון. בחווה,יש גידולים של מטעי זיתים, כרמי ענבים, מטעי רימונים ותפוחים צמחי תבלין ועוד. בחווה יש מתחמי לינה משפחתיים ולקבוצות",
        "fee": "yes",
        "name": "חוות נועם במדבר - מצפה רמון",
        "name:he": "חוות נועם במדבר - מצפה רמון",
        "tourism": "camp_site",
        "website": "https://www.facebook.com/havatnoam/"
      }
    },
    {
      "type": "node",
      "id": 5635180420,
      "lat": 30.7205553,
      "lon": 34.9091674,
      "timestamp": "2018-05-22T14:30:06Z",
      "version": 1,
      "changeset": 59182113,
      "user": "valleyofdawn",
      "uid": 356970,
      "tags": {
        "natural": "cave_entrance"
      }
    },
    {
      "type": "node",
      "id": 6160121885,
      "lat": 30.6114591,
      "lon": 34.8011259,
      "timestamp": "2018-12-24T21:29:38Z",
      "version": 1,
      "changeset": 65750411,
      "user": "richlv",
      "uid": 47892,
      "tags": {
        "amenity": "drinking_water"
      }
    },
    {
      "type": "node",
      "id": 6257835113,
      "lat": 30.175028,
      "lon": 34.7712813,
      "timestamp": "2019-02-04T13:15:41Z",
      "version": 1,
      "changeset": 66903196,
      "user": "valleyofdawn",
      "uid": 356970,
      "tags": {
        "name": "חניון לילה נחל פארן",
        "name:en": "Nahal Paran Campsite",
        "name:he": "חניון לילה נחל פארן",
        "source": "GPS",
        "tourism": "camp_site"
      }
    },
    {
      "type": "node",
      "id": 6309055940,
      "lat": 30.6202925,
      "lon": 34.9203836,
      "timestamp": "2019-02-28T20:45:35Z",
      "version": 1,
      "changeset": 67664121,
      "user": "shay trails",
      "uid": 2769154,
      "tags": {
        "amenity": "drinking_water"
      }
    },
    {
      "type": "node",
      "id": 6309057695,
      "lat": 30.5963741,
      "lon": 34.8752541,
      "timestamp": "2019-02-28T20:47:05Z",
      "version": 1,
      "changeset": 67664161,
      "user": "shay trails",
      "uid": 2769154,
      "tags": {
        "amenity": "drinking_water"
      }
    },
    {
      "type": "node",
      "id": 6386173411,
      "lat": 30.5132871,
      "lon": 34.6088792,
      "timestamp": "2019-04-05T17:38:49Z",
      "version": 1,
      "changeset": 68930982,
      "user": "Vl-Sher",
      "uid": 439772,
      "tags": {
        "amenity": "drinking_water"
      }
    },
    {
      "type": "node",
      "id": 6557803769,
      "lat": 30.6001574,
      "lon": 34.9476869,
      "timestamp": "2020-06-02T21:08:35Z",
      "version": 4,
      "changeset": 86098546,
      "user": "hatul",
      "uid": 686490,
      "tags": {
        "image": "https://upload.wikimedia.org/wikipedia/commons/d/de/Israel_Hiking_Map_Nekarot_Cave.jpeg",
        "name": "מערת נקרות",
        "name:he": "מערת נקרות",
        "natural": "cave_entrance"
      }
    },
    {
      "type": "node",
      "id": 6866366850,
      "lat": 30.636909,
      "lon": 34.8220258,
      "timestamp": "2020-07-03T13:17:30Z",
      "version": 3,
      "changeset": 87505671,
      "user": "Kyrylo Snizhko",
      "uid": 3270242,
      "tags": {
        "access": "customers",
        "name": "בן מדבר טיולי גמלים",
        "name:he": "בן מדבר טיולי גמלים",
        "phone": "+972775022152",
        "tourism": "camp_site"
      }
    },
    {
      "type": "node",
      "id": 7456854856,
      "lat": 30.6868943,
      "lon": 34.7827793,
      "timestamp": "2021-09-06T15:06:28Z",
      "version": 7,
      "changeset": 110808712,
      "user": "zstadler",
      "uid": 3127,
      "tags": {
        "name": "وادي أريحا",
        "name:ar": "وادي أريحا",
        "name:en": "Wadi Ariha",
        "name:fr": "Wadi Ariha",
        "name:he": "ואדי אריכא",
        "place": "village"
      }
    },
    {
      "type": "node",
      "id": 7558914485,
      "lat": 30.5281294,
      "lon": 34.6254465,
      "timestamp": "2020-11-24T16:15:39Z",
      "version": 2,
      "changeset": 94717505,
      "user": "hatul",
      "uid": 686490,
      "tags": {
        "description": "מחנה צבאי נטוש שנמצא מחוץ לשמורת הטבע ולכן מותר ומקובל לישון בו.",
        "description:he": "מחנה צבאי נטוש שנמצא מחוץ לשמורת הטבע ולכן מותר ומקובל לישון בו.",
        "fee": "no",
        "name": "חניון לילה שדרית",
        "name:he": "חניון לילה שדרית",
        "tourism": "camp_site"
      }
    },
    {
      "type": "node",
      "id": 7676393018,
      "lat": 30.6019672,
      "lon": 34.7909816,
      "timestamp": "2020-09-25T10:32:22Z",
      "version": 3,
      "changeset": 91502029,
      "user": "SafwatHalaby",
      "uid": 2138064,
      "tags": {
        "name": "בית ספר שדה הר הנגב",
        "name:he": "בית ספר שדה הר הנגב",
        "tourism": "camp_site"
      }
    },
    {
      "type": "node",
      "id": 8244380009,
      "lat": 30.6515411,
      "lon": 34.7945676,
      "timestamp": "2020-12-20T08:09:47Z",
      "version": 1,
      "changeset": 96131107,
      "user": "valleyofdawn",
      "uid": 356970,
      "tags": {
        "amenity": "drinking_water"
      }
    },
    {
      "type": "node",
      "id": 8245808150,
      "lat": 30.6032575,
      "lon": 34.6940943,
      "timestamp": "2021-05-23T20:50:50Z",
      "version": 3,
      "changeset": 105184502,
      "user": "hatul",
      "uid": 686490,
      "tags": {
        "desc": "מותר להגיע גם בשעות החשיכה",
        "description": "חניון לילה קטן בלי כלום חוץ משילוט.",
        "description:he": "חניון לילה קטן בלי כלום חוץ משילוט.",
        "drinking_water": "no",
        "fee": "no",
        "image": "https://upload.wikimedia.org/wikipedia/commons/c/ca/IHM_חניון_לילה_נחל_ניצנה_עילי.jpeg",
        "name": "חניון לילה נחל ניצנה עילי",
        "name:en": "Upper Nahal Nitzana Campsite",
        "name:he": "חניון לילה נחל ניצנה עילי",
        "operator": "rtg",
        "picnic_table": "no",
        "toilets": "no",
        "tourism": "camp_site",
        "waste_disposal": "no"
      }
    },
    {
      "type": "node",
      "id": 8550831720,
      "lat": 30.5981668,
      "lon": 34.7717892,
      "timestamp": "2021-03-22T16:47:27Z",
      "version": 1,
      "changeset": 101518673,
      "user": "hatul",
      "uid": 686490,
      "tags": {
        "amenity": "drinking_water"
      }
    },
    {
      "type": "node",
      "id": 8767636693,
      "lat": 30.2795399,
      "lon": 34.9971823,
      "timestamp": "2021-05-26T09:04:44Z",
      "version": 2,
      "changeset": 105343279,
      "user": "hatul",
      "uid": 686490,
      "tags": {
        "amenity": "drinking_water",
        "bottle": "yes",
        "description": "עוקב מים מוטמן של רט״ג שמתוחזק באופן שוטף . המיקום לא מדויק.",
        "description:he": "עוקב מים מוטמן של רט״ג שמתוחזק באופן שוטף . המיקום לא מדויק.",
        "fee": "no",
        "fixme": "מיקום לא מדויק"
      }
    },
    {
      "type": "node",
      "id": 8891535917,
      "lat": 30.4019943,
      "lon": 35.0239392,
      "timestamp": "2021-07-04T03:40:49Z",
      "version": 1,
      "changeset": 107374235,
      "user": "GorALexeY",
      "uid": 11765454,
      "tags": {
        "image": "https://upload.wikimedia.org/wikipedia/commons/6/62/IHM_חניון_לילה_הר_כיפה.jpeg",
        "image1": "https://upload.wikimedia.org/wikipedia/commons/9/9f/IHM_חניון_לילה_הר_כיפה_1.jpeg",
        "name": "חניון לילה הר כיפה",
        "name:he": "חניון לילה הר כיפה",
        "tourism": "camp_site"
      }
    },
    {
      "type": "node",
      "id": 9242836781,
      "lat": 30.5838,
      "lon": 34.8881,
      "timestamp": "2021-11-11T09:05:35Z",
      "version": 1,
      "changeset": 113642067,
      "user": "hatul",
      "uid": 686490,
      "tags": {
        "amenity": "drinking_water"
      }
    },
    {
      "type": "way",
      "id": 60130883,
      "timestamp": "2021-09-07T08:45:54Z",
      "version": 22,
      "changeset": 110843893,
      "user": "zstadler",
      "uid": 3127,
      "center": {
        "lat": 30.3625645,
        "lon": 35.1553108
      },
      "nodes": [],
      "tags": {
        "fixme": "name, name:he mismatch. Flagged by SafwatHalaby_bot-nameCopy",
        "landuse": "residential",
        "name": "פארן",
        "name:en": "Paran",
        "name:he": "פארן",
        "note": "Pharan or Faran is not a valid pronunciation in Hebrew",
        "place": "village"
      }
    },
    {
      "type": "way",
      "id": 91938943,
      "timestamp": "2021-09-07T08:45:54Z",
      "version": 9,
      "changeset": 110843893,
      "user": "zstadler",
      "uid": 3127,
      "center": {
        "lat": 30.1768968,
        "lon": 35.0164415
      },
      "nodes": [],
      "tags": {
        "landuse": "residential",
        "name": "נח\"ל שיטים",
        "name:en": "Nahal Shittim",
        "name:he": "נח\"ל שיטים",
        "name:he2": "אשרם במדבר",
        "place": "hamlet"
      }
    },
    {
      "type": "way",
      "id": 184652618,
      "timestamp": "2017-06-10T05:09:14Z",
      "version": 4,
      "changeset": 49412690,
      "user": "SafwatHalaby_bot",
      "uid": 5816834,
      "center": {
        "lat": 30.5850727,
        "lon": 34.6233414
      },
      "nodes": [],
      "tags": {
        "name": "חניון לילה נחל דרבן",
        "name:he": "חניון לילה נחל דרבן",
        "overnight": "yes",
        "tourism": "camp_site"
      }
    },
    {
      "type": "way",
      "id": 238774855,
      "timestamp": "2017-06-10T05:09:32Z",
      "version": 3,
      "changeset": 49412690,
      "user": "SafwatHalaby_bot",
      "uid": 5816834,
      "center": {
        "lat": 30.6313162,
        "lon": 34.552019
      },
      "nodes": [],
      "tags": {
        "name": "חניון לילה נחל חרשה",
        "name:he": "חניון לילה נחל חרשה",
        "source": "GPS",
        "tourism": "camp_site"
      }
    },
    {
      "type": "way",
      "id": 241202448,
      "timestamp": "2017-06-10T05:09:34Z",
      "version": 3,
      "changeset": 49412690,
      "user": "SafwatHalaby_bot",
      "uid": 5816834,
      "center": {
        "lat": 30.610854,
        "lon": 34.7909843
      },
      "nodes": [],
      "tags": {
        "name": "Silent Arrow",
        "name:en": "Silent Arrow",
        "name:he": "חץ בשקט",
        "tourism": "camp_site"
      }
    },
    {
      "type": "way",
      "id": 275890910,
      "timestamp": "2021-05-26T09:04:44Z",
      "version": 6,
      "changeset": 105343279,
      "user": "hatul",
      "uid": 686490,
      "center": {
        "lat": 30.2796383,
        "lon": 34.9969164
      },
      "nodes": [],
      "tags": {
        "description": "חניון לילה בשטח עם עוקב מים של רט״ג",
        "description:he": "חניון לילה בשטח עם עוקב מים של רט״ג",
        "fee": "no",
        "image": "https://upload.wikimedia.org/wikipedia/commons/b/b3/Israel_Hiking_Map_%D7%97%D7%A0%D7%99%D7%95%D7%9F_%D7%9C%D7%99%D7%9C%D7%94_%D7%A6%D7%95%D7%9E%D7%AA_%D7%A6%D7%99%D7%97%D7%95%D7%A8.jpeg",
        "name": "חניון לילה צומת ציחור",
        "name:en": "Tzihor Junction campsite",
        "name:he": "חניון לילה צומת ציחור",
        "source": "GPS",
        "tourism": "camp_site"
      }
    },
    {
      "type": "way",
      "id": 305370038,
      "timestamp": "2021-09-06T15:06:28Z",
      "version": 8,
      "changeset": 110808712,
      "user": "zstadler",
      "uid": 3127,
      "center": {
        "lat": 30.7513693,
        "lon": 34.7758702
      },
      "nodes": [],
      "tags": {
        "landuse": "residential",
        "name": "عبدة",
        "name:ar": "عبدة",
        "name:en": "Abdih",
        "name:he": "עבדה",
        "place": "hamlet"
      }
    },
    {
      "type": "way",
      "id": 333555550,
      "timestamp": "2021-09-06T15:06:28Z",
      "version": 11,
      "changeset": 110808712,
      "user": "zstadler",
      "uid": 3127,
      "center": {
        "lat": 30.6846992,
        "lon": 34.7868339
      },
      "nodes": [],
      "tags": {
        "landuse": "residential",
        "name": "وادي أريحا",
        "name:ar": "وادي أريحا",
        "name:en": "Wadi Ariha",
        "name:he": "ואדי אריכא",
        "place": "village"
      }
    },
    {
      "type": "way",
      "id": 352271376,
      "timestamp": "2021-03-22T17:30:15Z",
      "version": 5,
      "changeset": 101520618,
      "user": "hatul",
      "uid": 686490,
      "center": {
        "lat": 30.6204961,
        "lon": 34.9200049
      },
      "nodes": [],
      "tags": {
        "description": "חניון בתשלום עם שירותים ומקלחות. אירוח ברמות שונות.",
        "description:he": "חניון בתשלום עם שירותים ומקלחות. אירוח ברמות שונות.",
        "fee": "yes",
        "image": "https://upload.wikimedia.org/wikipedia/commons/e/e7/IHM_חניון_בארות.jpeg",
        "name": "חניון בארות",
        "name:en": "Be'erot camp site",
        "name:he": "חניון בארות",
        "operator": "רשות הטבע והגנים",
        "tourism": "camp_site"
      }
    },
    {
      "type": "way",
      "id": 385475359,
      "timestamp": "2015-12-11T20:23:22Z",
      "version": 1,
      "changeset": 35892538,
      "user": "zstadler",
      "uid": 3127,
      "center": {
        "lat": 30.2050954,
        "lon": 34.9132042
      },
      "nodes": [],
      "tags": {
        "name": "חניון לילה נחל ציחור",
        "name:en": "Nahal Tzihor campsite",
        "name:he": "חניון לילה נחל ציחור",
        "source": "GPS",
        "tourism": "camp_site"
      }
    },
    {
      "type": "way",
      "id": 405434359,
      "timestamp": "2018-12-23T19:36:32Z",
      "version": 6,
      "changeset": 65723055,
      "user": "richlv",
      "uid": 47892,
      "center": {
        "lat": 30.6127409,
        "lon": 34.8022781
      },
      "nodes": [],
      "tags": {
        "brand": "Shufersal",
        "brand:wikidata": "Q4523181",
        "brand:wikipedia": "en:Shufersal",
        "building": "yes",
        "name": "שופרסל שלי",
        "name:en": "Shufersal Sheli",
        "name:he": "שופרסל שלי",
        "name:ru": "Шуферсаль Шели",
        "shop": "supermarket",
        "website": "https://www.shufersal.co.il"
      }
    },
    {
      "type": "way",
      "id": 452932579,
      "timestamp": "2018-04-24T08:14:39Z",
      "version": 3,
      "changeset": 58365479,
      "user": "zstadler",
      "uid": 3127,
      "center": {
        "lat": 30.2162298,
        "lon": 34.722471
      },
      "nodes": [],
      "tags": {
        "name": "חניון לילה הקניון הלבן",
        "name:en": "Kenyon Lavan Campsite",
        "name:he": "חניון לילה הקניון הלבן",
        "tourism": "camp_site"
      }
    },
    {
      "type": "way",
      "id": 458850699,
      "timestamp": "2016-12-10T13:21:51Z",
      "version": 1,
      "changeset": 44303120,
      "user": "zstadler",
      "uid": 3127,
      "center": {
        "lat": 30.4542877,
        "lon": 34.6666943
      },
      "nodes": [],
      "tags": {
        "source": "GPS",
        "tourism": "camp_site"
      }
    },
    {
      "type": "way",
      "id": 530976199,
      "timestamp": "2017-10-08T09:09:03Z",
      "version": 1,
      "changeset": 52725422,
      "user": "zstadler",
      "uid": 3127,
      "center": {
        "lat": 30.633441,
        "lon": 35.0514229
      },
      "nodes": [],
      "tags": {
        "tourism": "camp_site"
      }
    },
    {
      "type": "way",
      "id": 733911679,
      "timestamp": "2020-08-31T12:00:01Z",
      "version": 4,
      "changeset": 90190851,
      "user": "hatul",
      "uid": 686490,
      "center": {
        "lat": 30.5961403,
        "lon": 34.8751919
      },
      "nodes": [],
      "tags": {
        "fee": "yes",
        "name": "חאן מחצבת הגבס",
        "name:en": "Gypsum quarry",
        "name:he": "חאן מחצבת הגבס",
        "resource": "gypsum",
        "tourism": "camp_site"
      }
    }
  ]
}