{
  "osm3s": {
    "timestamp_osm_date": "2022-07-01T23:59:59Z",
    "timestamp_osm_base": "2022-07-02T07:27:37Z",
    "copyright": "The data included in this document is from www.openstreetmap.org. The data is made available under ODbL."
  },
  "elements": [
    {
      "type": "node",
      "id": 27132996,
      "lat": 29.5569348,
      "lon": 34.9497949,
      "timestamp": "2022-03-04T00:33:34Z",
      "version": 36,
      "changeset": 118074711,
      "user": "Jacksonville",
      "uid": 12732985,
      "tags": {
        "accuracy": "minutes",
        "alt_name:en": "Elath;Elat;Ilat",
        "contact:website": "http://www.eilat.muni.il/",
        "gns_ref": "-779626",
        "int_name": "Eilat",
        "name": "אילת",
        "name:ar": "إيلات",
        "name:az-Arab": "ایلات",
        "name:azb": "ایلات",
        "name:cs": "Ejlat",
        "name:de": "Eilat",
        "name:el": "Εϊλάτ",
        "name:en": "Eilat",
        "name:es": "Eilat",
        "name:fa": "ایلات",
        "name:fi": "Eilat",
        "name:fr": "Eilat",
        "name:he": "אילת",
        "name:hi": "ऐलात",
        "name:hr": "Eilat",
        "name:ko": "에일라트",
        "name:ks": "ایلات",
        "name:lt": "Elatas",
        "name:ml": "ഐലാത്ത്",
        "name:ru": "Эйлат",
        "name:sr": "Еилат",
        "name:ur": "ایلت",
        "name:zh-Hans": "埃拉特",
        "name:zh-Hant": "埃拉特",
        "old_name:ar": "أم الرشراش",
        "old_name:en": "Umm Rashrash;Umrashash",
        "place": "city",
        "population": "52229",
        "source": "GEOnet Names Server (gns);https://www.cbs.gov.il/he/publications/doclib/2017/population_madaf/population_madaf_2019_1.xlsx",
        "website": "http://www.eilat.muni.il/",
        "wikidata": "Q134762",
        "wikipedia": "he:אילת",
        "wikipedia:ar": "إيلات",
        "wikipedia:es": "Eilat"
      }
    },
    {
      "type": "node",
      "id": 274596900,
      "lat": 29.9876356,
      "lon": 34.9555286,
      "timestamp": "2020-12-24T14:23:14Z",
      "version": 4,
      "changeset": 96391606,
      "user": "pizzaiolo",
      "uid": 1772368,
      "tags": {
        "accuracy": "minutes",
        "gns_ref": "-781377",
        "name": "הר שחרור",
        "name:en": "Har Shahrur",
        "name:he": "הר שחרור",
        "natural": "peak",
        "source": "GEOnet Names Server (gns)",
        "wikidata": "Q26762464"
      }
    },
    {
      "type": "node",
      "id": 274596907,
      "lat": 29.9343497,
      "lon": 35.0122805,
      "timestamp": "2020-12-24T14:23:21Z",
      "version": 6,
      "changeset": 96391606,
      "user": "pizzaiolo",
      "uid": 1772368,
      "tags": {
        "accuracy": "minutes",
        "ele": "525",
        "gns_ref": "-781372",
        "name": "הר שחרות",
        "name:ar": "Jebel es Sabah",
        "name:en": "Har Shaharut",
        "name:he": "הר שחרות",
        "natural": "peak",
        "source": "GEOnet Names Server (gns)",
        "wikidata": "Q26762747"
      }
    },
    {
      "type": "node",
      "id": 274596923,
      "lat": 29.5789441,
      "lon": 34.9328537,
      "timestamp": "2020-12-24T14:23:22Z",
      "version": 7,
      "changeset": 96391606,
      "user": "pizzaiolo",
      "uid": 1772368,
      "tags": {
        "accuracy": "minutes",
        "ele": "325",
        "gns_ref": "-781376",
        "name": "הר שחמון",
        "name:en": "Mt. Shahmon",
        "name:he": "הר שחמון",
        "natural": "peak",
        "source": "GEOnet Names Server (gns)",
        "wikidata": "Q26762749"
      }
    },
    {
      "type": "node",
      "id": 274607825,
      "lat": 29.6729131,
      "lon": 35.0139171,
      "timestamp": "2020-12-24T14:23:54Z",
      "version": 11,
      "changeset": 96391606,
      "user": "pizzaiolo",
      "uid": 1772368,
      "tags": {
        "accuracy": "minutes",
        "gns_ref": "-779302",
        "image": "https://upload.wikimedia.org/wikipedia/commons/d/d9/Israel_Hiking_Map_%D7%A2%D7%99%D7%9F_%D7%A2%D7%91%D7%A8%D7%95%D7%A0%D7%94.jpeg",
        "image1": "https://upload.wikimedia.org/wikipedia/commons/7/7c/Israel_Hiking_Map_%D7%A2%D7%99%D7%9F_%D7%A2%D7%91%D7%A8%D7%95%D7%A0%D7%94_1.jpeg",
        "name": "עין עברונה",
        "name:ar": "Ain el Deffiyeh",
        "name:en": "Ein Avrona",
        "name:en1": "En `Avrona",
        "name:he": "עין עברונה",
        "name:he1": "באר עברונה",
        "natural": "spring",
        "source": "GEOnet Names Server (gns)",
        "website": "http://www.nelech.co.il/%D7%9E%D7%A1%D7%9C%D7%95%D7%9C%D7%99%D7%9D/%D7%9E%D7%99%D7%93%D7%A2/%D7%A2%D7%99%D7%9F-%D7%A2%D7%91%D7%A8%D7%95%D7%A0%D7%94-%D7%91%D7%A2%D7%A8%D7%91%D7%AA-%D7%A2%D7%91%D7%A8%D7%95%D7%A0%D7%94",
        "wikidata": "Q26764203"
      }
    },
    {
      "type": "node",
      "id": 278469971,
      "lat": 30.0630583,
      "lon": 35.0327394,
      "timestamp": "2020-12-24T14:23:17Z",
      "version": 5,
      "changeset": 96391606,
      "user": "pizzaiolo",
      "uid": 1772368,
      "tags": {
        "accuracy": "minutes",
        "ele": "504",
        "gns_ref": "-781456",
        "name": "הר שיזפון",
        "name:en": "Har Shizzafon",
        "name:en1": "Har Shizafon",
        "name:he": "הר שיזפון",
        "natural": "peak",
        "source": "GEOnet Names Server (gns)",
        "wikidata": "Q26762490"
      }
    },
    {
      "type": "node",
      "id": 278469975,
      "lat": 29.7931147,
      "lon": 34.9149152,
      "timestamp": "2020-04-28T20:30:11Z",
      "version": 7,
      "changeset": 84290189,
      "user": "Edward",
      "uid": 364,
      "tags": {
        "accuracy": "minutes",
        "ele": "845",
        "gns_ref": "-779399",
        "name": "הר ברך",
        "name:en": "Mt. Berekh",
        "name:he": "הר ברך",
        "natural": "peak",
        "source": "GEOnet Names Server (gns)",
        "wikidata": "Q7211217"
      }
    },
    {
      "type": "node",
      "id": 278470154,
      "lat": 30.0689288,
      "lon": 35.0901305,
      "timestamp": "2022-02-06T15:51:03Z",
      "version": 4,
      "changeset": 117084212,
      "user": "valleyofdawn",
      "uid": 356970,
      "tags": {
        "accuracy": "minutes",
        "gns_ref": "-781347",
        "name": "הר שעלב",
        "name:en": "Har Sha`alav",
        "name:en1": "Jebel Umm Suleibit",
        "name:he": "הר שעלב",
        "natural": "peak",
        "source": "GEOnet Names Server (gns)",
        "wikidata": "Q26762738"
      }
    },
    {
      "type": "node",
      "id": 278470275,
      "lat": 30.035526,
      "lon": 35.0724997,
      "timestamp": "2020-12-24T14:23:22Z",
      "version": 6,
      "changeset": 96391606,
      "user": "pizzaiolo",
      "uid": 1772368,
      "tags": {
        "accuracy": "minutes",
        "ele": "440",
        "gns_ref": "-781075",
        "name": "הר קטורה",
        "name:en": "Har Qetura",
        "name:en1": "Jebel el Qattar",
        "name:he": "הר קטורה",
        "natural": "peak",
        "source": "GEOnet Names Server (gns)",
        "wikidata": "Q26762865"
      }
    },
    {
      "type": "node",
      "id": 278470400,
      "lat": 29.6600732,
      "lon": 34.8883665,
      "timestamp": "2022-03-20T07:01:12Z",
      "version": 8,
      "changeset": 118686537,
      "user": "Ilanride22",
      "uid": 2376044,
      "tags": {
        "accuracy": "minutes",
        "ele": "844",
        "gns_ref": "-781670",
        "name": "הר עוזיהו",
        "name:en": "Har Uziyyahu",
        "name:en1": "Abi `Alaliq",
        "name:en2": "Jebel Abu Alaliq",
        "name:en3": "Hindis",
        "name:en4": "Har `Uziyahu",
        "name:en5": "Har `Uziyyahu",
        "name:he": "הר עוזיהו",
        "natural": "peak",
        "source": "GEOnet Names Server (gns)",
        "wikidata": "Q97216542",
        "wikipedia": "he:הר עוזיהו"
      }
    },
    {
      "type": "node",
      "id": 278473223,
      "lat": 30.0242937,
      "lon": 34.9934293,
      "timestamp": "2020-12-24T14:23:32Z",
      "version": 6,
      "changeset": 96391606,
      "user": "pizzaiolo",
      "uid": 1772368,
      "tags": {
        "accuracy": "minutes",
        "ele": "551",
        "gns_ref": "-780794",
        "name": "הר נעצוץ",
        "name:en": "Mt. Na`azuz",
        "name:en1": "Jebel el Ijfi",
        "name:en2": "Har Na`atsuts",
        "name:he": "הר נעצוץ",
        "natural": "peak",
        "source": "GEOnet Names Server (gns)",
        "wikidata": "Q26763589"
      }
    },
    {
      "type": "node",
      "id": 278473545,
      "lat": 30.0517959,
      "lon": 35.0424032,
      "timestamp": "2021-09-07T08:45:54Z",
      "version": 10,
      "changeset": 110843893,
      "user": "zstadler",
      "uid": 3127,
      "tags": {
        "accuracy": "minutes",
        "gns_ref": "44948",
        "name": "נח\"ל יעלון",
        "name:en": "Nahal Yaalon",
        "name:en1": "Nahal Ya`alon",
        "name:fr": "Nahal Yaalon",
        "name:he": "נח\"ל יעלון",
        "place": "hamlet",
        "source": "GEOnet Names Server (gns)"
      }
    },
    {
      "type": "node",
      "id": 278473748,
      "lat": 29.7800779,
      "lon": 34.9701259,
      "timestamp": "2020-12-24T14:23:08Z",
      "version": 7,
      "changeset": 96391606,
      "user": "pizzaiolo",
      "uid": 1772368,
      "tags": {
        "accuracy": "minutes",
        "ele": "447",
        "gns_ref": "-781626",
        "name": "הר תמנע",
        "name:en": "Mt. Timna",
        "name:en1": "Jebel Abarik",
        "name:en2": "Manaieyeh",
        "name:en3": "Maneieyeh",
        "name:en4": "Menahamiya",
        "name:en5": "Menayeh",
        "name:en6": "Menayeh Massif",
        "name:en7": "Meneieyeh",
        "name:en8": "Jebel el Munei`iya",
        "name:he": "הר תמנע",
        "natural": "peak",
        "source": "GEOnet Names Server (gns)",
        "wikidata": "Q26762085"
      }
    },
    {
      "type": "node",
      "id": 278474020,
      "lat": 29.8818363,
      "lon": 35.051819,
      "timestamp": "2014-11-11T13:05:11Z",
      "version": 7,
      "changeset": 26710420,
      "user": "sivan00",
      "uid": 2045570,
      "tags": {
        "accuracy": "minutes",
        "gns_ref": "-781796",
        "name": "עין יטבתה",
        "name:en": "Ein Yotvata",
        "name:en1": "En Ghadyan",
        "name:en2": "En el Ghidyan",
        "name:en3": "Ain Ghudian",
        "name:he": "עין יטבתה",
        "natural": "spring",
        "source": "GEOnet Names Server (gns)"
      }
    },
    {
      "type": "node",
      "id": 278474822,
      "lat": 29.6960318,
      "lon": 34.9632608,
      "timestamp": "2020-12-24T14:23:25Z",
      "version": 5,
      "changeset": 96391606,
      "user": "pizzaiolo",
      "uid": 1772368,
      "tags": {
        "accuracy": "minutes",
        "gns_ref": "-780957",
        "name": "הר אורה",
        "name:en": "Mt. Ora",
        "name:he": "הר אורה",
        "natural": "peak",
        "source": "GEOnet Names Server (gns)",
        "wikidata": "Q26763497"
      }
    },
    {
      "type": "node",
      "id": 278475585,
      "lat": 29.8959204,
      "lon": 35.0596217,
      "timestamp": "2021-09-07T08:45:54Z",
      "version": 15,
      "changeset": 110843893,
      "user": "zstadler",
      "uid": 3127,
      "tags": {
        "accuracy": "minutes",
        "gns_ref": "-781795",
        "name": "יטבתה",
        "name:en": "Yotvata",
        "name:en1": "Yot'bathah",
        "name:fr": "Yotvéta",
        "name:he": "יטבתה",
        "name:hr": "Jotvata",
        "place": "village",
        "source": "GEOnet Names Server (gns)"
      }
    },
    {
      "type": "node",
      "id": 278475596,
      "lat": 29.9082267,
      "lon": 34.8075139,
      "timestamp": "2020-04-28T20:30:30Z",
      "version": 6,
      "changeset": 84290189,
      "user": "Edward",
      "uid": 364,
      "tags": {
        "accuracy": "minutes",
        "ele": "641",
        "gns_ref": "-780160",
        "name": "הר הוגן",
        "name:en": "Mt. Hogen",
        "name:en1": "Jebel Ruweisat en Nijin",
        "name:he": "הר הוגן",
        "natural": "peak",
        "source": "GEOnet Names Server (gns)",
        "wikidata": "Q26763788"
      }
    },
    {
      "type": "node",
      "id": 278475746,
      "lat": 29.8149936,
      "lon": 34.9533477,
      "timestamp": "2020-12-24T14:23:08Z",
      "version": 4,
      "changeset": 96391606,
      "user": "pizzaiolo",
      "uid": 1772368,
      "tags": {
        "accuracy": "minutes",
        "gns_ref": "-781631",
        "name": "צוקי תמנע",
        "name:en": "Zuqe Timna`",
        "name:he": "צוקי תמנע",
        "natural": "peak",
        "source": "GEOnet Names Server (gns)",
        "wikidata": "Q26762087"
      }
    },
    {
      "type": "node",
      "id": 278475998,
      "lat": 30.0389533,
      "lon": 35.0358704,
      "timestamp": "2021-09-07T08:45:54Z",
      "version": 9,
      "changeset": 110843893,
      "user": "zstadler",
      "uid": 3127,
      "tags": {
        "accuracy": "minutes",
        "gns_ref": "44946",
        "name": "נווה חריף",
        "name:en": "Neve Harif",
        "name:en1": "Newe Harif",
        "name:fr": "Neve Harif",
        "name:he": "נווה חריף",
        "place": "hamlet",
        "source": "GEOnet Names Server (gns)"
      }
    },
    {
      "type": "node",
      "id": 278476223,
      "lat": 29.8041935,
      "lon": 34.9794821,
      "timestamp": "2020-04-28T20:30:26Z",
      "version": 6,
      "changeset": 84290189,
      "user": "Edward",
      "uid": 364,
      "tags": {
        "accuracy": "minutes",
        "ele": "334",
        "gns_ref": "-780725",
        "name": "הר מכרות",
        "name:en": "Mt. Mikhrot",
        "name:he": "הר מכרות",
        "natural": "peak",
        "source": "GEOnet Names Server (gns)",
        "wikidata": "Q26763580"
      }
    },
    {
      "type": "node",
      "id": 278476306,
      "lat": 29.7101748,
      "lon": 34.986604,
      "timestamp": "2021-12-31T11:43:28Z",
      "version": 16,
      "changeset": 115605464,
      "user": "Jobigutenburg",
      "uid": 10504312,
      "tags": {
        "accuracy": "minutes",
        "gns_ref": "-779361",
        "name": "באר אורה",
        "name:en": "Be'er Ora",
        "name:fr": "Be'er Ora",
        "name:he": "באר אורה",
        "name:hr": "Be'er Ora",
        "name:ml": "ബയർ ഓറ",
        "place": "village",
        "source": "GEOnet Names Server (gns)",
        "wikidata": "Q2776835",
        "wikipedia": "he:באר אורה"
      }
    },
    {
      "type": "node",
      "id": 278476355,
      "lat": 29.5812438,
      "lon": 34.962663,
      "timestamp": "2021-09-07T08:45:54Z",
      "version": 13,
      "changeset": 110843893,
      "user": "zstadler",
      "uid": 3127,
      "tags": {
        "gns_ref": "-779664",
        "name": "אילות",
        "name:ar": "إيلات",
        "name:cs": "Ejlot",
        "name:en": "Eilot",
        "name:en1": "Elot",
        "name:fi": "Eilot",
        "name:fr": "Eilot",
        "name:he": "אילות",
        "name:hr": "Eilot",
        "name:id": "Eilot",
        "name:nn": "Eilot",
        "name:pl": "Elot",
        "place": "village",
        "source": "GEOnet Names Server (gns)"
      }
    },
    {
      "type": "node",
      "id": 278476861,
      "lat": 30.0486435,
      "lon": 35.0257351,
      "timestamp": "2021-12-31T11:43:28Z",
      "version": 13,
      "changeset": 115605464,
      "user": "Jobigutenburg",
      "uid": 10504312,
      "tags": {
        "gns_ref": "44944",
        "name": "נאות סמדר",
        "name:cs": "Ne'ot Smadar",
        "name:en": "Neot Smadar",
        "name:en1": "Shizzafon",
        "name:fr": "Neot Semadar",
        "name:he": "נאות סמדר",
        "name:he1": "שיזפון",
        "name:hr": "Ne'ot Smadar",
        "name:ml": "നെഒത് സ്മദർ",
        "place": "village",
        "source": "GEOnet Names Server (gns)",
        "website": "https://neot-semadar.com/",
        "wikidata": "Q1011470",
        "wikipedia": "he:נאות סמדר"
      }
    },
    {
      "type": "node",
      "id": 278476936,
      "lat": 29.9401621,
      "lon": 35.0648867,
      "timestamp": "2021-09-07T08:45:54Z",
      "version": 10,
      "changeset": 110843893,
      "user": "zstadler",
      "uid": 3127,
      "tags": {
        "accuracy": "minutes",
        "gns_ref": "-779859",
        "name": "גרופית",
        "name:en": "Grofit",
        "name:en1": "Gerofit",
        "name:en2": "Groufite",
        "name:fr": "Grofit",
        "name:he": "גרופית",
        "name:hr": "Grofit",
        "place": "village",
        "source": "GEOnet Names Server (gns)"
      }
    },
    {
      "type": "node",
      "id": 278477026,
      "lat": 30.0952791,
      "lon": 35.1194012,
      "timestamp": "2020-12-24T14:23:09Z",
      "version": 4,
      "changeset": 96391606,
      "user": "pizzaiolo",
      "uid": 1772368,
      "tags": {
        "accuracy": "minutes",
        "gns_ref": "-781675",
        "name": "הר יעלון",
        "name:en": "Har Ya`alon",
        "name:he": "הר יעלון",
        "natural": "peak",
        "source": "GEOnet Names Server (gns)",
        "wikidata": "Q26762097"
      }
    },
    {
      "type": "node",
      "id": 278477072,
      "lat": 30.0819416,
      "lon": 35.1287689,
      "timestamp": "2021-09-07T08:45:54Z",
      "version": 10,
      "changeset": 110843893,
      "user": "zstadler",
      "uid": 3127,
      "tags": {
        "accuracy": "minutes",
        "description": "יַהֵל הוא קיבוץ בדרום הערבה, השייך למועצה אזורית חבל אילות.",
        "description:he": "יַהֵל הוא קיבוץ בדרום הערבה, השייך למועצה אזורית חבל אילות.",
        "gns_ref": "44252",
        "image": "https://upload.wikimedia.org/wikipedia/commons/3/3c/PikiWiki_Israel_35870_Zel_tmarim_khan_in_Kibbutz_Yahel.JPG",
        "name": "יהל",
        "name:en": "Yahel",
        "name:fr": "Yahel",
        "name:he": "יהל",
        "place": "village",
        "source": "GEOnet Names Server (gns)",
        "wikipedia": "he:יהל",
        "wikipedia:he": "יהל"
      }
    },
    {
      "type": "node",
      "id": 278477534,
      "lat": 29.5527396,
      "lon": 34.8953896,
      "timestamp": "2020-04-28T20:30:14Z",
      "version": 7,
      "changeset": 84290189,
      "user": "Edward",
      "uid": 364,
      "tags": {
        "accuracy": "minutes",
        "ele": "508",
        "gns_ref": "-781735",
        "name": "הר יהושפט",
        "name:en": "Mt. Yehoshafat",
        "name:en1": "Jebel el Masri",
        "name:he": "הר יהושפט",
        "natural": "peak",
        "source": "GEOnet Names Server (gns)",
        "wikidata": "Q26762112"
      }
    },
    {
      "type": "node",
      "id": 278477573,
      "lat": 29.9611116,
      "lon": 34.8992035,
      "timestamp": "2020-04-28T20:32:34Z",
      "version": 4,
      "changeset": 84290297,
      "user": "Edward",
      "uid": 364,
      "tags": {
        "accuracy": "minutes",
        "gns_ref": "-781667",
        "name": "צוקי עובדה",
        "name:en": "Zuqe `Uvda",
        "name:he": "צוקי עובדה",
        "natural": "peak",
        "source": "GEOnet Names Server (gns)",
        "wikidata": "Q26762094"
      }
    },
    {
      "type": "node",
      "id": 278477680,
      "lat": 29.758938,
      "lon": 34.8487191,
      "timestamp": "2020-12-24T14:22:48Z",
      "version": 5,
      "changeset": 96391606,
      "user": "pizzaiolo",
      "uid": 1772368,
      "tags": {
        "accuracy": "minutes",
        "ele": "878",
        "gns_ref": "-781334",
        "name": "הר שגוב",
        "name:en": "Har Seguv",
        "name:en1": "Jebel Umm Jauf",
        "name:he": "הר שגוב",
        "natural": "peak",
        "source": "GEOnet Names Server (gns)",
        "wikidata": "Q12019178"
      }
    },
    {
      "type": "node",
      "id": 278478225,
      "lat": 29.9833271,
      "lon": 35.0333326,
      "timestamp": "2020-12-24T14:23:35Z",
      "version": 4,
      "changeset": 96391606,
      "user": "pizzaiolo",
      "uid": 1772368,
      "tags": {
        "accuracy": "minutes",
        "gns_ref": "-779860",
        "name": "הר גרופית",
        "name:en": "Har Gerofit",
        "name:en1": "Jebel Umm Jureifinat",
        "name:he": "הר גרופית",
        "natural": "peak",
        "source": "GEOnet Names Server (gns)",
        "wikidata": "Q26763845"
      }
    },
    {
      "type": "node",
      "id": 278478421,
      "lat": 29.8483958,
      "lon": 34.995525,
      "timestamp": "2020-04-28T20:30:37Z",
      "version": 7,
      "changeset": 84290189,
      "user": "Edward",
      "uid": 364,
      "tags": {
        "accuracy": "minutes",
        "ele": "546",
        "gns_ref": "-779247",
        "name": "הר ארגמן",
        "name:en": "Mt. Argaman",
        "name:he": "הר ארגמן",
        "natural": "peak",
        "source": "GEOnet Names Server (gns)",
        "wikidata": "Q26764185"
      }
    },
    {
      "type": "node",
      "id": 278478670,
      "lat": 29.5801252,
      "lon": 34.8996792,
      "timestamp": "2020-04-28T20:30:12Z",
      "version": 12,
      "changeset": 84290189,
      "user": "Edward",
      "uid": 364,
      "tags": {
        "accuracy": "minutes",
        "ele": "705",
        "gns_ref": "-781418",
        "image": "https://upload.wikimedia.org/wikipedia/commons/b/b9/Israel_Hiking_Map_%D7%94%D7%A8_%D7%A9%D7%9C%D7%9E%D7%94_1.jpeg",
        "name": "הר שלמה",
        "name:en": "Mt. Shlomo",
        "name:en1": "Jebel Riyahiya",
        "name:he": "הר שלמה",
        "natural": "peak",
        "source": "GEOnet Names Server (gns)",
        "wikidata": "Q7211572"
      }
    },
    {
      "type": "node",
      "id": 428001914,
      "lat": 29.9696388,
      "lon": 35.0610494,
      "timestamp": "2021-09-07T08:45:54Z",
      "version": 9,
      "changeset": 110843893,
      "user": "zstadler",
      "uid": 3127,
      "tags": {
        "name": "קטורה",
        "name:en": "Ketura",
        "name:en2": "Ktura",
        "name:en3": "Qetura",
        "name:fr": "Ketura",
        "name:he": "קטורה",
        "name:hr": "Ketura",
        "place": "village"
      }
    },
    {
      "type": "node",
      "id": 429882224,
      "lat": 29.7964294,
      "lon": 35.0119398,
      "timestamp": "2022-02-15T22:00:27Z",
      "version": 9,
      "changeset": 117453016,
      "user": "hatul",
      "uid": 686490,
      "tags": {
        "name": "אליפז",
        "name:en": "Elifaz",
        "name:fr": "Elifaz",
        "name:he": "אליפז",
        "name:hr": "Elifaz",
        "place": "village",
        "wikipedia": "he:אליפז (קיבוץ)",
        "wikipedia:he": "אליפז (קיבוץ)"
      }
    },
    {
      "type": "node",
      "id": 429882226,
      "lat": 29.8333743,
      "lon": 35.022744,
      "timestamp": "2021-09-07T08:45:54Z",
      "version": 5,
      "changeset": 110843893,
      "user": "zstadler",
      "uid": 3127,
      "tags": {
        "name": "סמר",
        "name:en": "Samar",
        "name:fr": "Samar",
        "name:he": "סמר",
        "name:hr": "Samar",
        "place": "village"
      }
    },
    {
      "type": "node",
      "id": 429882256,
      "lat": 29.9867806,
      "lon": 35.0886439,
      "timestamp": "2021-09-07T08:45:54Z",
      "version": 6,
      "changeset": 110843893,
      "user": "zstadler",
      "uid": 3127,
      "tags": {
        "name": "לוטן",
        "name:en": "Lotan",
        "name:fr": "Lotan",
        "name:he": "לוטן",
        "name:hr": "Lotan",
        "place": "village",
        "website": "http://kibbutzlotan.com/",
        "wikidata": "Q2776367",
        "wikipedia": "he:לוטן"
      }
    },
    {
      "type": "node",
      "id": 429882264,
      "lat": 29.9036321,
      "lon": 34.9992083,
      "timestamp": "2021-09-07T08:45:54Z",
      "version": 5,
      "changeset": 110843893,
      "user": "zstadler",
      "uid": 3127,
      "tags": {
        "name": "שחרות",
        "name:cs": "Šacharut",
        "name:en": "Shaharut",
        "name:fr": "Shaharut",
        "name:he": "שחרות",
        "name:nn": "Shaharut",
        "name:pl": "Szacharut",
        "place": "village",
        "population": "135"
      }
    },
    {
      "type": "node",
      "id": 599486099,
      "lat": 30.0136505,
      "lon": 35.0498669,
      "timestamp": "2020-04-28T20:30:43Z",
      "version": 4,
      "changeset": 84290189,
      "user": "Edward",
      "uid": 364,
      "tags": {
        "ele": "480",
        "name": "הר עיט",
        "name:en": "Har Ayit",
        "name:he": "הר עיט",
        "natural": "peak",
        "wikidata": "Q26766879"
      }
    },
    {
      "type": "node",
      "id": 599488553,
      "lat": 29.5456139,
      "lon": 34.8961548,
      "timestamp": "2020-04-28T20:30:42Z",
      "version": 6,
      "changeset": 84290189,
      "user": "Edward",
      "uid": 364,
      "tags": {
        "accuracy": "minutes",
        "ele": "389",
        "name": "הר רחבעם",
        "name:en": "Mt. Rehavam",
        "name:he": "הר רחבעם",
        "natural": "peak",
        "wikidata": "Q26764584"
      }
    },
    {
      "type": "node",
      "id": 798842934,
      "lat": 29.5571581,
      "lon": 35.0018379,
      "timestamp": "2020-02-02T00:48:02Z",
      "version": 5,
      "changeset": 80424087,
      "user": "بشير إبراهيمي",
      "uid": 9838430,
      "tags": {
        "name": "تل الخليفة",
        "name:ar": "تل الخليفة",
        "name:de": "Tall al-Khalifa",
        "name:en": "Tall al Khalifa",
        "place": "village"
      }
    },
    {
      "type": "node",
      "id": 1060393965,
      "lat": 29.6436113,
      "lon": 34.8786848,
      "timestamp": "2020-04-28T20:30:12Z",
      "version": 3,
      "changeset": 84290189,
      "user": "Edward",
      "uid": 364,
      "tags": {
        "ele": "838",
        "gns_ref": "-780154",
        "name": "הר חזקיהו",
        "name:en": "Mt. Hizqiyyahu",
        "name:he": "הר חזקיהו",
        "natural": "peak",
        "source": "GEOnet Names Server (gns)",
        "tourism": "viewpoint",
        "wikidata": "Q7211420"
      }
    },
    {
      "type": "node",
      "id": 1060394104,
      "lat": 29.5842931,
      "lon": 34.880738,
      "timestamp": "2020-04-28T20:30:42Z",
      "version": 4,
      "changeset": 84290189,
      "user": "Edward",
      "uid": 364,
      "tags": {
        "ele": "701",
        "name": "הר יואש",
        "name:en": "Mt. Yoash",
        "name:he": "הר יואש",
        "natural": "peak",
        "wikidata": "Q26764580"
      }
    },
    {
      "type": "node",
      "id": 1298718838,
      "lat": 29.5545726,
      "lon": 34.9621241,
      "timestamp": "2017-01-04T11:08:45Z",
      "version": 4,
      "changeset": 44895612,
      "user": "usr1",
      "uid": 4721631,
      "tags": {
        "description": "Продукты, хозбыт, сувениры, товары для туристов",
        "name": "supermarket",
        "name:en": "supermarket",
        "name:ru": "Супермаркет",
        "shop": "supermarket"
      }
    },
    {
      "type": "node",
      "id": 1300092688,
      "lat": 29.5519932,
      "lon": 34.9563932,
      "timestamp": "2014-09-23T09:18:04Z",
      "version": 2,
      "changeset": 25620751,
      "user": "sivan00",
      "uid": 2045570,
      "tags": {
        "name": "Mini supermarket",
        "name:en": "Mini supermarket",
        "shop": "supermarket"
      }
    },
    {
      "type": "node",
      "id": 1300812466,
      "lat": 29.5659276,
      "lon": 34.9598143,
      "timestamp": "2021-07-05T20:01:51Z",
      "version": 4,
      "changeset": 107455807,
      "user": "BMM994",
      "uid": 189946,
      "tags": {
        "name": "שופרסל דיל",
        "name:en": "Shufersal Deal",
        "name:he": "שופרסל דיל",
        "shop": "supermarket"
      }
    },
    {
      "type": "node",
      "id": 1301681217,
      "lat": 29.5651068,
      "lon": 34.9569823,
      "timestamp": "2021-07-05T20:01:51Z",
      "version": 3,
      "changeset": 107455807,
      "user": "BMM994",
      "uid": 189946,
      "tags": {
        "name": "fruits",
        "name:en": "fruits",
        "shop": "supermarket"
      }
    },
    {
      "type": "node",
      "id": 2175394684,
      "lat": 29.6213633,
      "lon": 34.9417615,
      "timestamp": "2020-10-26T05:59:20Z",
      "version": 8,
      "changeset": 93041020,
      "user": "Galking",
      "uid": 12056771,
      "tags": {
        "description": "בחניון (בחניון היום, ליד הכניסה לקניון) מוצב עוקב מים של רט״ג.\nהמים מוחלפים בימי ראשון ורביעי כך שאיכות המים טובה.",
        "description:he": "בחניון (בחניון היום, ליד הכניסה לקניון) מוצב עוקב מים של רט״ג.\nהמים מוחלפים בימי ראשון ורביעי כך שאיכות המים טובה.",
        "image": "https://upload.wikimedia.org/wikipedia/commons/4/4d/IHM_חניון_לילה_שחורת.jpeg",
        "name": "Shehoret Night Camp",
        "name:en": "Shehoret Night Camp",
        "name:he": "חניון לילה שחורת",
        "tourism": "camp_site"
      }
    },
    {
      "type": "node",
      "id": 2378304437,
      "lat": 29.5608055,
      "lon": 34.9579639,
      "timestamp": "2013-07-08T19:40:29Z",
      "version": 1,
      "changeset": 16878378,
      "user": "yrtimiD",
      "uid": 331840,
      "tags": {
        "brand": "Sogood",
        "brand:en": "Sogood",
        "contact:phone": "+97286337327",
        "contact:website": "http://www.sonol.co.il/",
        "name": "אילת",
        "name:en": "Eilat",
        "name:he": "אילת",
        "opening_hours": "24/7",
        "shop": "convenience"
      }
    },
    {
      "type": "node",
      "id": 2470368758,
      "lat": 29.573191,
      "lon": 34.9637544,
      "timestamp": "2016-10-03T20:28:56Z",
      "version": 2,
      "changeset": 42614814,
      "user": "yrtimiD",
      "uid": 331840,
      "tags": {
        "brand": "מנטה",
        "brand:en": "Menta",
        "brand:he": "מנטה",
        "contact:website": "http://www.delek.co.il",
        "name": "צוף אילת",
        "name:en": "Tsof Eilat",
        "name:he": "צוף אילת",
        "opening_hours": "24/7",
        "shop": "convenience"
      }
    },
    {
      "type": "node",
      "id": 2470368759,
      "lat": 29.5709615,
      "lon": 34.9631001,
      "timestamp": "2016-10-03T20:33:48Z",
      "version": 2,
      "changeset": 42614907,
      "user": "yrtimiD",
      "uid": 331840,
      "tags": {
        "atm": "yes",
        "brand": "Yellow",
        "brand:en": "Yellow",
        "contact:website": "http://www.yellow.co.il/",
        "internet_access": "wlan",
        "name": "אדום אילת",
        "name:en": "Adom Eilat",
        "name:he": "אדום אילת",
        "opening_hours": "24/7",
        "shop": "convenience"
      }
    },
    {
      "type": "node",
      "id": 2805545007,
      "lat": 29.9674064,
      "lon": 34.9764283,
      "timestamp": "2021-12-04T17:00:02Z",
      "version": 7,
      "changeset": 114560765,
      "user": "zstadler",
      "uid": 3127,
      "tags": {
        "access": "yes",
        "alt_name": "Nahal Yitro",
        "capacity": "100",
        "description": "שטח נרחב בצמוד לכביש. מתאים לקבוצות גדולות",
        "description:he": "שטח נרחב בצמוד לכביש. מתאים לקבוצות גדולות",
        "fee": "no",
        "image": "https://upload.wikimedia.org/wikipedia/commons/f/f1/IHM_חניון_לילה_חולות_כסוי.jpeg",
        "image1": "https://upload.wikimedia.org/wikipedia/commons/1/13/IHM_חניון_לילה_חולות_כסוי_1.jpeg",
        "name": "חניון לילה מערבי חולות כסוי",
        "name:en": "Nachal Yitro",
        "name:he": "חניון לילה מערבי חולות כסוי",
        "source": "GPS",
        "tourism": "camp_site"
      }
    },
    {
      "type": "node",
      "id": 3328163713,
      "lat": 29.5968571,
      "lon": 34.8811798,
      "timestamp": "2020-12-24T14:22:20Z",
      "version": 9,
      "changeset": 96391606,
      "user": "pizzaiolo",
      "uid": 1772368,
      "tags": {
        "alt_name:en": "Bir Qattar;`Ein Netafim",
        "description": "מקור המים הטבעי היחידי באיזור עבור חיות הבר\nאין לשהות בחשיכה על מנת לאפשר לחיות לשתות בבטחה",
        "description:he": "מקור המים הטבעי היחידי באיזור עבור חיות הבר\nאין לשהות בחשיכה על מנת לאפשר לחיות לשתות בבטחה",
        "gns_ref": "-779716",
        "image": "https://upload.wikimedia.org/wikipedia/commons/5/5c/Israel_Hiking_Map_%D7%A2%D7%99%D7%9F_%D7%A0%D7%98%D7%A4%D7%99%D7%9D.jpeg",
        "name": "עין נטפים",
        "name:en": "Ein Netafim spring",
        "name:he": "עין נטפים",
        "natural": "spring",
        "source": "GEOnet Names Server (gns)",
        "wikidata": "Q5349586",
        "wikipedia": "he:עין נטפים",
        "wikipedia:he": "עין נטפים"
      }
    },
    {
      "type": "node",
      "id": 3493767716,
      "lat": 29.5598234,
      "lon": 34.9508557,
      "timestamp": "2019-10-03T21:40:18Z",
      "version": 5,
      "changeset": 75253840,
      "user": "mrpulley",
      "uid": 67896,
      "tags": {
        "name": "דניאל",
        "name:en": "Daniel's Deli Delicates",
        "name:he": "דניאל",
        "name:ru": "Даниэль",
        "shop": "supermarket"
      }
    },
    {
      "type": "node",
      "id": 3640956034,
      "lat": 29.5894315,
      "lon": 34.8894058,
      "timestamp": "2021-12-25T19:13:38Z",
      "version": 8,
      "changeset": 115368891,
      "user": "zstadler",
      "uid": 3127,
      "tags": {
        "name": "הר יהורם",
        "name:en": "Mt. Yehoram",
        "name:he": "הר יהורם",
        "natural": "peak",
        "wikidata": "Q26764582"
      }
    },
    {
      "type": "node",
      "id": 3747606273,
      "lat": 29.6141722,
      "lon": 34.8847077,
      "timestamp": "2020-04-28T20:30:42Z",
      "version": 4,
      "changeset": 84290189,
      "user": "Edward",
      "uid": 364,
      "tags": {
        "ele": "769",
        "name": "הר יהואחז",
        "name:en": "Mt. Yeho'ahaz",
        "name:he": "הר יהואחז",
        "natural": "peak",
        "wikidata": "Q26764578"
      }
    },
    {
      "type": "node",
      "id": 4307987587,
      "lat": 29.8256331,
      "lon": 34.89779,
      "timestamp": "2021-11-29T06:22:32Z",
      "version": 3,
      "changeset": 114346640,
      "user": "zstadler",
      "uid": 3127,
      "tags": {
        "camp_site": "basic",
        "image": "https://upload.wikimedia.org/wikipedia/commons/1/17/IHM_חניון_לילה_הר_ברך.jpeg",
        "name": "חניון לילה הר ברך",
        "name:he": "חניון לילה הר ברך",
        "tourism": "camp_site"
      }
    },
    {
      "type": "node",
      "id": 4313565014,
      "lat": 29.8976574,
      "lon": 35.0314371,
      "timestamp": "2018-01-13T10:31:03Z",
      "version": 3,
      "changeset": 55401757,
      "user": "zstadler",
      "uid": 3127,
      "tags": {
        "name": "חניון לילה מעלה שחרות",
        "name:he": "חניון לילה מעלה שחרות",
        "tourism": "camp_site"
      }
    },
    {
      "type": "node",
      "id": 4427604801,
      "lat": 29.7598955,
      "lon": 34.9691072,
      "timestamp": "2019-01-24T12:20:40Z",
      "version": 2,
      "changeset": 66599878,
      "user": "t_pienn",
      "uid": 2848708,
      "tags": {
        "access": "yes",
        "amenity": "drinking_water",
        "fee": "no",
        "wheelchair": "yes"
      }
    },
    {
      "type": "node",
      "id": 4428983230,
      "lat": 29.5502758,
      "lon": 34.9594584,
      "timestamp": "2017-06-10T05:08:05Z",
      "version": 2,
      "changeset": 49412690,
      "user": "SafwatHalaby_bot",
      "uid": 5816834,
      "tags": {
        "name": "SuperMarket",
        "name:en": "SuperMarket",
        "opening_hours": "24/7",
        "shop": "convenience"
      }
    },
    {
      "type": "node",
      "id": 4429532174,
      "lat": 29.5616995,
      "lon": 34.9381797,
      "timestamp": "2016-10-03T20:11:37Z",
      "version": 1,
      "changeset": 42614471,
      "user": "yrtimiD",
      "uid": 331840,
      "tags": {
        "brand": "מנטה",
        "brand:en": "Menta",
        "brand:he": "מנטה",
        "contact:website": "http://www.delek.co.il",
        "name": "מנטה מצפה אילת",
        "name:en": "Menta Mitspe Eilat",
        "name:he": "מנטה מצפה אילת",
        "opening_hours": "24/7",
        "shop": "convenience",
        "wheelchair": "yes"
      }
    },
    {
      "type": "node",
      "id": 4497059910,
      "lat": 29.9771342,
      "lon": 34.9873708,
      "timestamp": "2022-05-31T13:17:39Z",
      "version": 4,
      "changeset": 121768434,
      "user": "Odedshilo",
      "uid": 4922699,
      "tags": {
        "description": "חניון לילה לא גדול ללא הסדרה מיוחדת",
        "description:he": "חניון לילה לא גדול ללא הסדרה מיוחדת",
        "image": "https://upload.wikimedia.org/wikipedia/commons/5/51/IHM_חניון_לילה_צפוני_חולות_כסוי.jpeg",
        "name": "חניון לילה צפוני חולות כסוי",
        "name:en": "Kasuy Dunes northern camping",
        "name:he": "חניון לילה צפוני חולות כסוי",
        "source": "GPS",
        "tourism": "camp_site"
      }
    },
    {
      "type": "node",
      "id": 4556121093,
      "lat": 29.5668979,
      "lon": 34.955973,
      "timestamp": "2018-12-06T10:24:28Z",
      "version": 4,
      "changeset": 65233846,
      "user": "valleyofdawn",
      "uid": 356970,
      "tags": {
        "name": "Bazylika Grobu Pańskiego",
        "name:en": "Supermarket",
        "name:he": "Bazylika Grobu Pańskiego",
        "shop": "supermarket"
      }
    },
    {
      "type": "node",
      "id": 4617734591,
      "lat": 29.5439953,
      "lon": 35.0150055,
      "timestamp": "2019-09-10T18:40:45Z",
      "version": 3,
      "changeset": 74325339,
      "user": "Aqaba Shark",
      "uid": 10269876,
      "tags": {
        "name": "marhaba market - شويخ مول",
        "name:ar": "شويخ مول",
        "shop": "supermarket"
      }
    },
    {
      "type": "node",
      "id": 4621243269,
      "lat": 29.5865734,
      "lon": 34.9330313,
      "timestamp": "2017-01-20T20:19:36Z",
      "version": 1,
      "changeset": 45336759,
      "user": "ylivny",
      "uid": 4749697,
      "tags": {
        "fee": "no",
        "name": "חניון לילה נחל נטפים",
        "name:en": "Nahal netafim camp site",
        "name:he": "חניון לילה נחל נטפים",
        "tourism": "camp_site"
      }
    },
    {
      "type": "node",
      "id": 4770784726,
      "lat": 29.7877649,
      "lon": 34.9899165,
      "timestamp": "2017-04-02T10:19:05Z",
      "version": 1,
      "changeset": 47377285,
      "user": "shay trails",
      "uid": 2769154,
      "tags": {
        "amenity": "drinking_water"
      }
    },
    {
      "type": "node",
      "id": 4778095411,
      "lat": 29.7100601,
      "lon": 34.9872131,
      "timestamp": "2018-07-29T12:19:10Z",
      "version": 2,
      "changeset": 61163234,
      "user": "valleyofdawn",
      "uid": 356970,
      "tags": {
        "addr:street": "משעול כוכב",
        "internet_access": "wlan",
        "name": "תמר במדבר",
        "name:en": "Tamar Bamidbar",
        "name:he": "תמר במדבר",
        "operator": "זהר תמרי",
        "phone": "0584470004",
        "tourism": "camp_site",
        "website": "https://www.facebook.com/tamarbamidbar/?hc_ref=ARSqaEpAhKUDeE2N7x65ZzTQ_6jSYotCxzgc7LksLZvdBvZgTMd0cQixeUSqelWWBZs&fref=nf"
      }
    },
    {
      "type": "node",
      "id": 4789651321,
      "lat": 29.5875607,
      "lon": 34.8846664,
      "timestamp": "2022-05-18T05:57:57Z",
      "version": 7,
      "changeset": 121127092,
      "user": "thumbsup",
      "uid": 6508691,
      "tags": {
        "description": "בחניון יש ברז מים. אוקטובר 2020",
        "description:he": "בחניון יש ברז מים. אוקטובר 2020",
        "fee": "no",
        "image": "https://upload.wikimedia.org/wikipedia/commons/e/e6/IHM_חניון_לילה_הר_יהורם.jpeg",
        "image1": "https://upload.wikimedia.org/wikipedia/commons/e/e6/IHM_חניון_לילה_הר_יהורם.jpeg",
        "name": "חניון לילה הר יהורם",
        "name:en": "Yehoram Mountain Campsite",
        "name:he": "חניון לילה הר יהורם",
        "tourism": "camp_site"
      }
    },
    {
      "type": "node",
      "id": 4873335299,
      "lat": 29.9167109,
      "lon": 34.9936617,
      "timestamp": "2021-10-24T13:59:17Z",
      "version": 4,
      "changeset": 112907313,
      "user": "hatul",
      "uid": 686490,
      "tags": {
        "description": "החאן שהיה במקום נסגר אבל יש ברז וניתן לישון.",
        "description:he": "החאן שהיה במקום נסגר אבל יש ברז וניתן לישון.",
        "name": "חניון הנוודים",
        "name:he": "חניון הנוודים",
        "tourism": "camp_site"
      }
    },
    {
      "type": "node",
      "id": 4914084844,
      "lat": 29.7985009,
      "lon": 34.9951715,
      "timestamp": "2020-04-28T20:32:45Z",
      "version": 5,
      "changeset": 84290297,
      "user": "Edward",
      "uid": 364,
      "tags": {
        "ele": "275",
        "name": "גבעת ססגון",
        "name:en": "Sasgon Hill",
        "name:he": "גבעת ססגון",
        "natural": "peak",
        "wikidata": "Q26766865"
      }
    },
    {
      "type": "node",
      "id": 5167262009,
      "lat": 29.5598045,
      "lon": 34.9505835,
      "timestamp": "2021-03-20T15:48:20Z",
      "version": 6,
      "changeset": 101392381,
      "user": "SafwatHalaby",
      "uid": 2138064,
      "tags": {
        "fixme": "name, name:he mismatch. Flagged by SafwatHalaby_bot-nameCopy",
        "name": "שופרסל שלי",
        "name:en": "Shufersal",
        "name:he": "שופרסל שלי - אילת",
        "name:ru": "Шуферсаль",
        "shop": "supermarket"
      }
    },
    {
      "type": "node",
      "id": 5306746580,
      "lat": 29.7039356,
      "lon": 34.9561005,
      "timestamp": "2022-03-13T15:27:56Z",
      "version": 7,
      "changeset": 118434200,
      "user": "hatul",
      "uid": 686490,
      "tags": {
        "description": "חניון לילה בשטח. במקום מוצב עוקב מים של רט״ג.",
        "description:he": "חניון לילה בשטח. במקום מוצב עוקב מים של רט״ג.",
        "drinking_water": "yes",
        "fee": "no",
        "image": "https://upload.wikimedia.org/wikipedia/commons/d/db/Israel_Hiking_Map_%D7%97%D7%A0%D7%99%D7%95%D7%9F_%D7%9C%D7%99%D7%9C%D7%94_%D7%A8%D7%97%D7%9D_%D7%A2%D7%AA%D7%A7.jpeg",
        "name": "חניון לילה רחם-עתק",
        "name:en": "Raham-Etek Campsite",
        "name:he": "חניון לילה רחם-עתק",
        "tourism": "camp_site"
      }
    },
    {
      "type": "node",
      "id": 5335102253,
      "lat": 29.6795987,
      "lon": 34.8750404,
      "timestamp": "2022-05-18T05:57:58Z",
      "version": 3,
      "changeset": 121127092,
      "user": "thumbsup",
      "uid": 6508691,
      "tags": {
        "fee": "no",
        "name": "חניון לילה הקניון האדום",
        "name:he": "חניון לילה הקניון האדום",
        "tourism": "camp_site"
      }
    },
    {
      "type": "node",
      "id": 5336544084,
      "lat": 29.8325602,
      "lon": 34.9231756,
      "timestamp": "2022-03-13T15:37:26Z",
      "version": 7,
      "changeset": 118434629,
      "user": "hatul",
      "uid": 686490,
      "tags": {
        "description": "חניון לילה עם ברז שמחובר למיכל מים מוטמן.\nהמים במיכל מיועדים לתרמילאים לשתיה בלבד. הרט״ג דואגת למלא את המיכל.",
        "description:he": "חניון לילה עם ברז שמחובר למיכל מים מוטמן.\nהמים במיכל מיועדים לתרמילאים לשתיה בלבד. הרט״ג דואגת למלא את המיכל.",
        "drinking_water": "yes",
        "fee": "no",
        "image": "https://upload.wikimedia.org/wikipedia/commons/4/45/IHM_חניון_לילה_באר_מלחן.jpeg",
        "image1": "https://upload.wikimedia.org/wikipedia/commons/1/14/IHM_חניון_לילה_באר_מלחן_1.jpeg",
        "name": "חניון לילה באר מלחן",
        "name:en": "Be'er Milhan campsite",
        "name:he": "חניון לילה באר מלחן",
        "tourism": "camp_site"
      }
    },
    {
      "type": "node",
      "id": 5337247450,
      "lat": 29.6467388,
      "lon": 34.9430838,
      "timestamp": "2021-12-05T17:40:25Z",
      "version": 4,
      "changeset": 114589454,
      "user": "zstadler",
      "uid": 3127,
      "tags": {
        "alt_name": "חניון לילה עמודי עמרם",
        "alt_name:he": "חניון לילה עמודי עמרם",
        "name": "חניון לילה גבעת יוכבד",
        "name:en": "Yocheved Hill Night Camp",
        "name:he": "חניון לילה גבעת יוכבד",
        "source": "GPS",
        "tourism": "camp_site"
      }
    },
    {
      "type": "node",
      "id": 5345126923,
      "lat": 29.6692632,
      "lon": 34.6336015,
      "timestamp": "2021-10-25T20:30:03Z",
      "version": 3,
      "changeset": 112966184,
      "user": "Binnette",
      "uid": 918586,
      "tags": {
        "ele": "874",
        "name": "Hashem El Tarif",
        "natural": "peak",
        "wikidata": "Q2896311"
      }
    },
    {
      "type": "node",
      "id": 5456537604,
      "lat": 29.66066,
      "lon": 34.8755307,
      "timestamp": "2018-08-28T09:50:19Z",
      "version": 2,
      "changeset": 62065014,
      "user": "zstadler",
      "uid": 3127,
      "tags": {
        "natural": "cave_entrance"
      }
    },
    {
      "type": "node",
      "id": 5475406823,
      "lat": 30.034975,
      "lon": 35.065398,
      "timestamp": "2018-03-13T11:14:33Z",
      "version": 1,
      "changeset": 57141800,
      "user": "offa72",
      "uid": 2410665,
      "tags": {
        "name": "עין קטורה",
        "name:he": "עין קטורה",
        "natural": "spring"
      }
    },
    {
      "type": "node",
      "id": 6090083385,
      "lat": 29.5688193,
      "lon": 34.9871699,
      "timestamp": "2018-11-25T14:20:18Z",
      "version": 1,
      "changeset": 64868023,
      "user": "Map Love",
      "uid": 9142528,
      "tags": {
        "name:en": "Bird hide",
        "tourism": "wilderness_hut"
      }
    },
    {
      "type": "node",
      "id": 6096015386,
      "lat": 29.571242,
      "lon": 34.9589793,
      "timestamp": "2020-05-16T17:14:54Z",
      "version": 2,
      "changeset": 85311424,
      "user": "SafwatHalaby",
      "uid": 2138064,
      "tags": {
        "name": "מחסני השוק",
        "name:en": "Supermarket",
        "name:he": "מחסני השוק",
        "shop": "supermarket"
      }
    },
    {
      "type": "node",
      "id": 6160815427,
      "lat": 29.5500175,
      "lon": 34.9472025,
      "timestamp": "2018-12-25T07:54:32Z",
      "version": 1,
      "changeset": 65755055,
      "user": "akosgy",
      "uid": 778976,
      "tags": {
        "name": "Supermarket",
        "name:en": "Supermarket",
        "shop": "supermarket"
      }
    },
    {
      "type": "node",
      "id": 6160815428,
      "lat": 29.5527424,
      "lon": 34.948997,
      "timestamp": "2018-12-25T07:54:32Z",
      "version": 1,
      "changeset": 65755055,
      "user": "akosgy",
      "uid": 778976,
      "tags": {
        "name": "24/7 Supermarket",
        "name:en": "24/7 Supermarket",
        "shop": "supermarket"
      }
    },
    {
      "type": "node",
      "id": 6176420826,
      "lat": 29.550929,
      "lon": 34.9585867,
      "timestamp": "2020-05-16T17:14:54Z",
      "version": 2,
      "changeset": 85311424,
      "user": "SafwatHalaby",
      "uid": 2138064,
      "tags": {
        "name": "Supermarket",
        "name:en": "Supermarket",
        "shop": "supermarket"
      }
    },
    {
      "type": "node",
      "id": 6232949109,
      "lat": 29.5642962,
      "lon": 34.9453707,
      "timestamp": "2020-05-16T17:14:54Z",
      "version": 2,
      "changeset": 85311424,
      "user": "SafwatHalaby",
      "uid": 2138064,
      "tags": {
        "name": "Supersal del Ora",
        "name:en": "Supersal del Ora",
        "shop": "supermarket"
      }
    },
    {
      "type": "node",
      "id": 6232949117,
      "lat": 29.5448062,
      "lon": 34.9318161,
      "timestamp": "2020-05-16T17:14:54Z",
      "version": 2,
      "changeset": 85311424,
      "user": "SafwatHalaby",
      "uid": 2138064,
      "tags": {
        "name": "Shufersal Express",
        "name:en": "Shufersal Express",
        "shop": "supermarket"
      }
    },
    {
      "type": "node",
      "id": 6238192606,
      "lat": 29.5481941,
      "lon": 34.9357724,
      "timestamp": "2019-01-26T16:26:25Z",
      "version": 1,
      "changeset": 66658575,
      "user": "thumbsup",
      "uid": 6508691,
      "tags": {
        "amenity": "drinking_water"
      }
    },
    {
      "type": "node",
      "id": 6240116433,
      "lat": 29.5646374,
      "lon": 34.9454672,
      "timestamp": "2019-01-27T18:03:54Z",
      "version": 1,
      "changeset": 66683607,
      "user": "thumbsup",
      "uid": 6508691,
      "tags": {
        "amenity": "drinking_water"
      }
    },
    {
      "type": "node",
      "id": 6240123693,
      "lat": 29.5543793,
      "lon": 34.9386746,
      "timestamp": "2022-05-18T04:39:47Z",
      "version": 2,
      "changeset": 121124498,
      "user": "thumbsup",
      "uid": 6508691,
      "tags": {
        "amenity": "drinking_water",
        "check_date": "2022-05-14"
      }
    },
    {
      "type": "node",
      "id": 6240983160,
      "lat": 29.5664047,
      "lon": 34.9600875,
      "timestamp": "2021-07-05T20:01:51Z",
      "version": 2,
      "changeset": 107455807,
      "user": "BMM994",
      "uid": 189946,
      "tags": {
        "amenity": "drinking_water"
      }
    },
    {
      "type": "node",
      "id": 6307877066,
      "lat": 29.8069191,
      "lon": 34.9928703,
      "timestamp": "2019-05-01T06:59:52Z",
      "version": 2,
      "changeset": 69758328,
      "user": "Udi",
      "uid": 773,
      "tags": {
        "image": "https://upload.wikimedia.org/wikipedia/commons/7/74/Israel_Hiking_Map_%D7%97%D7%A0%D7%99%D7%95%D7%9F_%D7%9C%D7%99%D7%9C%D7%94_%D7%A0%D7%97%D7%9C_%D7%9E%D7%A0%D7%92%D7%9F.jpeg",
        "name": "Wadi Mangan Campground",
        "name:en": "Wadi Mangan Campground",
        "name:he": "חניון לילה נחל מנגן",
        "tourism": "camp_site"
      }
    },
    {
      "type": "node",
      "id": 6375254797,
      "lat": 29.7085872,
      "lon": 34.9854024,
      "timestamp": "2020-04-01T10:38:44Z",
      "version": 2,
      "changeset": 82917528,
      "user": "BMM994",
      "uid": 189946,
      "tags": {
        "amenity": "drinking_water"
      }
    },
    {
      "type": "node",
      "id": 6782190700,
      "lat": 29.5435652,
      "lon": 35.0146905,
      "timestamp": "2019-09-09T07:50:55Z",
      "version": 1,
      "changeset": 74247015,
      "user": "Aqaba Shark",
      "uid": 10269876,
      "tags": {
        "name": "Home Basket",
        "shop": "supermarket"
      }
    },
    {
      "type": "node",
      "id": 6782190701,
      "lat": 29.5438198,
      "lon": 35.0146881,
      "timestamp": "2019-09-09T07:50:55Z",
      "version": 1,
      "changeset": 74247015,
      "user": "Aqaba Shark",
      "uid": 10269876,
      "tags": {
        "name": "Al Turk",
        "shop": "supermarket"
      }
    },
    {
      "type": "node",
      "id": 6782412930,
      "lat": 29.5424115,
      "lon": 34.9486779,
      "timestamp": "2019-09-09T10:03:27Z",
      "version": 1,
      "changeset": 74253088,
      "user": "Mateusz Konieczny",
      "uid": 1722488,
      "tags": {
        "amenity": "drinking_water",
        "man_made": "tap"
      }
    },
    {
      "type": "node",
      "id": 6799324896,
      "lat": 29.5436411,
      "lon": 35.0149816,
      "timestamp": "2019-09-16T12:24:56Z",
      "version": 1,
      "changeset": 74529458,
      "user": "Aqaba Shark",
      "uid": 10269876,
      "tags": {
        "name": "marhaba market - شويخ مول",
        "name:ar": "شويخ مول",
        "shop": "supermarket"
      }
    },
    {
      "type": "node",
      "id": 6799324897,
      "lat": 29.5436441,
      "lon": 35.015148,
      "timestamp": "2019-09-16T12:24:56Z",
      "version": 1,
      "changeset": 74529458,
      "user": "Aqaba Shark",
      "uid": 10269876,
      "tags": {
        "name": "marhaba market - شويخ مول",
        "name:ar": "شويخ مول",
        "shop": "supermarket"
      }
    },
    {
      "type": "node",
      "id": 6799324898,
      "lat": 29.5437796,
      "lon": 35.0154524,
      "timestamp": "2019-09-16T12:24:56Z",
      "version": 1,
      "changeset": 74529458,
      "user": "Aqaba Shark",
      "uid": 10269876,
      "tags": {
        "name": "marhaba market - شويخ مول",
        "name:ar": "شويخ مول",
        "shop": "supermarket"
      }
    },
    {
      "type": "node",
      "id": 6799324899,
      "lat": 29.5440229,
      "lon": 35.0155302,
      "timestamp": "2019-09-16T12:24:56Z",
      "version": 1,
      "changeset": 74529458,
      "user": "Aqaba Shark",
      "uid": 10269876,
      "tags": {
        "name": "marhaba market - شويخ مول",
        "name:ar": "شويخ مول",
        "shop": "supermarket"
      }
    },
    {
      "type": "node",
      "id": 6799485324,
      "lat": 29.5409482,
      "lon": 35.0111507,
      "timestamp": "2019-09-16T13:36:07Z",
      "version": 1,
      "changeset": 74533232,
      "user": "Aqaba Shark",
      "uid": 10269876,
      "tags": {
        "name": "marhaba market - شويخ مول",
        "name:ar": "شويخ مول",
        "shop": "supermarket"
      }
    },
    {
      "type": "node",
      "id": 6902347496,
      "lat": 29.5521588,
      "lon": 34.952587,
      "timestamp": "2019-10-21T10:35:04Z",
      "version": 1,
      "changeset": 75988940,
      "user": "renebril",
      "uid": 10197698,
      "tags": {
        "amenity": "drinking_water"
      }
    },
    {
      "type": "node",
      "id": 7077887391,
      "lat": 29.7922301,
      "lon": 34.9313767,
      "timestamp": "2021-06-26T12:14:43Z",
      "version": 4,
      "changeset": 107000463,
      "user": "zstadler",
      "uid": 3127,
      "tags": {
        "description": "כניסה לפיר כריה, כולל טיפוס בתוך הפיר יעד לנקודת תצפית מעליו",
        "description:he": "כניסה לפיר כריה, כולל טיפוס בתוך הפיר יעד לנקודת תצפית מעליו",
        "image": "https://upload.wikimedia.org/wikipedia/commons/5/5c/Israel_Hiking_Map_מערת_הכורים.jpeg",
        "image1": "https://upload.wikimedia.org/wikipedia/commons/a/a2/Israel_Hiking_Map_מערת_הכורים_1.jpeg",
        "name": "מערת הכורים",
        "name:he": "מערת הכורים",
        "natural": "cave_entrance"
      }
    },
    {
      "type": "node",
      "id": 7077895286,
      "lat": 29.7939107,
      "lon": 34.9329792,
      "timestamp": "2019-12-22T20:10:12Z",
      "version": 2,
      "changeset": 78743359,
      "user": "Zarmi",
      "uid": 10394127,
      "tags": {
        "image": "https://upload.wikimedia.org/wikipedia/commons/3/35/Israel_Hiking_Map_הקשת_הקטנה.jpeg",
        "name": "הקשת הקטנה",
        "name:he": "הקשת הקטנה",
        "natural": "cave_entrance"
      }
    },
    {
      "type": "node",
      "id": 7077902386,
      "lat": 29.7927072,
      "lon": 34.9324927,
      "timestamp": "2019-12-22T20:10:55Z",
      "version": 2,
      "changeset": 78743372,
      "user": "Zarmi",
      "uid": 10394127,
      "tags": {
        "image": "https://upload.wikimedia.org/wikipedia/commons/a/aa/Israel_Hiking_Map_הקשת_הגדולה.jpeg",
        "name": "הקשת הגדולה",
        "name:he": "הקשת הגדולה",
        "natural": "cave_entrance"
      }
    },
    {
      "type": "node",
      "id": 7077903985,
      "lat": 29.7947716,
      "lon": 34.9339731,
      "timestamp": "2019-12-22T16:21:10Z",
      "version": 1,
      "changeset": 78738376,
      "user": "Zarmi",
      "uid": 10394127,
      "tags": {
        "image": "https://upload.wikimedia.org/wikipedia/commons/2/28/Israel_Hiking_Map_cave_1.jpeg",
        "natural": "cave_entrance"
      }
    },
    {
      "type": "node",
      "id": 7114703385,
      "lat": 29.5475654,
      "lon": 34.9691715,
      "timestamp": "2021-10-16T15:56:04Z",
      "version": 2,
      "changeset": 112584580,
      "user": "zstadler",
      "uid": 3127,
      "tags": {
        "description": "Free campgrounds for RVs and tents",
        "internet_access": "wlan",
        "tourism": "camp_site"
      }
    },
    {
      "type": "node",
      "id": 7216708003,
      "lat": 29.554199,
      "lon": 34.9292731,
      "timestamp": "2020-02-16T15:48:39Z",
      "version": 1,
      "changeset": 81074496,
      "user": "beny258",
      "uid": 10279338,
      "tags": {
        "amenity": "drinking_water",
        "bottle": "yes",
        "fee": "no",
        "wheelchair": "no"
      }
    },
    {
      "type": "node",
      "id": 7414742284,
      "lat": 29.6314641,
      "lon": 34.9634166,
      "timestamp": "2020-04-17T14:08:01Z",
      "version": 1,
      "changeset": 83711559,
      "user": "Malauch",
      "uid": 2997488,
      "tags": {
        "amenity": "shelter",
        "bin": "no",
        "lit": "no",
        "shelter_type": "picnic_shelter"
      }
    },
    {
      "type": "node",
      "id": 7793180085,
      "lat": 29.5428561,
      "lon": 34.9289478,
      "timestamp": "2020-09-25T10:32:22Z",
      "version": 2,
      "changeset": 91502029,
      "user": "SafwatHalaby",
      "uid": 2138064,
      "tags": {
        "name": "ממניס",
        "name:he": "ממניס",
        "shop": "convenience"
      }
    },
    {
      "type": "node",
      "id": 7793189586,
      "lat": 29.5433796,
      "lon": 34.9357664,
      "timestamp": "2020-09-25T10:32:22Z",
      "version": 2,
      "changeset": 91502029,
      "user": "SafwatHalaby",
      "uid": 2138064,
      "tags": {
        "name": "מרכז גיא לי",
        "name:he": "מרכז גיא לי",
        "shop": "convenience"
      }
    },
    {
      "type": "node",
      "id": 8046258049,
      "lat": 29.5875027,
      "lon": 34.8847257,
      "timestamp": "2020-10-26T05:39:15Z",
      "version": 1,
      "changeset": 93039968,
      "user": "Galking",
      "uid": 12056771,
      "tags": {
        "amenity": "drinking_water"
      }
    },
    {
      "type": "node",
      "id": 8046328485,
      "lat": 29.6194035,
      "lon": 34.9338007,
      "timestamp": "2021-06-26T12:14:43Z",
      "version": 5,
      "changeset": 107000463,
      "user": "zstadler",
      "uid": 3127,
      "tags": {
        "amenity": "drinking_water",
        "description": "בחניון היום עוקב מים של רט\"ג. המים מוחלפים כל ראשון ורביעי",
        "description:he": "בחניון היום עוקב מים של רט\"ג. המים מוחלפים כל ראשון ורביעי",
        "image": "https://upload.wikimedia.org/wikipedia/commons/4/4d/IHM_חניון_לילה_שחורת.jpeg"
      }
    },
    {
      "type": "node",
      "id": 8186609718,
      "lat": 29.7860108,
      "lon": 34.9051249,
      "timestamp": "2021-11-29T04:48:24Z",
      "version": 3,
      "changeset": 114344363,
      "user": "zstadler",
      "uid": 3127,
      "tags": {
        "description": "חניון קטן ונחמד עם 3 מעגלי סלע עם מצע זיפזיף לאוהלים ומקומות יעודיים למדורות.\nקחו בחשבון שהמקום די פתוח לרוחות",
        "description:he": "חניון קטן ונחמד עם 3 מעגלי סלע עם מצע זיפזיף לאוהלים ומקומות יעודיים למדורות.\nקחו בחשבון שהמקום די פתוח לרוחות",
        "image": "https://upload.wikimedia.org/wikipedia/commons/4/4d/IHM_חניון_לילה_נחל_בוטם.jpeg",
        "image1": "https://upload.wikimedia.org/wikipedia/commons/6/65/IHM_חניון_לילה_נחל_בוטם_1.jpeg",
        "name": "חניון לילה נחל בוטם",
        "name:he": "חניון לילה נחל בוטם",
        "tourism": "camp_site"
      }
    },
    {
      "type": "node",
      "id": 8201972360,
      "lat": 29.585389,
      "lon": 34.8879186,
      "timestamp": "2021-12-30T07:22:47Z",
      "version": 2,
      "changeset": 115550325,
      "user": "zstadler",
      "uid": 3127,
      "tags": {
        "access": "yes",
        "fee": "no",
        "name": "חניון לילה הר יהורם - מזרח",
        "name:en": "Yehoram Mountain Campsite - East",
        "name:he": "חניון לילה הר יהורם - מזרח",
        "tourism": "camp_site"
      }
    },
    {
      "type": "node",
      "id": 8234431157,
      "lat": 29.7108786,
      "lon": 34.9798613,
      "timestamp": "2020-12-16T12:44:37Z",
      "version": 1,
      "changeset": 95942477,
      "user": "Zohar Kolberg",
      "uid": 8430829,
      "tags": {
        "amenity": "drinking_water"
      }
    },
    {
      "type": "node",
      "id": 8355165591,
      "lat": 29.7105121,
      "lon": 34.9810164,
      "timestamp": "2021-11-11T07:52:05Z",
      "version": 3,
      "changeset": 113639278,
      "user": "Sanniu",
      "uid": 1206509,
      "tags": {
        "description": "חניון לילה מסודר כולל :מים חשמל תאורה שירותים",
        "name": "חניון לילה אורה",
        "name:he": "חניון לילה אורה",
        "tourism": "camp_site"
      }
    },
    {
      "type": "node",
      "id": 8579358473,
      "lat": 30.0526671,
      "lon": 34.8083999,
      "timestamp": "2021-04-15T06:51:11Z",
      "version": 2,
      "changeset": 102970904,
      "user": "zstadler",
      "uid": 3127,
      "tags": {
        "desc": "חניון לילה לא רשמי. מחוץ לשמורה",
        "image": "https://upload.wikimedia.org/wikipedia/commons/1/12/IHM_campsite.jpeg",
        "tourism": "camp_site"
      }
    },
    {
      "type": "node",
      "id": 9293589017,
      "lat": 29.9699648,
      "lon": 34.9832681,
      "timestamp": "2022-03-10T10:49:48Z",
      "version": 4,
      "changeset": 118318112,
      "user": "Dindia",
      "uid": 155411,
      "tags": {
        "description": "אחד משלשה אתרים של חניון לילה חולות כסוי. באתר זה 7 מעגלי לינה לאוהלים עם מצע זיפזיף במעגל החיצוני, משטח גדול לאוהלים במרכז ובורות מדורה רבים.",
        "description:he": "אחד משלשה אתרים של חניון לילה חולות כסוי. באתר זה 7 מעגלי לינה לאוהלים עם מצע זיפזיף במעגל החיצוני, משטח גדול לאוהלים במרכז ובורות מדורה רבים.",
        "image": "https://upload.wikimedia.org/wikipedia/commons/6/60/IHM_חניון_לילה_חולות_כסוי_2.jpeg",
        "name": "חניון לילה אמצעי חולות כסוי",
        "name:en": "Kasuy Dunes camping",
        "name:he": "חניון לילה אמצעי חולות כסוי",
        "tourism": "camp_site"
      }
    },
    {
      "type": "node",
      "id": 9301094035,
      "lat": 29.549467,
      "lon": 34.9542931,
      "timestamp": "2021-12-01T19:01:04Z",
      "version": 1,
      "changeset": 114454645,
      "user": "Marsupium",
      "uid": 753289,
      "tags": {
        "amenity": "drinking_water",
        "covered": "no",
        "indoor": "no"
      }
    },
    {
      "type": "node",
      "id": 9367058017,
      "lat": 29.5652316,
      "lon": 34.8934636,
      "timestamp": "2021-12-31T05:56:48Z",
      "version": 2,
      "changeset": 115594010,
      "user": "zstadler",
      "uid": 3127,
      "tags": {
        "name": "חניון לילה נחל שלמה",
        "name:he": "חניון לילה נחל שלמה",
        "tourism": "camp_site"
      }
    },
    {
      "type": "node",
      "id": 9591748034,
      "lat": 29.759628,
      "lon": 34.9702856,
      "timestamp": "2022-03-20T11:00:12Z",
      "version": 1,
      "changeset": 118691729,
      "user": "AmirLavi",
      "uid": 15350823,
      "tags": {
        "amenity": "drinking_water"
      }
    },
    {
      "type": "node",
      "id": 9717132439,
      "lat": 29.8507817,
      "lon": 34.9725991,
      "timestamp": "2022-05-05T05:29:27Z",
      "version": 1,
      "changeset": 120569343,
      "user": "thumbsup",
      "uid": 6508691,
      "tags": {
        "description": "Wind and rain protected small cave sleeping for about 3 people.",
        "natural": "cave_entrance"
      }
    },
    {
      "type": "node",
      "id": 9717133503,
      "lat": 29.855055,
      "lon": 34.9767317,
      "timestamp": "2022-05-05T05:29:23Z",
      "version": 1,
      "changeset": 120569341,
      "user": "thumbsup",
      "uid": 6508691,
      "tags": {
        "description": "two small caves. suitable for cover in rain and sleeping for about 2-4 people.",
        "natural": "cave_entrance"
      }
    },
    {
      "type": "node",
      "id": 9717135657,
      "lat": 29.8062239,
      "lon": 34.9893009,
      "timestamp": "2022-05-05T05:29:44Z",
      "version": 1,
      "changeset": 120569358,
      "user": "thumbsup",
      "uid": 6508691,
      "tags": {
        "description": "Two caves, one about 50m deep. Suitable as shelter for rain and wind. Sleeping possible but at least the bigger one habitated by bats so be responsible!",
        "natural": "cave_entrance"
      }
    },
    {
      "type": "node",
      "id": 9717142727,
      "lat": 29.8325578,
      "lon": 34.9233978,
      "timestamp": "2022-05-05T05:29:36Z",
      "version": 1,
      "changeset": 120569351,
      "user": "thumbsup",
      "uid": 6508691,
      "tags": {
        "amenity": "drinking_water",
        "description": "The water is intended for backpackers, for drinking only."
      }
    },
    {
      "type": "node",
      "id": 9735544780,
      "lat": 29.5620425,
      "lon": 34.9509722,
      "timestamp": "2022-05-12T17:43:48Z",
      "version": 1,
      "changeset": 120900131,
      "user": "thumbsup",
      "uid": 6508691,
      "tags": {
        "amenity": "drinking_water"
      }
    },
    {
      "type": "node",
      "id": 9750853312,
      "lat": 29.5540437,
      "lon": 34.930104,
      "timestamp": "2022-05-18T05:57:57Z",
      "version": 1,
      "changeset": 121127092,
      "user": "thumbsup",
      "uid": 6508691,
      "tags": {
        "amenity": "drinking_water"
      }
    },
    {
      "type": "node",
      "id": 9785567390,
      "lat": 30.0481261,
      "lon": 35.0143094,
      "timestamp": "2022-05-31T13:19:05Z",
      "version": 1,
      "changeset": 121768497,
      "user": "Odedshilo",
      "uid": 4922699,
      "tags": {
        "amenity": "drinking_water"
      }
    },
    {
      "type": "way",
      "id": 60206111,
      "timestamp": "2021-09-07T08:45:54Z",
      "version": 12,
      "changeset": 110843893,
      "user": "zstadler",
      "uid": 3127,
      "center": {
        "lat": 29.9867586,
        "lon": 35.0876246
      },
      "nodes": [],
      "tags": {
        "landuse": "residential",
        "name": "לוטן",
        "name:en": "Lotan",
        "name:he": "לוטן",
        "note": "fixme",
        "place": "village",
        "website": "http://kibbutzlotan.com/",
        "wikidata": "Q2776367",
        "wikipedia": "he:לוטן"
      }
    },
    {
      "type": "way",
      "id": 60206114,
      "timestamp": "2022-02-16T08:39:40Z",
      "version": 19,
      "changeset": 117465658,
      "user": "valleyofdawn",
      "uid": 356970,
      "center": {
        "lat": 30.0501453,
        "lon": 35.0259343
      },
      "nodes": [],
      "tags": {
        "landuse": "residential",
        "name": "נאות סמדר",
        "name:en": "Neot Smadar",
        "name:he": "נאות סמדר",
        "note": "fixme",
        "place": "village",
        "website": "https://neot-semadar.com/",
        "wikidata": "Q1011470",
        "wikipedia": "he:נאות סמדר"
      }
    },
    {
      "type": "way",
      "id": 82659185,
      "timestamp": "2021-09-07T08:45:54Z",
      "version": 11,
      "changeset": 110843893,
      "user": "zstadler",
      "uid": 3127,
      "center": {
        "lat": 30.0392748,
        "lon": 35.0361596
      },
      "nodes": [],
      "tags": {
        "landuse": "residential",
        "name": "נווה חריף",
        "name:en": "Neve Harif",
        "name:he": "נווה חריף",
        "place": "hamlet"
      }
    },
    {
      "type": "way",
      "id": 91936980,
      "timestamp": "2021-09-07T08:45:54Z",
      "version": 9,
      "changeset": 110843893,
      "user": "zstadler",
      "uid": 3127,
      "center": {
        "lat": 30.0518981,
        "lon": 35.042802
      },
      "nodes": [],
      "tags": {
        "landuse": "residential",
        "name": "נח\"ל יעלון",
        "name:en": "Nahal Yaalon",
        "name:he": "נח\"ל יעלון",
        "place": "hamlet"
      }
    },
    {
      "type": "way",
      "id": 91938049,
      "timestamp": "2021-09-07T08:45:54Z",
      "version": 6,
      "changeset": 110843893,
      "user": "zstadler",
      "uid": 3127,
      "center": {
        "lat": 29.9045617,
        "lon": 34.9998309
      },
      "nodes": [],
      "tags": {
        "landuse": "residential",
        "name": "שחרות",
        "name:en": "Shaharut",
        "name:he": "שחרות",
        "place": "village",
        "population": "135"
      }
    },
    {
      "type": "way",
      "id": 107234109,
      "timestamp": "2019-09-21T08:02:05Z",
      "version": 2,
      "changeset": 74742650,
      "user": "Aqaba Shark",
      "uid": 10269876,
      "center": {
        "lat": 29.5393365,
        "lon": 35.0117479
      },
      "nodes": [],
      "tags": {
        "brand": "Safeway",
        "brand:wikidata": "Q1508234",
        "brand:wikipedia": "en:Safeway Inc.",
        "building": "yes",
        "name": "Safeway",
        "shop": "supermarket",
        "source": "survey; Bing"
      }
    },
    {
      "type": "way",
      "id": 275784171,
      "timestamp": "2017-06-10T05:09:45Z",
      "version": 2,
      "changeset": 49412690,
      "user": "SafwatHalaby_bot",
      "uid": 5816834,
      "center": {
        "lat": 30.072619,
        "lon": 34.8383197
      },
      "nodes": [],
      "tags": {
        "name": "חניון לילה צניפים",
        "name:he": "חניון לילה צניפים",
        "source": "GPS",
        "tourism": "camp_site"
      }
    },
    {
      "type": "way",
      "id": 583145194,
      "timestamp": "2021-04-08T16:29:37Z",
      "version": 3,
      "changeset": 102578679,
      "user": "FvGordon",
      "uid": 161619,
      "center": {
        "lat": 30.0904128,
        "lon": 34.8487862
      },
      "nodes": [],
      "tags": {
        "name": "חניון לילה שער צניפים",
        "name:he": "חניון לילה שער צניפים",
        "source": "GPS",
        "tourism": "camp_site"
      }
    },
    {
      "type": "way",
      "id": 617410591,
      "timestamp": "2021-09-07T08:45:54Z",
      "version": 5,
      "changeset": 110843893,
      "user": "zstadler",
      "uid": 3127,
      "center": {
        "lat": 29.7969412,
        "lon": 35.0119122
      },
      "nodes": [],
      "tags": {
        "landuse": "residential",
        "name": "אליפז",
        "name:en": "Elifaz",
        "name:fr": "Elifaz",
        "name:he": "אליפז",
        "place": "village"
      }
    },
    {
      "type": "way",
      "id": 617413951,
      "timestamp": "2021-09-07T08:45:54Z",
      "version": 3,
      "changeset": 110843893,
      "user": "zstadler",
      "uid": 3127,
      "center": {
        "lat": 29.8338649,
        "lon": 35.0220812
      },
      "nodes": [],
      "tags": {
        "landuse": "residential",
        "name": "סמר",
        "name:en": "Samar",
        "name:he": "סמר",
        "place": "village"
      }
    },
    {
      "type": "way",
      "id": 617415294,
      "timestamp": "2021-03-29T22:12:04Z",
      "version": 2,
      "changeset": 101942398,
      "user": "Vejoson",
      "uid": 11422772,
      "center": {
        "lat": 29.9406794,
        "lon": 35.0642691
      },
      "nodes": [],
      "tags": {
        "landuse": "residential",
        "name": "גרופית",
        "name:en": "Grofit",
        "name:fr": "Grofit",
        "name:he": "גרופית",
        "note": "fixme",
        "place": "village"
      }
    },
    {
      "type": "way",
      "id": 617415871,
      "timestamp": "2021-09-07T08:45:54Z",
      "version": 4,
      "changeset": 110843893,
      "user": "zstadler",
      "uid": 3127,
      "center": {
        "lat": 29.9693288,
        "lon": 35.0615121
      },
      "nodes": [],
      "tags": {
        "landuse": "residential",
        "name": "קטורה",
        "name:en": "Ketura",
        "name:en2": "Ktura",
        "name:en3": "Qetura",
        "name:he": "קטורה",
        "note": "fixme",
        "place": "village"
      }
    },
    {
      "type": "way",
      "id": 617416834,
      "timestamp": "2021-09-07T08:45:54Z",
      "version": 3,
      "changeset": 110843893,
      "user": "zstadler",
      "uid": 3127,
      "center": {
        "lat": 30.0824978,
        "lon": 35.1291226
      },
      "nodes": [],
      "tags": {
        "landuse": "residential",
        "name": "יהל",
        "name:en": "Yahel",
        "name:he": "יהל",
        "place": "village"
      }
    },
    {
      "type": "way",
      "id": 726979892,
      "timestamp": "2019-09-20T21:34:23Z",
      "version": 1,
      "changeset": 74735675,
      "user": "Aqaba Shark",
      "uid": 10269876,
      "center": {
        "lat": 29.5463351,
        "lon": 35.0141928
      },
      "nodes": [],
      "tags": {
        "amenity": "shelter",
        "building": "yes"
      }
    },
    {
      "type": "way",
      "id": 786248425,
      "timestamp": "2021-07-12T06:43:14Z",
      "version": 5,
      "changeset": 107814695,
      "user": "BMM994",
      "uid": 189946,
      "center": {
        "lat": 29.581368,
        "lon": 34.96289
      },
      "nodes": [],
      "tags": {
        "landuse": "residential",
        "name": "אילות",
        "name:ar": "إيلوت",
        "name:en": "Eilot",
        "name:fr": "Eilot",
        "name:he": "אילות",
        "note": "fixme",
        "place": "village"
      }
    },
    {
      "type": "way",
      "id": 842802407,
      "timestamp": "2021-09-07T08:45:54Z",
      "version": 4,
      "changeset": 110843893,
      "user": "zstadler",
      "uid": 3127,
      "center": {
        "lat": 29.8957179,
        "lon": 35.0593178
      },
      "nodes": [],
      "tags": {
        "landuse": "residential",
        "name": "יטבתה",
        "name:en": "Yotvata",
        "name:fr": "Yotvéta",
        "name:he": "יטבתה",
        "note": "fixme",
        "place": "village"
      }
    },
    {
      "type": "way",
      "id": 959763144,
      "timestamp": "2021-07-05T19:24:48Z",
      "version": 2,
      "changeset": 107455807,
      "user": "BMM994",
      "uid": 189946,
      "center": {
        "lat": 29.570393,
        "lon": 34.9584059
      },
      "nodes": [],
      "tags": {
        "addr:city": "אילת",
        "addr:housenumber": "1",
        "addr:street": "הדייג",
        "building": "retail",
        "cuisine": "regional",
        "name": "יאן משקאות",
        "name:he": "יאן משקאות",
        "phone": "+972528887009",
        "shop": "supermarket",
        "website": "www.yane.co.il"
      }
    }
  ]
}