{
  "osm3s": {
    "timestamp_osm_date": "2022-06-12T23:59:59Z",
    "timestamp_osm_base": "2022-06-13T07:26:35Z",
    "copyright": "The data included in this document is from www.openstreetmap.org. The data is made available under ODbL."
  },
  "elements": [
    {
      "type": "node",
      "id": 544526533,
      "lat": 29.0228302,
      "lon": 34.6738107,
      "timestamp": "2020-11-25T22:51:52Z",
      "version": 3,
      "changeset": 94801163,
      "user": "MustafaQasim",
      "uid": 9535554,
      "tags": {
        "ele": "6.13",
        "name": "Camping",
        "tourism": "camp_site"
      }
    },
    {
      "type": "node",
      "id": 767997498,
      "lat": 29.161944,
      "lon": 34.645556,
      "timestamp": "2020-11-25T22:51:52Z",
      "version": 3,
      "changeset": 94801163,
      "user": "MustafaQasim",
      "uid": 9535554,
      "tags": {
        "alt_name": "بئر الوشواشي",
        "int_name": "Bi’r al Wishwāshy, Bir al Wishwashy",
        "name": "وادي الوشواش",
        "name:ar": "بئر الوشواشي",
        "name:ar1": "بئر الوشواشي",
        "name:de": "Bir al Wishwashy",
        "name:en": "Bir al Wishwashy",
        "name:fr": "Bir al Wishwashy",
        "natural": "spring"
      }
    },
    {
      "type": "node",
      "id": 767997506,
      "lat": 29.198333,
      "lon": 34.608889,
      "timestamp": "2020-11-25T22:51:52Z",
      "version": 3,
      "changeset": 94801163,
      "user": "MustafaQasim",
      "uid": 9535554,
      "tags": {
        "alt_name": "قطار الهايلحة",
        "int_name": "Qaţār al Hāilḩah, Qatar al Hailhah",
        "name": "قطار الهايلحة",
        "name:ar": "قطار الهايلحة",
        "name:de": "Qatar al Hailhah",
        "name:en": "Qatar al Hailhah",
        "name:fr": "Qatar al Hailhah",
        "natural": "spring"
      }
    },
    {
      "type": "node",
      "id": 767997507,
      "lat": 29.160278,
      "lon": 34.63,
      "timestamp": "2020-11-25T22:51:52Z",
      "version": 3,
      "changeset": 94801163,
      "user": "MustafaQasim",
      "uid": 9535554,
      "tags": {
        "alt_name": "بئر المالحة",
        "int_name": "Bi’r al Maliḩah, Bir al Malihah",
        "name": "بئر المالحة",
        "name:ar": "بئر المالحة",
        "name:ar1": "بئر المالحة",
        "name:de": "Bir al Malihah",
        "name:en": "Bir al Malihah",
        "name:fr": "Bir al Malihah",
        "name:ru": "родник ал-Малихах",
        "natural": "spring"
      }
    },
    {
      "type": "node",
      "id": 768581689,
      "lat": 29.0503879,
      "lon": 34.5601846,
      "timestamp": "2020-11-25T22:51:52Z",
      "version": 3,
      "changeset": 94801163,
      "user": "MustafaQasim",
      "uid": 9535554,
      "tags": {
        "alt_name": "عين الفرطاقة",
        "int_name": "‘Ain el Furtaga, Ain al Furtaga",
        "name": "عين الفرطاقة",
        "name:ar": "عين الفرطاقة",
        "name:de": "Ain al Furtaga",
        "name:en": "Ain al Furtaga",
        "name:fr": "Ain al Furtaga",
        "natural": "spring"
      }
    },
    {
      "type": "node",
      "id": 768798103,
      "lat": 29.38179,
      "lon": 34.7164553,
      "timestamp": "2020-11-25T22:51:52Z",
      "version": 4,
      "changeset": 94801163,
      "user": "MustafaQasim",
      "uid": 9535554,
      "tags": {
        "alt_name": "جبل غزلاني",
        "ele": "1020",
        "int_name": "Jabal Ghazlāná, Jabal Ghazlana",
        "name": "جبل غزلاني",
        "name:ar": "جبل غزلاني",
        "name:ar1": "جبل غزلاني",
        "name:de": "Jabal Ghazlana",
        "name:en": "Jabal Ghazlana",
        "name:fr": "Jabal Ghazlana",
        "natural": "peak",
        "source:ele": "SRTM Thunderforest Landscape",
        "wikidata": "Q23951493"
      }
    },
    {
      "type": "node",
      "id": 768798152,
      "lat": 29.492821,
      "lon": 34.892366,
      "timestamp": "2021-11-21T22:24:21Z",
      "version": 19,
      "changeset": 114075306,
      "user": "Yamílo",
      "uid": 11332999,
      "tags": {
        "alt_name": "طابا",
        "int_name": "Ţābā",
        "name": "طابا",
        "name:ar": "طابا",
        "name:az-Arab": "طابا",
        "name:azb": "طابا",
        "name:de": "Taba",
        "name:en": "Taba",
        "name:es": "Taba",
        "name:fa": "طابا",
        "name:fr": "Taba",
        "name:he": "טאבה",
        "name:hi": "टाबा",
        "name:ks": "طابا",
        "name:lt": "Taba",
        "name:ml": "ടാബ",
        "name:ru": "Таба",
        "name:ur": "طابا",
        "place": "town",
        "wikidata": "Q867592",
        "wikipedia": "ar:طابا"
      }
    },
    {
      "type": "node",
      "id": 768799943,
      "lat": 28.978889,
      "lon": 34.646111,
      "timestamp": "2020-07-27T16:23:43Z",
      "version": 2,
      "changeset": 88576001,
      "user": "Ola_Alaa",
      "uid": 9945420,
      "tags": {
        "alt_name": "نويبع المزينة",
        "int_name": "Nuweiba‘ al Muzeina, Nuweiba al Muzeina, Nuwaybi al Muzayyinah",
        "name": "نويبع المزينة",
        "name:ar": "نويبع المزينة",
        "name:ar1": "نويبع المزينة",
        "name:de": "Nuweiba al Muzeina",
        "name:en": "Nuweiba al Muzeina",
        "name:fr": "Nuweiba al Muzeina",
        "natural": "spring"
      }
    },
    {
      "type": "node",
      "id": 768799947,
      "lat": 29.035,
      "lon": 34.661667,
      "timestamp": "2020-11-25T22:51:52Z",
      "version": 9,
      "changeset": 94801163,
      "user": "MustafaQasim",
      "uid": 9535554,
      "tags": {
        "alt_name": "نويبع",
        "int_name": "Nueiba, Nueiba, Nuwaiba, Nuweiba",
        "name": "نويبع",
        "name:ar": "نويبع",
        "name:de": "Nueiba",
        "name:en": "Nueiba",
        "name:es": "Nuweiba",
        "name:fr": "Nueiba",
        "name:ru": "Нувейба",
        "place": "city",
        "population": "18000",
        "wikidata": "Q1011488",
        "wikipedia": "ar:نويبع"
      }
    },
    {
      "type": "node",
      "id": 768799993,
      "lat": 28.9675,
      "lon": 34.649722,
      "timestamp": "2020-07-27T16:23:43Z",
      "version": 4,
      "changeset": 88576001,
      "user": "Ola_Alaa",
      "uid": 9945420,
      "tags": {
        "alt_name": "نويبع المزينة",
        "int_name": "Nuweiba‘ el Muzeinah, Nuweiba al Muzeinah",
        "name": "نويبع المزينة",
        "name:ar": "نويبع المزينة",
        "name:ar1": "نويبع المزينة",
        "name:de": "Nuweiba al Muzeinah",
        "name:en": "Nuweiba al Muzeinah",
        "name:en1": "Nuweiba",
        "name:fr": "Nuweiba al Muzeinah",
        "place": "town",
        "short_name:ar": "نويبع"
      }
    },
    {
      "type": "node",
      "id": 798842911,
      "lat": 29.526702,
      "lon": 35.007822,
      "timestamp": "2021-07-29T16:32:21Z",
      "version": 31,
      "changeset": 108837002,
      "user": "Jobigutenburg",
      "uid": 10504312,
      "tags": {
        "name": "العقبة",
        "name:ar": "العقبة",
        "name:az-Arab": "عقبه",
        "name:azb": "عقبه",
        "name:cs": "Akaba",
        "name:da": "Akaba",
        "name:de": "Akaba",
        "name:el": "Άκαμπα",
        "name:en": "Aqaba",
        "name:et": "Al-‘Aqabah",
        "name:fa": "عقبه",
        "name:fr": "Aqaba",
        "name:he": "עקבה",
        "name:hi": "अक़बा",
        "name:kk-Arab": "اكابا",
        "name:kn": "ಅಕಬ",
        "name:ko": "아카바",
        "name:ks": "عقبہ",
        "name:ml": "അക്വാബ",
        "name:mzn": "عقبه",
        "name:ota": "عقبه",
        "name:pnb": "عقبہ",
        "name:ru": "Акаба",
        "name:tr": "Akabe",
        "name:ur": "عقبہ",
        "name:zh-Hans": "亚喀巴",
        "name:zh-Hant": "亞喀巴",
        "place": "city",
        "population": "103100",
        "wikidata": "Q180522",
        "wikipedia": "ar:العقبة"
      }
    },
    {
      "type": "node",
      "id": 798842918,
      "lat": 29.5087192,
      "lon": 35.0051328,
      "timestamp": "2021-03-17T01:23:01Z",
      "version": 6,
      "changeset": 101149829,
      "user": "Vejoson",
      "uid": 11422772,
      "tags": {
        "GNS:id": "10509558",
        "name": "اسكان الميناء",
        "name:ar": "اسكان الميناء",
        "name:en": "Askān al Mīnā’",
        "name:fr": "Iskan Al Mina",
        "place": "village",
        "source": "GNS"
      }
    },
    {
      "type": "node",
      "id": 798842926,
      "lat": 29.3722161,
      "lon": 34.9672579,
      "timestamp": "2018-09-22T21:50:42Z",
      "version": 5,
      "changeset": 62837140,
      "user": "سامبا",
      "uid": 4860517,
      "tags": {
        "int_name": "Al Dorra",
        "is_in": "الأردن",
        "name": "الدرة",
        "name:ar": "الدرة",
        "name:de": "Al Durra",
        "name:en": "Al Durra",
        "name:fr": "Al Dorra",
        "name:lt": "Al Dora",
        "place": "village"
      }
    },
    {
      "type": "node",
      "id": 960528522,
      "lat": 29.3899951,
      "lon": 34.7995267,
      "timestamp": "2010-10-22T17:43:34Z",
      "version": 1,
      "changeset": 6138744,
      "user": "TimSC_Data_CC0_To_Andy_Allan",
      "uid": 6809,
      "tags": {
        "name": "Taba Heights",
        "place": "hamlet"
      }
    },
    {
      "type": "node",
      "id": 1236312441,
      "lat": 29.2864157,
      "lon": 34.9469118,
      "timestamp": "2021-12-10T19:50:07Z",
      "version": 10,
      "changeset": 114797203,
      "user": "Abdullah Abdulrhman",
      "uid": 10478308,
      "tags": {
        "GNS:dsg_code": "PPL",
        "GNS:dsg_name": "populated place",
        "GNS:id": "-3095339",
        "alt_name": "Al Haql; El Haql; Hagl; Hagul; Haikl; Hakl; Ḥakl; Haqal; Hegl; Ḩegl",
        "capital": "6",
        "int_name": "Ḩaql",
        "name": "حقل",
        "name:ar": "حقل",
        "name:de": "Haql",
        "name:en": "Haql",
        "name:fr": "Haql",
        "place": "town",
        "population": "25649",
        "population:date": "2010",
        "source:population": "stats.gov.sa",
        "wikidata": "Q2759519"
      }
    },
    {
      "type": "node",
      "id": 1368812719,
      "lat": 29.4979026,
      "lon": 34.9118092,
      "timestamp": "2017-04-29T19:00:17Z",
      "version": 2,
      "changeset": 48264182,
      "user": "shkrob25",
      "uid": 4518303,
      "tags": {
        "internet_access": "wlan",
        "tourism": "camp_site"
      }
    },
    {
      "type": "node",
      "id": 1368812721,
      "lat": 29.4987759,
      "lon": 34.913694,
      "timestamp": "2017-04-29T19:00:18Z",
      "version": 2,
      "changeset": 48264182,
      "user": "shkrob25",
      "uid": 4518303,
      "tags": {
        "internet_access": "wlan",
        "tourism": "camp_site"
      }
    },
    {
      "type": "node",
      "id": 1368812724,
      "lat": 29.5001299,
      "lon": 34.9149651,
      "timestamp": "2019-01-10T23:12:54Z",
      "version": 3,
      "changeset": 66211395,
      "user": "PocomaxaPL",
      "uid": 9336558,
      "tags": {
        "internet_access": "wlan",
        "name:en": "Migdalor Beach",
        "tourism": "camp_site"
      }
    },
    {
      "type": "node",
      "id": 2315159952,
      "lat": 29.5331703,
      "lon": 35.0085549,
      "timestamp": "2018-02-16T12:11:12Z",
      "version": 2,
      "changeset": 56412057,
      "user": "radioxoma",
      "uid": 393863,
      "tags": {
        "alt_name": "Rahma Mall",
        "contact:website": "http://www.carrefourjordan.com",
        "name": "Carrefour",
        "shop": "supermarket"
      }
    },
    {
      "type": "node",
      "id": 2404690033,
      "lat": 29.3880813,
      "lon": 34.8098412,
      "timestamp": "2013-08-02T07:46:21Z",
      "version": 1,
      "changeset": 17188335,
      "user": "ma5ter",
      "uid": 467857,
      "tags": {
        "amenity": "drinking_water"
      }
    },
    {
      "type": "node",
      "id": 2404762596,
      "lat": 29.3885547,
      "lon": 34.8104472,
      "timestamp": "2013-08-02T10:00:01Z",
      "version": 2,
      "changeset": 17189928,
      "user": "ma5ter",
      "uid": 467857,
      "tags": {
        "amenity": "drinking_water"
      }
    },
    {
      "type": "node",
      "id": 2616748204,
      "lat": 28.9252333,
      "lon": 34.4788589,
      "timestamp": "2014-09-14T07:34:57Z",
      "version": 3,
      "changeset": 25425990,
      "user": "nickrud1",
      "uid": 1772131,
      "tags": {
        "name": "Mileihis",
        "natural": "spring"
      }
    },
    {
      "type": "node",
      "id": 3138427956,
      "lat": 28.9255581,
      "lon": 34.4787432,
      "timestamp": "2014-10-19T14:10:42Z",
      "version": 2,
      "changeset": 26193060,
      "user": "nickrud1",
      "uid": 1772131,
      "tags": {
        "amenity": "drinking_water",
        "name": "Mileihis",
        "natural": "spring"
      }
    },
    {
      "type": "node",
      "id": 3279959061,
      "lat": 29.5130482,
      "lon": 34.910244,
      "timestamp": "2022-02-22T17:34:56Z",
      "version": 11,
      "changeset": 117737600,
      "user": "zstadler",
      "uid": 3127,
      "tags": {
        "description": "הר צפחות הוא הר בדרום מדינת ישראל, והוא הקצה הדרומי של רכס הרי אילת. מנקודה זו ניתן לראות 4 מדינות (ישראל מצרים סעודיה וירדן) מדרום ניתן לראות את אי האלמוגים",
        "description:he": "הר צפחות הוא הר בדרום מדינת ישראל, והוא הקצה הדרומי של רכס הרי אילת. מנקודה זו ניתן לראות 4 מדינות (ישראל מצרים סעודיה וירדן) מדרום ניתן לראות את אי האלמוגים",
        "ele": "278",
        "image": "https://upload.wikimedia.org/wikipedia/commons/3/34/Israel_Hiking_Map_%D7%94%D7%A8_%D7%A6%D7%A4%D7%97%D7%95%D7%AA.jpeg",
        "image1": "https://upload.wikimedia.org/wikipedia/commons/0/0c/Tzfahot.jpg",
        "image2": "https://upload.wikimedia.org/wikipedia/commons/6/6d/IHM_הר_צפחות.jpeg",
        "image3": "https://upload.wikimedia.org/wikipedia/commons/9/98/IHM_הר_צפחות_1.jpeg",
        "image4": "https://upload.wikimedia.org/wikipedia/commons/6/6a/IHM_הר_צפחות_2.jpeg",
        "name": "הר צפחות",
        "name:en": "Mt. Tzafachot",
        "name:he": "הר צפחות",
        "natural": "peak",
        "wikidata": "Q7211527",
        "wikipedia": "he:הר צפחות",
        "wikipedia:he": "הר צפחות"
      }
    },
    {
      "type": "node",
      "id": 3394980326,
      "lat": 29.278125,
      "lon": 34.6864697,
      "timestamp": "2015-03-12T10:06:11Z",
      "version": 1,
      "changeset": 29422954,
      "user": "HAMsandwich",
      "uid": 1756006,
      "tags": {
        "name": "Abu Quseib",
        "natural": "spring"
      }
    },
    {
      "type": "node",
      "id": 3822472530,
      "lat": 29.432358,
      "lon": 34.981967,
      "timestamp": "2018-09-22T21:50:44Z",
      "version": 2,
      "changeset": 62837140,
      "user": "سامبا",
      "uid": 4860517,
      "tags": {
        "GNS:id": "10509525",
        "name": "اليمانية",
        "name:ar": "اليمانية",
        "name:en": "Al Yamānīyah",
        "place": "village",
        "source": "GNS"
      }
    },
    {
      "type": "node",
      "id": 3828482869,
      "lat": 29.4091955,
      "lon": 34.9798154,
      "timestamp": "2021-11-10T06:35:05Z",
      "version": 3,
      "changeset": 113593927,
      "user": "pluton_od",
      "uid": 2411240,
      "tags": {
        "alt_name:ar": "تالا باي",
        "name": "تالا بي",
        "name:ar": "تالا بي",
        "name:en": "Tala Bay",
        "place": "village"
      }
    },
    {
      "type": "node",
      "id": 4318184493,
      "lat": 29.4080274,
      "lon": 34.9786555,
      "timestamp": "2016-11-11T06:30:55Z",
      "version": 4,
      "changeset": 43551553,
      "user": "Henkie100",
      "uid": 2249743,
      "tags": {
        "addr:city": "Aqaba",
        "name": "Marina Mini Market",
        "opening_hours": "Mo-Su 08:00-23:00",
        "shop": "convenience"
      }
    },
    {
      "type": "node",
      "id": 4818464921,
      "lat": 29.5012195,
      "lon": 34.9157091,
      "timestamp": "2017-04-26T16:51:07Z",
      "version": 1,
      "changeset": 48168792,
      "user": "shkrob25",
      "uid": 4518303,
      "tags": {
        "amenity": "drinking_water"
      }
    },
    {
      "type": "node",
      "id": 5149543021,
      "lat": 29.0921742,
      "lon": 34.6794997,
      "timestamp": "2017-10-05T11:07:37Z",
      "version": 1,
      "changeset": 52651170,
      "user": "Aleksander Vashyst",
      "uid": 6086280,
      "tags": {
        "tourism": "camp_site"
      }
    },
    {
      "type": "node",
      "id": 5149556521,
      "lat": 29.0927884,
      "lon": 34.6795401,
      "timestamp": "2017-10-05T11:17:53Z",
      "version": 1,
      "changeset": 52651424,
      "user": "Aleksander Vashyst",
      "uid": 6086280,
      "tags": {
        "name": "Blue wave",
        "tourism": "camp_site"
      }
    },
    {
      "type": "node",
      "id": 5159189522,
      "lat": 29.1180192,
      "lon": 34.6816238,
      "timestamp": "2017-10-10T15:12:01Z",
      "version": 1,
      "changeset": 52797267,
      "user": "Aleksander Vashyst",
      "uid": 6086280,
      "tags": {
        "name": "RockCamp",
        "tourism": "camp_site"
      }
    },
    {
      "type": "node",
      "id": 5337250442,
      "lat": 29.5270053,
      "lon": 34.9114036,
      "timestamp": "2021-12-30T07:22:47Z",
      "version": 3,
      "changeset": 115550325,
      "user": "zstadler",
      "uid": 3127,
      "tags": {
        "name": "חניון לילה צפחות",
        "name:en": "Tzfachot campsite",
        "name:he": "חניון לילה צפחות",
        "tourism": "camp_site"
      }
    },
    {
      "type": "node",
      "id": 5401470221,
      "lat": 29.1740331,
      "lon": 34.7179474,
      "timestamp": "2020-11-25T22:51:52Z",
      "version": 2,
      "changeset": 94801163,
      "user": "MustafaQasim",
      "uid": 9535554,
      "tags": {
        "name": "دانا",
        "name:ar": "دانا",
        "name:en": "Dana",
        "tourism": "camp_site"
      }
    },
    {
      "type": "node",
      "id": 6166281486,
      "lat": 29.4310329,
      "lon": 34.8296424,
      "timestamp": "2018-12-27T14:50:26Z",
      "version": 1,
      "changeset": 65815055,
      "user": "Russkii",
      "uid": 4180934,
      "tags": {
        "amenity": "shelter"
      }
    },
    {
      "type": "node",
      "id": 6166286885,
      "lat": 29.0119322,
      "lon": 34.6838763,
      "timestamp": "2018-12-27T14:50:26Z",
      "version": 1,
      "changeset": 65815055,
      "user": "Russkii",
      "uid": 4180934,
      "tags": {
        "name:en": "Sweet camp",
        "tourism": "camp_site"
      }
    },
    {
      "type": "node",
      "id": 6199739285,
      "lat": 29.4998901,
      "lon": 34.9147197,
      "timestamp": "2019-01-10T23:12:55Z",
      "version": 1,
      "changeset": 66211395,
      "user": "PocomaxaPL",
      "uid": 9336558,
      "tags": {
        "name:en": "Well, Sink",
        "name:pl": "Studnia, Umywalki",
        "natural": "spring"
      }
    },
    {
      "type": "node",
      "id": 6221319081,
      "lat": 29.4665158,
      "lon": 35.111754,
      "timestamp": "2019-01-19T15:31:37Z",
      "version": 1,
      "changeset": 66456331,
      "user": "rhhsmits",
      "uid": 3754310,
      "tags": {
        "name": "Final Camp",
        "tourism": "camp_site"
      }
    },
    {
      "type": "node",
      "id": 6229880342,
      "lat": 29.4258568,
      "lon": 34.9736105,
      "timestamp": "2019-01-23T14:32:53Z",
      "version": 1,
      "changeset": 66571817,
      "user": "t_pienn",
      "uid": 2848708,
      "tags": {
        "amenity": "shelter",
        "shelter_type": "sun_shelter"
      }
    },
    {
      "type": "node",
      "id": 6229880343,
      "lat": 29.4256886,
      "lon": 34.9735889,
      "timestamp": "2019-01-23T14:32:53Z",
      "version": 1,
      "changeset": 66571817,
      "user": "t_pienn",
      "uid": 2848708,
      "tags": {
        "amenity": "shelter",
        "shelter_type": "sun_shelter"
      }
    },
    {
      "type": "node",
      "id": 6229880344,
      "lat": 29.4255844,
      "lon": 34.973488,
      "timestamp": "2019-01-23T14:32:53Z",
      "version": 1,
      "changeset": 66571817,
      "user": "t_pienn",
      "uid": 2848708,
      "tags": {
        "amenity": "shelter",
        "shelter_type": "sun_shelter"
      }
    },
    {
      "type": "node",
      "id": 6229880345,
      "lat": 29.4255104,
      "lon": 34.9736033,
      "timestamp": "2019-01-23T14:32:53Z",
      "version": 1,
      "changeset": 66571817,
      "user": "t_pienn",
      "uid": 2848708,
      "tags": {
        "amenity": "shelter",
        "shelter_type": "sun_shelter"
      }
    },
    {
      "type": "node",
      "id": 6229880346,
      "lat": 29.4254138,
      "lon": 34.9734678,
      "timestamp": "2019-01-23T14:32:53Z",
      "version": 1,
      "changeset": 66571817,
      "user": "t_pienn",
      "uid": 2848708,
      "tags": {
        "amenity": "shelter",
        "shelter_type": "sun_shelter"
      }
    },
    {
      "type": "node",
      "id": 6229880347,
      "lat": 29.4253121,
      "lon": 34.9735975,
      "timestamp": "2019-01-23T14:32:53Z",
      "version": 1,
      "changeset": 66571817,
      "user": "t_pienn",
      "uid": 2848708,
      "tags": {
        "amenity": "shelter",
        "shelter_type": "sun_shelter"
      }
    },
    {
      "type": "node",
      "id": 6229880348,
      "lat": 29.425238,
      "lon": 34.9734419,
      "timestamp": "2019-01-23T14:32:53Z",
      "version": 1,
      "changeset": 66571817,
      "user": "t_pienn",
      "uid": 2848708,
      "tags": {
        "amenity": "shelter",
        "shelter_type": "sun_shelter"
      }
    },
    {
      "type": "node",
      "id": 6229880349,
      "lat": 29.4251665,
      "lon": 34.9735673,
      "timestamp": "2019-01-23T14:32:53Z",
      "version": 1,
      "changeset": 66571817,
      "user": "t_pienn",
      "uid": 2848708,
      "tags": {
        "amenity": "shelter",
        "shelter_type": "sun_shelter"
      }
    },
    {
      "type": "node",
      "id": 6229880350,
      "lat": 29.4250962,
      "lon": 34.9734145,
      "timestamp": "2019-01-23T14:32:53Z",
      "version": 1,
      "changeset": 66571817,
      "user": "t_pienn",
      "uid": 2848708,
      "tags": {
        "amenity": "shelter",
        "shelter_type": "sun_shelter"
      }
    },
    {
      "type": "node",
      "id": 6229880351,
      "lat": 29.4250222,
      "lon": 34.9735385,
      "timestamp": "2019-01-23T14:32:53Z",
      "version": 1,
      "changeset": 66571817,
      "user": "t_pienn",
      "uid": 2848708,
      "tags": {
        "amenity": "shelter",
        "shelter_type": "sun_shelter"
      }
    },
    {
      "type": "node",
      "id": 6229880352,
      "lat": 29.4249268,
      "lon": 34.9733713,
      "timestamp": "2019-01-23T14:32:53Z",
      "version": 1,
      "changeset": 66571817,
      "user": "t_pienn",
      "uid": 2848708,
      "tags": {
        "amenity": "shelter",
        "shelter_type": "sun_shelter"
      }
    },
    {
      "type": "node",
      "id": 6229880353,
      "lat": 29.4248264,
      "lon": 34.9735096,
      "timestamp": "2019-01-23T14:32:53Z",
      "version": 1,
      "changeset": 66571817,
      "user": "t_pienn",
      "uid": 2848708,
      "tags": {
        "amenity": "shelter",
        "shelter_type": "sun_shelter"
      }
    },
    {
      "type": "node",
      "id": 6229880354,
      "lat": 29.4245402,
      "lon": 34.9732676,
      "timestamp": "2019-01-23T14:32:53Z",
      "version": 1,
      "changeset": 66571817,
      "user": "t_pienn",
      "uid": 2848708,
      "tags": {
        "amenity": "shelter",
        "shelter_type": "sun_shelter"
      }
    },
    {
      "type": "node",
      "id": 6229880355,
      "lat": 29.424431,
      "lon": 34.9734131,
      "timestamp": "2019-01-23T14:32:53Z",
      "version": 1,
      "changeset": 66571817,
      "user": "t_pienn",
      "uid": 2848708,
      "tags": {
        "amenity": "shelter",
        "shelter_type": "sun_shelter"
      }
    },
    {
      "type": "node",
      "id": 6229880356,
      "lat": 29.4243444,
      "lon": 34.9732474,
      "timestamp": "2019-01-23T14:32:53Z",
      "version": 1,
      "changeset": 66571817,
      "user": "t_pienn",
      "uid": 2848708,
      "tags": {
        "amenity": "shelter",
        "shelter_type": "sun_shelter"
      }
    },
    {
      "type": "node",
      "id": 6229880357,
      "lat": 29.424244,
      "lon": 34.9733929,
      "timestamp": "2019-01-23T14:32:53Z",
      "version": 1,
      "changeset": 66571817,
      "user": "t_pienn",
      "uid": 2848708,
      "tags": {
        "amenity": "shelter",
        "shelter_type": "sun_shelter"
      }
    },
    {
      "type": "node",
      "id": 6232642266,
      "lat": 29.4241732,
      "lon": 34.97323,
      "timestamp": "2019-01-24T10:22:52Z",
      "version": 1,
      "changeset": 66596637,
      "user": "t_pienn",
      "uid": 2848708,
      "tags": {
        "amenity": "shelter",
        "shelter_type": "sun_shelter"
      }
    },
    {
      "type": "node",
      "id": 6232642267,
      "lat": 29.4240524,
      "lon": 34.973366,
      "timestamp": "2019-01-24T10:22:52Z",
      "version": 1,
      "changeset": 66596637,
      "user": "t_pienn",
      "uid": 2848708,
      "tags": {
        "amenity": "shelter",
        "shelter_type": "sun_shelter"
      }
    },
    {
      "type": "node",
      "id": 6232642268,
      "lat": 29.4240311,
      "lon": 34.9731947,
      "timestamp": "2019-01-24T10:22:52Z",
      "version": 1,
      "changeset": 66596637,
      "user": "t_pienn",
      "uid": 2848708,
      "tags": {
        "amenity": "shelter",
        "shelter_type": "sun_shelter"
      }
    },
    {
      "type": "node",
      "id": 6232642269,
      "lat": 29.4238747,
      "lon": 34.9733361,
      "timestamp": "2019-01-24T10:22:52Z",
      "version": 1,
      "changeset": 66596637,
      "user": "t_pienn",
      "uid": 2848708,
      "tags": {
        "amenity": "shelter",
        "shelter_type": "sun_shelter"
      }
    },
    {
      "type": "node",
      "id": 6232642270,
      "lat": 29.4238084,
      "lon": 34.9731648,
      "timestamp": "2019-01-24T10:22:52Z",
      "version": 1,
      "changeset": 66596637,
      "user": "t_pienn",
      "uid": 2848708,
      "tags": {
        "amenity": "shelter",
        "shelter_type": "sun_shelter"
      }
    },
    {
      "type": "node",
      "id": 6232642271,
      "lat": 29.4236947,
      "lon": 34.9732545,
      "timestamp": "2019-01-24T10:22:52Z",
      "version": 1,
      "changeset": 66596637,
      "user": "t_pienn",
      "uid": 2848708,
      "tags": {
        "amenity": "shelter",
        "shelter_type": "sun_shelter"
      }
    },
    {
      "type": "node",
      "id": 6232642272,
      "lat": 29.4236284,
      "lon": 34.9730886,
      "timestamp": "2019-01-24T10:22:52Z",
      "version": 1,
      "changeset": 66596637,
      "user": "t_pienn",
      "uid": 2848708,
      "tags": {
        "amenity": "shelter",
        "shelter_type": "sun_shelter"
      }
    },
    {
      "type": "node",
      "id": 6232642273,
      "lat": 29.4235218,
      "lon": 34.9731947,
      "timestamp": "2019-01-24T10:22:52Z",
      "version": 1,
      "changeset": 66596637,
      "user": "t_pienn",
      "uid": 2848708,
      "tags": {
        "amenity": "shelter",
        "shelter_type": "sun_shelter"
      }
    },
    {
      "type": "node",
      "id": 6232642274,
      "lat": 29.423465,
      "lon": 34.9730125,
      "timestamp": "2019-01-24T10:22:53Z",
      "version": 1,
      "changeset": 66596637,
      "user": "t_pienn",
      "uid": 2848708,
      "tags": {
        "amenity": "shelter",
        "shelter_type": "sun_shelter"
      }
    },
    {
      "type": "node",
      "id": 6232642275,
      "lat": 29.4233608,
      "lon": 34.9731186,
      "timestamp": "2019-01-24T10:22:53Z",
      "version": 1,
      "changeset": 66596637,
      "user": "t_pienn",
      "uid": 2848708,
      "tags": {
        "amenity": "shelter",
        "shelter_type": "sun_shelter"
      }
    },
    {
      "type": "node",
      "id": 6232642276,
      "lat": 29.423311,
      "lon": 34.9729119,
      "timestamp": "2019-01-24T10:22:53Z",
      "version": 1,
      "changeset": 66596637,
      "user": "t_pienn",
      "uid": 2848708,
      "tags": {
        "amenity": "shelter",
        "shelter_type": "sun_shelter"
      }
    },
    {
      "type": "node",
      "id": 6232642277,
      "lat": 29.4231926,
      "lon": 34.9730288,
      "timestamp": "2019-01-24T10:22:53Z",
      "version": 1,
      "changeset": 66596637,
      "user": "t_pienn",
      "uid": 2848708,
      "tags": {
        "amenity": "shelter",
        "shelter_type": "sun_shelter"
      }
    },
    {
      "type": "node",
      "id": 6232642278,
      "lat": 29.4231405,
      "lon": 34.9728358,
      "timestamp": "2019-01-24T10:22:53Z",
      "version": 1,
      "changeset": 66596637,
      "user": "t_pienn",
      "uid": 2848708,
      "tags": {
        "amenity": "shelter",
        "shelter_type": "sun_shelter"
      }
    },
    {
      "type": "node",
      "id": 6232642279,
      "lat": 29.4230339,
      "lon": 34.9729418,
      "timestamp": "2019-01-24T10:22:53Z",
      "version": 1,
      "changeset": 66596637,
      "user": "t_pienn",
      "uid": 2848708,
      "tags": {
        "amenity": "shelter",
        "shelter_type": "sun_shelter"
      }
    },
    {
      "type": "node",
      "id": 6232642280,
      "lat": 29.42297,
      "lon": 34.9727596,
      "timestamp": "2019-01-24T10:22:53Z",
      "version": 1,
      "changeset": 66596637,
      "user": "t_pienn",
      "uid": 2848708,
      "tags": {
        "amenity": "shelter",
        "shelter_type": "sun_shelter"
      }
    },
    {
      "type": "node",
      "id": 6232642281,
      "lat": 29.4228776,
      "lon": 34.9728711,
      "timestamp": "2019-01-24T10:22:53Z",
      "version": 1,
      "changeset": 66596637,
      "user": "t_pienn",
      "uid": 2848708,
      "tags": {
        "amenity": "shelter",
        "shelter_type": "sun_shelter"
      }
    },
    {
      "type": "node",
      "id": 6232642282,
      "lat": 29.4228018,
      "lon": 34.9726835,
      "timestamp": "2019-01-24T10:22:53Z",
      "version": 1,
      "changeset": 66596637,
      "user": "t_pienn",
      "uid": 2848708,
      "tags": {
        "amenity": "shelter",
        "shelter_type": "sun_shelter"
      }
    },
    {
      "type": "node",
      "id": 6232642283,
      "lat": 29.4227142,
      "lon": 34.9728167,
      "timestamp": "2019-01-24T10:22:53Z",
      "version": 1,
      "changeset": 66596637,
      "user": "t_pienn",
      "uid": 2848708,
      "tags": {
        "amenity": "shelter",
        "shelter_type": "sun_shelter"
      }
    },
    {
      "type": "node",
      "id": 6232642284,
      "lat": 29.4226123,
      "lon": 34.9726536,
      "timestamp": "2019-01-24T10:22:53Z",
      "version": 1,
      "changeset": 66596637,
      "user": "t_pienn",
      "uid": 2848708,
      "tags": {
        "amenity": "shelter",
        "shelter_type": "sun_shelter"
      }
    },
    {
      "type": "node",
      "id": 6232643285,
      "lat": 29.4225768,
      "lon": 34.9728358,
      "timestamp": "2019-01-24T10:22:53Z",
      "version": 1,
      "changeset": 66596637,
      "user": "t_pienn",
      "uid": 2848708,
      "tags": {
        "amenity": "shelter",
        "shelter_type": "sun_shelter"
      }
    },
    {
      "type": "node",
      "id": 6232643286,
      "lat": 29.4224276,
      "lon": 34.9726971,
      "timestamp": "2019-01-24T10:22:53Z",
      "version": 1,
      "changeset": 66596637,
      "user": "t_pienn",
      "uid": 2848708,
      "tags": {
        "amenity": "shelter",
        "shelter_type": "sun_shelter"
      }
    },
    {
      "type": "node",
      "id": 6232643287,
      "lat": 29.4224157,
      "lon": 34.972882,
      "timestamp": "2019-01-24T10:22:53Z",
      "version": 1,
      "changeset": 66596637,
      "user": "t_pienn",
      "uid": 2848708,
      "tags": {
        "amenity": "shelter",
        "shelter_type": "sun_shelter"
      }
    },
    {
      "type": "node",
      "id": 6232643288,
      "lat": 29.4222712,
      "lon": 34.9728031,
      "timestamp": "2019-01-24T10:22:53Z",
      "version": 1,
      "changeset": 66596637,
      "user": "t_pienn",
      "uid": 2848708,
      "tags": {
        "amenity": "shelter",
        "shelter_type": "sun_shelter"
      }
    },
    {
      "type": "node",
      "id": 6391773686,
      "lat": 29.5308036,
      "lon": 35.0043356,
      "timestamp": "2019-04-08T19:12:15Z",
      "version": 1,
      "changeset": 69019760,
      "user": "Dennis van Bruggen",
      "uid": 5363233,
      "tags": {
        "name": "Russian supermarket",
        "shop": "supermarket"
      }
    },
    {
      "type": "node",
      "id": 6403398590,
      "lat": 29.0191798,
      "lon": 34.6775231,
      "timestamp": "2019-04-14T05:56:13Z",
      "version": 1,
      "changeset": 69193649,
      "user": "raz shaked",
      "uid": 4025366,
      "tags": {
        "name:en": "Big Dune",
        "name:he": "הדיונה הגדולה",
        "tourism": "camp_site"
      }
    },
    {
      "type": "node",
      "id": 6611766492,
      "lat": 29.0484759,
      "lon": 34.6633766,
      "timestamp": "2019-07-13T13:50:00Z",
      "version": 1,
      "changeset": 72210408,
      "user": "Eliff",
      "uid": 365939,
      "tags": {
        "name": "Afradi alzabriqi",
        "shop": "supermarket"
      }
    },
    {
      "type": "node",
      "id": 6611766493,
      "lat": 29.0486845,
      "lon": 34.6628426,
      "timestamp": "2019-07-13T13:50:00Z",
      "version": 1,
      "changeset": 72210408,
      "user": "Eliff",
      "uid": 365939,
      "tags": {
        "name": "Rt",
        "shop": "supermarket"
      }
    },
    {
      "type": "node",
      "id": 6775278785,
      "lat": 29.0098608,
      "lon": 34.6841272,
      "timestamp": "2019-09-05T17:09:29Z",
      "version": 1,
      "changeset": 74144692,
      "user": "Shahar Azulai",
      "uid": 8899339,
      "tags": {
        "internet_access": "wlan",
        "name:en": "Green Beach",
        "tourism": "wilderness_hut"
      }
    },
    {
      "type": "node",
      "id": 7184121790,
      "lat": 29.5287382,
      "lon": 35.0019441,
      "timestamp": "2020-02-04T12:28:16Z",
      "version": 1,
      "changeset": 80532822,
      "user": "roadscarf",
      "uid": 4240291,
      "tags": {
        "amenity": "drinking_water"
      }
    },
    {
      "type": "node",
      "id": 7711120437,
      "lat": 29.2887,
      "lon": 34.9518,
      "timestamp": "2020-07-13T15:36:47Z",
      "version": 1,
      "changeset": 87931794,
      "user": "admin2030",
      "uid": 10864888,
      "tags": {
        "name": "سوبر ماركت",
        "shop": "supermarket"
      }
    },
    {
      "type": "node",
      "id": 7924314769,
      "lat": 29.163822,
      "lon": 34.8944665,
      "timestamp": "2020-09-19T21:58:06Z",
      "version": 1,
      "changeset": 91162114,
      "user": "Seandebasti",
      "uid": 550560,
      "tags": {
        "amenity": "shelter"
      }
    },
    {
      "type": "node",
      "id": 7924314770,
      "lat": 29.1640255,
      "lon": 34.8947863,
      "timestamp": "2020-09-19T21:58:06Z",
      "version": 1,
      "changeset": 91162114,
      "user": "Seandebasti",
      "uid": 550560,
      "tags": {
        "amenity": "shelter"
      }
    },
    {
      "type": "node",
      "id": 7924314771,
      "lat": 29.1644515,
      "lon": 34.8951116,
      "timestamp": "2020-09-19T21:58:06Z",
      "version": 1,
      "changeset": 91162114,
      "user": "Seandebasti",
      "uid": 550560,
      "tags": {
        "amenity": "shelter"
      }
    },
    {
      "type": "node",
      "id": 7924314772,
      "lat": 29.1648396,
      "lon": 34.8952904,
      "timestamp": "2020-09-19T21:58:06Z",
      "version": 1,
      "changeset": 91162114,
      "user": "Seandebasti",
      "uid": 550560,
      "tags": {
        "amenity": "shelter"
      }
    },
    {
      "type": "node",
      "id": 7924314791,
      "lat": 29.1730809,
      "lon": 34.8975721,
      "timestamp": "2020-09-19T21:58:06Z",
      "version": 1,
      "changeset": 91162114,
      "user": "Seandebasti",
      "uid": 550560,
      "tags": {
        "amenity": "shelter"
      }
    },
    {
      "type": "node",
      "id": 7924506131,
      "lat": 29.3246591,
      "lon": 34.9452182,
      "timestamp": "2020-09-20T00:56:51Z",
      "version": 1,
      "changeset": 91163867,
      "user": "Seandebasti",
      "uid": 550560,
      "tags": {
        "amenity": "shelter"
      }
    },
    {
      "type": "node",
      "id": 7924506132,
      "lat": 29.3244003,
      "lon": 34.9449893,
      "timestamp": "2020-09-20T00:56:51Z",
      "version": 1,
      "changeset": 91163867,
      "user": "Seandebasti",
      "uid": 550560,
      "tags": {
        "amenity": "shelter"
      }
    },
    {
      "type": "node",
      "id": 7924506133,
      "lat": 29.3241477,
      "lon": 34.9448033,
      "timestamp": "2020-09-20T00:56:51Z",
      "version": 1,
      "changeset": 91163867,
      "user": "Seandebasti",
      "uid": 550560,
      "tags": {
        "amenity": "shelter"
      }
    },
    {
      "type": "node",
      "id": 7924506134,
      "lat": 29.323758,
      "lon": 34.9447354,
      "timestamp": "2020-09-20T00:56:51Z",
      "version": 1,
      "changeset": 91163867,
      "user": "Seandebasti",
      "uid": 550560,
      "tags": {
        "amenity": "shelter"
      }
    },
    {
      "type": "node",
      "id": 7924506135,
      "lat": 29.3233495,
      "lon": 34.9444886,
      "timestamp": "2020-09-20T00:56:51Z",
      "version": 1,
      "changeset": 91163867,
      "user": "Seandebasti",
      "uid": 550560,
      "tags": {
        "amenity": "shelter"
      }
    },
    {
      "type": "node",
      "id": 7924506136,
      "lat": 29.3251673,
      "lon": 34.9456044,
      "timestamp": "2020-09-20T00:56:51Z",
      "version": 1,
      "changeset": 91163867,
      "user": "Seandebasti",
      "uid": 550560,
      "tags": {
        "amenity": "shelter"
      }
    },
    {
      "type": "node",
      "id": 7924506137,
      "lat": 29.324896,
      "lon": 34.9454149,
      "timestamp": "2020-09-20T00:56:51Z",
      "version": 1,
      "changeset": 91163867,
      "user": "Seandebasti",
      "uid": 550560,
      "tags": {
        "amenity": "shelter"
      }
    },
    {
      "type": "node",
      "id": 7924506138,
      "lat": 29.3254355,
      "lon": 34.9457439,
      "timestamp": "2020-09-20T00:56:51Z",
      "version": 1,
      "changeset": 91163867,
      "user": "Seandebasti",
      "uid": 550560,
      "tags": {
        "amenity": "shelter"
      }
    },
    {
      "type": "node",
      "id": 7924506139,
      "lat": 29.3257067,
      "lon": 34.9459155,
      "timestamp": "2020-09-20T00:56:51Z",
      "version": 1,
      "changeset": 91163867,
      "user": "Seandebasti",
      "uid": 550560,
      "tags": {
        "amenity": "shelter"
      }
    },
    {
      "type": "node",
      "id": 7924506140,
      "lat": 29.3259624,
      "lon": 34.9460872,
      "timestamp": "2020-09-20T00:56:51Z",
      "version": 1,
      "changeset": 91163867,
      "user": "Seandebasti",
      "uid": 550560,
      "tags": {
        "amenity": "shelter"
      }
    },
    {
      "type": "node",
      "id": 7924506141,
      "lat": 29.3262056,
      "lon": 34.9462803,
      "timestamp": "2020-09-20T00:56:51Z",
      "version": 1,
      "changeset": 91163867,
      "user": "Seandebasti",
      "uid": 550560,
      "tags": {
        "amenity": "shelter"
      }
    },
    {
      "type": "node",
      "id": 7924506407,
      "lat": 29.3007505,
      "lon": 34.941279,
      "timestamp": "2020-09-20T00:56:51Z",
      "version": 1,
      "changeset": 91163867,
      "user": "Seandebasti",
      "uid": 550560,
      "tags": {
        "amenity": "shelter"
      }
    },
    {
      "type": "node",
      "id": 7924506408,
      "lat": 29.3008645,
      "lon": 34.9419955,
      "timestamp": "2020-09-20T00:56:51Z",
      "version": 1,
      "changeset": 91163867,
      "user": "Seandebasti",
      "uid": 550560,
      "tags": {
        "amenity": "shelter"
      }
    },
    {
      "type": "node",
      "id": 7924506409,
      "lat": 29.3014499,
      "lon": 34.9414165,
      "timestamp": "2020-09-20T00:56:51Z",
      "version": 1,
      "changeset": 91163867,
      "user": "Seandebasti",
      "uid": 550560,
      "tags": {
        "amenity": "shelter"
      }
    },
    {
      "type": "node",
      "id": 7924506410,
      "lat": 29.3007643,
      "lon": 34.9393888,
      "timestamp": "2020-09-20T00:56:51Z",
      "version": 1,
      "changeset": 91163867,
      "user": "Seandebasti",
      "uid": 550560,
      "tags": {
        "amenity": "shelter"
      }
    },
    {
      "type": "node",
      "id": 7924506411,
      "lat": 29.3006542,
      "lon": 34.9387828,
      "timestamp": "2020-09-20T00:56:51Z",
      "version": 1,
      "changeset": 91163867,
      "user": "Seandebasti",
      "uid": 550560,
      "tags": {
        "amenity": "shelter"
      }
    },
    {
      "type": "node",
      "id": 7924506412,
      "lat": 29.3014676,
      "lon": 34.9402945,
      "timestamp": "2020-09-20T00:56:51Z",
      "version": 1,
      "changeset": 91163867,
      "user": "Seandebasti",
      "uid": 550560,
      "tags": {
        "amenity": "shelter"
      }
    },
    {
      "type": "node",
      "id": 7924506413,
      "lat": 29.3011926,
      "lon": 34.9388977,
      "timestamp": "2020-09-20T00:56:51Z",
      "version": 1,
      "changeset": 91163867,
      "user": "Seandebasti",
      "uid": 550560,
      "tags": {
        "amenity": "shelter"
      }
    },
    {
      "type": "node",
      "id": 7924506414,
      "lat": 29.3012142,
      "lon": 34.9406617,
      "timestamp": "2020-09-20T00:56:51Z",
      "version": 1,
      "changeset": 91163867,
      "user": "Seandebasti",
      "uid": 550560,
      "tags": {
        "amenity": "shelter"
      }
    },
    {
      "type": "node",
      "id": 7924506415,
      "lat": 29.3008173,
      "lon": 34.9401638,
      "timestamp": "2020-09-20T00:56:51Z",
      "version": 1,
      "changeset": 91163867,
      "user": "Seandebasti",
      "uid": 550560,
      "tags": {
        "amenity": "shelter"
      }
    },
    {
      "type": "node",
      "id": 7924506416,
      "lat": 29.3005167,
      "lon": 34.9403283,
      "timestamp": "2020-09-20T00:56:51Z",
      "version": 1,
      "changeset": 91163867,
      "user": "Seandebasti",
      "uid": 550560,
      "tags": {
        "amenity": "shelter"
      }
    },
    {
      "type": "node",
      "id": 7924506417,
      "lat": 29.3004047,
      "lon": 34.9398777,
      "timestamp": "2020-09-20T00:56:51Z",
      "version": 1,
      "changeset": 91163867,
      "user": "Seandebasti",
      "uid": 550560,
      "tags": {
        "amenity": "shelter"
      }
    },
    {
      "type": "node",
      "id": 7924506418,
      "lat": 29.3005933,
      "lon": 34.9408915,
      "timestamp": "2020-09-20T00:56:51Z",
      "version": 1,
      "changeset": 91163867,
      "user": "Seandebasti",
      "uid": 550560,
      "tags": {
        "amenity": "shelter"
      }
    },
    {
      "type": "node",
      "id": 7924506419,
      "lat": 29.300336,
      "lon": 34.9410988,
      "timestamp": "2020-09-20T00:56:51Z",
      "version": 1,
      "changeset": 91163867,
      "user": "Seandebasti",
      "uid": 550560,
      "tags": {
        "amenity": "shelter"
      }
    },
    {
      "type": "node",
      "id": 7924506420,
      "lat": 29.3003733,
      "lon": 34.9415787,
      "timestamp": "2020-09-20T00:56:51Z",
      "version": 1,
      "changeset": 91163867,
      "user": "Seandebasti",
      "uid": 550560,
      "tags": {
        "amenity": "shelter"
      }
    },
    {
      "type": "node",
      "id": 7924506421,
      "lat": 29.3014598,
      "lon": 34.9419955,
      "timestamp": "2020-09-20T00:56:51Z",
      "version": 1,
      "changeset": 91163867,
      "user": "Seandebasti",
      "uid": 550560,
      "tags": {
        "amenity": "shelter"
      }
    },
    {
      "type": "node",
      "id": 7924506422,
      "lat": 29.3010295,
      "lon": 34.9417589,
      "timestamp": "2020-09-20T00:56:51Z",
      "version": 1,
      "changeset": 91163867,
      "user": "Seandebasti",
      "uid": 550560,
      "tags": {
        "amenity": "shelter"
      }
    },
    {
      "type": "node",
      "id": 7924506423,
      "lat": 29.3012554,
      "lon": 34.9411844,
      "timestamp": "2020-09-20T00:56:51Z",
      "version": 1,
      "changeset": 91163867,
      "user": "Seandebasti",
      "uid": 550560,
      "tags": {
        "amenity": "shelter"
      }
    },
    {
      "type": "node",
      "id": 7924506424,
      "lat": 29.3014382,
      "lon": 34.9427006,
      "timestamp": "2020-09-20T00:56:51Z",
      "version": 1,
      "changeset": 91163867,
      "user": "Seandebasti",
      "uid": 550560,
      "tags": {
        "amenity": "shelter"
      }
    },
    {
      "type": "node",
      "id": 7924506434,
      "lat": 29.3009745,
      "lon": 34.9423311,
      "timestamp": "2020-09-20T00:56:51Z",
      "version": 1,
      "changeset": 91163867,
      "user": "Seandebasti",
      "uid": 550560,
      "tags": {
        "amenity": "shelter"
      }
    },
    {
      "type": "node",
      "id": 7924506435,
      "lat": 29.3015737,
      "lon": 34.9431039,
      "timestamp": "2020-09-20T00:56:51Z",
      "version": 1,
      "changeset": 91163867,
      "user": "Seandebasti",
      "uid": 550560,
      "tags": {
        "amenity": "shelter"
      }
    },
    {
      "type": "node",
      "id": 7924506436,
      "lat": 29.3015364,
      "lon": 34.9433067,
      "timestamp": "2020-09-20T00:56:51Z",
      "version": 1,
      "changeset": 91163867,
      "user": "Seandebasti",
      "uid": 550560,
      "tags": {
        "amenity": "shelter"
      }
    },
    {
      "type": "node",
      "id": 7924506445,
      "lat": 29.3012378,
      "lon": 34.9400805,
      "timestamp": "2020-09-20T00:56:51Z",
      "version": 1,
      "changeset": 91163867,
      "user": "Seandebasti",
      "uid": 550560,
      "tags": {
        "amenity": "shelter"
      }
    },
    {
      "type": "node",
      "id": 7924506470,
      "lat": 29.3012653,
      "lon": 34.9417995,
      "timestamp": "2020-09-20T00:56:51Z",
      "version": 1,
      "changeset": 91163867,
      "user": "Seandebasti",
      "uid": 550560,
      "tags": {
        "amenity": "shelter"
      }
    },
    {
      "type": "node",
      "id": 7924506504,
      "lat": 29.3293707,
      "lon": 34.9476814,
      "timestamp": "2020-09-20T00:56:51Z",
      "version": 1,
      "changeset": 91163867,
      "user": "Seandebasti",
      "uid": 550560,
      "tags": {
        "amenity": "shelter"
      }
    },
    {
      "type": "node",
      "id": 7924506505,
      "lat": 29.3290652,
      "lon": 34.947567,
      "timestamp": "2020-09-20T00:56:51Z",
      "version": 1,
      "changeset": 91163867,
      "user": "Seandebasti",
      "uid": 550560,
      "tags": {
        "amenity": "shelter"
      }
    },
    {
      "type": "node",
      "id": 8960306792,
      "lat": 29.5287382,
      "lon": 35.0019441,
      "timestamp": "2021-07-29T14:53:37Z",
      "version": 1,
      "changeset": 108832970,
      "user": "roadscarf",
      "uid": 4240291,
      "tags": {
        "amenity": "drinking_water"
      }
    },
    {
      "type": "node",
      "id": 9735534558,
      "lat": 29.4934726,
      "lon": 34.9054446,
      "timestamp": "2022-05-12T17:43:24Z",
      "version": 1,
      "changeset": 120900105,
      "user": "thumbsup",
      "uid": 6508691,
      "tags": {
        "description": "One of the three areas on the southern beach where camping is allowed. Toilets and drinking water at the border crossing next to it. Expect noise from the vehicles, people that go to/come from the border and a nearby club. Less crowded part of the beach.",
        "fee": "no",
        "name": "free camping area",
        "tourism": "camp_site"
      }
    },
    {
      "type": "node",
      "id": 9735565219,
      "lat": 29.4921008,
      "lon": 34.9041803,
      "timestamp": "2022-05-12T17:43:48Z",
      "version": 1,
      "changeset": 120900131,
      "user": "thumbsup",
      "uid": 6508691,
      "tags": {
        "amenity": "drinking_water"
      }
    },
    {
      "type": "node",
      "id": 9750846803,
      "lat": 29.4981044,
      "lon": 34.9126774,
      "timestamp": "2022-05-18T05:57:56Z",
      "version": 1,
      "changeset": 121127092,
      "user": "thumbsup",
      "uid": 6508691,
      "tags": {
        "fee": "no",
        "name": "free camping area",
        "tourism": "camp_site"
      }
    },
    {
      "type": "node",
      "id": 9801186736,
      "lat": 29.3822697,
      "lon": 35.0317216,
      "timestamp": "2022-06-07T09:25:45Z",
      "version": 1,
      "changeset": 122062418,
      "user": "Nortap",
      "uid": 939483,
      "tags": {
        "name": "Bedouin",
        "place": "hamlet",
        "population": "Bedouin"
      }
    },
    {
      "type": "node",
      "id": 9801186737,
      "lat": 29.4030383,
      "lon": 35.0371928,
      "timestamp": "2022-06-07T09:25:45Z",
      "version": 1,
      "changeset": 122062418,
      "user": "Nortap",
      "uid": 939483,
      "tags": {
        "name": "Bedouin",
        "place": "hamlet",
        "population": "Bedouin"
      }
    },
    {
      "type": "way",
      "id": 99878279,
      "timestamp": "2011-02-15T17:37:52Z",
      "version": 1,
      "changeset": 7296994,
      "user": "Esperanza36",
      "uid": 83557,
      "center": {
        "lat": 29.1926716,
        "lon": 34.7278467
      },
      "nodes": [],
      "tags": {
        "name": "Crazy Horse",
        "tourism": "camp_site"
      }
    },
    {
      "type": "way",
      "id": 99878288,
      "timestamp": "2019-01-21T04:16:26Z",
      "version": 3,
      "changeset": 66492120,
      "user": "KS_RS",
      "uid": 8329704,
      "center": {
        "lat": 29.2071406,
        "lon": 34.7353741
      },
      "nodes": [],
      "tags": {
        "name": "Basata Camp",
        "tourism": "camp_site"
      }
    },
    {
      "type": "way",
      "id": 308447979,
      "timestamp": "2020-01-21T09:34:42Z",
      "version": 2,
      "changeset": 79845197,
      "user": "BMM994",
      "uid": 189946,
      "center": {
        "lat": 29.5101493,
        "lon": 34.9214258
      },
      "nodes": [],
      "tags": {
        "tourism": "camp_site"
      }
    },
    {
      "type": "way",
      "id": 308447982,
      "timestamp": "2020-01-21T09:34:42Z",
      "version": 3,
      "changeset": 79845197,
      "user": "BMM994",
      "uid": 189946,
      "center": {
        "lat": 29.5102502,
        "lon": 34.9222005
      },
      "nodes": [],
      "tags": {
        "building": "yes",
        "name": "סופר השמורה",
        "name:he": "סופר השמורה",
        "shop": "convenience"
      }
    },
    {
      "type": "way",
      "id": 324947465,
      "timestamp": "2018-05-25T00:45:33Z",
      "version": 2,
      "changeset": 59256186,
      "user": "Esperanza36",
      "uid": 83557,
      "center": {
        "lat": 29.128153,
        "lon": 34.6847425
      },
      "nodes": [],
      "tags": {
        "tourism": "camp_site"
      }
    },
    {
      "type": "way",
      "id": 324947466,
      "timestamp": "2018-05-25T00:45:34Z",
      "version": 2,
      "changeset": 59256186,
      "user": "Esperanza36",
      "uid": 83557,
      "center": {
        "lat": 29.1067538,
        "lon": 34.6753186
      },
      "nodes": [],
      "tags": {
        "tourism": "camp_site"
      }
    },
    {
      "type": "way",
      "id": 324947469,
      "timestamp": "2018-12-28T12:33:11Z",
      "version": 3,
      "changeset": 65840329,
      "user": "Rhabarbara17",
      "uid": 9192311,
      "center": {
        "lat": 29.1086313,
        "lon": 34.6770105
      },
      "nodes": [],
      "tags": {
        "tourism": "camp_site"
      }
    },
    {
      "type": "way",
      "id": 324947470,
      "timestamp": "2018-05-25T00:45:33Z",
      "version": 3,
      "changeset": 59256186,
      "user": "Esperanza36",
      "uid": 83557,
      "center": {
        "lat": 29.1676366,
        "lon": 34.6945892
      },
      "nodes": [],
      "tags": {
        "tourism": "camp_site"
      }
    },
    {
      "type": "way",
      "id": 324947473,
      "timestamp": "2018-05-25T00:45:33Z",
      "version": 2,
      "changeset": 59256186,
      "user": "Esperanza36",
      "uid": 83557,
      "center": {
        "lat": 29.1641957,
        "lon": 34.6923371
      },
      "nodes": [],
      "tags": {
        "tourism": "camp_site"
      }
    },
    {
      "type": "way",
      "id": 324947479,
      "timestamp": "2018-05-25T00:45:33Z",
      "version": 2,
      "changeset": 59256186,
      "user": "Esperanza36",
      "uid": 83557,
      "center": {
        "lat": 29.1655114,
        "lon": 34.6932991
      },
      "nodes": [],
      "tags": {
        "tourism": "camp_site"
      }
    },
    {
      "type": "way",
      "id": 658671363,
      "timestamp": "2018-12-28T08:18:58Z",
      "version": 1,
      "changeset": 65834192,
      "user": "КузнецовСС",
      "uid": 6704381,
      "center": {
        "lat": 29.4137256,
        "lon": 34.9778374
      },
      "nodes": [],
      "tags": {
        "amenity": "shelter",
        "building": "yes",
        "shelter_type": "gazebo"
      }
    },
    {
      "type": "way",
      "id": 665801711,
      "timestamp": "2019-01-24T10:22:53Z",
      "version": 1,
      "changeset": 66596637,
      "user": "t_pienn",
      "uid": 2848708,
      "center": {
        "lat": 29.4315118,
        "lon": 34.9752111
      },
      "nodes": [],
      "tags": {
        "amenity": "shelter",
        "bench": "yes",
        "building": "yes",
        "shelter_type": "sun_shelter"
      }
    },
    {
      "type": "way",
      "id": 665801712,
      "timestamp": "2019-01-24T10:22:53Z",
      "version": 1,
      "changeset": 66596637,
      "user": "t_pienn",
      "uid": 2848708,
      "center": {
        "lat": 29.4314606,
        "lon": 34.9752872
      },
      "nodes": [],
      "tags": {
        "amenity": "shelter",
        "bench": "yes",
        "bin": "yes",
        "building": "yes",
        "shelter_type": "sun_shelter"
      }
    },
    {
      "type": "way",
      "id": 665801715,
      "timestamp": "2019-01-24T10:22:54Z",
      "version": 1,
      "changeset": 66596637,
      "user": "t_pienn",
      "uid": 2848708,
      "center": {
        "lat": 29.4313851,
        "lon": 34.9752971
      },
      "nodes": [],
      "tags": {
        "amenity": "shelter",
        "bench": "yes",
        "building": "yes",
        "shelter_type": "sun_shelter"
      }
    },
    {
      "type": "way",
      "id": 1001006712,
      "timestamp": "2021-11-10T06:56:37Z",
      "version": 1,
      "changeset": 113594518,
      "user": "pluton_od",
      "uid": 2411240,
      "center": {
        "lat": 29.4091738,
        "lon": 34.9796804
      },
      "nodes": [],
      "tags": {
        "building:part": "retail",
        "duty_free": "yes",
        "name": "Duty Free Shop",
        "shop": "supermarket"
      }
    }
  ]
}